,station,lat,lon,time,weather,weatherfont,weathersymbol,weathercolour,temperature,pressure,sl_pressure,dewpoint,windspeed,winddir,visibility,visual_range,cloudcover,pressure3h_change,rain,wwletter
751,EGNS,54.0833015442,-4.6238899231,2023-09-17 23:50:00,63.0,36.0,',green,16.0,1000.0,1113.655305261249,16.0,12.0,110.0,8000.0,99999,6.0,109.55530526124892,0.0,111406111210160201603000041136511095600007630086000
809,LGKL,37.0682983398,22.0254993439,2023-09-17 23:50:00,,,,,20.0,1015.0,1060.5151888993098,17.0,7.0,340.0,10000.0,99999,,44.515188899309805,0.0,11160034071020020170301504060551445600007000080000
811,LGLM,39.917098999,25.2362995148,2023-09-17 23:50:00,,,,,22.0,1016.0,1038.1957021707879,19.0,11.0,50.0,10000.0,99999,,20.8957021707879,0.0,11160005111022020190301604038151208600007000080000
813,LGSM,37.6899986267,26.911699295,2023-09-17 23:50:00,,,,,24.0,1010.0,1037.4803275291556,17.0,9.0,40.0,10000.0,99999,,26.180327529155647,0.0,11160004091024020170301004037451261600007000080000
831,LGAL,40.8558998108,25.9563007355,2023-09-17 23:50:00,,,,,21.0,1019.0,1059.1257825276987,14.0,9.0,30.0,10000.0,99999,1.0,40.02578252769865,0.0,11160103091021020140301904059151400600007000081000
832,LGMK,37.4351005554,25.3481006622,2023-09-17 23:50:00,,,,,22.0,1012.0,1725.8381660367936,18.0,18.0,10.0,10000.0,99999,1.0,713.8381660367936,0.0,111601011810220201803012047258517138600007000081000
945,ETNG,50.9608001709,6.0424199104,2023-09-17 23:50:00,,,,,21.0,1007.0,1538.2650689491659,18.0,4.0,120.0,10000.0,99999,,529.1650689491659,0.0,111600120410210201803007045382515291600007000080000
1015,LGBL,39.2196006775,22.7943000793,2023-09-17 23:50:00,,,,,19.0,1018.0,1174.7117848470377,16.0,4.0,250.0,10000.0,99999,,156.6117848470377,0.0,111600250410190201603018041747511566600007000080000
1016,LGLR,39.6562825886,22.3400008678,2023-09-17 23:50:00,,,,,18.0,1018.0,1526.1075355748785,15.0,0.0,0.0,10000.0,99999,,507.6075355748785,0.0,111600000010180201503018045261515076600007000080000
1020,LGTG,38.3398017883,23.5650005341,2023-09-17 23:50:00,,,,,20.0,1018.0,1991.5903202650475,14.0,0.0,0.0,10000.0,99999,1.0,973.7903202650475,0.0,111601000010200201403018049915519737600007000081000
1024,EGHH,50.7799987793,-1.8424999714,2023-09-17 23:50:00,95.0,36.0,2,red,16.0,1002.0,1084.7160744046928,15.0,5.0,310.0,10000.0,99999,1.0,79.51607440469274,0.2,11160131051016020150300204084751795600207950081000
1025,EGJB,49.4350013733,-2.6019699574,2023-09-17 23:50:00,,,,,16.0,1005.0,1824.4089299171385,15.0,9.0,260.0,10000.0,99999,1.0,818.0089299171385,0.0,111601260910160201503005048244518180600007000081000
1034,LGPZ,38.9254989624,20.7653007507,2023-09-17 23:50:00,,,,,23.0,1016.0,1032.662102776788,19.0,9.0,40.0,10000.0,99999,,16.66210277678806,0.0,11160004091023020190301604032651166600007000080000
1123,LTAY,37.7855987549,29.7012996674,2023-09-17 23:50:00,,,,,18.0,1016.0,8632.43941241951,6.0,10.0,80.0,10000.0,99999,,7619.03941241951,0.0,111600081010180206030160463245176190600007000080000
1126,LTBH,40.1376991272,26.4267997742,2023-09-17 23:50:00,,,,,20.0,1017.0,1057.2993889499035,13.0,12.0,80.0,10000.0,99999,,39.69938894990344,0.0,11160008121020020130301704057251396600007000080000
1128,LTBY,39.8098983765,30.5193996429,2023-09-17 23:50:00,,,,,13.0,1018.0,10.689918033062963,11.0,8.0,250.0,10000.0,99999,,0.0,0.0,1116002508101302011030180410651000600007000080000
1130,LTCB,40.966667,38.08,2023-09-17 23:50:00,,,,,19.0,1017.0,1050.1502066140624,13.0,8.0,210.0,10000.0,99999,3.0,36.550206614062404,0.0,11160321081019020130301704050151365600007000083000
1134,LTCN,37.5388259888,36.9535217285,2023-09-17 23:50:00,,,,,19.0,1009.0,5297.280812395323,13.0,2.0,,10000.0,99999,,4288.680812395322,0.0,1116003602101902013030090429725142886600007000080000
1135,LTCT,39.9766273499,43.8766479492,2023-09-17 23:50:00,,,,,18.0,1015.0,9.436163751582683,5.0,13.0,310.0,10000.0,99999,1.0,0.0,0.0,11160131131018020503015049451000600007000081000
1136,LTDA,36.36277771,36.2822227478,2023-09-17 23:50:00,,,,,23.0,1007.0,1441.747274062141,19.0,8.0,270.0,10000.0,99999,,434.14727406214104,0.0,111600270810230201903007044417514341600007000080000
1137,LTFD,39.554599762,27.0137996674,2023-09-17 23:50:00,,,,,21.0,1015.0,1099.0027468431588,13.0,16.0,70.0,10000.0,99999,,84.00274684315877,0.0,11160007161021020130301504099051840600007000080000
1138,LTFG,36.2992172241,32.3005981445,2023-09-17 23:50:00,,,,,20.0,1008.0,1160.6711718760182,10.0,4.0,90.0,10000.0,99999,,151.6711718760182,0.0,111600090410200201003008041606511516600007000080000
1162,LTBD,37.8149986267,27.8952999115,2023-09-17 23:50:00,,,,,19.0,1011.0,1203.5488704529691,14.0,0.0,0.0,10000.0,99999,,192.54887045296914,0.0,111600000010190201403011042035511925600007000080000
1194,LBPG,42.2904014587,24.7140007019,2023-09-18 00:00:00,,,,,19.0,1021.0,1394.0654006677419,14.0,8.0,80.0,10000.0,99999,6.0,373.06540066774187,0.0,111606080810190201403021043940513730600007000086000
1195,LBPL,43.4514007568,24.5027999878,2023-09-18 00:00:00,,,,,17.0,1021.0,1784.3570234894198,14.0,2.0,70.0,10000.0,99999,6.0,764.3570234894198,0.0,111606070210170201403021047843517643600007000086000
1228,ETEK,49.6502990723,7.300069809,2023-09-17 23:55:00,,,,,19.9,29.84,1029.84,15.1,6.0,100.0,10000.0,99999,7.0,18.43999999999994,0.0,1116071006101982015832984029851184600007000087000
1237,ETIC,49.6986999512,11.940199852,2023-09-17 23:55:00,,,,,12.6,29.93,6336.711218395376,11.7,0.0,0.0,10000.0,99999,,5321.811218395376,0.0,111600000010125201153299433675153218600007000080000
1432,LTAB,39.9350013733,32.7407989502,2023-09-17 23:50:00,,,,,16.0,1018.0,9.258734306474881,8.0,4.0,110.0,10000.0,99999,,-1007.141265693525,0.0,1116001104101602080301804925110078600007000080000
1434,LTAD,39.949798584,32.6885986328,2023-09-17 23:50:00,,,,,15.0,1019.0,9.688612853884388,7.0,3.0,160.0,10000.0,99999,,-1006.7113871461156,0.0,1116001603101502070301904965110062600007000080000
1437,LTAR,39.8138008118,36.9034996033,2023-09-17 23:50:00,,,,,5.0,1020.0,27.54277658021641,4.0,6.0,340.0,10000.0,99999,,-992.4572234197835,0.0,1116003406100502040302004275519925600007000080000
1440,LTBF,39.6193008423,27.9260005951,2023-09-17 23:50:00,,,,,18.0,1017.0,1754.8978503544033,13.0,10.0,360.0,10000.0,99999,,738.0978503544034,0.0,111600361010180201303017047548517380600007000080000
1441,LTBG,40.3180007935,27.9776992798,2023-09-17 23:50:00,,,,,20.0,1017.0,1329.9450463948467,13.0,13.0,80.0,10000.0,99999,3.0,312.3450463948467,0.0,111603081310200201303017043299513123600007000083000
1442,LTBI,39.7840995789,30.5820999146,2023-09-17 23:50:00,,,,,13.0,1018.0,10.666006526978277,12.0,7.0,240.0,10000.0,99999,,-1007.4339934730217,0.0,111600240710130201203018041065110075600007000080000
1465,EGQL,56.3728981018,-2.8684399128,2023-09-17 23:50:00,61.0,36.0,^,green,14.0,1003.0,1097.8520686004204,13.0,11.0,140.0,10000.0,99999,3.0,90.85206860042035,0.3,11160314111014020130300304097851908600307610083000
1466,EGQS,57.7052001953,-3.3391699791,2023-09-17 23:50:00,61.0,36.0,^,green,13.0,1002.0,1115.193704719743,12.0,11.0,160.0,10000.0,99999,6.0,109.19370471974298,1.1,111606161110130201203002041151511091601107610086000
1527,EEEI,59.2602996826,24.2084999084,2023-09-17 23:50:00,,,,,4.0,1023.0,1652.6870033056139,4.0,2.0,,10000.0,99999,1.0,631.0870033056138,0.0,11160136021004020403023046526516310600007000081000
1640,LTAE,40.0788993835,32.5656013489,2023-09-17 23:50:00,,,,,14.0,1018.0,10.626169660548367,7.0,8.0,340.0,10000.0,99999,,-1006.0738303394517,0.0,11160034081014020703018041065110069600007000080000
1641,LTAN,37.9790000916,32.5619010925,2023-09-17 23:50:00,,,,,14.0,1018.0,12.4811290067189,6.0,8.0,350.0,10000.0,99999,,-1002.2188709932811,0.0,11160035081014020603018041245110027600007000080000
1642,LTBL,38.5130004883,27.010099411,2023-09-17 23:50:00,,,,,22.0,1012.0,1037.2832948401722,13.0,10.0,340.0,10000.0,99999,,25.283294840172175,0.0,11160034101022020130301204037251252600007000080000
1643,LTBQ,40.7350006104,30.0832996368,2023-09-17 23:50:00,,,,,12.0,1018.0,1599.369509308294,12.0,0.0,0.0,10000.0,99999,6.0,580.369509308294,0.0,111606000010120201203018045993515803600007000086000
1644,LTCA,38.6068992615,39.2914009094,2023-09-17 23:50:00,,,,,13.0,1012.0,11.742864420498867,2.0,4.0,250.0,10000.0,99999,,-1000.2571355795011,0.0,11160025041013020203012041175110007600007000080000
1646,LTCI,38.4682006836,43.3322982788,2023-09-17 23:50:00,,,,,11.0,1018.0,20.12166951467644,4.0,4.0,60.0,10000.0,99999,,-988.2783304853235,0.0,1116000604101102040301804201519887600007000080000
1777,UUMO,55.5116996765,37.5071983337,2023-09-18 00:00:00,45.0,36.0,N,yellow,5.0,1022.0,6571.643560712617,5.0,1.0,200.0,550.0,99999,,5548.143560712617,0.0,111000200110050205030220457165155481600007450080000
2151,URMN,43.5129013062,43.6366004944,2023-09-18 00:00:00,,,,,12.0,1020.0,6981.060123466729,10.0,3.0,260.0,10000.0,99999,6.0,5959.060123466729,0.0,1116062603101202010030200498105159590600007000086000
2164,UWLW,54.4010009766,48.8027000427,2023-09-18 00:00:00,,,,,9.0,1022.0,2169.8123838025713,9.0,2.0,230.0,6000.0,99999,,1146.8123838025713,0.0,111300230210090209030220416985111468600007000080000
2302,LGHI,38.3432006836,26.1406002045,2023-09-17 23:50:00,,,,,24.0,1012.0,1033.7117369537134,16.0,14.0,10.0,10000.0,99999,,21.011736953713353,0.0,11160001141024020160301204033751210600007000080000
2306,LKKB,50.1213989258,14.5436000824,2023-09-18 00:00:00,,,,,16.0,1015.0,3657.3313095828375,13.0,4.0,70.0,10000.0,99999,,0.0,0.0,11160007041016020130301504657351000600007000080000
2307,LKKV,50.202999115,12.9149999619,2023-09-18 00:00:00,,,,,14.0,1016.0,7982.283662157639,10.0,4.0,130.0,10000.0,99999,,6967.083662157639,0.0,1116001304101402010030160498225169670600007000080000
2308,LKLN,49.675201416,13.274600029,2023-09-18 00:00:00,,,,,15.0,1015.0,4724.975226353027,12.0,2.0,,10000.0,99999,,3708.975226353027,0.0,1116003602101502012030150472495137089600007000080000
2313,LOXZ,47.2028007507,14.7441997528,2023-09-17 23:50:00,,,,,12.0,1020.0,10.074827531099876,10.0,1.0,290.0,10000.0,99999,2.0,-1010.0251724689001,0.0,111602290110120201003020041005110109600007000082000
2323,LTCD,39.7102012634,39.5270004272,2023-09-17 23:50:00,,,,,11.0,1017.0,16.0905954976542,7.0,2.0,,10000.0,99999,,-1000.9094045023458,0.0,11160036021011020703017041605110000600007000080000
2324,LTCF,40.5621986389,43.1150016785,2023-09-17 23:50:00,,,,,7.0,1020.0,25.553420055591427,4.0,10.0,80.0,10000.0,99999,,-991.1465799444086,0.0,1116000810100702040302004255519918600007000080000
2327,LTFH,41.2545013428,36.5671005249,2023-09-17 23:50:00,,,,,19.0,1018.0,1051.1828026874293,13.0,9.0,280.0,10000.0,99999,1.0,0.0,0.0,11160128091019020130301804051151000600007000081000
2356,EIME,53.301700592,-6.4513301849,2023-09-18 00:00:00,,,,,14.0,1001.0,1894.3068777840951,14.0,7.0,260.0,4000.0,99999,4.0,891.3068777840951,1.1,111204260710140201403001048943518913601107000084000
2372,LPBJ,38.0788993835,-7.9324002266,2023-09-18 00:00:00,,,,,17.0,1017.0,2601.41691548836,17.0,7.0,190.0,10000.0,99999,,1585.6169154883598,0.0,1116001907101702017030170460145115856600007000080000
2388,LICT,37.9113998413,12.4879999161,2023-09-17 23:55:00,,,,,23.0,1018.0,1056.110341434302,16.0,4.0,130.0,10000.0,99999,,38.01034143430195,0.0,11160013041023020160301804056151380600007000080000
2391,LIBA,41.5414009094,15.7180995941,2023-09-17 23:55:00,,,,,21.0,1018.0,1339.5811023233916,18.0,4.0,290.0,10000.0,99999,,320.7811023233917,0.0,111600290410210201803018043395513207600007000080000
2393,LIBN,40.239200592,18.1333007813,2023-09-17 23:55:00,,,,,20.0,1018.0,1304.1875689758126,19.0,4.0,270.0,10000.0,99999,,285.88756897581266,0.0,111600270410200201903018043041512858600007000080000
2396,LIED,39.3541984558,8.9724798203,2023-09-17 23:55:00,,,,,23.0,1015.0,1170.4916304876695,21.0,3.0,350.0,10000.0,99999,,153.99163048766945,0.0,111600350310230202103015041704511539600007000080000
2397,LIPC,44.2242012024,12.3072004318,2023-09-17 23:55:00,,,,,21.0,1018.0,1048.0029966261545,18.0,2.0,260.0,10000.0,99999,,30.002996626154527,0.0,11160026021021020180301804048051300600007000080000
2399,LIPI,45.9786987305,13.0493001938,2023-09-17 23:55:00,,,,,20.0,1018.0,1348.7654295860598,17.0,99999.0,,10000.0,99999,,330.2654295860598,0.0,111600369999910200201703018043487513302600007000080000
2401,LIPL,45.4322013855,10.2677001953,2023-09-17 23:55:00,,,,,20.0,1018.0,1661.4247022863046,20.0,6.0,70.0,10000.0,99999,1.0,643.9247022863046,0.0,111601070610200202003018046614516439600007000081000
2403,LIPS,45.6848983765,12.0829000473,2023-09-17 23:55:00,,,,,20.0,1017.0,1266.559652348792,18.0,2.0,30.0,7000.0,99999,,247.65965234879206,0.0,111400030210200201803017042665512476600007000080000
2405,LIRE,41.654499054,12.4451999664,2023-09-17 23:55:00,,,,,23.0,1018.0,1080.8124208201255,19.0,2.0,,10000.0,99999,1.0,62.31242082012545,0.0,11160136021023020190301804080851623600007000081000
2406,LIRS,42.7597007751,11.0719003677,2023-09-17 23:55:00,,,,,18.0,1017.0,1050.0471944765377,16.0,5.0,10.0,10000.0,99999,,32.24719447653774,0.0,11160001051018020160301704050051322600007000080000
2420,LIRM,41.060798645,14.0818996429,2023-09-17 23:55:00,,,,,20.0,1019.0,1070.0217262713861,19.0,2.0,210.0,10000.0,99999,,52.021726271386115,0.0,11160021021020020190301904070051520600007000080000
2426,ETIH,49.2181015015,11.8360996246,2023-09-17 23:55:00,,,,,12.7,29.95,6673.558929953719,11.4,0.0,0.0,10000.0,99999,,5658.658929953719,0.0,111600000010126201163299467355156586600007000080000
2427,ETIK,49.4738998413,10.3880996704,2023-09-17 23:55:00,,,,,18.9,29.88,3627.9014542110795,14.6,5.0,70.0,10000.0,99999,,2614.6014542110797,0.0,111600070510188201483298462795126146600007000080000
2430,ETAR,49.4369010925,7.600279808,2023-09-17 23:55:00,,,,,15.6,29.79,3249.622633113193,15.1,0.0,0.0,10000.0,99999,,2238.722633113193,0.0,111600000010155201553297424965122387600007000080000
2431,ETOU,50.0498008728,8.3254003525,2023-09-17 23:55:00,,,,,20.8,29.8,1921.0277518484168,16.2,6.0,60.0,10000.0,99999,,910.0277518484168,0.0,11160006061020820168329849210519100600007000080000
2433,UMGG,52.5270004272,31.0167007446,2023-09-18 00:00:00,,,,,10.0,1023.0,3099.920047206288,9.0,4.0,160.0,10000.0,99999,,2075.520047206288,0.0,111600160410100209030230409995120755600007000080000
2439,EGVA,51.6822013855,-1.7900300026,2023-09-18 00:05:00,,,,,17.0,29.58,1687.7203632690557,17.0,5.0,320.0,4000.0,99999,5.0,683.7203632690557,0.4,11120532051017020170329546877516837600407000085000
2448,LPMR,39.831199646,-8.887260437,2023-09-18 00:00:00,,,,,17.0,1015.0,1425.4343150342415,16.0,6.0,180.0,10000.0,99999,3.0,411.6343150342416,0.1,111603180610170201603015044254514116600107000083000
2449,LPMT,38.7038993835,-9.0359201431,2023-09-18 00:00:00,,,,,18.0,1016.0,1106.362338970226,14.0,7.0,280.0,10000.0,99999,2.0,91.36233897022589,0.0,11160228071018020140301604106351913600007000082000
2452,LICZ,37.4016990662,14.9224004745,2023-09-17 23:55:00,,,,,24.0,1018.0,1135.2181888474588,24.0,4.0,270.0,10000.0,99999,3.0,116.61818884745878,0.0,111603270410240202403018041352511166600007000083000
2472,ULOO,57.7839012146,28.3955993652,2023-09-18 00:00:00,45.0,36.0,N,yellow,6.0,1021.0,2061.2755154468487,6.0,0.0,0.0,200.0,99999,,1040.8755154468486,0.0,111000000010060206030210406125110408600007450080000
2473,ULPB,61.8852005005,34.1547012329,2023-09-18 00:00:00,,,,,10.0,1013.0,1588.7582292216953,8.0,6.0,270.0,10000.0,99999,,578.7582292216953,0.0,11160027061010020803013045887515787600007000080000
2484,ETAD,49.9726982117,6.6925001144,2023-09-17 23:55:00,,,,,17.6,29.77,4199.778191570353,16.1,6.0,80.0,10000.0,99999,,3188.578191570353,0.0,111600080610176201663297419975131885600007000080000
2493,EGUL,52.4093017578,0.5609999895,2023-09-18 00:14:00,,,,,18.0,29.6,1092.9538252892817,18.0,4.0,130.0,9000.0,99999,8.0,87.95382528928167,0.0,1115081304101802018032964092951879600007000088000
2494,LATI,41.4146995544,19.7206001282,2023-09-18 00:20:00,,,,,17.0,1018.0,1289.2703000318493,16.0,3.0,170.0,10000.0,99999,,272.2703000318493,0.0,111600170310170201603018042892512722600007000080000
2502,EVGA,56.778301239,24.8539009094,2023-09-18 00:20:00,,,,,12.0,1021.0,1667.024843567434,11.0,4.0,30.0,10000.0,99999,1.0,645.8248435674338,0.0,111601030410120201103021046670516458600007000081000
2541,EVVA,57.35779953,21.5442008972,2023-09-18 00:20:00,,,,,8.0,1022.0,1106.3670938538883,7.0,3.0,40.0,10000.0,99999,,0.0,0.0,1116000403100802070302204106351000600007000080000
2555,LSZC,46.9744444444,8.3969444444,2023-09-18 00:20:00,,,,,17.0,1013.0,5112.558299491237,13.0,5.0,220.0,10000.0,99999,1.0,4099.858299491238,0.0,1116012205101702013030130411255140998600007000081000
2602,LSMA,46.943901062,8.2841701508,2023-09-18 00:20:00,,,,,16.0,1013.0,5347.968439483438,14.0,4.0,220.0,10000.0,99999,1.0,4333.568439483438,0.0,1116012204101602014030130434795143335600007000081000
2603,LSMD,47.398601532,8.648229599,2023-09-18 00:20:00,,,,,18.0,1012.0,4840.224268119595,15.0,2.0,,10000.0,99999,2.0,3828.624268119595,0.0,1116023602101802015030120484025138286600007000082000
2604,LSME,47.0923995972,8.3051204681,2023-09-18 00:20:00,,,,,18.0,1012.0,4636.565377907524,16.0,2.0,,10000.0,99999,2.0,3623.6653779075236,0.0,1116023602101802016030120463655136236600007000082000
2605,LSMP,46.8432006836,6.9150600433,2023-09-18 00:20:00,,,,,18.0,1013.0,4830.436314739285,16.0,0.0,0.0,10000.0,99999,6.0,3818.136314739285,0.0,1116060000101802016030130483045138181600007000086000
2688,ESGT,58.3180999756,12.345000267,2023-09-18 00:20:00,,,,,13.0,1018.0,1411.2820474719783,11.0,7.0,110.0,10000.0,99999,8.0,391.4820474719784,0.0,111608110710130201103018044112513914600007000088000
2689,ESMQ,56.6855010986,16.2875995636,2023-09-18 00:20:00,,,,,14.0,1020.0,1062.6973722797786,13.0,7.0,80.0,10000.0,99999,3.0,41.69737227977862,0.0,11160308071014020130302004062651416600007000083000
2690,ESMT,56.6911010742,12.8201999664,2023-09-18 00:20:00,,,,,14.0,1017.0,1280.4493228947429,12.0,10.0,110.0,10000.0,99999,1.0,262.0493228947429,0.0,111601111010140201203017042804512620600007000081000
2691,ESTA,56.2961006165,12.8471002579,2023-09-18 00:20:00,,,,,15.0,1016.0,1178.4893796815884,13.0,17.0,100.0,10000.0,99999,4.0,161.4893796815884,0.0,111604101710150201303016041784511614600007000084000
2692,ESTL,56.0828018188,13.2124996185,2023-09-18 00:20:00,,,,,16.0,1016.0,1338.3365897439407,15.0,12.0,110.0,10000.0,99999,6.0,319.4365897439408,0.0,111606111210160201503016043383513194600007000086000
2695,EGCK,53.1041984558,-4.340280056,2023-09-18 00:20:00,,,,,17.0,1001.0,1003.0129209913404,16.0,9.0,210.0,10000.0,99999,4.0,0.8129209913403201,1.1,11160421091017020160300104003051008601107000084000
2696,EGHQ,50.4406013489,-4.9954099655,2023-09-18 00:20:00,,,,,15.0,1002.0,2037.7397396784206,14.0,10.0,160.0,10000.0,99999,,1034.2397396784206,0.0,1116001610101502014030020403775110342600007000080000
2727,ESOH,60.0200996399,13.5789003372,2023-09-18 00:20:00,,,,,0.0,1021.0,39.0437173570075,-0.0,2.0,330.0,10000.0,99999,,-982.9562826429925,0.0,1116003302100002100302104390519820600007000080000
2738,ESCF,58.4023017883,15.5256996155,2023-09-18 00:20:00,,,,,7.0,1021.0,2934.2701174968734,7.0,2.0,,10000.0,99999,,1911.2701174968734,0.0,111600360210070207030210493425119112600007000080000
2740,ESIB,58.426399231,12.7144002914,2023-09-18 00:20:00,,,,,12.0,1018.0,1595.9079840603206,11.0,7.0,100.0,10000.0,99999,1.0,575.9079840603206,0.0,111601100710120201103018045959515759600007000081000
2741,ESMV,57.2921981812,14.1372003555,2023-09-18 00:20:00,,,,,13.0,1019.0,2867.7346322730655,11.0,4.0,90.0,10000.0,99999,8.0,1846.7346322730655,0.0,1116080904101302011030190486775118467600007000088000
2743,ESPE,65.8752975464,20.1499004364,2023-09-18 00:20:00,,,,,-0.0,1020.0,39.00547669358242,-1.0,1.0,,10000.0,99999,8.0,-982.4945233064176,0.0,1116083601110002110302004390519825600007000088000
2745,ESIA,58.5138015747,14.5071001053,2023-09-18 00:20:00,,,,,12.0,1020.0,2059.2566363915626,10.0,9.0,110.0,10000.0,99999,,1037.2566363915626,0.0,1116001109101202010030200405925110372600007000080000
2753,ESNZ,63.1944007874,14.5003004074,2023-09-18 00:20:00,,,,,7.0,1019.0,9.654798946194745,3.0,7.0,150.0,10000.0,99999,8.0,-1012.2452010538052,0.0,1116081507100702030301904965110127600007000088000
2789,EFET,68.3626022339,23.4242992401,2023-09-18 00:20:00,,,,,0.0,1016.0,38.852514039882095,-1.0,6.0,240.0,10000.0,99999,,0.0,0.0,111600240610000211030160438851000600007000080000
2790,EFHA,61.8559989929,24.7866001129,2023-09-18 00:20:00,,,,,4.0,1021.0,6884.5545810388385,4.0,1.0,,10000.0,99999,,5863.5545810388385,0.0,111600360110040204030210488455158635600007000080000
2791,EFJO,62.6628990173,29.6075000763,2023-09-18 00:20:00,,,,,9.0,1017.0,2933.757314791008,8.0,10.0,310.0,10000.0,99999,4.0,1918.457314791008,0.0,111604311010090208030170493375119184600007000084000
2796,EFKT,67.7009963989,24.8467998505,2023-09-18 00:20:00,,,,,1.0,1017.0,22.823271259308125,0.0,3.0,220.0,10000.0,99999,,-995.9767287406918,0.0,1116002203100102000301704228519950600007000080000
2798,EFLP,61.0446014404,28.1443996429,2023-09-18 00:20:00,,,,,7.0,1020.0,3224.461506297512,5.0,5.0,270.0,10000.0,99999,,2205.3615062975123,0.0,111600270510070205030200422445122053600007000080000
2799,EFMI,61.6865997314,27.2017993927,2023-09-18 00:20:00,,,,,9.0,1020.0,2567.8600178290258,6.0,7.0,290.0,10000.0,99999,8.0,1548.8600178290258,0.0,111608290710090206030200456785115488600007000088000
2800,EFSI,62.6921005249,22.8323001862,2023-09-18 00:20:00,,,,,1.0,1022.0,14.791375888841323,1.0,1.0,,10000.0,99999,,0.0,0.0,111600360110010201030220414751000600007000080000
2801,EFUT,60.8964004517,26.9384002686,2023-09-18 00:20:00,,,,,8.0,1021.0,2853.912560541875,6.0,6.0,320.0,10000.0,99999,,1833.612560541875,0.0,111600320610080206030210485395118336600007000080000
2884,EFKS,65.9876022339,29.2394008636,2023-09-18 00:20:00,,,,,5.0,1015.0,9.479422573794455,3.0,6.0,340.0,10000.0,99999,6.0,-1004.7205774262056,0.0,1116063406100502030301504945110042600007000086000
2886,EFSA,61.9430999756,28.9451007843,2023-09-18 00:20:00,,,,,10.0,1018.0,2304.645740141606,7.0,11.0,310.0,10000.0,99999,3.0,1287.645740141606,0.0,111603311110100207030180430465112876600007000083000
2940,ESNV,64.5791015625,16.8335990906,2023-09-18 00:20:00,,,,,1.0,1020.0,28.26089196123009,-1.0,0.0,0.0,10000.0,99999,8.0,-994.43910803877,0.0,1116080000100102110302004282519945600007000088000
2942,ESST,60.1576004028,12.9912996292,2023-09-18 00:20:00,45.0,36.0,N,yellow,2.0,1021.0,10.60638044140948,2.0,0.0,0.0,100.0,99999,4.0,0.0,0.0,111004000010020202030210410651000600007450084000
2943,ESUP,67.2455978394,23.0688991547,2023-09-18 00:20:00,,,,,1.0,1018.0,21.028743899432293,0.0,2.0,,10000.0,99999,8.0,-998.5712561005678,0.0,1116083602100102000301804210519984600007000088000
2944,ESND,62.0477981567,14.4229001999,2023-09-18 00:20:00,,,,,-1.0,1021.0,57.134425523705815,-1.0,0.0,0.0,10000.0,99999,,-965.8655744762942,0.0,1116000000110102110302104571519651600007000080000
2948,LIMZ,44.547000885,7.6232199669,2023-09-18 00:20:00,61.0,36.0,^,green,18.0,1019.0,4280.280014454186,17.0,2.0,200.0,10000.0,99999,4.0,0.0,0.0,11160420021018020170301904280251000600007610084000
2978,EVLA,56.5175018311,21.0969009399,2023-09-18 00:20:00,,,,,9.0,1021.0,1083.8246460959176,9.0,5.0,60.0,10000.0,99999,,62.22464609591759,0.0,1116000605100902090302104083851622600007000080000
2980,EYKA,54.9639015198,24.0848007202,2023-09-18 00:20:00,,,,,12.0,1019.0,1864.4056831362095,10.0,1.0,,10000.0,99999,,0.0,0.0,11160036011012020100301904864451000600007000080000
2981,EYPA,55.9732017517,21.0939006805,2023-09-18 00:20:00,,,,,15.0,1020.0,1097.9016690024805,14.0,8.0,80.0,10000.0,99999,6.0,76.70166900248046,0.0,11160608081015020140302004097951767600007000086000
2989,LICB,36.9946010208,14.6071815491,2023-09-18 00:20:00,,,,,20.0,1019.0,2309.2446892229145,5.0,5.0,50.0,10000.0,99999,,1290.2446892229145,0.0,111600050510200205030190430925112902600007000080000
2991,LIPO,45.4289016724,10.3305997849,2023-09-18 00:20:00,,,,,21.0,1018.0,1672.1654027173252,19.0,3.0,30.0,9000.0,99999,,0.0,0.0,11150003031021020190301804672151000600007000080000
3020,EEKE,58.2299003601,22.5095005035,2023-09-18 00:20:00,,,,,6.0,1023.0,1105.943785381955,6.0,3.0,20.0,10000.0,99999,1.0,82.94378538195497,0.0,1116010203100602060302304105951829600007000081000
3021,EETU,58.3074989319,26.6903991699,2023-09-18 00:20:00,71.0,36.0,h,magenta,6.0,1022.0,2570.22014673816,5.0,2.0,,10000.0,99999,,1549.22014673816,0.0,111600360210060205030220457025115492600007710080000
3022,EEPU,58.4189987183,24.4727993011,2023-09-18 00:20:00,,,,,5.0,1023.0,1373.077133543759,5.0,2.0,,10000.0,99999,,0.0,0.0,1116003602100502050302304373051000600007000080000
3038,EDBC,51.8563995361,11.42029953,2023-09-18 00:20:00,,,,,18.0,1012.0,2379.6314445047087,14.0,10.0,160.0,10000.0,99999,,1366.3314445047088,0.0,1116001610101802014030120437965113663600007000080000
3115,EDJA,47.9888000488,10.2395000458,2023-09-18 00:20:00,,,,,14.0,1013.0,8269.182291079063,13.0,2.0,230.0,10000.0,99999,1.0,0.0,0.0,11160123021014020130301304269151000600007000081000
3122,EDTY,49.1183319092,9.7838888168,2023-09-18 00:20:00,,,,,19.0,1011.0,4141.746257887981,15.0,4.0,90.0,10000.0,99999,,3128.7462578879813,0.0,1116000904101902015030110414175131287600007000080000
3126,EDWE,53.3911094666,7.2274999619,2023-09-18 00:20:00,,,,,16.0,1008.0,1014.4671417937719,15.0,3.0,120.0,450.0,99999,3.0,4.267141793771884,0.0,11100312031016020150300804014451042600007000083000
3129,EKBI,55.7402992249,9.1517801285,2023-09-18 00:20:00,,,,,17.0,1011.0,1562.1508102647583,15.0,10.0,110.0,10000.0,99999,6.0,549.1508102647583,0.0,111606111010170201503011045621515491600007000086000
3130,EKCH,55.6179008484,12.6560001373,2023-09-18 00:20:00,,,,,17.0,1015.0,1049.9363186391372,14.0,13.0,100.0,10000.0,99999,5.0,32.9363186391372,0.0,11160510131017020140301504049951329600007000085000
3131,EKEB,55.5259017944,8.5534000397,2023-09-18 00:20:00,,,,,18.0,1009.0,1201.9268734345287,16.0,13.0,120.0,10000.0,99999,1.0,190.92687343452872,0.0,111601121310180201603009042019511909600007000081000
3133,EKRK,55.5856018066,12.1314001083,2023-09-18 00:20:00,,,,,17.0,1015.0,1330.7464038226174,14.0,18.0,110.0,10000.0,99999,8.0,314.4464038226174,0.0,111608111810170201403015043307513144600007000088000
3134,EKRN,55.0633010864,14.7595996857,2023-09-18 00:20:00,,,,,18.0,1016.0,1118.3866453364544,16.0,16.0,80.0,10000.0,99999,,101.38664533645442,0.0,111600081610180201603016041183511013600007000080000
3135,EKSB,54.9644012451,9.7917299271,2023-09-18 00:20:00,,,,,19.0,1011.0,1055.0393700112643,17.0,13.0,130.0,10000.0,99999,3.0,43.03937001126428,0.0,11160313131019020170301104055051430600007000083000
3137,EKSP,55.2256011963,9.2639303207,2023-09-18 00:20:00,,,,,18.0,1010.0,1295.2123657630668,16.0,12.0,120.0,10000.0,99999,,283.31236576306685,0.0,111600121210180201603010042952512833600007000080000
3138,EKVD,55.4362983704,9.3309202194,2023-09-18 00:20:00,,,,,18.0,1011.0,1300.7485454127848,15.0,11.0,120.0,10000.0,99999,,288.04854541278473,0.0,111600121110180201503011043007512880600007000080000
3140,LOWG,46.9911003113,15.4395999908,2023-09-18 00:20:00,,,,,15.0,1018.0,4482.931837316415,15.0,1.0,,8000.0,99999,,3465.031837316415,0.0,1114003601101502015030180448295134650600007000080000
3141,LOWI,47.2602005005,11.3439998627,2023-09-18 00:20:00,,,,,16.0,1017.0,6825.360275205443,14.0,6.0,280.0,10000.0,99999,,5809.660275205443,0.0,1116002806101602014030170482535158096600007000080000
3142,LOWK,46.6425018311,14.3376998901,2023-09-18 00:20:00,,,,,15.0,1019.0,5735.520214717093,15.0,2.0,310.0,10000.0,99999,,4716.920214717093,0.0,1116003102101502015030190473555147169600007000080000
3143,LOWL,48.2332000732,14.1875,2023-09-18 00:20:00,,,,,16.0,1015.0,3782.6970961675397,15.0,3.0,140.0,10000.0,99999,,2767.2970961675396,0.0,1116001403101602015030150478265127672600007000080000
3144,LOWS,47.7933006287,13.0043001175,2023-09-18 00:20:00,,,,,18.0,1014.0,4677.77358052795,14.0,9.0,140.0,10000.0,99999,,3663.07358052795,0.0,1116001409101802014030140467775136630600007000080000
3145,LOWW,48.1102981567,16.5697002411,2023-09-18 00:20:00,,,,,18.0,1016.0,2404.7300347650075,15.0,6.0,100.0,10000.0,99999,,1387.5300347650075,0.0,1116001006101802015030160440475113875600007000080000
3146,EETN,59.4132995605,24.8327999115,2023-09-18 00:20:00,,,,,7.0,1022.0,1756.0073681868494,6.0,1.0,280.0,10000.0,99999,1.0,735.0073681868494,0.0,11160128011007020603022047560517350600007000081000
3147,EFHK,60.317199707,24.963300705,2023-09-18 00:20:00,,,,,5.0,1022.0,2536.57622948186,5.0,3.0,280.0,10000.0,99999,,1515.57622948186,0.0,111600280310050205030220453655115155600007000080000
3148,EFIV,68.6072998047,27.4053001404,2023-09-18 00:20:00,,,,,-0.0,1016.0,38.852514039882095,-1.0,6.0,230.0,10000.0,99999,,-977.1474859601179,0.0,1116002306110002110301604388519778600007000080000
3149,EFJY,62.3995018005,25.6783008575,2023-09-18 00:20:00,,,,,5.0,1021.0,5419.2865695254095,3.0,7.0,300.0,10000.0,99999,,4399.38656952541,0.0,111600300710050203030210441925143993600007000080000
3150,EFKE,65.7787017822,24.5820999146,2023-09-18 00:20:00,,,,,-1.0,1020.0,3.6780639890240736,-1.0,2.0,,10000.0,99999,,-1015.321936010976,0.0,1116003602110102110302004365110156600007000080000
3151,EFKK,63.7211990356,23.1431007385,2023-09-18 00:20:00,,,,,1.0,1021.0,5006.669116873881,-0.0,1.0,,10000.0,99999,,3985.6691168738807,0.0,111600360110010210030210400665139856600007000080000
3153,EFMA,60.1222000122,19.8981990814,2023-09-18 00:20:00,,,,,2.0,1023.0,1337.7913298544033,2.0,2.0,,10000.0,99999,,314.79132985440333,0.0,11160036021002020203023043377513147600007000080000
3155,EFPO,61.4617004395,21.7999992371,2023-09-18 00:20:00,,,,,4.0,1022.0,1435.2648965172361,4.0,2.0,,10000.0,99999,1.0,413.26489651723614,0.0,11160136021004020403022044352514132600007000081000
3156,EFRO,66.5647964478,25.8304004669,2023-09-18 00:20:00,,,,,2.0,1018.0,15.373605801544592,1.0,8.0,330.0,10000.0,99999,,-1003.2263941984554,0.0,11160033081002020103018041535110037600007000080000
3157,EFTP,61.414100647,23.6044006348,2023-09-18 00:20:00,,,,,3.0,1022.0,7418.593070516397,3.0,2.0,80.0,10000.0,99999,,6396.593070516397,0.0,111600080210030203030220441855163965600007000080000
3158,EFTU,60.5140991211,22.2628002167,2023-09-18 00:20:00,,,,,2.0,1023.0,4831.042304600694,2.0,1.0,250.0,10000.0,99999,,3808.0423046006936,0.0,111600250110020202030230483105138080600007000080000
3159,EFVA,63.0507011414,21.7621994019,2023-09-18 00:20:00,,,,,2.0,1022.0,1375.6734760360087,2.0,2.0,160.0,10000.0,99999,,354.67347603600865,0.0,11160016021002020203022043756513546600007000080000
3161,ENBR,60.2933998108,5.2181401253,2023-09-18 00:20:00,,,,,10.0,1011.0,1664.6609214697296,10.0,0.0,0.0,10000.0,99999,6.0,0.0,0.0,11160600001010020100301104664651000600007000086000
3162,ENCN,58.2042007446,8.0853700638,2023-09-18 00:20:00,61.0,36.0,^,green,14.0,1013.0,1158.0473778923697,13.0,13.0,50.0,10000.0,99999,3.0,141.5473778923697,0.0,111603051310140201303013041580511415600007610083000
3164,ENHD,59.3452987671,5.2083601952,2023-09-18 00:20:00,,,,,14.0,1010.0,1231.2356170585836,10.0,13.0,100.0,10000.0,99999,4.0,216.63561705858353,0.0,111604101310140201003010042312512166600007000084000
3167,ENVA,63.4578018188,10.9239997864,2023-09-18 00:20:00,,,,,10.0,1016.0,1218.1585692848769,4.0,4.0,70.0,10000.0,99999,,199.15856928487688,0.0,11160007041010020403016042181511991600007000080000
3168,ENZV,58.876701355,5.6377801895,2023-09-18 00:20:00,61.0,36.0,^,green,15.0,1009.0,1076.593319792413,12.0,14.0,120.0,10000.0,99999,4.0,0.0,0.0,11160412141015020120300904076551000600007610084000
3169,EVRA,56.9235992432,23.9710998535,2023-09-18 00:20:00,,,,,10.0,1021.0,1149.8492391543168,8.0,5.0,10.0,10000.0,99999,,0.0,0.0,1116000105101002080302104149851000600007000080000
3170,EYVI,54.6341018677,25.2858009338,2023-09-18 00:20:00,42.0,36.0,K,yellow,13.0,1020.0,3216.140948802257,12.0,3.0,140.0,10000.0,99999,,2196.140948802257,0.0,1116001403101302012030200421615121961600007420080000
3172,LGAV,37.9364013672,23.9444999695,2023-09-18 00:20:00,,,,,24.0,1016.0,1500.5146963698394,15.0,12.0,350.0,10000.0,99999,,0.0,0.0,11160035121024020150301604500551000600007000080000
3173,LGIR,35.3396987915,25.1802997589,2023-09-18 00:20:00,,,,,24.0,1013.0,1184.5399423125082,19.0,16.0,290.0,10000.0,99999,3.0,169.83994231250813,0.0,111603291610240201903013041845511698600007000083000
3175,LGKR,39.6018981934,19.911699295,2023-09-18 00:20:00,,,,,22.0,1015.0,1024.477975087978,19.0,0.0,0.0,10000.0,99999,,8.577975087977961,0.0,11160000001022020190301504024451085600007000080000
3177,LGRP,36.4053993225,28.0862007141,2023-09-18 00:20:00,,,,,26.0,1007.0,1029.6063221549512,20.0,5.0,210.0,10000.0,99999,1.0,20.306322154951204,0.0,11160121051026020200300704029651203600007000081000
3181,LIBD,41.1389007568,16.7605991364,2023-09-18 00:20:00,,,,,20.0,1018.0,1344.8660929463035,16.0,3.0,220.0,10000.0,99999,,326.3660929463035,0.0,111600220310200201603018043448513263600007000080000
3182,LIBP,42.4317016602,14.1810998917,2023-09-18 00:20:00,,,,,21.0,1018.0,1098.8268630290765,21.0,3.0,250.0,10000.0,99999,,79.92686302907657,0.0,11160025031021020210301804098851799600007000080000
3183,LIBR,40.6576004028,17.9470005035,2023-09-18 00:20:00,,,,,22.0,1018.0,1093.466118643615,18.0,5.0,280.0,10000.0,99999,,75.56611864361491,0.0,11160028051022020180301804093451755600007000080000
3184,LICA,38.9053993225,16.2423000336,2023-09-18 00:20:00,,,,,18.0,1018.0,1094.5529186566632,16.0,4.0,70.0,10000.0,99999,,76.55291865666322,0.0,11160007041018020160301804094551765600007000080000
3185,LICC,37.4668006897,15.0663995743,2023-09-18 00:20:00,,,,,21.0,1018.0,1083.4733409572477,20.0,6.0,240.0,10000.0,99999,,64.47334095724773,0.0,11160024061021020200301804083451644600007000080000
3186,LICJ,38.1759986877,13.0909996033,2023-09-18 00:20:00,,,,,23.0,1018.0,1118.3141469097816,19.0,2.0,80.0,10000.0,99999,,99.51414690978163,0.0,11160008021023020190301804118351995600007000080000
3187,LICR,38.0712013245,15.651599884,2023-09-18 00:20:00,,,,,21.0,1018.0,1182.2195983875456,15.0,5.0,50.0,10000.0,99999,,163.41959838754565,0.0,111600050510210201503018041822511634600007000080000
3188,LIEA,40.6320991516,8.290769577,2023-09-18 00:20:00,,,,,22.0,1015.0,1156.0490784313097,21.0,1.0,,10000.0,99999,,141.04907843130968,0.0,111600360110220202103015041560511410600007000080000
3192,LIME,45.6739006042,9.7041702271,2023-09-18 00:20:00,,,,,21.0,1018.0,2595.6151781359945,18.0,1.0,,10000.0,99999,3.0,1576.8151781359945,0.0,1116033601102102018030180459565115768600007000083000
3193,LIMF,45.2008018494,7.6496300697,2023-09-18 00:20:00,,,,,21.0,1018.0,3079.5328825373745,17.0,1.0,,10000.0,99999,6.0,2060.2328825373743,0.0,1116063601102102017030180407955120602600007000086000
3194,LIMJ,44.4132995605,8.8374996185,2023-09-18 00:20:00,,,,,24.0,1017.0,1035.8983739025284,19.0,4.0,330.0,10000.0,99999,,18.598373902528465,0.0,11160033041024020190301704035851185600007000080000
3196,LIPE,44.5354003906,11.2887001038,2023-09-18 00:20:00,,,,,21.0,1017.0,1229.0091874877567,18.0,3.0,190.0,10000.0,99999,,211.10918748775669,0.0,111600190310210201803017042290512111600007000080000
3197,LIPH,45.648399353,12.1943998337,2023-09-18 00:20:00,,,,,19.0,1018.0,1128.4377350354853,19.0,2.0,,10000.0,99999,,109.93773503548528,0.0,111600360210190201903018041284511099600007000080000
3198,LIPQ,45.8274993896,13.4722003937,2023-09-18 00:20:00,,,,,19.0,1018.0,1090.4654701334596,18.0,3.0,110.0,10000.0,99999,8.0,71.46547013345958,0.0,11160811031019020180301804090451714600007000088000
3199,LIPR,44.0203018188,12.611700058,2023-09-18 00:20:00,,,,,19.0,1017.0,1091.2781522628252,18.0,1.0,,10000.0,99999,,72.97815226282523,0.0,11160036011019020180301704091251729600007000080000
3201,LIPY,43.6162986755,13.3622999191,2023-09-18 00:20:00,,,,,20.0,1018.0,1104.736333953533,19.0,1.0,,10000.0,99999,,86.0363339535329,0.0,11160036011020020190301804104751860600007000080000
3202,LIPZ,45.5052986145,12.3519001007,2023-09-18 00:20:00,,,,,21.0,1018.0,1029.6235686073296,19.0,3.0,40.0,10000.0,99999,,11.22356860732964,0.0,11160004031021020190301804029651112600007000080000
3204,LIRF,41.8045005798,12.2508001328,2023-09-18 00:20:00,,,,,21.0,1018.0,1042.976683177478,17.0,5.0,80.0,10000.0,99999,,24.576683177478003,0.0,11160008051021020170301804042951245600007000080000
3205,LIRP,43.6838989258,10.3927001953,2023-09-18 00:15:00,,,,,19.0,1016.0,1026.988761757122,19.0,4.0,150.0,10000.0,99999,,9.38876175712187,0.0,11160015041019020190301604026951093600007000080000
3206,LIRQ,43.8100013733,11.2051000595,2023-09-18 00:20:00,,,,,21.0,1017.0,1263.2097027506459,15.0,1.0,,10000.0,99999,,246.20970275064587,0.0,111600360110210201503017042632512462600007000080000
3208,LIMC,45.6305999756,8.7281103134,2023-09-18 00:20:00,,,,,21.0,1018.0,2563.586388005854,18.0,5.0,30.0,10000.0,99999,6.0,1544.5863880058541,0.0,1116060305102102018030180456355115445600007000086000
3209,LIPX,45.3956985474,10.8885002136,2023-09-18 00:20:00,,,,,20.0,1018.0,1467.7283348064923,18.0,4.0,20.0,9000.0,99999,,449.02833480649224,0.0,111500020410200201803018044677514490600007000080000
3210,LIRZ,43.0959014893,12.5131998062,2023-09-18 00:20:00,,,,,19.0,1019.0,2571.5214530586627,17.0,3.0,350.0,10000.0,99999,,1553.2214530586627,0.0,1116003503101902017030190457155115532600007000080000
3211,ENAL,62.5625,6.119699955,2023-09-18 00:20:00,,,,,9.0,1013.0,1292.6764540400704,7.0,6.0,150.0,10000.0,99999,,276.5764540400704,0.0,11160015061009020703013042926512765600007000080000
3217,ENDU,69.0558013916,18.5403995514,2023-09-18 00:20:00,,,,,6.0,1015.0,2818.775051220142,4.0,6.0,120.0,10000.0,99999,3.0,0.0,0.0,1116031206100602040301504818751000600007000083000
3232,ENRO,62.5783996582,11.342300415,2023-09-18 00:20:00,,,,,-1.0,1018.0,47.959777975924794,-2.0,2.0,,10000.0,99999,,-971.0402220240752,0.0,1116003602110102120301804479519719600007000080000
3234,ENRY,59.3788986206,10.7855997086,2023-09-18 00:20:00,,,,,12.0,1018.0,1571.752092203971,8.0,6.0,70.0,10000.0,99999,4.0,0.0,0.0,1116040706101202080301804571751000600007000084000
3240,ENTO,59.1866989136,10.258600235,2023-09-18 00:20:00,,,,,11.0,1017.0,2068.2448256017524,8.0,5.0,30.0,10000.0,99999,7.0,0.0,0.0,1116070305101102080301704068251000600007000087000
3243,ESGJ,57.757598877,14.0686998367,2023-09-18 00:20:00,,,,,12.0,1019.0,3829.964328508715,11.0,4.0,120.0,10000.0,99999,8.0,2808.664328508715,0.0,1116081204101202011030190482995128086600007000088000
3244,ESGP,57.7747001648,11.8704004288,2023-09-18 00:20:00,,,,,14.0,1016.0,1166.7277285689356,11.0,11.0,100.0,10000.0,99999,,148.52772856893557,0.0,111600101110140201103016041667511485600007000080000
3245,ESKN,58.7886009216,16.9122009277,2023-09-18 00:20:00,,,,,8.0,1022.0,1704.0228043867426,7.0,3.0,70.0,10000.0,99999,1.0,680.7228043867426,0.0,11160107031008020703022047040516807600007000081000
3246,ESMK,55.9216995239,14.0854997635,2023-09-18 00:20:00,,,,,16.0,1017.0,1187.6719500475997,16.0,12.0,90.0,10000.0,99999,7.0,169.37195004759974,0.0,111607091210160201603017041876511693600007000087000
3247,ESMS,55.536305364,13.3761978149,2023-09-18 00:20:00,,,,,16.0,1016.0,1578.9803152398292,14.0,14.0,90.0,10000.0,99999,,562.0803152398292,0.0,111600091410160201403016045789515620600007000080000
3248,ESMX,56.9291000366,14.7279996872,2023-09-18 00:20:00,,,,,14.0,1019.0,2907.3241415543216,13.0,6.0,100.0,10000.0,99999,8.0,1886.8241415543216,0.0,1116081006101402013030190490735118868600007000088000
3254,ESOK,59.4446983337,13.3374004364,2023-09-18 00:20:00,,,,,7.0,1020.0,3246.113268658661,5.0,5.0,70.0,10000.0,99999,,2225.113268658661,0.0,111600070510070205030200424615122251600007000080000
3255,ESOW,59.5894012451,16.633600235,2023-09-18 00:20:00,,,,,3.0,1023.0,1279.7777158468941,2.0,5.0,360.0,10000.0,99999,,255.77771584689413,0.0,11160036051003020203023042797512557600007000080000
3258,ESSB,59.3544006348,17.9416999817,2023-09-18 00:20:00,,,,,5.0,1023.0,1373.077133543759,5.0,0.0,0.0,10000.0,99999,,349.17713354375894,0.0,11160000001005020503023043730513491600007000080000
3259,ESSD,60.422000885,15.5151996613,2023-09-18 00:20:00,45.0,36.0,N,yellow,2.0,1022.0,12.927759279792655,1.0,3.0,250.0,100.0,99999,,-1010.0722407202073,0.0,11100025031002020103022041295110109600007450080000
3260,ESSP,58.5862998962,16.2506008148,2023-09-18 00:20:00,,,,,5.0,1022.0,1255.627666711046,5.0,1.0,140.0,10000.0,99999,,232.627666711046,0.0,11160014011005020503022042556512326600007000080000
3261,ESSV,57.6627998352,18.346200943,2023-09-18 00:20:00,,,,,8.0,1022.0,1833.4022993126703,7.0,5.0,80.0,10000.0,99999,,810.4022993126703,0.0,11160008051008020703022048334518104600007000080000
3262,LSGC,47.0839004517,6.792840004,2023-09-18 00:20:00,61.0,36.0,^,green,15.0,1015.0,11.751842170461074,15.0,3.0,,10000.0,99999,6.0,-1000.448157829539,0.0,111606360310150201503015041175110005600007610086000
3263,LSGG,46.2380981445,6.1089501381,2023-09-18 00:20:00,,,,,19.0,1013.0,4457.24571284437,18.0,6.0,230.0,10000.0,99999,1.0,3445.0457128443704,0.0,1116012306101902018030130445725134450600007000081000
3264,LSGS,46.2196006775,7.3267598152,2023-09-18 00:20:00,,,,,16.0,1015.0,5768.710144967539,13.0,1.0,,10000.0,99999,,4754.710144967539,0.0,1116003601101602013030150476875147547600007000080000
3265,LSZA,46.0042991638,8.9105796814,2023-09-18 00:20:00,,,,,19.0,1019.0,3135.8021660028567,18.0,2.0,,10000.0,99999,4.0,2115.8021660028567,0.0,1116043602101902018030190413585121158600007000084000
3266,LSZB,46.914100647,7.4971499443,2023-09-18 00:20:00,,,,,15.0,1012.0,6403.947776232097,15.0,3.0,,10000.0,99999,,5391.947776232097,0.0,1116003603101502015030120440395153919600007000080000
3267,LSZG,47.1815986633,7.4171900749,2023-09-18 00:20:00,,,,,17.0,1012.0,4910.109378248613,15.0,2.0,,10000.0,99999,,3897.309378248613,0.0,1116003602101702015030120491015138973600007000080000
3268,LSZH,47.4646987915,8.5491695404,2023-09-18 00:20:00,,,,,17.0,1012.0,4925.527974907665,16.0,5.0,320.0,10000.0,99999,,3912.6279749076652,0.0,1116003205101702016030120492555139126600007000080000
3269,LSZL,46.1608009338,8.8786096573,2023-09-18 00:20:00,,,,,19.0,1019.0,2453.3791213461022,18.0,2.0,,10000.0,99999,3.0,1433.8791213461022,0.0,1116033602101902018030190445335114338600007000083000
3270,LSZR,47.4850006104,9.5607700348,2023-09-18 00:20:00,,,,,27.0,1011.0,3121.766819849869,10.0,6.0,,10000.0,99999,,2108.866819849869,0.0,1116003606102702010030110412175121088600007000080000
3271,LSZS,46.5340995789,9.8841104507,2023-09-18 00:20:00,,,,,9.0,1025.0,22.643026729913018,9.0,2.0,,10000.0,99999,3.0,-999.456973270087,0.0,1116033602100902090302504226519995600007000083000
3272,EGAA,54.6575012207,-6.2158298492,2023-09-18 00:20:00,63.0,36.0,',green,14.0,1000.0,1736.2823971628954,14.0,8.0,250.0,3400.0,99999,7.0,732.5823971628954,0.4,111207250810140201403000047362517325600407630087000
3275,EGFF,51.3967018127,-3.3433299065,2023-09-18 00:20:00,,,,,16.0,1002.0,1516.670480905786,16.0,3.0,240.0,10000.0,99999,,512.870480905786,0.0,111600240310160201603002045166515128600007000080000
3276,EGGD,51.3827018738,-2.7190899849,2023-09-18 00:20:00,10.0,36.0,+,yellow,17.0,1002.0,2524.0878310020225,16.0,5.0,190.0,4400.0,99999,3.0,1519.5878310020225,0.0,1112031905101702016030020452405115195600007100083000
3280,EGKK,51.1481018066,-0.1902779937,2023-09-18 00:20:00,16.0,36.0,1,,17.0,1004.0,1444.856982847129,16.0,4.0,180.0,10000.0,99999,1.0,438.8569828471291,2.6,111601180410170201603004044448514388602607160081000
3281,EGLF,51.2757987976,-0.7763329744,2023-09-18 00:20:00,51.0,36.0,T,green,17.0,1003.0,1528.2962013069452,16.0,6.0,170.0,10000.0,99999,4.0,522.5962013069452,0.5,111604170610170201603003045282515225600507510084000
3283,EGMD,50.9561004639,0.9391670227,2023-09-18 00:20:00,,,,,19.0,1004.0,1027.5908663830273,17.0,14.0,280.0,10000.0,99999,1.0,0.0,0.0,11160128141019020170300404027551000600007000081000
3284,EGNJ,53.5744018555,-0.3508329988,2023-09-18 00:20:00,,,,,17.0,1003.0,1259.182979132157,16.0,7.0,130.0,10000.0,99999,,252.48297913215697,1.4,111600130710170201603003042591512524601307000080000
3285,EGCC,53.3536987305,-2.2749500275,2023-09-18 00:20:00,61.0,36.0,^,green,17.0,1002.0,1572.2275657579962,16.0,3.0,190.0,6000.0,99999,4.0,568.2275657579962,0.3,111304190310170201603002045722515682600307610084000
3286,EGLL,51.4706001282,-0.4619410038,2023-09-18 00:20:00,,,,,16.0,1003.0,1187.3652555534488,15.0,6.0,90.0,4000.0,99999,6.0,182.06525555344888,0.1,111206090610160201503003041873511820600107000086000
3289,EGNX,52.8311004639,-1.3280600309,2023-09-18 00:20:00,,,,,17.0,1002.0,1691.5994184221015,16.0,6.0,140.0,8000.0,99999,6.0,686.3994184221015,0.1,111406140610170201603002046915516863600107000086000
3291,EGPB,59.8788986206,-1.2955600023,2023-09-18 00:20:00,61.0,36.0,^,green,13.0,1005.0,1058.4244295308126,13.0,6.0,130.0,5000.0,99999,7.0,50.42442953081263,0.0,11130713061013020130300504058451504600007610087000
3298,EGAC,54.6180992126,-5.8724999428,2023-09-18 00:20:00,,,,,15.0,999.0,1033.3855983453184,14.0,2.0,250.0,2200.0,99999,5.0,29.485598345318408,0.5,11110525021015020140399904033351294600507000085000
3299,EGGP,53.3335990906,-2.8497200012,2023-09-18 00:20:00,,,,,17.0,1002.0,1168.5434248485951,17.0,8.0,120.0,7000.0,99999,5.0,0.0,0.0,11140512081017020170300204168551000600007000085000
3302,EGNT,55.0374984741,-1.6916699409,2023-09-18 00:20:00,,,,,15.0,1003.0,1682.106255405055,14.0,6.0,160.0,10000.0,99999,6.0,674.106255405055,0.0,111606160610150201403003046821516741600007000086000
3303,EGPC,58.4589004517,-3.0930600166,2023-09-18 00:20:00,61.0,36.0,^,green,13.0,1003.0,1357.5435533539408,12.0,10.0,130.0,10000.0,99999,8.0,350.2435533539408,0.0,111608131010130201203003043575513502600007610088000
3304,EGPE,57.5424995422,-4.0475001335,2023-09-18 00:20:00,61.0,36.0,^,green,13.0,1001.0,1083.9736751162422,12.0,0.0,0.0,10000.0,99999,3.0,79.97367511624225,0.0,11160300001013020120300104083951799600007610083000
3306,EGPL,57.481098175,-7.3627800941,2023-09-18 00:20:00,,,,,13.0,998.0,1048.3720407408055,13.0,4.0,240.0,10000.0,99999,6.0,45.97204074080548,3.3,11160624041013020130399804048351459603207000086000
3309,EGSS,51.8849983215,0.2349999994,2023-09-18 00:20:00,,,,,19.0,1003.0,1706.5613139879285,18.0,8.0,170.0,1600.0,99999,6.0,701.3613139879285,0.0,111006170810190201803003047065517013600007000086000
3317,EDGS,50.707698822,8.0829696655,2023-09-18 00:20:00,,,,,18.0,1011.0,6274.551764651621,15.0,7.0,140.0,10000.0,99999,,5261.551764651621,0.0,1116001407101802015030110427455152615600007000080000
3318,EDLV,51.6024017334,6.1421699524,2023-09-18 00:20:00,,,,,19.0,1006.0,1205.388511412281,18.0,4.0,110.0,10000.0,99999,6.0,0.0,0.0,11160611041019020180300604205351000600007000086000
3321,EGPI,55.6819000244,-6.2566699982,2023-09-18 00:20:00,61.0,36.0,^,green,14.0,999.0,1139.4648804088156,14.0,3.0,180.0,5000.0,99999,8.0,135.5648804088156,0.0,111308180310140201403999041394511355600007610088000
3329,ESNL,64.5483016968,18.7161998749,2023-09-18 00:20:00,,,,,-1.0,1021.0,77.59528508427528,-1.0,0.0,0.0,10000.0,99999,,0.0,0.0,111600000011010211030210477551000600007000080000
3330,ESNX,65.5903015137,19.2819004059,2023-09-18 00:20:00,,,,,0.0,1020.0,39.00547669358242,-0.0,2.0,80.0,10000.0,99999,8.0,0.0,0.0,111608080210000210030200439051000600007000088000
3331,ESOE,59.2237014771,15.0380001068,2023-09-18 00:20:00,,,,,5.0,1022.0,2623.310419567635,4.0,6.0,20.0,10000.0,99999,,1601.310419567635,0.0,111600020610050204030220462335116013600007000080000
3333,ESUT,65.806098938,15.0827999115,2023-09-18 00:20:00,,,,,4.0,1018.0,17.05897058263273,3.0,7.0,110.0,10000.0,99999,7.0,-1002.9410294173673,0.0,11160711071004020303018041705110020600007000087000
3334,EFKI,64.2854995728,27.6923999786,2023-09-18 00:20:00,,,,,8.0,1018.0,3755.1297647701203,6.0,10.0,300.0,10000.0,99999,8.0,2739.1297647701203,0.0,111608301010080206030180475515127391600007000088000
3335,EFKU,63.0070991516,27.7978000641,2023-09-18 00:20:00,,,,,9.0,1019.0,2533.3838596452733,7.0,10.0,300.0,10000.0,99999,8.0,1516.6838596452733,0.0,111608301010090207030190453335115166600007000088000
3336,EFOU,64.9300994873,25.3546009064,2023-09-18 00:20:00,,,,,6.0,1020.0,1308.036250572602,3.0,3.0,330.0,10000.0,99999,,289.836250572602,0.0,11160033031006020303020043080512898600007000080000
3343,ENAT,69.9760971069,23.3717002869,2023-09-18 00:20:00,,,,,5.0,1015.0,1078.2461218111432,3.0,6.0,200.0,10000.0,99999,8.0,62.14612181114319,0.0,1116082006100502030301504078251621600007000088000
3344,ENBV,70.8713989258,29.0342006683,2023-09-18 00:20:00,,,,,5.0,1013.0,1320.8535705179772,3.0,15.0,240.0,10000.0,99999,6.0,307.85357051797723,0.0,11160624151005020303013043208513078600007000086000
3345,ENEV,68.4913024902,16.6781005859,2023-09-18 00:20:00,61.0,36.0,^,green,9.0,1017.0,1362.4134321590925,5.0,7.0,200.0,10000.0,99999,3.0,0.0,0.0,1116032007100902050301704362451000600007610083000
3346,ENFL,61.5835990906,5.024720192,2023-09-18 00:20:00,,,,,11.0,1012.0,1131.1342573568597,9.0,6.0,90.0,10000.0,99999,,116.13425735685973,0.0,11160009061011020903012041311511161600007000080000
3347,ENHK,70.4867019653,22.1396999359,2023-09-18 00:20:00,61.0,36.0,^,green,7.0,1014.0,1120.1972782146215,4.0,5.0,240.0,10000.0,99999,3.0,104.79727821462154,0.0,11160324051007020403014041201511047600007610083000
3348,ENKR,69.7257995605,29.8913002014,2023-09-18 00:20:00,,,,,3.0,1014.0,5515.117921661203,2.0,2.0,,10000.0,99999,6.0,0.0,0.0,1116063602100302020301404515151000600007000086000
3349,ENNA,70.0688018799,24.9734992981,2023-09-18 00:20:00,,,,,6.0,1015.0,1163.829758239618,1.0,8.0,180.0,10000.0,99999,7.0,147.92975823961808,0.0,11160718081006020103015041638511479600007000087000
3350,ENNM,64.4721984863,11.5785999298,2023-09-18 00:20:00,,,,,9.0,1017.0,1044.1826027468953,4.0,9.0,50.0,10000.0,99999,,26.182602746895327,0.0,1116000509100902040301704044151261600007000080000
3351,ENRM,64.8383026123,11.1461000443,2023-09-18 00:20:00,,,,,6.0,1016.0,1098.3762325983053,4.0,2.0,50.0,10000.0,99999,1.0,80.37623259830525,0.0,1116010502100602040301604098351803600007000081000
3352,ENSD,61.8300018311,6.1058301926,2023-09-18 00:20:00,,,,,7.0,1014.0,2152.827551052649,7.0,0.0,0.0,10000.0,99999,,0.0,0.0,1116000000100702070301404152851000600007000080000
3353,ENSK,68.5788269043,15.033416748,2023-09-18 00:20:00,61.0,36.0,^,green,10.0,1015.0,1053.4576150440776,7.0,11.0,220.0,10000.0,99999,7.0,36.457615044077556,0.2,1116072211101002070301504053451364600207610087000
3354,ENSS,70.3554000854,31.0449008942,2023-09-18 00:20:00,,,,,2.0,1013.0,1838.9315880657327,1.0,7.0,260.0,10000.0,99999,,825.9315880657327,0.0,11160026071002020103013048389518259600007000080000
3356,LGKO,36.7933006287,27.0916996002,2023-09-18 00:20:00,,,,,24.0,1010.0,1670.0044051565258,19.0,10.0,340.0,10000.0,99999,,660.0044051565258,0.0,111600341010240201903010046700516600600007000080000
3357,LGSA,35.5317001343,24.1497001648,2023-09-18 00:20:00,,,,,21.0,1013.0,1941.1681923745127,19.0,7.0,300.0,10000.0,99999,,926.4681923745127,0.0,111600300710210201903013049411519264600007000080000
3362,ENBL,61.3911018372,5.756939888,2023-09-18 00:20:00,,,,,12.0,1013.0,5133.6585514206245,3.0,7.0,30.0,10000.0,99999,,4117.1585514206245,0.0,111600030710120203030130413365141171600007000080000
3363,ENBS,70.6005020142,29.691400528,2023-09-18 00:20:00,,,,,2.0,1013.0,12.558863977323275,1.0,5.0,250.0,10000.0,99999,3.0,-1000.4411360226767,0.0,11160325051002020103013041255110005600007000083000
3364,ENHF,70.6797027588,23.6686000824,2023-09-18 00:20:00,,,,,7.0,1013.0,2619.4094387866094,3.0,11.0,240.0,10000.0,99999,4.0,0.0,0.0,1116042411100702030301304619451000600007000084000
3365,ENKB,63.1118011475,7.8245201111,2023-09-18 00:20:00,,,,,8.0,1014.0,2039.655558395992,6.0,7.0,110.0,10000.0,99999,6.0,0.0,0.0,1116061107100802060301404039651000600007000086000
3366,ENMH,71.0297012329,27.8267002106,2023-09-18 00:20:00,,,,,6.0,1013.0,1248.3418780671689,4.0,11.0,240.0,10000.0,99999,2.0,235.34187806716886,0.0,11160224111006020403013042483512353600007000082000
3367,ENML,62.7447013855,7.2624998093,2023-09-18 00:20:00,,,,,7.0,1014.0,1064.0134003814205,5.0,7.0,20.0,10000.0,99999,,47.61340038142055,0.0,1116000207100702050301404064051476600007000080000
3368,ENMS,65.783996582,13.2149000168,2023-09-18 00:20:00,,,,,5.0,1018.0,3094.7698306234943,4.0,0.0,0.0,10000.0,99999,7.0,0.0,0.0,1116070000100502040301804094751000600007000087000
3369,ENOV,62.1800003052,6.0741000175,2023-09-18 00:20:00,,,,,4.0,1013.0,3755.95842706306,4.0,0.0,0.0,10000.0,99999,,0.0,0.0,1116000000100402040301304755951000600007000080000
3370,ENRA,66.363899231,14.3014001846,2023-09-18 00:20:00,,,,,5.0,1019.0,3017.9044438427754,3.0,0.0,0.0,10000.0,99999,8.0,0.0,0.0,1116080000100502030301904017951000600007000088000
3371,ENRS,67.5278015137,12.1033000946,2023-09-18 00:20:00,,,,,10.0,1016.0,1040.4265338198966,5.0,11.0,220.0,10000.0,99999,1.0,0.0,0.0,1116012211101002050301604040451000600007000081000
3373,ENSR,69.7867965698,20.959400177,2023-09-18 00:20:00,,,,,6.0,1014.0,1108.1786763329474,3.0,3.0,,10000.0,99999,6.0,92.17867633294736,0.0,1116063603100602030301404108151921600007000086000
3374,LGMT,39.0567016602,26.5983009338,2023-09-18 00:20:00,,,,,21.0,1015.0,1116.139501404902,15.0,5.0,360.0,10000.0,99999,,101.43950140490188,0.0,111600360510210201503015041161511014600007000080000
3375,LGSR,36.3992004395,25.4792995453,2023-09-18 00:20:00,,,,,23.0,1011.0,1209.2495965940561,18.0,8.0,300.0,10000.0,99999,,196.54959659405608,0.0,111600300810230201803011042092511965600007000080000
3385,ENBN,65.4610977173,12.217499733,2023-09-18 00:20:00,,,,,11.0,1017.0,1097.281336679358,4.0,6.0,150.0,10000.0,99999,5.0,0.0,0.0,1116051506101102040301704097251000600007000085000
3386,ENHV,71.0096969604,25.9836006165,2023-09-18 00:20:00,,,,,7.0,1013.0,1240.2654422196454,2.0,13.0,250.0,10000.0,99999,3.0,227.26544221964537,0.2,11160325131007020203013042402512272600207000083000
3387,ENSG,61.1561012268,7.1377801895,2023-09-18 00:20:00,,,,,10.0,1015.0,1015.0,3.0,7.0,10.0,10000.0,99999,6.0,-1.0,0.0,1116060107101002030301504015051010600007000086000
3388,ENVD,70.0652999878,29.8446998596,2023-09-18 00:20:00,,,,,2.0,1014.0,3901.511359105753,0.0,8.0,310.0,10000.0,99999,1.0,0.0,0.0,1116013108100202000301404901551000600007000081000
3389,LIEE,39.251499176,9.0542802811,2023-09-18 00:20:00,,,,,23.0,1016.0,1035.7040213726616,20.0,4.0,350.0,10000.0,99999,,19.7040213726616,0.0,11160035041023020200301604035751197600007000080000
3390,LIEO,40.8987007141,9.5176296234,2023-09-18 00:20:00,,,,,23.0,1016.0,1072.503088922138,23.0,2.0,,10000.0,99999,,56.103088922138,0.0,11160036021023020230301604072551561600007000080000
3391,LIML,45.445098877,9.2767400742,2023-09-18 00:20:00,,,,,22.0,1017.0,1634.4265606869938,19.0,2.0,50.0,10000.0,99999,1.0,615.8265606869937,0.0,111601050210220201903017046344516158600007000081000
3392,LIRA,41.7994003296,12.5949001312,2023-09-18 00:20:00,,,,,23.0,1019.0,1744.4613444821675,14.0,3.0,90.0,10000.0,99999,,726.4613444821675,0.0,111600090310230201403019047444517264600007000080000
3394,EDDB,52.362167,13.500667,2023-09-18 00:20:00,,,,,17.0,1013.0,1350.9442956060636,14.0,6.0,110.0,10000.0,99999,,336.44429560606363,0.0,111600110610170201403013043509513364600007000080000
3396,EDDE,50.979801178,10.9581003189,2023-09-18 00:20:00,,,,,20.0,1012.0,3296.761185082906,14.0,8.0,180.0,10000.0,99999,,2283.761185082906,0.0,1116001808102002014030120429675122837600007000080000
3398,EDDG,52.134601593,7.6848301888,2023-09-18 00:20:00,,,,,19.0,1008.0,1315.142445690826,17.0,4.0,100.0,10000.0,99999,,304.642445690826,0.0,111600100410190201703008043151513046600007000080000
3401,EDDL,51.2895011902,6.7667798996,2023-09-18 00:20:00,,,,,18.0,1007.0,1304.0923063017708,17.0,2.0,,10000.0,99999,,294.79230630177085,0.0,111600360210180201703007043040512947600007000080000
3402,EDDM,48.3538017273,11.7861003876,2023-09-18 00:20:00,41.0,36.0,J,yellow,14.0,1014.0,6136.642808762878,14.0,2.0,90.0,4000.0,99999,,5122.342808762878,0.0,1112000902101402014030140413665151223600007410080000
3406,EDDS,48.6898994446,9.2219600677,2023-09-18 00:20:00,,,,,17.0,1011.0,4489.960512747166,14.0,4.0,280.0,10000.0,99999,,3477.6605127471657,0.0,1116002804101702014030110448995134776600007000080000
3407,EDDV,52.461101532,9.6850795746,2023-09-18 00:20:00,,,,,19.0,1010.0,1364.6487037108752,16.0,3.0,110.0,10000.0,99999,,353.0487037108752,0.0,111600110310190201603010043646513530600007000080000
3426,EDDC,51.1328010559,13.76720047,2023-09-18 00:20:00,,,,,21.0,1014.0,2523.9775618447607,14.0,9.0,160.0,10000.0,99999,,1509.4775618447607,0.0,1116001609102102014030140452395115094600007000080000
3427,EDDF,50.0264015198,8.543129921,2023-09-18 00:20:00,,,,,20.0,1009.0,1711.8698183848658,16.0,3.0,50.0,10000.0,99999,,700.9698183848658,0.0,111600050310200201603009047118517009600007000080000
3428,EDDH,53.6304016113,9.9882297516,2023-09-18 00:20:00,,,,,18.0,1010.0,1113.779433469557,15.0,6.0,120.0,10000.0,99999,,101.67943346955701,0.0,111600120610180201503010041137511016600007000080000
3429,EDDK,50.8658981323,7.1427397728,2023-09-18 00:20:00,,,,,20.0,1007.0,1579.3480126616457,17.0,6.0,120.0,10000.0,99999,,569.3480126616457,0.0,111600120610200201703007045793515693600007000080000
3430,EDDN,49.4986991882,11.0669002533,2023-09-18 00:20:00,,,,,17.0,1012.0,3792.307827266675,15.0,5.0,110.0,10000.0,99999,,2778.807827266675,0.0,1116001105101702015030120479235127788600007000080000
3431,EDDR,49.2145996094,7.1095099449,2023-09-18 00:20:00,,,,,21.0,1010.0,3219.056486731523,15.0,5.0,200.0,10000.0,99999,1.0,2208.556486731523,0.0,1116012005102102015030100421905122085600007000081000
3432,EDDW,53.0475006104,8.7866697311,2023-09-18 00:20:00,,,,,19.0,1009.0,1034.5418021531184,17.0,5.0,140.0,10000.0,99999,,23.541802153118397,0.0,11160014051019020170300904034551235600007000080000
3444,EBCI,50.4592018127,4.4538202286,2023-09-18 00:20:00,95.0,36.0,2,red,19.0,1007.0,2336.033218858259,18.0,9.0,220.0,7000.0,99999,3.0,1327.3332188582588,0.0,1114032209101902018030070433605113273600007950083000
3445,EBLG,50.6374015808,5.4432201385,2023-09-18 00:20:00,,,,,21.0,1006.0,2290.440695593973,16.0,4.0,140.0,10000.0,99999,,1281.440695593973,0.0,1116001404102102016030060429045112814600007000080000
3446,EBOS,51.1988983154,2.8622200489,2023-09-18 00:20:00,80.0,36.0,q,green,19.0,1004.0,1027.5908663830273,18.0,6.0,170.0,10000.0,99999,1.0,20.590866383027333,0.0,11160117061019020180300404027551205600007800081000
3448,ELLX,49.6265983582,6.211520195,2023-09-18 00:20:00,95.0,36.0,2,red,20.0,1009.0,3789.8141612357986,16.0,9.0,170.0,10000.0,99999,3.0,2779.9141612357985,0.0,1116031709102002016030090478985127799600007950083000
3449,ESDF,56.2667007446,15.2650003433,2023-09-18 00:20:00,,,,,14.0,1019.0,1538.0070784506327,14.0,8.0,80.0,10000.0,99999,4.0,517.7070784506327,0.0,111604080810140201403019045380515177600007000084000
3450,ESKM,60.957901001,14.5114002228,2023-09-18 00:20:00,,,,,99999.0,1022.0,99999.0,99999.0,3.0,330.0,10000.0,99999,8.0,98975.4,0.0,11160833031099999020999990302204999051989753600007000088000
3451,ESNG,67.1324005127,20.8145999908,2023-09-18 00:20:00,,,,,-1.0,1018.0,60.67896562955349,-2.0,4.0,310.0,10000.0,99999,8.0,-959.8210343704466,0.0,1116083104110102120301804606519591600007000088000
3452,ESNK,63.0485992432,17.7688999176,2023-09-18 00:20:00,45.0,36.0,N,yellow,1.0,1023.0,2452.9818663019955,1.0,4.0,300.0,100.0,99999,,1429.5818663019954,0.0,111000300410010201030230445295114295600007450080000
3453,ESNN,62.5280990601,17.4438991547,2023-09-18 00:20:00,,,,,3.0,1023.0,1216.515731239842,2.0,5.0,310.0,10000.0,99999,,193.21573123984194,0.0,11160031051003020203023042165511932600007000080000
3454,ESNO,63.4082984924,18.9899997711,2023-09-18 00:20:00,,,,,1.0,1021.0,16.464710885878493,-0.0,3.0,310.0,10000.0,99999,1.0,-1006.4352891141215,0.0,11160131031001021003021041645110065600007000081000
3455,ESNQ,67.8219985962,20.3367996216,2023-09-18 00:20:00,,,,,2.0,1017.0,24.41775850286752,-1.0,7.0,200.0,10000.0,99999,8.0,-995.1822414971325,0.0,1116082007100202110301704244519958600007000088000
3456,ESNS,64.6248016357,21.0769004822,2023-09-18 00:20:00,,,,,1.0,1021.0,8758.952933564356,1.0,3.0,270.0,10000.0,99999,,7737.652933564356,0.0,111600270310010201030210475895177376600007000080000
3457,ESNU,63.7918014526,20.2828006744,2023-09-18 00:20:00,,,,,-1.0,1022.0,349.0341410164532,-2.0,2.0,330.0,10000.0,99999,,-673.2658589835468,0.0,11160033021101021203022043490516737600007000080000
3458,ESPA,65.543800354,22.1219997406,2023-09-18 00:20:00,,,,,1.0,1021.0,4006.60822192047,0.0,1.0,,10000.0,99999,3.0,2986.20822192047,0.0,111603360110010200030210400665129862600007000083000
3459,ESSL,58.4062004089,15.6805000305,2023-09-18 00:20:00,,,,,5.0,1021.0,2467.2108318271917,4.0,3.0,120.0,10000.0,99999,,1445.2108318271917,0.0,111600120310050204030210446725114452600007000080000
3486,LGAD,37.9207000732,21.2926006317,2023-09-18 00:20:00,,,,,18.0,1015.0,1123.3123182834195,18.0,0.0,0.0,10000.0,99999,,107.51231828341952,0.0,111600000010180201803015041233511075600007000080000
3487,LGTS,40.5196990967,22.9708995819,2023-09-18 00:20:00,,,,,20.0,1018.0,1056.571282871794,16.0,2.0,,10000.0,99999,1.0,37.77128287179403,0.0,11160136021020020160301804056551377600007000081000
3511,EDAC,50.9819450378,12.5063886642,2023-09-18 00:20:00,,,,,15.0,1013.0,2845.825624850586,13.0,2.0,,10000.0,99999,,1831.8256248505859,0.0,1116003602101502013030130484585118318600007000080000
3513,EDFH,49.9486999512,7.2638897896,2023-09-18 00:20:00,,,,,18.0,1009.0,5345.722254769348,16.0,7.0,140.0,10000.0,99999,,4335.222254769348,0.0,1116001407101802016030090434575143352600007000080000
3515,EDHK,54.3794441223,10.145277977,2023-09-18 00:20:00,,,,,19.0,1011.0,1203.5488704529691,16.0,6.0,130.0,10000.0,99999,,191.54887045296914,0.0,111600130610190201603011042035511915600007000080000
3516,EDHL,53.8054008484,10.7192001343,2023-09-18 00:20:00,,,,,19.0,1011.0,1109.3085993594452,16.0,4.0,130.0,10000.0,99999,1.0,96.30859935944522,0.0,11160113041019020160301104109351963600007000081000
3517,EDLN,51.2302780151,6.5044441223,2023-09-18 00:20:00,,,,,18.0,1007.0,1257.6657030694869,18.0,3.0,130.0,10000.0,99999,1.0,248.46570306948684,0.0,111601130310180201803007042576512484600007000081000
3518,EDLP,51.6141014099,8.6163196564,2023-09-18 00:20:00,,,,,21.0,1010.0,2388.298607712511,16.0,5.0,140.0,10000.0,99999,,1377.298607712511,0.0,1116001405102102016030100438825113772600007000080000
3519,EDLW,51.5182991028,7.6122398377,2023-09-18 00:20:00,,,,,21.0,1007.0,1795.2405329807766,16.0,8.0,120.0,10000.0,99999,1.0,785.2405329807766,0.0,111601120810210201603007047952517852600007000081000
3520,EDMA,48.42527771,10.9316673279,2023-09-18 00:20:00,,,,,15.0,1013.0,5862.119212792157,14.0,2.0,,10000.0,99999,,4848.919212792157,0.0,1116003602101502014030130486215148489600007000080000
3522,EDNY,47.6712989807,9.5114898682,2023-09-18 00:20:00,,,,,16.0,1012.0,5037.911783187755,14.0,2.0,,10000.0,99999,6.0,4024.9117831877547,0.0,1116063602101602014030120403795140249600007000086000
3523,EDQM,50.2886123657,11.8563890457,2023-09-18 00:20:00,,,,,14.0,1015.0,7867.601735425699,13.0,3.0,160.0,10000.0,99999,,6853.101735425699,0.0,1116001603101402013030150486765168531600007000080000
3524,EDSB,48.7793998718,8.0804996491,2023-09-18 00:20:00,,,,,19.0,1008.0,1850.3641435800685,18.0,1.0,,10000.0,99999,4.0,839.2641435800684,0.0,111604360110190201803008048503518392600007000084000
3526,EDVE,52.3191986084,10.5560998917,2023-09-18 00:20:00,,,,,17.0,1011.0,1679.4899520499323,14.0,2.0,110.0,10000.0,99999,,667.2899520499323,0.0,111600110210170201403011046794516672600007000080000
3528,EDXW,54.9132003784,8.340470314,2023-09-18 00:20:00,,,,,18.0,1008.0,1107.588458303045,16.0,12.0,140.0,10000.0,99999,3.0,96.48845830304492,0.0,11160314121018020160300804107551964600007000083000
3535,EBAW,51.1893997192,4.4602799416,2023-09-18 00:20:00,,,,,18.0,1005.0,1080.5753273575112,18.0,3.0,100.0,10000.0,99999,,72.57532735751124,0.0,11160010031018020180300504080551725600007000080000
3536,EBBR,50.9014015198,4.4844398499,2023-09-18 00:20:00,16.0,36.0,1,,20.0,1005.0,1341.1841153335306,18.0,5.0,140.0,10000.0,99999,1.0,332.6841153335306,0.0,111601140510200201803005043411513326600007160081000
3537,EGPD,57.2019004822,-2.1977798939,2023-09-18 00:20:00,,,,,13.0,1004.0,1633.94572248111,12.0,8.0,150.0,10000.0,99999,4.0,625.9457224811099,0.0,111604150810130201203004046339516259600007000084000
3538,EGPK,55.5093994141,-4.5866699219,2023-09-18 00:20:00,61.0,36.0,^,green,14.0,1000.0,1163.9153871489375,13.0,5.0,110.0,10000.0,99999,1.0,159.51538714893752,0.0,111601110510140201303000041639511595600007610081000
3539,EGPO,58.2155990601,-6.3311100006,2023-09-18 00:20:00,,,,,13.0,999.0,1068.2637881119201,13.0,12.0,160.0,3300.0,99999,5.0,65.26378811192012,1.6,11120516121013020130399904068251652601607000085000
3541,EKAH,56.2999992371,10.6190004349,2023-09-18 00:20:00,,,,,17.0,1014.0,1186.888078737819,13.0,15.0,110.0,10000.0,99999,3.0,171.18807873781884,0.0,111603111510170201303014041868511711600007000083000
3542,EKKA,56.2975006104,9.1246299744,2023-09-18 00:20:00,61.0,36.0,^,green,16.0,1010.0,1403.6011138314736,14.0,13.0,110.0,9000.0,99999,6.0,390.60111383147364,0.0,111506111310160201403010044036513906600007610086000
3543,EKYT,57.0927589138,9.8492431641,2023-09-18 00:20:00,,,,,17.0,1013.0,1033.449313379295,14.0,19.0,120.0,10000.0,99999,8.0,18.549313379295086,0.0,11160812191017020140301304033451185600007000088000
3544,ENAN,69.2925033569,16.1441993713,2023-09-18 00:20:00,53.0,36.0,V,green,8.0,1014.0,1207.365355321644,6.0,12.0,190.0,10000.0,99999,7.0,0.0,0.0,1116071912100802060301404207351000600007530087000
3545,ENBO,67.269203186,14.3653001785,2023-09-18 00:20:00,,,,,7.0,1018.0,1235.5981254574585,4.0,10.0,100.0,10000.0,99999,4.0,215.8981254574585,0.0,11160410101007020403018042355512158600007000084000
3546,ENGM,60.193901062,11.100399971,2023-09-18 00:20:00,,,,,4.0,1020.0,9.386764920137013,4.0,2.0,360.0,10000.0,99999,,0.0,0.0,11160036021004020403020049351000600007000080000
3547,ENOL,63.6988983154,9.6040000916,2023-09-18 00:20:00,,,,,10.0,1015.0,1114.0772676014908,7.0,8.0,120.0,10000.0,99999,,96.5772676014908,0.0,1116001208101002070301504114051965600007000080000
3548,ENSH,68.2433013916,14.6691999435,2023-09-18 00:20:00,,,,,10.0,1016.0,1111.5662341667216,8.0,23.0,200.0,10000.0,99999,2.0,94.56623416672164,0.2,1116022023101002080301604111551945600207000082000
3549,ENTC,69.6832962036,18.9188995361,2023-09-18 00:20:00,61.0,36.0,^,green,7.0,1014.0,1172.309794802912,4.0,14.0,180.0,10000.0,99999,,155.40979480291196,0.3,11160018141007020403014041723511554600307610080000
3550,ESSA,59.6519012451,17.9186000824,2023-09-18 00:20:00,,,,,1.0,1023.0,7781.8452799475435,1.0,3.0,70.0,10000.0,99999,,6758.8452799475435,0.0,111600070310010201030230478185167588600007000080000
3557,EGSH,52.6758003235,1.2827800512,2023-09-18 00:20:00,61.0,36.0,^,green,18.0,1003.0,1236.0186611069796,18.0,5.0,120.0,7000.0,99999,4.0,229.0186611069796,0.0,111404120510180201803003042360512290600007610084000
3564,LICD,35.4978981018,12.6181001663,2023-09-18 00:20:00,,,,,26.0,1018.0,1113.4764239209173,22.0,7.0,150.0,10000.0,99999,,94.97642392091734,0.0,11160015071026020220301804113451949600007000080000
3567,EHDL,52.0606002808,5.8730602264,2023-09-18 00:25:00,,,,,19.0,1006.0,1308.5010337234537,17.0,6.0,100.0,10000.0,99999,5.0,299.4010337234537,0.0,111605100610190201703006043085512994600007000085000
3570,EHGR,51.567401886,4.9318299294,2023-09-18 00:25:00,,,,,19.0,1005.0,1095.2169358771714,18.0,5.0,130.0,10000.0,99999,8.0,87.21693587717141,0.0,11160813051019020180300504095251872600007000088000
3571,EHLE,52.4603004456,5.5272197723,2023-09-18 00:25:00,10.0,36.0,+,yellow,18.0,1006.0,981.3051093141845,17.0,5.0,100.0,9000.0,99999,,-27.694890685815494,0.0,11150010051018020170300604981351273600007100080000
3572,EHLW,53.2285995483,5.7605600357,2023-09-18 00:25:00,45.0,36.0,N,yellow,16.0,1007.0,1013.4607259785004,16.0,5.0,60.0,300.0,99999,8.0,4.160725978500409,0.0,11100806051016020160300704013451041600007450088000
3574,EHVK,51.6563987732,5.7086100578,2023-09-18 00:25:00,,,,,19.0,1006.0,1139.8118667974402,18.0,5.0,90.0,10000.0,99999,7.0,131.01186679744023,0.0,111607090510190201803006041398511310600007000087000
3575,EHWO,51.4491004944,4.3420300484,2023-09-18 00:25:00,,,,,19.0,1005.0,1121.5887725424293,18.0,2.0,,10000.0,99999,8.0,113.48877254242927,0.0,111608360210190201803005041215511134600007000088000
3587,LSMM,46.7433013916,8.1099996567,2023-09-18 00:20:00,,,,,16.0,1013.0,6763.1818845649095,14.0,3.0,,10000.0,99999,,5746.78188456491,0.0,1116003603101602014030130476315157467600007000080000
3590,EGBB,52.4538993835,-1.7480299473,2023-09-18 00:20:00,10.0,36.0,+,yellow,17.0,1002.0,1743.6697366027583,16.0,3.0,150.0,3000.0,99999,8.0,738.6697366027583,0.5,111108150310170201603002047436517386600507100088000
3591,EGGW,51.8746986389,-0.3683330119,2023-09-18 00:20:00,63.0,36.0,',green,17.0,1003.0,2263.390794857605,17.0,6.0,150.0,1600.0,99999,8.0,1257.5907948576053,0.0,1110081506101702017030030426335112575600007630088000
3592,EGJJ,49.207901001,-2.1955099106,2023-09-18 00:20:00,,,,,17.0,1005.0,1625.435530132477,14.0,9.0,240.0,10000.0,99999,,619.2355301324769,0.0,111600240910170201403005046254516192600007000080000
3593,EGLC,51.5052986145,0.0552779995,2023-09-18 00:20:00,61.0,36.0,^,green,18.0,1004.0,1040.4921625434943,16.0,7.0,230.0,5000.0,99999,1.0,33.99216254349426,8.6,11130123071018020160300404040451339608507610081000
3594,EGNM,53.8658981323,-1.6605700254,2023-09-18 00:20:00,,,,,15.0,1002.0,2947.9782752188153,15.0,6.0,150.0,300.0,99999,8.0,1942.0782752188152,5.2,1110081506101502015030020494795119420605207000088000
3595,EGPA,58.9578018188,-2.9049999714,2023-09-18 00:20:00,61.0,36.0,^,green,13.0,1003.0,1138.4608250272436,11.0,10.0,150.0,10000.0,99999,1.0,131.46082502724357,0.7,111601151010130201103003041384511314600707610081000
3596,EGPF,55.8718986511,-4.4330601692,2023-09-18 00:20:00,,,,,14.0,1001.0,1065.3799747526573,13.0,8.0,70.0,10000.0,99999,,61.37997475265729,0.0,11160007081014020130300104065351613600007000080000
3598,EGPU,56.4991989136,-6.8691701889,2023-09-18 00:20:00,,,,,14.0,999.0,1093.4737951463808,13.0,9.0,200.0,1000.0,99999,8.0,90.37379514638076,0.0,11100820091014020130399904093451903600007000088000
3659,EYSA,55.893901825,23.3950004578,2023-09-18 00:20:00,,,,,13.0,1021.0,2451.8418060197173,12.0,5.0,10.0,10000.0,99999,,0.0,0.0,11160001051013020120302104451851000600007000080000
3676,LIRN,40.8860015869,14.2908000946,2023-09-18 00:20:00,,,,,21.0,1019.0,1552.6758017265975,16.0,2.0,,10000.0,99999,,533.4758017265974,0.0,111600360210210201603019045526515334600007000080000
3678,EDAH,53.8787002563,14.152299881,2023-09-18 00:20:00,,,,,18.0,1014.0,1199.6128652058605,16.0,5.0,90.0,10000.0,99999,1.0,183.9128652058605,0.0,111601090510180201603014041996511839600007000081000
3679,EDFM,49.4730567932,8.514166832,2023-09-18 00:20:00,,,,,24.0,1009.0,1490.1765045641416,15.0,5.0,150.0,10000.0,99999,,478.6765045641416,0.0,111600150510240201503009044901514786600007000080000
3680,EDHI,53.5352783203,9.8355560303,2023-09-18 00:20:00,,,,,19.0,1010.0,1052.146739732063,15.0,4.0,100.0,10000.0,99999,,41.146739732063,0.0,11160010041019020150301004052151411600007000080000
3681,EDMO,48.081401825,11.2831001282,2023-09-18 00:20:00,,,,,13.0,1014.0,8346.683402709483,13.0,0.0,0.0,10000.0,99999,,7332.683402709483,0.0,1116000000101302013030140434665173326600007000080000
3682,EDTL,48.3693008423,7.8277201653,2023-09-18 00:20:00,,,,,20.0,1010.0,2033.846190462679,14.0,5.0,190.0,10000.0,99999,6.0,1023.746190462679,0.0,1116061905102002014030100403385110237600007000086000
3683,EDVK,51.4083328247,9.3774995804,2023-09-18 00:20:00,,,,,17.0,1010.0,3374.396287049351,16.0,3.0,80.0,10000.0,99999,,2362.396287049351,0.0,1116000803101702016030100437435123623600007000080000
3686,ETHN,49.3919448853,9.9588890076,2023-09-18 00:20:00,,,,,19.0,1012.0,4255.289623561017,15.0,10.0,150.0,10000.0,99999,3.0,3242.889623561017,0.0,1116031510101902015030120425525132428600007000083000
3687,ETHS,52.9193992615,10.1975002289,2023-09-18 00:20:00,,,,,15.0,1010.0,1635.1559089292405,14.0,3.0,80.0,10000.0,99999,6.0,623.4559089292404,0.0,111606080310150201403010046351516234600007000086000
3688,ETMN,53.7677001953,8.6584997177,2023-09-18 00:20:00,,,,,17.0,1009.0,1161.60748501437,16.0,4.0,140.0,10000.0,99999,6.0,150.90748501436997,0.0,111606140410170201603009041616511509600007000086000
3690,ETNW,52.4572982788,9.4271697998,2023-09-18 00:20:00,,,,,18.0,1009.0,1392.9250092799925,17.0,5.0,130.0,10000.0,99999,6.0,381.42500927999254,0.0,111606130510180201703009043929513814600007000086000
3691,ETSH,51.7677993774,13.1676998138,2023-09-18 00:20:00,,,,,16.0,1012.0,1647.9706856369771,13.0,5.0,130.0,10000.0,99999,3.0,634.0706856369771,0.0,111603130510160201303012046479516340600007000083000
3693,ETSN,48.7109985352,11.2115001678,2023-09-18 00:20:00,,,,,16.0,1013.0,4656.061128446406,15.0,2.0,40.0,10000.0,99999,6.0,3642.361128446406,0.0,1116060402101602015030130465605136423600007000086000
3711,EHBK,50.9117012024,5.7701401711,2023-09-18 00:25:00,,,,,19.0,1006.0,1772.007508067386,17.0,3.0,110.0,10000.0,99999,,763.3075080673859,0.0,111600110310190201703006047720517633600007000080000
3712,EHEH,51.4500999451,5.3745298386,2023-09-18 00:25:00,,,,,20.0,1005.0,1135.442581617282,18.0,4.0,120.0,10000.0,99999,8.0,127.14258161728208,0.0,111608120410200201803005041354511271600007000088000
3713,EHGG,53.1197013855,6.5794401169,2023-09-18 00:25:00,10.0,36.0,+,yellow,15.0,1007.0,1046.3201169380945,15.0,3.0,90.0,1700.0,99999,,36.72011693809452,0.0,11110009031015020150300704046351367600007100080000
3714,EHRD,51.9569015503,4.4372200966,2023-09-18 00:25:00,,,,,19.0,1005.0,978.0459030813,18.0,6.0,120.0,7000.0,99999,8.0,-30.054096918699997,0.0,11140812061019020180300504978051309600007000088000
3715,ETHB,52.2784996033,9.0821695328,2023-09-18 00:20:00,,,,,18.0,1009.0,1487.9393510850196,17.0,3.0,,10000.0,99999,6.0,476.83935108501953,0.0,111606360310180201703009044879514768600007000086000
3716,ETHF,51.1146,9.286,2023-09-18 00:20:00,,,,,17.0,1010.0,4697.396053769691,16.0,2.0,320.0,10000.0,99999,1.0,3685.396053769691,0.0,1116013202101702016030100469735136853600007000081000
3717,ETNN,50.831199646,6.6581702232,2023-09-18 00:20:00,,,,,18.0,1007.0,1837.6424339167659,17.0,2.0,150.0,10000.0,99999,6.0,828.0424339167658,0.0,111606150210180201703007048376518280600007000086000
3718,ETSL,48.1855010986,10.8612003326,2023-09-18 00:20:00,42.0,36.0,K,yellow,14.0,1013.0,7360.494721710695,14.0,2.0,160.0,10000.0,99999,3.0,6346.794721710695,0.0,1116031602101402014030130436045163467600007420083000
3748,LTCS,37.4456634521,38.8955917358,2023-09-18 00:20:00,,,,,21.0,1010.0,7278.564586601299,2.0,7.0,350.0,10000.0,99999,,6268.564586601299,0.0,111600350710210202030100427855162685600007000080000
3752,LTFM,41.275333,28.752,2023-09-18 00:20:00,,,,,21.0,1019.0,1613.8335664047197,13.0,16.0,80.0,10000.0,99999,3.0,0.0,0.0,11160308161021020130301904613851000600007000083000
3780,LTAJ,36.9472007751,37.4786987305,2023-09-18 00:20:00,,,,,23.0,1008.0,5811.6326601391675,9.0,2.0,,10000.0,99999,,4807.432660139168,0.0,111600360210230209030080481165148074600007000080000
3783,LTAU,38.770401001,35.4953994751,2023-09-18 00:20:00,,,,,11.0,1018.0,15.16864464522105,6.0,4.0,90.0,10000.0,99999,,-998.7313553547789,0.0,1116000904101102060301804151519982600007000080000
3784,LTCC,37.893901825,40.2010002136,2023-09-18 00:20:00,,,,,20.0,1008.0,6427.5799744814485,2.0,6.0,330.0,10000.0,99999,,5423.0799744814485,0.0,111600330610200202030080442755154230600007000080000
3790,LTAC,40.1281013489,32.995098114,2023-09-18 00:20:00,,,,,12.0,1019.0,13.235111818286157,8.0,6.0,30.0,10000.0,99999,,-1001.9648881817138,0.0,11160003061012020803019041325110010600007000080000
3794,LTAZ,38.771900177,34.5345001221,2023-09-18 00:20:00,,,,,12.0,1018.0,13.142206653285731,6.0,7.0,200.0,10000.0,99999,,0.0,0.0,111600200710120206030180413151000600007000080000
3795,LTBR,40.2551994324,29.5625991821,2023-09-18 00:20:00,,,,,12.0,1018.0,3925.5526849787957,11.0,3.0,110.0,10000.0,99999,,2907.852684978796,0.0,1116001103101202011030180492555129078600007000080000
3797,LTFC,37.8554000854,30.3684005737,2023-09-18 00:20:00,,,,,17.0,1015.0,9.17581656863323,6.0,8.0,360.0,10000.0,99999,,-1006.8241834313668,0.0,1116003608101702060301504915110061600007000080000
3798,LTFJ,40.898601532,29.3092002869,2023-09-18 00:20:00,,,,,17.0,1018.0,1733.6704755206476,13.0,7.0,70.0,10000.0,99999,,715.4704755206476,0.0,111600070710170201303018047336517154600007000080000
3799,EGPH,55.9500007629,-3.3724999428,2023-09-18 00:20:00,,,,,14.0,1001.0,1352.9244295313495,12.0,4.0,20.0,10000.0,99999,1.0,347.92442953134946,0.0,111601020410140201203001043529513479600007000081000
3800,EHAM,52.3086013794,4.7638897896,2023-09-18 00:25:00,,,,,19.0,1005.0,985.2027302237487,18.0,8.0,110.0,10000.0,99999,,-24.09726977625121,0.0,11160011081019020180300504985251249600007000080000
3848,LFCK,43.5563011169,2.2891800404,2023-09-18 00:30:00,,,,,22.0,1012.0,2512.620422900665,19.0,3.0,140.0,10000.0,99999,,0.0,0.0,11160014031022020190301204512651000600007000080000
3849,LFLP,45.9291992188,6.098760128,2023-09-18 00:30:00,,,,,18.0,1014.0,4998.611407278323,17.0,2.0,,10000.0,99999,,3985.011407278323,0.0,1116003602101802017030140499865139850600007000080000
3853,LFQA,49.2086982727,4.1565799713,2023-09-18 00:30:00,,,,,19.0,1007.0,1636.1329826918538,17.0,4.0,180.0,10000.0,99999,5.0,627.6329826918538,0.0,111605180410190201703007046361516276600007000085000
3863,EPBY,53.0968017578,17.9776992798,2023-09-18 00:30:00,,,,,16.0,1016.0,1576.3990168749535,14.0,3.0,90.0,10000.0,99999,,0.0,0.0,11160009031016020140301604576351000600007000080000
3868,EPSY,53.481944,20.937778,2023-09-18 00:30:00,,,,,13.0,1018.0,2521.5024724436494,13.0,1.0,,10000.0,99999,,1502.5024724436494,0.0,1116003601101302013030180452155115025600007000080000
3883,LFGA,48.1099014282,7.3590102196,2023-09-18 00:30:00,17.0,36.0,2,red,21.0,1010.0,2231.4027521804214,15.0,2.0,,10000.0,99999,,1221.0027521804213,0.0,1116003602102102015030100423145112210600007170080000
3884,LFJR,47.5602989197,-0.3122220039,2023-09-18 00:30:00,,,,,17.0,1008.0,1431.9018887640407,16.0,3.0,180.0,10000.0,99999,5.0,423.9018887640407,0.0,111605180310170201603008044319514239600007000085000
3888,LFPT,49.0965995789,2.0408298969,2023-09-18 00:30:00,,,,,17.0,1006.0,1745.6286766272563,17.0,4.0,180.0,10000.0,99999,1.0,738.6286766272563,1.1,111601180410170201703006047456517386601107000081000
3891,LHKE,46.9174995422,19.7492008209,2023-09-18 00:15:00,,,,,18.0,1019.0,1844.9711597025387,14.0,6.0,150.0,10000.0,99999,,824.9711597025387,0.0,111600150610180201403019048449518249600007000080000
3892,LHPA,47.3636016846,17.5007991791,2023-09-18 00:15:00,,,,,16.0,1017.0,2210.8570550062946,15.0,4.0,170.0,10000.0,99999,,1192.8570550062946,0.0,1116001704101602015030170421085111928600007000080000
3894,LHPR,47.6244010925,17.8136005402,2023-09-18 00:15:00,,,,,16.0,1017.0,2090.873827467595,15.0,5.0,140.0,8000.0,99999,,1072.4738274675951,0.0,1114001405101602015030170409085110724600007000080000
3895,LHSM,46.6864013672,17.1590995789,2023-09-18 00:15:00,,,,,16.0,1018.0,2047.7015369300987,16.0,0.0,0.0,10000.0,99999,1.0,0.0,0.0,11160100001016020160301804047751000600007000081000
3896,LHSN,47.1228981018,20.2355003357,2023-09-18 00:15:00,,,,,18.0,1019.0,1715.5628603841565,14.0,6.0,180.0,10000.0,99999,,696.5628603841565,0.0,111600180610180201403019047155516965600007000080000
3935,LFRL,48.2817001343,-4.4450201988,2023-09-18 00:30:00,,,,,17.0,1006.0,1651.519649804402,16.0,9.0,220.0,10000.0,99999,5.0,644.919649804402,0.0,111605220910170201603006046515516449600007000085000
3940,LFYR,47.3208007813,1.6888899803,2023-09-18 00:30:00,,,,,17.0,1008.0,1659.721274818484,17.0,4.0,180.0,10000.0,99999,,650.4212748184841,0.9,111600180410170201703008046597516504600907000080000
3983,EGXV,53.8758010864,-0.4350000024,2023-09-18 00:20:00,10.0,36.0,+,yellow,16.0,1002.0,1080.29374863003,16.0,5.0,130.0,4900.0,99999,6.0,73.19374863002997,0.5,11130613051016020160300204080251731600507100086000
4015,LFBY,43.689201355,-1.0688899755,2023-09-18 00:30:00,,,,,18.0,1010.0,1225.8881205422722,15.0,3.0,,10000.0,99999,,215.68812054227215,0.0,111600360310180201503010042258512156600007000080000
4033,LYBT,44.935299,20.2575,2023-09-18 00:30:00,,,,,18.0,1019.0,1582.4918409977186,17.0,5.0,100.0,10000.0,99999,,563.4918409977186,0.0,111600100510180201703019045824515634600007000080000
4034,LYKV,43.818298,20.5872,2023-09-18 00:30:00,,,,,14.0,1020.0,3181.238018754898,14.0,2.0,300.0,10000.0,99999,,2161.538018754898,0.0,1116003002101402014030200418125121615600007000080000
4038,LYVR,45.1469,21.3099,2023-09-18 00:30:00,,,,,21.0,1019.0,1517.555710203423,15.0,16.0,130.0,10000.0,99999,,498.5557102034229,0.0,111600131610210201503019045175514985600007000080000
4070,LTAF,36.9822006226,35.2803993225,2023-09-18 00:20:00,,,,,23.0,1007.0,1106.2302022968076,20.0,5.0,60.0,10000.0,99999,,98.23020229680765,0.0,11160006051023020200300704106251982600007000080000
4071,LTAG,37.0021018982,35.4258995056,2023-09-18 00:20:00,,,,,20.0,1007.0,1449.8770215469206,17.0,4.0,20.0,10000.0,99999,,442.0770215469206,0.0,111600020410200201703007044498514420600007000080000
4072,LTAI,36.8987007141,30.8005008698,2023-09-18 00:20:00,,,,,26.0,1008.0,1253.7561513251476,8.0,10.0,320.0,10000.0,99999,,243.65615132514756,0.0,11160032101026020803008042537512436600007000080000
4073,LTAP,40.8293991089,35.5219993591,2023-09-18 00:20:00,,,,,12.0,1018.0,8218.17554803459,9.0,10.0,20.0,10000.0,99999,3.0,7200.175548034589,0.0,111603021010120209030180421815172001600007000083000
4074,LTAT,38.4352989197,38.0909996033,2023-09-18 00:20:00,,,,,15.0,1012.0,10.156104475117589,6.0,4.0,190.0,10000.0,99999,,-1000.9438955248825,0.0,11160019041015020603012041015110000600007000080000
4075,LTBA,40.9768981934,28.8145999908,2023-09-18 00:20:00,,,,,21.0,1018.0,1302.7208539485916,13.0,12.0,60.0,10000.0,99999,1.0,283.82085394859166,0.0,111601061210210201303018043027512838600007000081000
4076,LTBJ,38.2924003601,27.156999588,2023-09-18 00:20:00,,,,,23.0,1011.0,1703.1154428993802,12.0,15.0,350.0,10000.0,99999,,691.0154428993802,0.0,111600351510230201203011047031516910600007000080000
4077,LTBS,36.7131004333,28.7924995422,2023-09-18 00:20:00,,,,,23.0,1008.0,1038.1415298830825,11.0,9.0,20.0,10000.0,99999,,28.441529883082467,0.0,11160002091023020110300804038151284600007000080000
4078,LTBU,41.1381988525,27.9190998077,2023-09-18 00:20:00,,,,,16.0,1019.0,2532.719123944113,12.0,6.0,20.0,10000.0,99999,3.0,1513.719123944113,0.0,1116030206101602012030190453275115137600007000083000
4079,LTCE,39.9565010071,41.1702003479,2023-09-18 00:20:00,,,,,9.0,1019.0,22.808993558534926,5.0,10.0,60.0,10000.0,99999,,-996.1910064414651,0.0,1116000610100902050301904228519968600007000080000
4080,LTCG,40.995098114,39.7896995544,2023-09-18 00:20:00,,,,,21.0,1017.0,1195.185547338362,14.0,4.0,180.0,10000.0,99999,6.0,177.38554733836213,0.0,111606180410210201403017041951511773600007000086000
4081,LTCJ,37.9290008545,41.1166000366,2023-09-18 00:20:00,,,,,14.0,1008.0,7324.1645404584215,3.0,4.0,30.0,10000.0,99999,,6317.6645404584215,0.0,111600030410140203030080432415163176600007000080000
4082,LTFE,37.2505989075,27.6643009186,2023-09-18 00:20:00,,,,,23.0,1009.0,1040.6899459970978,12.0,4.0,100.0,10000.0,99999,,0.0,0.0,11160010041023020120300904040651000600007000080000
4131,LGEL,38.0638008118,23.5559997559,2023-09-18 00:20:00,,,,,24.0,1016.0,1231.603434644985,15.0,4.0,320.0,10000.0,99999,,214.80343464498515,0.0,111600320410240201503016042316512148600007000080000
4151,EPLL,51.7219009399,19.3980998993,2023-09-18 00:30:00,,,,,15.0,1017.0,2739.619015363169,14.0,3.0,60.0,9000.0,99999,,1721.1190153631692,0.0,1115000603101502014030170473965117211600007000080000
4152,EPWR,51.1026992798,16.885799408,2023-09-18 00:30:00,,,,,16.0,1016.0,2032.4403414662963,14.0,4.0,110.0,10000.0,99999,,1016.4403414662963,0.0,1116001104101602014030160403245110164600007000080000
4153,LFBE,44.8252983093,0.5186110139,2023-09-18 00:30:00,,,,,18.0,1011.0,1360.8668143565603,17.0,7.0,140.0,10000.0,99999,,350.8668143565603,0.0,111600140710180201703011043608513508600007000080000
4154,LFBG,45.6582984924,-0.3174999952,2023-09-18 00:30:00,,,,,18.0,1009.0,1212.2454306497204,17.0,3.0,110.0,10000.0,99999,,203.14543064972042,0.0,111600110310180201703009042122512031600007000080000
4157,LFLX,46.8622016907,1.7306699753,2023-09-18 00:30:00,,,,,17.0,1009.0,2285.0866548232866,17.0,4.0,160.0,10000.0,99999,,1276.0866548232866,0.0,1116001604101702017030090428505112760600007000080000
4158,LFMI,43.5227012634,4.9238400459,2023-09-18 00:30:00,,,,,23.0,1013.0,1139.5742323969337,19.0,3.0,,10000.0,99999,,127.57423239693367,0.0,111600360310230201903013041395511275600007000080000
4159,LFMK,43.2159996033,2.306319952,2023-09-18 00:30:00,10.0,36.0,+,yellow,22.0,1011.0,1778.4535791137246,22.0,7.0,90.0,2000.0,99999,8.0,767.2535791137245,0.0,111108090710220202203011047784517672600007100088000
4160,LFMO,44.140499115,4.8667201996,2023-09-18 00:30:00,,,,,23.0,1012.0,1325.9241356374916,18.0,2.0,,10000.0,99999,,312.92413563749164,0.0,111600360210230201803012043259513129600007000080000
4161,LFMU,43.3235015869,3.3538999557,2023-09-18 00:30:00,,,,,23.0,1012.0,1097.6804111655838,22.0,8.0,120.0,6000.0,99999,8.0,85.68041116558379,0.0,11130812081023020220301204097651856600007000088000
4162,LHDC,47.488899231,21.6152992249,2023-09-18 00:15:00,,,,,18.0,1020.0,1805.6647751251182,16.0,3.0,150.0,10000.0,99999,,785.2647751251183,0.0,111600150310180201603020048056517852600007000080000
4163,LHPP,45.9908981323,18.2409992218,2023-09-18 00:15:00,,,,,18.0,1019.0,3510.9136317818006,15.0,6.0,60.0,10000.0,99999,,2492.0136317818005,0.0,1116000606101802015030190451095124920600007000080000
4164,LKCV,49.9397010803,15.3817996979,2023-09-18 00:30:00,,,,,17.0,1015.0,3051.070163542132,14.0,7.0,140.0,10000.0,99999,,2035.070163542132,0.0,1116001407101702014030150405105120350600007000080000
4165,LKNA,49.1657981873,16.1249008179,2023-09-18 00:30:00,,,,,17.0,1017.0,5359.0153532217155,14.0,7.0,110.0,10000.0,99999,,4341.915353221715,0.0,1116001107101702014030170435905143419600007000080000
4166,LKPD,50.0134010315,15.7385997772,2023-09-18 00:30:00,,,,,15.0,1016.0,3188.8410621741286,14.0,3.0,80.0,10000.0,99999,,2172.2410621741287,0.0,1116000803101502014030160418885121722600007000080000
4170,LZPP,48.6251983643,17.8283996582,2023-09-18 00:30:00,,,,,15.0,1018.0,2552.1714553284114,14.0,4.0,320.0,10000.0,99999,,0.0,0.0,11160032041015020140301804552151000600007000080000
4171,LZZI,49.2314987183,18.6135005951,2023-09-18 00:30:00,,,,,14.0,1019.0,4409.765121593971,13.0,2.0,110.0,10000.0,99999,1.0,0.0,0.0,11160111021014020130301904409751000600007000081000
4172,EGDM,51.1521987915,-1.747410059,2023-09-18 00:20:00,,,,,17.0,1002.0,1946.7163904391398,16.0,5.0,220.0,10000.0,99999,4.0,942.7163904391398,0.1,111604220510170201603002049467519427600107000084000
4173,EGDR,50.086101532,-5.255710125,2023-09-18 00:20:00,,,,,17.0,1002.0,1596.3411350213116,13.0,13.0,200.0,10000.0,99999,3.0,591.9411350213117,0.0,111603201310170201303002045963515919600007000083000
4176,EGOS,52.7981987,-2.6680400372,2023-09-18 00:20:00,10.0,36.0,+,yellow,16.0,1002.0,1590.451520333094,15.0,2.0,210.0,2200.0,99999,1.0,586.8515203330941,0.2,111101210210160201503002045904515868600207100081000
4177,EGOV,53.2481002808,-4.5353398323,2023-09-18 00:20:00,63.0,36.0,',green,17.0,1000.0,1075.544820425918,16.0,14.0,200.0,7000.0,99999,8.0,73.54482042591803,0.5,11140820141017020160300004075551735600507630088000
4178,EGQK,57.6493988037,-3.5606400967,2023-09-18 00:20:00,63.0,36.0,',green,13.0,1001.0,1059.5971445832504,12.0,5.0,110.0,8000.0,99999,3.0,53.59714458325038,0.6,11140311051013020120300104059551535600607630083000
4185,EGWU,51.5530014038,-0.418166995,2023-09-18 00:20:00,63.0,36.0,',green,16.0,1003.0,1283.0740920753954,15.0,8.0,160.0,2700.0,99999,3.0,277.7740920753954,0.0,111103160810160201503003042830512777600007630083000
4193,LFOV,48.0313987732,-0.7429860234,2023-09-18 00:30:00,,,,,18.0,1007.0,1714.108543493102,16.0,7.0,180.0,10000.0,99999,8.0,706.0085434931019,0.0,111608180710180201603007047141517060600007000088000
4196,LFRV,47.7233009338,-2.7185599804,2023-09-18 00:30:00,10.0,36.0,+,yellow,18.0,1006.0,1991.4683381689142,18.0,3.0,230.0,2000.0,99999,,985.4683381689142,0.8,111100230310180201803006049914519854600807100080000
4197,LFSG,48.3250007629,6.0699801445,2023-09-18 00:30:00,63.0,36.0,',green,19.0,1010.0,3555.9721121210428,16.0,11.0,190.0,10000.0,99999,,2545.172112121043,0.0,1116001911101902016030100455595125451600007630080000
4209,LFAQ,49.9715003967,2.6976599693,2023-09-18 00:30:00,,,,,17.0,1005.0,1842.1799494326524,17.0,6.0,160.0,10000.0,99999,,834.5799494326524,0.0,111600160610170201703005048421518345600007000080000
4210,LFBU,45.7291984558,0.2214560062,2023-09-18 00:30:00,,,,,99999.0,1010.0,99999.0,99999.0,5.0,150.0,10000.0,99999,,98988.9,0.0,11160015051099999020999990301004999051989888600007000080000
4213,LFOZ,47.896900177,2.1633300781,2023-09-18 00:30:00,,,,,17.0,1008.0,1929.8627179216226,17.0,6.0,180.0,10000.0,99999,,921.8627179216226,0.0,111600180610170201703008049298519218600007000080000
4223,LJCE,45.9000015259,15.5302000046,2023-09-18 00:30:00,,,,,16.0,1018.0,2340.8760958200583,16.0,0.0,0.0,9000.0,99999,,0.0,0.0,11150000001016020160301804340851000600007000080000
4254,LEMI,37.803,-1.125,2023-09-18 00:30:00,,,,,24.0,1016.0,2083.159316341307,17.0,0.0,0.0,10000.0,99999,,0.0,0.0,11160000001024020170301604083151000600007000080000
4256,LECH,40.9000015259,-1.3041199446,2023-09-18 00:30:00,,,,,19.0,1014.0,8578.94609738171,17.0,3.0,220.0,8000.0,99999,,7563.646097381709,0.0,1114002203101902017030140457895175636600007000080000
4259,UUDL,57.5606994629,40.1573982239,2023-09-18 00:30:00,,,,,11.0,1018.0,2074.391409111892,8.0,5.0,240.0,10000.0,99999,8.0,1054.1914091118917,0.0,111608240510110208030180407435110541600007000088000
4285,UUBW,55.5532989502,38.1500015259,2023-09-18 00:30:00,,,,,9.0,1022.0,2832.740609455411,9.0,1.0,240.0,10000.0,99999,,1809.7406094554108,0.0,111600240110090209030220483275118097600007000080000
4286,UUOL,52.7028007507,39.5377998352,2023-09-18 00:30:00,,,,,9.0,1024.0,4012.568090507743,8.0,1.0,280.0,7000.0,99999,,0.0,0.0,1114002801100902080302404012551000600007000080000
4289,UWKS,56.0903015137,47.3473014832,2023-09-18 00:30:00,,,,,7.0,1022.0,4784.758384680718,5.0,3.0,230.0,10000.0,99999,,3761.7583846807183,0.0,111600230310070205030220478475137617600007000080000
4293,URMG,43.3883018494,45.698600769,2023-09-18 00:30:00,,,,,13.0,1021.0,1021.0,11.0,3.0,310.0,10000.0,99999,,0.0,0.0,11160031031013020110302104021051000600007000080000
4296,URMO,43.2051010132,44.6066017151,2023-09-18 00:30:00,,,,,11.0,1022.0,8527.04356205081,10.0,2.0,120.0,9000.0,99999,6.0,7505.043562050811,0.0,1115061202101102010030220452705175050600007000086000
4298,URRP,47.50083333,39.93361111,2023-09-18 00:30:00,,,,,11.0,1023.0,2063.939147913245,9.0,0.0,0.0,10000.0,99999,,0.0,0.0,1116000000101102090302304063951000600007000080000
4315,LEMO,37.1749000549,-5.615940094,2023-09-18 00:30:00,,,,,17.0,1018.0,1666.2577074525345,15.0,6.0,170.0,10000.0,99999,,649.0577074525345,0.0,111600170610170201503018046662516490600007000080000
4317,LEHC,42.0760993958,-0.3166669905,2023-09-18 00:30:00,,,,,18.0,1016.0,5730.299095128067,12.0,5.0,270.0,10000.0,99999,,4716.099095128067,0.0,1116002705101802012030160473025147160600007000080000
4320,LESB,39.5988998413,2.7027800083,2023-09-18 00:30:00,,,,,26.0,1014.0,1232.187617318351,20.0,5.0,190.0,10000.0,99999,,216.68761731835093,0.0,111600190510260202003014042321512166600007000080000
4345,LRSB,45.7855987549,24.091299057,2023-09-18 00:30:00,,,,,12.0,1022.0,7145.139099629694,11.0,4.0,290.0,10000.0,99999,,6122.839099629694,0.0,1116002904101202011030220414515161228600007000080000
4366,LQMO,43.2829017639,17.8458995819,2023-09-18 00:30:00,,,,,18.0,1017.0,1336.4145489924235,16.0,2.0,,10000.0,99999,,318.01454899242356,0.0,111600360210180201603017043364513180600007000080000
4374,LUKK,46.9277000427,28.9309997559,2023-09-18 00:30:00,,,,,11.0,1023.0,2561.7888273814874,8.0,2.0,280.0,10000.0,99999,,1537.8888273814873,0.0,111600280210110208030230456175115378600007000080000
4389,LFBX,45.1981010437,0.8155559897,2023-09-18 00:30:00,41.0,36.0,J,yellow,17.0,1011.0,1761.8465819533924,16.0,2.0,80.0,1400.0,99999,,751.8465819533924,0.0,111000080210170201603011047618517518600007410080000
4392,LFMC,43.3847007751,6.3871397972,2023-09-18 00:30:00,,,,,24.0,1015.0,1427.0917879940946,19.0,11.0,100.0,10000.0,99999,,411.89178799409456,0.0,111600101110240201903015044270514118600007000080000
4397,LFPM,48.6046981812,2.6711199284,2023-09-18 00:30:00,,,,,17.0,1007.0,1690.1339415375792,17.0,8.0,180.0,10000.0,99999,,682.1339415375792,1.0,111600180810170201703007046901516821601007000080000
4401,LFRJ,48.5303001404,-4.1516399384,2023-09-18 00:30:00,10.0,36.0,+,yellow,16.0,1006.0,1858.6667882310373,15.0,8.0,200.0,5000.0,99999,7.0,852.3667882310374,0.0,111307200810160201503006048586518523600007100087000
4410,LEBG,42.3576011658,-3.620759964,2023-09-18 00:30:00,,,,,13.0,1016.0,11.846840171137638,10.0,8.0,210.0,10000.0,99999,6.0,-1000.3531598288624,0.0,111606210810130201003016041185110006600007000086000
4419,LFKS,41.9244003296,9.4060001373,2023-09-18 00:30:00,,,,,23.0,1016.0,1058.6396538301324,19.0,4.0,280.0,10000.0,99999,5.0,40.53965383013235,0.0,11160528041023020190301604058651405600007000085000
4420,LFMY,43.6063995361,5.1092500687,2023-09-18 00:30:00,,,,,25.0,1013.0,1297.7819325859512,19.0,7.0,110.0,10000.0,99999,,285.78193258595115,0.0,111600110710250201903013042977512857600007000080000
4423,LRBC,46.521900177,26.9102993011,2023-09-18 00:30:00,,,,,15.0,1023.0,2765.5837608975053,11.0,4.0,140.0,10000.0,99999,,1741.9837608975054,0.0,1116001404101502011030230476555117419600007000080000
4426,LRCV,44.3180999756,23.8885993958,2023-09-18 00:30:00,,,,,17.0,1021.0,2583.276997561588,12.0,8.0,60.0,10000.0,99999,,1562.176997561588,0.0,1116000608101702012030210458325115621600007000080000
4427,LRIA,47.1785011292,27.6205997467,2023-09-18 00:30:00,,,,,16.0,1023.0,2026.6868466772992,11.0,5.0,110.0,10000.0,99999,,1003.6868466772992,0.0,1116001105101602011030230402665110036600007000080000
4430,LRSV,47.6875,26.3540992737,2023-09-18 00:30:00,,,,,15.0,1022.0,5417.537295663178,12.0,6.0,190.0,10000.0,99999,,4395.537295663178,0.0,1116001906101502012030220441755143955600007000080000
4433,GEML,35.279800415,-2.9562599659,2023-09-18 00:30:00,,,,,21.0,1017.0,1288.6475689048689,21.0,5.0,270.0,10000.0,99999,,271.8475689048689,0.0,111600270510210202103017042886512718600007000080000
4437,EPGD,54.3776016235,18.4661998749,2023-09-18 00:30:00,,,,,16.0,1018.0,2279.6098061864773,16.0,7.0,60.0,10000.0,99999,,1260.6098061864773,0.0,1116000607101602016030180427965112606600007000080000
4438,EPKK,50.0777015686,19.7847995758,2023-09-18 00:30:00,,,,,14.0,1018.0,3555.807155907736,13.0,1.0,90.0,10000.0,99999,,2536.807155907736,0.0,1116000901101402013030180455585125368600007000080000
4439,EPKT,50.4743003845,19.0799999237,2023-09-18 00:30:00,,,,,17.0,1018.0,3660.0062087158067,14.0,5.0,130.0,10000.0,99999,,2640.806208715807,0.0,1116001305101702014030180466005126408600007000080000
4440,EPLB,51.240278,22.713611,2023-09-18 00:30:00,41.0,36.0,J,yellow,14.0,1019.0,2988.758852659888,14.0,1.0,110.0,9000.0,99999,1.0,0.0,0.0,11150111011014020140301904988751000600007410081000
4441,EPMO,52.4510993958,20.6518001556,2023-09-18 00:30:00,,,,,16.0,1018.0,1861.6644669831396,14.0,2.0,,10000.0,99999,,843.2644669831396,0.0,111600360210160201403018048616518432600007000080000
4442,EPPO,52.4210014343,16.8262996674,2023-09-18 00:30:00,,,,,14.0,1016.0,1888.1055619643416,14.0,5.0,80.0,10000.0,99999,,871.5055619643416,0.0,111600080510140201403016048881518715600007000080000
4443,EPRZ,50.1100006104,22.0189990997,2023-09-18 00:30:00,,,,,15.0,1019.0,2978.1103501257408,14.0,2.0,,10000.0,99999,,1957.8103501257408,0.0,1116003602101502014030190497815119578600007000080000
4444,EPSC,53.5847015381,14.9021997452,2023-09-18 00:30:00,,,,,18.0,1014.0,1328.1706983476092,15.0,6.0,100.0,10000.0,99999,,313.17069834760923,0.0,111600100610180201503014043281513131600007000080000
4445,EPWA,52.1656990051,20.9671001434,2023-09-18 00:30:00,42.0,36.0,K,yellow,16.0,1018.0,1919.3729995696303,15.0,2.0,140.0,10000.0,99999,,901.3729995696303,0.0,111600140210160201503018049193519013600007420080000
4451,LHBP,47.4369010925,19.2555999756,2023-09-18 00:30:00,,,,,16.0,1019.0,2299.325212738354,15.0,2.0,80.0,10000.0,99999,,1280.325212738354,0.0,1116000802101602015030190429935112803600007000080000
4453,LRBS,44.503200531,26.1021003723,2023-09-18 00:30:00,,,,,14.0,1023.0,1866.4916341177038,12.0,3.0,30.0,10000.0,99999,,844.0916341177038,0.0,111600030310140201203023048664518440600007000080000
4454,LRCK,44.3622016907,28.4883003235,2023-09-18 00:30:00,,,,,14.0,1022.0,2042.829551006422,12.0,7.0,10.0,10000.0,99999,,1019.829551006422,0.0,1116000107101402012030220404285110198600007000080000
4455,LROP,44.5722007751,26.1021995544,2023-09-18 00:30:00,,,,,15.0,1022.0,1852.3490540649614,12.0,4.0,30.0,10000.0,99999,,828.5490540649614,0.0,111600030410150201203022048523518285600007000080000
4456,LRTC,45.0625,28.7143001556,2023-09-18 00:30:00,,,,,11.0,1023.0,1734.8425267372882,9.0,3.0,50.0,8000.0,99999,,711.4425267372882,0.0,11140005031011020903023047348517114600007000080000
4458,LRTR,45.8098983765,21.3379001617,2023-09-18 00:30:00,,,,,16.0,1020.0,1884.5329264370357,14.0,8.0,90.0,10000.0,99999,,864.2329264370358,0.0,111600090810160201403020048845518642600007000080000
4459,LDDU,42.5614013672,18.2681999207,2023-09-18 00:30:00,,,,,20.0,1018.0,2086.1266297420993,17.0,3.0,100.0,10000.0,99999,,1069.0266297420994,0.0,1116001003102002017030180408615110690600007000080000
4460,LDOS,45.4626998901,18.8101997375,2023-09-18 00:30:00,,,,,16.0,1018.0,1723.9394527825234,14.0,4.0,90.0,10000.0,99999,,706.0394527825234,0.0,111600090410160201403018047239517060600007000080000
4461,LDPL,44.8935012817,13.9222002029,2023-09-18 00:30:00,,,,,19.0,1018.0,1568.4929820678212,19.0,4.0,60.0,10000.0,99999,,549.6929820678213,0.0,111600060410190201903018045684515496600007000080000
4462,LDRI,45.2168998718,14.5703001022,2023-09-18 00:30:00,,,,,20.0,1018.0,1547.0438061430605,19.0,0.0,0.0,10000.0,99999,1.0,528.0438061430605,0.0,111601000010200201903018045470515280600007000081000
4463,LDSP,43.538898468,16.2980003357,2023-09-18 00:30:00,,,,,22.0,1018.0,1146.1382201826013,17.0,3.0,100.0,10000.0,99999,,127.9382201826013,0.0,111600100310220201703018041461511279600007000080000
4464,LDZA,45.7429008484,16.0687999725,2023-09-18 00:30:00,42.0,36.0,K,yellow,17.0,1017.0,1835.9422787571357,15.0,3.0,260.0,10000.0,99999,,817.9422787571357,0.0,111600260310170201503017048359518179600007420080000
4465,LDZD,44.1082992554,15.3466997147,2023-09-18 00:30:00,41.0,36.0,J,yellow,19.0,1018.0,1601.1924320498472,19.0,0.0,0.0,1500.0,99999,,582.3924320498472,0.0,111000000010190201903018046011515823600007410080000
4466,LJLJ,46.2237014771,14.4575996399,2023-09-18 00:30:00,,,,,14.0,1019.0,5362.679325709919,13.0,2.0,280.0,10000.0,99999,,4343.5793257099185,0.0,1116002802101402013030190436265143435600007000080000
4467,LJMB,46.4799003601,15.6861000061,2023-09-18 00:30:00,,,,,15.0,1018.0,3653.348784202302,14.0,1.0,,8000.0,99999,,2635.348784202302,0.0,1114003601101502014030180465335126353600007000080000
4468,LJPZ,45.473400116,13.6149997711,2023-09-18 00:30:00,,,,,18.0,1018.0,1031.5663211837025,16.0,6.0,120.0,10000.0,99999,6.0,13.26632118370253,0.0,11160612061018020160301804031551132600007000086000
4469,LKMT,49.6963005066,18.1110992432,2023-09-18 00:30:00,,,,,14.0,1018.0,3750.520381867449,13.0,1.0,,10000.0,99999,,2732.320381867449,0.0,1116003601101402013030180475055127323600007000080000
4470,LKPR,50.1007995605,14.2600002289,2023-09-18 00:30:00,,,,,16.0,1015.0,4658.692878151281,12.0,3.0,190.0,10000.0,99999,,3642.7928781512805,0.0,1116001903101602012030150465865136427600007000080000
4471,LKTB,49.1512985229,16.6944007874,2023-09-18 00:30:00,,,,,18.0,1017.0,2884.403584712461,14.0,5.0,70.0,10000.0,99999,,1867.403584712461,0.0,1116000705101802014030170488445118674600007000080000
4472,LQSA,43.8246002197,18.3314990997,2023-09-18 00:30:00,,,,,13.0,1021.0,7481.914888865197,13.0,2.0,,10000.0,99999,,6461.914888865197,0.0,1116003602101302013030210448195164619600007000080000
4474,LWSK,41.9616012573,21.6214008331,2023-09-18 00:30:00,,,,,16.0,1020.0,3171.797364858893,14.0,2.0,150.0,10000.0,99999,,2152.1973648588933,0.0,1116001502101602014030200417175121521600007000080000
4475,LYBE,44.8184013367,20.3090991974,2023-09-18 00:30:00,,,,,20.0,1019.0,1667.2740059509235,15.0,8.0,130.0,10000.0,99999,,647.6740059509235,0.0,111600130810200201503019046672516476600007000080000
4476,LYNI,43.337299,21.853701,2023-09-18 00:30:00,42.0,36.0,K,yellow,15.0,1020.0,2891.8142093493257,14.0,2.0,300.0,10000.0,99999,,1871.8142093493257,0.0,1116003002101502014030200489185118718600007420080000
4477,LYPG,42.3594017029,19.2518997192,2023-09-18 00:30:00,,,,,21.0,1018.0,1262.640696675609,18.0,0.0,0.0,10000.0,99999,,0.0,0.0,11160000001021020180301804262651000600007000080000
4478,LYTV,42.4047012329,18.7233009338,2023-09-18 00:30:00,,,,,18.0,1017.0,1055.925728883599,18.0,0.0,0.0,10000.0,99999,,37.725728883599004,0.0,11160000001018020180301704055951377600007000080000
4479,LZIB,48.1702003479,17.2126998901,2023-09-18 00:30:00,,,,,16.0,1017.0,2124.9544555305065,14.0,6.0,40.0,10000.0,99999,,1107.0544555305064,0.0,1116000406101602014030170412495111070600007000080000
4480,LZKZ,48.6631011963,21.2411003113,2023-09-18 00:30:00,,,,,16.0,1020.0,3090.203298545328,15.0,3.0,330.0,7000.0,99999,1.0,0.0,0.0,11140133031016020150302004090251000600007000081000
4481,LZTT,49.073600769,20.2411003113,2023-09-18 00:30:00,61.0,36.0,^,green,13.0,1021.0,9.910788010382554,13.0,2.0,,7000.0,99999,6.0,-1012.0892119896174,0.0,11140636021013020130302104995110129600007610086000
4486,LFAT,50.5173988342,1.6205899715,2023-09-18 00:30:00,,,,,18.0,1004.0,1073.610453718086,17.0,5.0,140.0,10000.0,99999,,66.41045371808605,0.3,11160014051018020170300404073651664600307000080000
4487,LFBD,44.8283004761,-0.7155560255,2023-09-18 00:30:00,,,,,18.0,1009.0,1338.7752246243585,17.0,8.0,180.0,10000.0,99999,,330.0752246243585,0.0,111600180810180201703009043387513300600007000080000
4488,LFBH,46.1791992188,-1.1952799559,2023-09-18 00:30:00,,,,,19.0,1008.0,1145.9014925373735,17.0,8.0,170.0,10000.0,99999,,137.90149253737354,0.0,111600170810190201703008041459511379600007000080000
4489,LFBI,46.5876998901,0.3066659868,2023-09-18 00:30:00,,,,,17.0,1009.0,2002.058507309685,17.0,8.0,200.0,10000.0,99999,,993.158507309685,4.2,111600200810170201703009040020519931604207000080000
4490,LFBO,43.6291007996,1.3638199568,2023-09-18 00:30:00,,,,,18.0,1012.0,2135.9427464995297,18.0,2.0,,10000.0,99999,1.0,1125.1427464995297,0.0,1116013602101802018030120413595111251600007000081000
4491,LFBP,43.3800010681,-0.41861099,2023-09-18 00:30:00,,,,,16.0,1011.0,2638.2389088808463,16.0,7.0,110.0,10000.0,99999,,1628.1389088808464,0.0,1116001107101602016030110463825116281600007000080000
4492,LFBT,43.1786994934,-0.0064389999,2023-09-18 00:30:00,,,,,15.0,1012.0,4962.53589253317,15.0,2.0,,10000.0,99999,,3951.73589253317,0.0,1116003602101502015030120496255139517600007000080000
4493,LFBZ,43.4683990479,-1.5233199596,2023-09-18 00:30:00,,,,,21.0,1011.0,1446.3178186861967,13.0,5.0,190.0,10000.0,99999,,436.4178186861967,0.0,111600190510210201303011044463514364600007000080000
4495,LFKB,42.5527000427,9.4837303162,2023-09-18 00:30:00,,,,,23.0,1016.0,1055.569252188328,21.0,1.0,,10000.0,99999,6.0,38.969252188327914,0.0,11160636011023020210301604055551389600007000086000
4496,LFKC,42.5307998657,8.7931900024,2023-09-18 00:30:00,,,,,25.0,1014.0,1320.6129254015198,18.0,5.0,170.0,10000.0,99999,,306.01292540151974,0.0,111600170510250201803014043206513060600007000080000
4497,LFKJ,41.9235992432,8.8029203415,2023-09-18 00:30:00,,,,,24.0,1014.0,1040.129223658952,14.0,9.0,30.0,10000.0,99999,,24.52922365895199,0.0,11160003091024020140301404040151245600007000080000
4498,LFLB,45.6380996704,5.88022995,2023-09-18 00:30:00,,,,,19.0,1013.0,2764.470783217039,18.0,3.0,290.0,10000.0,99999,,1752.4707832170388,0.0,1116002903101902018030130476445117524600007000080000
4499,LFLC,45.7867012024,3.1691699028,2023-09-18 00:30:00,,,,,18.0,1011.0,3738.5679805148307,16.0,15.0,190.0,10000.0,99999,,2728.3679805148304,0.8,1116001915101802016030110473855127283600807000080000
4500,LFLL,45.726398468,5.0908298492,2023-09-18 00:30:00,,,,,24.0,1012.0,2436.4222955358523,14.0,12.0,260.0,10000.0,99999,3.0,1425.6222955358523,0.3,1116032612102402014030120443645114256600307000083000
4501,LFLS,45.3628997803,5.3293700218,2023-09-18 00:30:00,,,,,22.0,1013.0,3675.452601517168,16.0,10.0,290.0,10000.0,99999,,2664.1526015171685,0.0,1116002910102202016030130467545126641600007000080000
4503,LFMD,43.5419998169,6.9534797668,2023-09-18 00:30:00,,,,,25.0,1015.0,1033.103910800962,20.0,2.0,,10000.0,99999,,17.103910800962012,0.0,11160036021025020200301504033151171600007000080000
4505,LFML,43.439271922,5.2214241028,2023-09-18 00:30:00,,,,,26.0,1013.0,1113.5442870014622,18.0,8.0,110.0,10000.0,99999,,101.04428700146218,0.0,111600110810260201803013041135511010600007000080000
4506,LFMN,43.6584014893,7.2158699036,2023-09-18 00:30:00,,,,,25.0,1015.0,1031.7064441692105,21.0,10.0,90.0,10000.0,99999,,15.406444169210545,0.0,11160009101025020210301504031751154600007000080000
4507,LFMP,42.740398407,2.8706700802,2023-09-18 00:30:00,10.0,36.0,+,yellow,23.0,1011.0,1236.8835420366017,22.0,2.0,,4400.0,99999,8.0,226.1835420366017,0.0,111208360210230202203011042368512261600007100088000
4508,LFMT,43.5761985779,3.9630100727,2023-09-18 00:30:00,,,,,24.0,1012.0,1036.6214993857297,22.0,15.0,140.0,10000.0,99999,7.0,23.62149938572975,0.0,11160714151024020220301204036651236600007000087000
4509,LFOB,49.4543991089,2.1127800941,2023-09-18 00:30:00,,,,,17.0,1006.0,1831.3010355754882,17.0,6.0,160.0,10000.0,99999,,823.3010355754882,0.5,111600160610170201703006048313518233600507000080000
4511,LFOT,47.4322013855,0.7276059985,2023-09-18 00:30:00,,,,,17.0,1008.0,1829.8549267228614,17.0,5.0,170.0,10000.0,99999,2.0,821.4549267228614,0.0,111602170510170201703008048298518214600007000082000
4514,LFPN,48.7518997192,2.1061899662,2023-09-18 00:30:00,,,,,17.0,1007.0,2305.025058654969,17.0,8.0,180.0,10000.0,99999,,1297.125058654969,0.7,1116001808101702017030070430505112971600707000080000
4515,LFPO,48.7252998352,2.3594400883,2023-09-18 00:30:00,,,,,18.0,1007.0,1623.3806090640871,17.0,7.0,200.0,10000.0,99999,1.0,614.1806090640871,1.0,111601200710180201703007046233516141601007000081000
4519,LFRD,48.5876998901,-2.0799601078,2023-09-18 00:30:00,,,,,16.0,1006.0,1520.1932728578995,15.0,3.0,190.0,10000.0,99999,,514.1932728578995,0.0,111600190310160201503006045201515141600007000080000
4520,LFRG,49.3652992249,0.1543059945,2023-09-18 00:30:00,,,,,17.0,1006.0,2143.835534666995,14.0,8.0,190.0,10000.0,99999,6.0,1136.835534666995,1.4,1116061908101702014030060414385111368601307000086000
4521,LFRK,49.1733016968,-0.4499999881,2023-09-18 00:30:00,,,,,17.0,1006.0,1576.0901149681472,16.0,8.0,200.0,10000.0,99999,,569.2901149681472,0.0,111600200810170201603006045760515692600007000080000
4522,LFRN,48.0694999695,-1.7347899675,2023-09-18 00:30:00,,,,,17.0,1006.0,1269.618656701262,17.0,6.0,190.0,10000.0,99999,,262.41865670126185,0.0,111600190610170201703006042696512624600007000080000
4523,LFRQ,47.9749984741,-4.1677899361,2023-09-18 00:30:00,10.0,36.0,+,yellow,17.0,1006.0,1676.1124264959224,17.0,5.0,240.0,4100.0,99999,,669.1124264959224,0.0,111200240510170201703006046761516691600007100080000
4524,LFRS,47.1531982422,-1.610730052,2023-09-18 00:30:00,,,,,18.0,1007.0,1185.18676012508,17.0,4.0,180.0,10000.0,99999,6.0,178.08676012507988,0.0,111606180410180201703007041851511780600007000086000
4525,LFRT,48.5377998352,-2.8544399738,2023-09-18 00:30:00,,,,,15.0,1005.0,2233.872236439037,14.0,4.0,190.0,10000.0,99999,,1227.272236439037,0.0,1116001904101502014030050423385112272600007000080000
4526,LFRZ,47.3121986389,-2.1491799355,2023-09-18 00:30:00,,,,,19.0,1007.0,1030.66135701963,19.0,5.0,210.0,10000.0,99999,1.0,22.861357019630077,0.0,11160121051019020190300704030651228600007000081000
4529,LFST,48.5382995605,7.6282300949,2023-09-18 00:30:00,,,,,20.0,1010.0,2020.437741024566,16.0,3.0,,10000.0,99999,,1009.237741024566,0.0,1116003603102002016030100402045110092600007000080000
4530,LFTW,43.7574005127,4.4163498878,2023-09-18 00:30:00,,,,,23.0,1012.0,1518.9774269710606,20.0,7.0,120.0,10000.0,99999,6.0,505.4774269710606,0.0,111606120710230202003012045189515054600007000086000
4531,LFBA,44.1747016907,0.5905560255,2023-09-18 00:30:00,,,,,17.0,1011.0,1459.6366014739513,16.0,4.0,120.0,10000.0,99999,,448.63660147395126,0.0,111600120410170201603011044596514486600007000080000
4532,LFBC,44.5332984924,-1.125,2023-09-18 00:30:00,,,,,17.0,1009.0,1185.3706875890214,16.0,4.0,130.0,10000.0,99999,,175.9706875890214,0.0,111600130410170201603009041853511759600007000080000
4533,LFBL,45.8628005981,1.1794400215,2023-09-18 00:30:00,,,,,16.0,1011.0,4813.628850627316,16.0,4.0,150.0,10000.0,99999,3.0,3804.128850627316,0.0,1116031504101602016030110481365138041600007000083000
4534,LFBM,43.9117012024,-0.5074999928,2023-09-18 00:30:00,,,,,16.0,1011.0,1487.2487365440884,15.0,2.0,,10000.0,99999,,476.54873654408834,0.0,111600360210160201503011044872514765600007000080000
4535,LFKF,41.5005989075,9.0977802277,2023-09-18 00:30:00,,,,,24.0,1016.0,1145.1308119354248,21.0,11.0,70.0,10000.0,99999,,128.63081193542484,0.0,111600071110240202103016041451511286600007000080000
4536,LFOE,49.0287017822,1.2198599577,2023-09-18 00:30:00,,,,,17.0,1007.0,2106.050163902168,17.0,6.0,200.0,10000.0,99999,,1098.350163902168,0.9,1116002006101702017030070410605110983600907000080000
4537,LFOP,49.3842010498,1.1748000383,2023-09-18 00:30:00,,,,,17.0,1006.0,2232.3188002674265,17.0,10.0,190.0,10000.0,99999,3.0,1224.8188002674265,0.3,1116031910101702017030060423235112248600307000083000
4538,LFPB,48.9693984985,2.4413900375,2023-09-18 00:30:00,,,,,18.0,1007.0,1458.2936109976504,18.0,5.0,190.0,10000.0,99999,5.0,450.2936109976504,0.9,111605190510180201803007044582514502600907000085000
4539,LFPG,49.0127983093,2.5499999523,2023-09-18 00:30:00,,,,,18.0,1007.0,1861.7206817109252,18.0,8.0,180.0,10000.0,99999,4.0,853.7206817109252,0.8,111604180810180201803007048617518537600807000084000
4540,LFPV,48.7743988037,2.2015399933,2023-09-18 00:30:00,,,,,17.0,1007.0,2431.1708607452456,17.0,7.0,170.0,10000.0,99999,5.0,1423.4708607452455,0.0,1116051707101702017030070443115114234600007000085000
4541,LFQB,48.322101593,4.016699791,2023-09-18 00:30:00,,,,,18.0,1008.0,1856.3281815860487,16.0,11.0,180.0,10000.0,99999,,847.1281815860486,3.1,111600181110180201603008048563518471603107000080000
4543,LFRH,47.7606010437,-3.4400000572,2023-09-18 00:30:00,,,,,16.0,1006.0,1373.5845181897632,16.0,5.0,230.0,10000.0,99999,,367.58451818976323,2.5,111600230510160201603006043735513675602507000080000
4545,LFSI,48.6360015869,4.8994197845,2023-09-18 00:30:00,,,,,18.0,1009.0,2027.1162973994215,17.0,7.0,170.0,10000.0,99999,3.0,1019.1162973994215,0.0,1116031707101802017030090402715110191600007000083000
4546,LFSL,48.7799987793,5.9800000191,2023-09-18 00:30:00,,,,,17.0,1012.0,3461.5621063170533,16.0,2.0,160.0,10000.0,99999,,2451.9621063170534,0.0,1116001602101702016030120446155124519600007000080000
4548,LFSX,47.7831001282,6.3640599251,2023-09-18 00:30:00,,,,,20.0,1012.0,2989.7547128826086,17.0,6.0,260.0,10000.0,99999,,1979.1547128826087,0.0,1116002606102002017030120498975119791600007000080000
4553,LPFR,37.0144004822,-7.9659099579,2023-09-18 00:30:00,,,,,19.0,1017.0,1061.300731257622,18.0,4.0,280.0,10000.0,99999,3.0,44.30073125762192,0.0,11160328041019020180301704061351443600007000083000
4554,LPMA,32.6978988647,-16.7744998932,2023-09-18 00:30:00,,,,,20.0,1021.0,1378.2664229185655,15.0,5.0,330.0,10000.0,99999,3.0,358.26642291856547,0.0,111603330510200201503021043782513582600007000083000
4555,LPPR,41.2481002808,-8.6813898087,2023-09-18 00:30:00,,,,,15.0,1014.0,1594.4650605154993,14.0,6.0,160.0,10000.0,99999,1.0,583.1650605154994,0.3,111601160610150201403014045944515831600307000081000
4556,LPPS,33.0733985901,-16.3500003815,2023-09-18 00:30:00,,,,,21.0,1021.0,1648.9549282979867,14.0,7.0,300.0,10000.0,99999,3.0,629.1549282979868,0.0,111603300710210201403021046489516291600007000083000
4559,ULLI,59.8003005981,30.2625007629,2023-09-18 00:30:00,,,,,9.0,1020.0,1340.3567748006608,7.0,3.0,260.0,10000.0,99999,3.0,321.25677480066076,0.0,11160326031009020703020043403513212600007000083000
4561,UUDD,55.4087982178,37.9062995911,2023-09-18 00:30:00,,,,,7.0,1022.0,5011.572808467293,5.0,3.0,230.0,10000.0,99999,,3987.872808467293,0.0,111600230310070205030220401155139878600007000080000
4565,URKK,45.0346984863,39.170501709,2023-09-18 00:30:00,,,,,12.0,1021.0,1387.4741602763202,9.0,4.0,50.0,10000.0,99999,,366.47416027632016,0.0,11160005041012020903021043874513664600007000080000
4567,URMT,45.1091995239,42.1128005981,2023-09-18 00:30:00,,,,,10.0,1022.0,8354.681769490833,7.0,2.0,250.0,10000.0,99999,,7332.681769490833,0.0,111600250210100207030220435465173326600007000080000
4568,URSS,43.4499015808,39.9566001892,2023-09-18 00:30:00,,,,,16.0,1015.0,1215.5573780951715,11.0,5.0,40.0,10000.0,99999,1.0,199.7573780951716,0.0,111601040510160201103015042155511997600007000081000
4569,URWA,46.2832984924,48.0063018799,2023-09-18 00:30:00,,,,,13.0,1018.0,850.6222111685794,12.0,3.0,320.0,10000.0,99999,,-168.87778883142062,0.0,111600320310130201203018048506511681600007000080000
4570,URWI,46.3739013672,44.3308982849,2023-09-18 00:30:00,,,,,11.0,1021.0,3011.1293643239346,11.0,4.0,290.0,9000.0,99999,,1990.1293643239346,0.0,1115002904101102011030210401115119901600007000080000
4571,URWW,48.7825012207,44.345500946,2023-09-18 00:30:00,,,,,10.0,1022.0,3147.1536769245517,8.0,2.0,330.0,10000.0,99999,,2124.353676924552,0.0,111600330210100208030220414715121243600007000080000
4574,UUWW,55.5914993286,37.2615013123,2023-09-18 00:30:00,,,,,9.0,1021.0,4589.8534808313,8.0,4.0,240.0,10000.0,99999,,3567.0534808312996,0.0,111600240410090208030210458985135670600007000080000
4577,UWKD,55.6062011719,49.2787017822,2023-09-18 00:30:00,45.0,36.0,N,yellow,6.0,1022.0,4193.710370583656,5.0,2.0,300.0,150.0,99999,,3170.0103705836564,0.0,111000300210060205030220419375131700600007450080000
4578,UWKE,55.5647010803,52.0924987793,2023-09-18 00:30:00,,,,,8.0,1021.0,4814.991080667778,8.0,3.0,250.0,10000.0,99999,,3792.991080667778,0.0,111600250310080208030210481495137929600007000080000
4579,UWWW,53.504901886,50.1642990112,2023-09-18 00:30:00,,,,,12.0,1022.0,2727.828765983959,8.0,3.0,270.0,10000.0,99999,,1705.8287659839589,0.0,111600270310120208030220472785117058600007000080000
4581,LEAL,38.2821998596,-0.5581560135,2023-09-18 00:30:00,,,,,24.0,1014.0,1227.6157093185502,20.0,3.0,230.0,10000.0,99999,1.0,212.81570931855026,0.1,111601230310240202003014042276512128600107000081000
4582,LEAM,36.8438987732,-2.3701000214,2023-09-18 00:30:00,,,,,25.0,1015.0,1114.0772676014908,20.0,17.0,240.0,10000.0,99999,6.0,100.0772676014908,0.0,111606241710250202003015041140511000600007000086000
4583,LEAS,43.5635986328,-6.0346198082,2023-09-18 00:30:00,,,,,18.0,1008.0,1921.8229008676528,13.0,0.0,0.0,10000.0,99999,2.0,914.1229008676528,0.0,111602000010180201303008049218519141600007000082000
4584,LEBB,43.3011016846,-2.9106099606,2023-09-18 00:30:00,,,,,24.0,1011.0,1217.7569175767455,12.0,11.0,,10000.0,99999,,207.75691757674554,0.0,111600361110240201203011042177512077600007000080000
4585,LEBL,41.2971000671,2.0784599781,2023-09-18 00:30:00,,,,,25.0,1013.0,1029.6735250673992,23.0,7.0,250.0,10000.0,99999,1.0,16.77352506739919,0.0,11160125071025020230301304029651167600007000081000
4587,LEDA,41.728185,0.535023,2023-09-18 00:30:00,,,,,20.0,1015.0,3647.711594988506,19.0,3.0,280.0,10000.0,99999,,2633.711594988506,0.0,1116002803102002019030150464775126337600007000080000
4588,LEGE,41.9010009766,2.7605500221,2023-09-18 00:30:00,,,,,24.0,1013.0,1774.1617986556284,21.0,13.0,200.0,8000.0,99999,6.0,762.9617986556284,0.0,111406201310240202103013047741517629600007000086000
4589,LEGR,37.1887016296,-3.7773599625,2023-09-18 00:30:00,,,,,17.0,1019.0,6334.10011579847,12.0,6.0,230.0,10000.0,99999,,5318.10011579847,0.0,1116002306101702012030190433415153181600007000080000
4590,LEIB,38.8728981018,1.3731199503,2023-09-18 00:30:00,,,,,25.0,1014.0,1047.4961672695576,19.0,4.0,230.0,10000.0,99999,,32.496167269557645,0.0,11160023041025020190301404047451324600007000080000
4591,LEJR,36.7445983887,-6.0601100922,2023-09-18 00:30:00,,,,,17.0,1017.0,1214.5117424218863,16.0,4.0,80.0,10000.0,99999,4.0,197.21174242188636,0.0,111604080410170201603017042145511972600007000084000
4592,LELC,37.7750015259,-0.8123890162,2023-09-18 00:30:00,,,,,27.0,1015.0,1029.1723644791975,22.0,4.0,190.0,10000.0,99999,,14.772364479197563,0.0,11160019041027020220301504029151147600007000080000
4593,LELL,41.5209007263,2.1050798893,2023-09-18 00:30:00,,,,,24.0,1014.0,1806.4337271402378,19.0,3.0,260.0,10000.0,99999,1.0,793.1337271402379,0.0,111601260310240201903014048064517931600007000081000
4594,LEMD,40.4936,-3.56676,2023-09-18 00:30:00,,,,,15.0,1017.0,7554.673025494716,13.0,7.0,170.0,10000.0,99999,2.0,6541.273025494716,0.0,1116021707101502013030170455465165412600007000082000
4595,LEMG,36.6749000549,-4.4991102219,2023-09-18 00:30:00,,,,,22.0,1017.0,1102.179812260799,11.0,10.0,270.0,10000.0,99999,,86.67981226079905,0.0,11160027101022020110301704102151866600007000080000
4596,LEMH,39.8625984192,4.2186498642,2023-09-18 00:30:00,,,,,26.0,1016.0,1451.4155926112342,25.0,9.0,230.0,10000.0,99999,2.0,438.0155926112342,0.0,111602230910260202503016044514514380600007000082000
4597,LEPA,39.551700592,2.7388100624,2023-09-18 00:30:00,,,,,27.0,1013.0,1047.8674786024098,21.0,4.0,190.0,10000.0,99999,1.0,33.86747860240985,0.0,11160119041027020210301304047851338600007000081000
4598,LEPP,42.7700004578,-1.646329999,2023-09-18 00:30:00,,,,,16.0,1014.0,5497.625752215213,10.0,2.0,,10000.0,99999,,4484.825752215213,0.0,1116003602101602010030140449765144848600007000080000
4599,LERS,41.1473999023,1.1671700478,2023-09-18 00:30:00,,,,,23.0,1013.0,1388.2684171498765,22.0,0.0,0.0,9000.0,99999,1.0,375.26841714987654,0.0,111501000010230202203013043882513752600007000081000
4600,LESO,43.3564987183,-1.7906099558,2023-09-18 00:30:00,,,,,20.0,1011.0,1038.7987635139552,16.0,1.0,,10000.0,99999,,28.798763513955237,0.0,11160036011020020160301104038751287600007000080000
4601,LEST,42.8963012695,-8.415140152,2023-09-18 00:30:00,61.0,36.0,^,green,16.0,1012.0,4533.785201671652,15.0,7.0,260.0,10000.0,99999,7.0,3527.0852016716526,0.3,1116072607101602015030120453375135270600307610087000
4602,LEVC,39.4892997742,-0.4816249907,2023-09-18 00:30:00,,,,,21.0,1014.0,1441.0957932312242,16.0,6.0,260.0,10000.0,99999,1.0,425.89579323122416,0.0,111601260610210201603014044410514258600007000081000
4603,LEVD,41.7061004639,-4.851940155,2023-09-18 00:30:00,,,,,14.0,1016.0,10.633839775239373,13.0,12.0,230.0,10000.0,99999,1.0,-1001.3661602247606,0.0,111601231210140201303016041065110016600007000081000
4604,LEVT,42.8828010559,-2.7244699001,2023-09-18 00:30:00,,,,,16.0,1014.0,6079.861059562792,11.0,3.0,210.0,10000.0,99999,1.0,5068.961059562793,0.0,1116012103101602011030140407985150689600007000081000
4605,LEVX,42.2318000793,-8.6267700195,2023-09-18 00:30:00,,,,,16.0,1014.0,3389.250815852784,14.0,6.0,190.0,10000.0,99999,3.0,2380.650815852784,2.0,1116031906101602014030140438925123806602007000083000
4606,LEXJ,43.4271011353,-3.8200099468,2023-09-18 00:30:00,,,,,23.0,1009.0,1033.106809349462,13.0,13.0,210.0,10000.0,99999,,24.606809349462083,0.0,11160021131023020130300904033151246600007000080000
4607,LEZG,41.6661987305,-1.0415500402,2023-09-18 00:30:00,,,,,20.0,1015.0,2875.180720175942,12.0,9.0,230.0,10000.0,99999,,1862.0807201759421,0.0,1116002309102002012030150487515118620600007000080000
4608,LEZL,37.4179992676,-5.8931097984,2023-09-18 00:30:00,,,,,17.0,1017.0,1256.6159642720286,16.0,3.0,120.0,10000.0,99999,,240.11596427202858,0.0,111600120310170201603017042566512401600007000080000
4611,LELN,42.5890007019,-5.6555600166,2023-09-18 00:30:00,,,,,13.0,1014.0,12.016776594178173,12.0,8.0,210.0,10000.0,99999,8.0,-1000.9832234058218,0.0,111608210810130201203014041205110000600007000088000
4612,LESA,40.9520988464,-5.5019898415,2023-09-18 00:30:00,,,,,14.0,1016.0,10.051642257850755,12.0,11.0,230.0,10000.0,99999,,-1003.1483577421493,0.0,111600231110140201203016041005110038600007000080000
4613,LFMV,43.9072990417,4.9018301964,2023-09-18 00:30:00,,,,,24.0,1012.0,1197.2467648800107,18.0,6.0,150.0,10000.0,99999,,185.2467648800107,0.0,111600150610240201803012041972511852600007000080000
4614,LFOA,47.0532989502,2.6324999332,2023-09-18 00:30:00,,,,,17.0,1009.0,2424.9380025031674,17.0,5.0,160.0,10000.0,99999,,1414.9380025031674,0.4,1116001605101702017030090442495114149600407000080000
4615,LFOJ,47.9878005981,1.7605600357,2023-09-18 00:30:00,,,,,17.0,1007.0,1969.420016477636,16.0,4.0,240.0,10000.0,99999,6.0,961.520016477636,0.3,111606240410170201603007049694519615600307000086000
4616,LFOK,48.7761001587,4.1844902039,2023-09-18 00:30:00,,,,,17.0,1008.0,2441.8815176522635,16.0,13.0,180.0,10000.0,99999,,0.0,0.0,11160018131017020160300804441851000600007000080000
4618,URML,42.8167991638,47.6523017883,2023-09-18 00:30:00,,,,,16.0,1019.0,1045.2580659846865,12.0,11.0,320.0,10000.0,99999,,26.258065984686482,0.0,11160032111016020120301904045251262600007000080000
4620,LQBK,44.9413986206,17.2975006104,2023-09-18 00:30:00,,,,,16.0,1018.0,2025.199804225982,15.0,2.0,,10000.0,99999,,1007.199804225982,0.0,1116003602101602015030180402515110071600007000080000
4621,LQTZ,44.4586982727,18.7248001099,2023-09-18 00:30:00,10.0,36.0,+,yellow,13.0,1018.0,3751.6549303839215,13.0,1.0,,5000.0,99999,,2732.6549303839215,0.0,1113003601101302013030180475165127326600007100080000
4622,EGXC,53.0929985046,-0.1660140008,2023-09-18 00:30:00,61.0,36.0,^,green,17.0,1002.0,1052.8903728915377,17.0,4.0,130.0,4000.0,99999,6.0,46.790372891537686,0.0,11120613041017020170300204052851467600007610086000
4623,EBBE,50.7585983276,4.7683300972,2023-09-18 00:25:00,,,,,20.0,1006.0,1719.4480782789342,18.0,4.0,120.0,10000.0,99999,6.0,711.4480782789342,0.0,111606120410200201803006047194517114600007000086000
4624,EBBL,51.1683006287,5.4699997902,2023-09-18 00:25:00,,,,,19.0,1005.0,1392.7838465739196,18.0,2.0,,10000.0,99999,6.0,384.5838465739196,0.0,111606360210190201803005043927513845600007000086000
4625,EBCV,50.5758018494,3.8310000896,2023-09-18 00:25:00,,,,,19.0,1006.0,1381.8046756350325,19.0,6.0,190.0,10000.0,99999,,374.20467563503246,0.0,111600190610190201903006043818513742600007000080000
4626,EBDT,50.9991989136,5.065559864,2023-09-18 00:25:00,,,,,19.0,1005.0,1192.52168968445,18.0,3.0,130.0,10000.0,99999,4.0,184.52168968444994,0.0,111604130310190201803005041925511845600007000084000
4627,EBFN,51.0903015137,2.652780056,2023-09-18 00:25:00,,,,,20.0,1004.0,1038.5576984371367,18.0,2.0,,10000.0,99999,6.0,31.357698437136605,0.9,11160636021020020180300404038551313600907000086000
4629,EGDY,51.0093994141,-2.6388199329,2023-09-18 00:20:00,10.0,36.0,+,yellow,17.0,1002.0,1157.8249023097267,17.0,1.0,290.0,3600.0,99999,4.0,153.22490230972664,0.0,111204290110170201703002041578511532600007100084000
4630,EGOM,55.0499992371,-2.5499999523,2023-09-18 00:20:00,61.0,36.0,^,green,13.0,1002.0,4809.69248918408,13.0,8.0,100.0,6000.0,99999,8.0,3804.69248918408,0.6,1113081008101302013030020480965138046600607610088000
4631,EGUB,51.6164016724,-1.0958299637,2023-09-18 00:20:00,61.0,36.0,^,green,18.0,1002.0,1468.7423848042074,17.0,5.0,120.0,6000.0,99999,6.0,463.1423848042074,0.2,111306120510180201703002044687514631600207610086000
4632,EGUW,52.1273002625,0.956264019,2023-09-18 00:20:00,63.0,36.0,',green,19.0,1003.0,1566.833738456294,18.0,7.0,160.0,1600.0,99999,8.0,559.933738456294,0.0,111008160710190201803003045668515599600007630088000
4633,EGVO,51.2341003418,-0.9428250194,2023-09-18 00:20:00,51.0,36.0,T,green,17.0,1003.0,1943.4915232295823,16.0,7.0,140.0,10000.0,99999,8.0,937.5915232295823,0.0,111608140710170201603003049434519375600007510088000
4634,EGVP,51.1394004822,-1.5686099529,2023-09-18 00:20:00,63.0,36.0,',green,16.0,1002.0,1715.2439622401625,15.0,4.0,50.0,10000.0,99999,3.0,709.5439622401625,0.0,111603050410160201503002047152517095600007630083000
4635,EGWC,52.6399993896,-2.3055799007,2023-09-18 00:20:00,,,,,99999.0,99999.0,99999.0,99999.0,3.0,190.0,10000.0,99999,,98993.9,0.5,11160019031099999020999990399904999051989938600507000080000
4636,EGXE,54.2924003601,-1.535400033,2023-09-18 00:20:00,63.0,36.0,',green,15.0,1002.0,1321.8112898497036,14.0,4.0,340.0,1600.0,99999,8.0,314.9112898497036,0.0,111008340410150201403002043218513149600007630088000
4637,EGXT,52.6125984192,-0.4764530063,2023-09-18 00:20:00,63.0,36.0,',green,17.0,1002.0,1610.8711958904205,16.0,3.0,130.0,2100.0,99999,8.0,606.1711958904204,0.0,111108130310170201603002046108516061600007630088000
4638,EGXW,53.1661987305,-0.5238109827,2023-09-18 00:20:00,10.0,36.0,+,yellow,17.0,1003.0,1511.653944625825,16.0,6.0,130.0,5000.0,99999,8.0,505.953944625825,0.0,111308130610170201603003045116515059600007100088000
4639,EGXZ,54.2055015564,-1.3820899725,2023-09-18 00:20:00,61.0,36.0,^,green,16.0,1002.0,1206.916351544905,15.0,3.0,190.0,5000.0,99999,8.0,200.116351544905,0.0,111308190310160201503002042069512001600007610088000
4640,EGYD,53.0303001404,-0.4832420051,2023-09-18 00:20:00,61.0,36.0,^,green,17.0,1003.0,1480.9226642869883,16.0,5.0,140.0,4700.0,99999,8.0,475.82266428698824,0.0,111208140510170201603003044809514758600007610088000
4641,EGYE,52.9622001648,-0.5616250038,2023-09-18 00:20:00,,,,,17.0,1003.0,1846.131939141213,16.0,7.0,140.0,10000.0,99999,8.0,840.231939141213,0.0,111608140710170201603003048461518402600007000088000
4642,EGYM,52.648399353,0.5506920218,2023-09-18 00:20:00,61.0,36.0,^,green,18.0,1002.0,1148.9235642917215,17.0,7.0,110.0,1900.0,99999,8.0,142.82356429172148,0.0,111108110710180201703002041489511428600007610088000
4646,LEAB,38.9485015869,-1.8635200262,2023-09-18 00:30:00,,,,,17.0,1018.0,7663.772294319365,13.0,5.0,290.0,10000.0,99999,,6645.772294319365,0.0,1116002905101702013030180466375166457600007000080000
4647,LEBA,37.841999054,-4.8488798141,2023-09-18 00:30:00,,,,,16.0,1018.0,1742.633087385714,15.0,2.0,,10000.0,99999,,726.0330873857139,0.0,111600360210160201503018047426517260600007000080000
4648,LECO,43.3021011353,-8.3772602081,2023-09-18 00:30:00,,,,,19.0,1009.0,1667.9831515747805,19.0,15.0,290.0,7000.0,99999,6.0,661.6831515747806,0.0,111406291510190201903009046679516616600007000086000
4649,LELO,42.4609534888,-2.3222351074,2023-09-18 00:30:00,,,,,13.0,1014.0,5251.220080786855,11.0,1.0,,10000.0,99999,,4238.920080786855,0.0,1116003601101302011030140425125142389600007000080000
4679,LPPT,38.7812995911,-9.1359195709,2023-09-18 00:30:00,,,,,17.0,1016.0,1888.1055619643416,15.0,5.0,240.0,10000.0,99999,,872.8055619643417,0.0,111600240510170201503016048881518728600007000080000
4680,LXGB,36.1511993408,-5.3496599197,2023-09-18 00:20:00,,,,,20.0,1017.0,1043.2065290543926,17.0,8.0,260.0,10000.0,99999,,26.206529054392604,0.0,11160026081020020170301704043251262600007000080000
4681,EICK,51.8413009644,-8.491109848,2023-09-18 00:30:00,,,,,13.0,1003.0,2622.864909424127,13.0,13.0,300.0,10000.0,99999,6.0,1618.1649094241268,0.0,1116063013101302013030030462285116181600007000086000
4682,EIDW,53.4212989807,-6.270070076,2023-09-18 00:30:00,,,,,14.0,1000.0,1658.4192737399176,14.0,8.0,270.0,7000.0,99999,3.0,654.8192737399175,1.2,111403270810140201403000046584516548601107000083000
4683,EINN,52.7019996643,-8.9248199463,2023-09-18 00:30:00,,,,,13.0,1003.0,1127.361336566772,11.0,9.0,270.0,10000.0,99999,3.0,122.66133656677198,0.0,111603270910130201103003041273511226600007000083000
4684,LFCR,44.4079017639,2.4826700687,2023-09-18 00:30:00,,,,,17.0,1013.0,6449.2638030328635,16.0,5.0,140.0,10000.0,99999,3.0,5435.2638030328635,0.0,1116031405101702016030130444925154352600007000083000
4686,LFJL,48.9821014404,6.2513198853,2023-09-18 00:30:00,61.0,36.0,^,green,20.0,1009.0,2875.2978045908835,17.0,8.0,260.0,10000.0,99999,,1865.4978045908836,0.0,1116002608102002017030090487525118654600007610080000
4687,LFLN,46.4124984741,4.0132598877,2023-09-18 00:30:00,,,,,18.0,1011.0,2916.449012048878,16.0,11.0,150.0,10000.0,99999,,1904.449012048878,0.0,1116001511101802016030110491645119044600007000080000
4688,LFLW,44.8913993835,2.4219400883,2023-09-18 00:30:00,,,,,16.0,1013.0,7403.853012772564,15.0,6.0,100.0,10000.0,99999,,6390.353012772564,0.1,1116001006101602015030130440385163903600107000080000
4689,LFLY,45.7271995544,4.944270134,2023-09-18 00:30:00,,,,,24.0,1012.0,2123.9562850186558,14.0,7.0,270.0,10000.0,99999,,1113.9562850186558,0.0,1116002707102402014030120412395111139600007000080000
4690,LFMH,45.540599823,4.2963900566,2023-09-18 00:30:00,63.0,36.0,',green,18.0,1013.0,4423.174892846517,16.0,8.0,160.0,7000.0,99999,,3412.1748928465167,0.0,1114001608101802016030130442315134121600007630080000
4692,LFQQ,50.5619010925,3.0894401073,2023-09-18 00:30:00,,,,,19.0,1004.0,1303.8894491240264,17.0,4.0,140.0,10000.0,99999,,296.48944912402646,0.0,111600140410190201703004043038512964600007000080000
4693,LFRB,48.4478988647,-4.4185400009,2023-09-18 00:30:00,,,,,16.0,1005.0,1794.8631139919353,16.0,7.0,210.0,10000.0,99999,6.0,787.8631139919353,0.0,111606210710160201603005047948517878600007000086000
4695,LFRI,46.7019004822,-1.3786300421,2023-09-18 00:30:00,,,,,17.0,1008.0,1684.387998342165,16.0,5.0,170.0,10000.0,99999,6.0,676.387998342165,0.0,111606170510170201603008046843516763600007000086000
4696,LFRM,47.948600769,0.2016669959,2023-09-18 00:30:00,,,,,17.0,1008.0,1431.9018887640407,16.0,2.0,,10000.0,99999,5.0,423.70188876404063,2.1,111605360210170201603008044319514237602107000085000
4697,LFSB,47.5895996094,7.5299100876,2023-09-18 00:30:00,,,,,20.0,1011.0,2917.8143782666043,18.0,7.0,180.0,10000.0,99999,,1907.4143782666042,0.0,1116001807102002018030110491785119074600007000080000
4698,LFSD,47.268901825,5.0900001526,2023-09-18 00:30:00,,,,,18.0,1012.0,2729.3811516533247,17.0,9.0,170.0,10000.0,99999,4.0,1719.2811516533247,0.6,1116041709101802017030120472935117192600607000084000
4699,LFSN,48.6921005249,6.2304601669,2023-09-18 00:30:00,,,,,21.0,1009.0,2502.5060694454173,16.0,4.0,,10000.0,99999,,1492.2060694454174,0.0,1116003604102102016030090450255114922600007000080000
4700,LFSO,48.5830993652,5.9549999237,2023-09-18 00:30:00,,,,,18.0,1010.0,3780.4523553987215,16.0,12.0,190.0,10000.0,99999,,2770.8523553987216,0.0,1116001912101802016030100478045127708600007000080000
4701,LFTH,43.0973014832,6.1460299492,2023-09-18 00:30:00,,,,,25.0,1015.0,1024.7312376094492,21.0,13.0,90.0,10000.0,99999,5.0,9.931237609449227,0.0,11160509131025020210301504024751099600007000085000
4702,URKA,45.0021018982,37.3473014832,2023-09-18 00:30:00,,,,,11.0,1020.0,1629.719072698575,9.0,4.0,50.0,10000.0,99999,,609.719072698575,0.0,11160005041011020903020046297516097600007000080000
4703,URMM,44.2251014709,43.0819015503,2023-09-18 00:30:00,,,,,10.0,1022.0,6142.281231433384,9.0,2.0,310.0,10000.0,99999,,5120.281231433384,0.0,111600310210100209030220414225151202600007000080000
4704,UUEE,55.9725990295,37.4146003723,2023-09-18 00:30:00,44.0,36.0,M,yellow,9.0,1021.0,4221.638367859538,8.0,3.0,230.0,10000.0,99999,,3199.4383678595386,0.0,111600230310090208030210422165131994600007440080000
4710,EGUN,52.3619003296,0.4864059985,2023-09-18 00:32:00,,,,,18.0,29.59,1094.9487634643892,18.0,4.0,320.0,6000.0,99999,8.0,89.94876346438923,0.0,1113083204101802018032954094951899600007000088000
4711,ESGG,57.6627998352,12.279800415,2023-09-18 00:20:00,,,,,12.0,1016.0,2829.719727122479,10.0,15.0,110.0,10000.0,99999,,1811.219727122479,0.0,1116001115101202010030160482975118112600007000080000
4715,LFOH,49.5339012146,0.0880559981,2023-09-18 00:30:00,61.0,36.0,^,green,18.0,1005.0,1671.026575658863,16.0,10.0,190.0,6000.0,99999,3.0,665.0265756588631,1.1,111303191010180201603005046710516650601107610083000
4716,LFRC,49.650100708,-1.4702800512,2023-09-18 00:30:00,,,,,15.0,1005.0,2252.220832628423,14.0,6.0,180.0,10000.0,99999,,1247.220832628423,0.6,1116001806101502014030050425225112472600607000080000
4717,LFGJ,47.0390014648,5.4272499084,2023-09-18 00:30:00,,,,,18.0,1013.0,2515.823952833526,17.0,8.0,230.0,8000.0,99999,3.0,1504.8239528335262,0.0,1114032308101802017030130451585115048600007000083000
4718,EGVN,51.75,-1.5836199522,2023-09-18 00:37:00,,,,,17.0,1002.0,1647.3968496902107,17.0,3.0,180.0,1600.0,99999,6.0,642.5968496902108,0.0,111006180310170201703002046473516425600007000086000
4719,UMMS,53.8824996948,28.0307006836,2023-09-18 00:40:00,44.0,36.0,M,yellow,9.0,1021.0,4501.996422916487,9.0,1.0,,1700.0,99999,,3480.196422916487,0.0,111100360110090209030210450195134801600007440080000
4720,LMML,35.857498,14.4775,2023-09-18 00:15:00,,,,,23.0,1018.0,1512.0174309224196,20.0,2.0,210.0,10000.0,99999,,493.3174309224196,0.0,111600210210230202003018045120514933600007000080000
4721,EDDP,51.4323997498,12.2416000366,2023-09-18 00:20:00,,,,,19.0,1012.0,1989.798850602548,14.0,9.0,140.0,10000.0,99999,,976.2988506025481,0.0,111600140910190201403012049897519762600007000080000
4723,EBFS,50.2433013916,4.6458301544,2023-09-18 00:43:00,63.0,36.0,',green,18.0,1008.0,3290.9777330259603,17.0,10.0,210.0,8000.0,99999,8.0,2282.4777330259603,0.0,1114082110101802017030080429095122824600007630088000
4724,ULWC,59.276667,38.028333,2023-09-18 00:30:00,,,,,9.0,1015.0,2813.3382765139354,6.0,3.0,280.0,10000.0,99999,3.0,1798.3382765139354,0.3,111603280310090206030150481335117983600307000083000
4725,UUBC,54.5499992371,36.3666687012,2023-09-18 00:30:00,44.0,36.0,M,yellow,6.0,1023.0,6354.85247149198,6.0,1.0,130.0,600.0,99999,,0.0,0.0,1110001301100602060302304354851000600007440080000
4726,UUOB,50.6437988281,36.5900993347,2023-09-18 00:30:00,,,,,12.0,1025.0,3826.472385002683,8.0,2.0,30.0,10000.0,99999,,2800.772385002683,0.0,111600030210120208030250482645128007600007000080000
4727,UUOK,51.7505989075,36.2956008911,2023-09-18 00:30:00,,,,,9.0,1025.0,4613.7187128494,8.0,3.0,150.0,10000.0,99999,,3588.7187128493997,0.0,111600150310090208030250461375135887600007000080000
4728,UWGG,56.2300987244,43.7840003967,2023-09-18 00:30:00,,,,,8.0,1021.0,2353.649834716411,7.0,2.0,170.0,10000.0,99999,,1329.949834716411,0.0,111600170210080207030210435365113299600007000080000
4729,UWLL,54.2682991028,48.2266998291,2023-09-18 00:30:00,,,,,6.0,1023.0,4654.643332772701,6.0,0.0,0.0,10000.0,99999,,3630.3433327727007,0.0,111600000010060206030230465465136303600007000080000
4730,UWPS,54.1251296997,45.2122573853,2023-09-18 00:30:00,,,,,8.0,1023.0,5042.977780715704,8.0,0.0,0.0,10000.0,99999,,4018.9777807157043,0.0,111600000010080208030230404295140189600007000080000
4731,ULMM,68.7817001343,32.7508010864,2023-09-18 00:30:00,,,,,6.0,1013.0,2927.6915233239656,4.0,4.0,320.0,10000.0,99999,6.0,1915.4915233239656,0.0,111606320410060204030130492765119154600007000086000
4732,UMKK,54.8899993896,20.5925998688,2023-09-18 00:30:00,,,,,13.0,1019.0,1134.1141567958264,13.0,2.0,130.0,5000.0,99999,6.0,115.11415679582637,0.0,111306130210130201303019041341511151600007000086000
4733,UUOO,51.814201355,39.229598999,2023-09-18 00:30:00,10.0,36.0,+,yellow,7.0,1025.0,4465.923821983534,7.0,2.0,280.0,6000.0,99999,,3440.523821983534,0.0,111300280210070207030250446595134405600007100080000
4734,UUYY,61.6469993591,50.8451004028,2023-09-18 00:30:00,,,,,8.0,1014.0,2852.7203447823917,8.0,3.0,190.0,10000.0,99999,,1835.7203447823917,0.0,111600190310080208030140485275118357600007000080000
4735,LRAR,46.1766014099,21.2619991302,2023-09-18 00:30:00,,,,,17.0,1020.0,1838.7907389034308,13.0,5.0,120.0,10000.0,99999,,817.8907389034308,0.0,111600120510170201303020048387518178600007000080000
4736,LRBM,47.6584014893,23.4699993134,2023-09-18 00:30:00,,,,,17.0,1021.0,2523.948204553112,15.0,6.0,80.0,10000.0,99999,,1502.048204553112,0.0,1116000806101702015030210452395115020600007000080000
4737,LRCL,46.7851982117,23.6861991882,2023-09-18 00:30:00,42.0,36.0,K,yellow,12.0,1022.0,5135.1355026110705,12.0,4.0,90.0,10000.0,99999,,4113.03550261107,0.0,1116000904101202012030220413515141130600007420080000
4738,LROD,47.0252990723,21.9025001526,2023-09-18 00:30:00,,,,,17.0,1020.0,2135.927023193763,15.0,5.0,100.0,10000.0,99999,,1115.127023193763,0.0,1116001005101702015030200413595111151600007000080000
4739,LRSM,47.7033004761,22.8857002258,2023-09-18 00:30:00,,,,,16.0,1020.0,2043.2609148110844,15.0,0.0,0.0,10000.0,99999,6.0,1022.5609148110843,0.0,1116060000101602015030200404325110225600007000086000
4740,LRTM,46.4677009583,24.4125003815,2023-09-18 00:30:00,10.0,36.0,+,yellow,14.0,1022.0,4208.698065038894,13.0,3.0,90.0,5000.0,99999,,3185.798065038894,0.0,1113000903101402013030220420865131857600007100080000
4746,LETO,40.4967002869,-3.4458699226,2023-09-18 00:30:00,,,,,14.0,1017.0,8121.612652013932,13.0,3.0,180.0,10000.0,99999,,7104.612652013932,0.0,1116001803101402013030170412165171046600007000080000
4748,LIBV,40.7677993774,16.9333000183,2023-09-17 23:55:00,,,,,19.0,1018.0,3863.680808373804,14.0,1.0,330.0,10000.0,99999,,2844.380808373804,0.0,1116003301101902014030180486365128443600007000080000
4749,LBSF,42.6966934204,23.4114360809,2023-09-18 00:30:00,,,,,17.0,1022.0,5988.170753151303,15.0,10.0,100.0,10000.0,99999,8.0,4967.270753151303,0.0,1116081010101702015030220498815149672600007000088000
4750,LBWN,43.2321014404,27.8250999451,2023-09-18 00:30:00,,,,,18.0,1021.0,1505.635359224782,13.0,7.0,50.0,10000.0,99999,,483.9353592247819,0.0,111600050710180201303021045056514839600007000080000
4751,LBBG,42.5695991516,27.5151996613,2023-09-18 00:30:00,,,,,18.0,1020.0,1295.1942783660897,14.0,7.0,40.0,10000.0,99999,1.0,274.29427836608977,0.0,111601040710180201403020042951512742600007000081000
4752,LBPD,42.0677986145,24.8507995605,2023-09-18 00:30:00,,,,,19.0,1021.0,2326.4716711523083,15.0,5.0,120.0,10000.0,99999,6.0,1304.8716711523084,0.0,1116061205101902015030210432645113048600007000086000
4753,LBGO,43.1514015198,25.7129001617,2023-09-18 00:30:00,,,,,16.0,1021.0,1715.6699670450569,14.0,5.0,100.0,10000.0,99999,,694.2699670450569,0.0,111600100510160201403021047156516942600007000080000
