,station,lat,lon,time,weather,weatherfont,weathersymbol,weathercolour,temperature,pressure,sl_pressure,dewpoint,windspeed,winddir,visibility,visual_range,cloudcover,pressure3h_change,rain,wwletter
542,EEEI,59.2603,24.2085,2024-04-29 23:50:00,,,,,8.0,1026.0,1327.0742079022064,7.0,5.0,280.0,10000.0,99999,,302.2742079022064,0.0,11160028051008020703026043270513022600007000080000
740,LGAL,40.8559,25.9563,2024-04-29 23:50:00,,,,,17.0,1020.0,1069.7114910409132,11.0,12.0,10.0,10000.0,99999,,48.111491040913165,0.0,11160001121017020110302004069751481600007000080000
744,LGKO,36.7933,27.0917,2024-04-29 23:50:00,,,,,17.0,1013.0,1981.1543959204025,12.0,12.0,350.0,10000.0,99999,,967.2543959204025,0.0,111600351210170201203013049811519672600007000080000
746,LGLM,39.9171,25.2363,2024-04-29 23:50:00,,,,,15.0,1021.0,1053.7842271685654,9.0,13.0,30.0,10000.0,99999,,32.68422716856537,0.0,1116000313101502090302104053751326600007000080000
764,LIMJ,44.4133,8.8375,2024-04-29 23:50:00,,,,,19.0,1019.0,1042.9433195660408,11.0,13.0,40.0,10000.0,99999,,23.743319566040782,0.0,11160004131019020110301904042951237600007000080000
811,ENRY,59.3789,10.7856,2024-04-29 23:50:00,,,,,6.0,1025.0,2222.4456407904145,5.0,6.0,150.0,10000.0,99999,,0.0,0.0,1116001506100602050302504222451000600007000080000
900,ETNG,50.9608,6.04242,2024-04-29 23:50:00,,,,,14.0,1019.0,1856.068501161876,10.0,2.0,,10000.0,99999,,836.8685011618759,0.0,111600360210140201003019048560518368600007000080000
909,EGJB,49.435,-2.60197,2024-04-29 23:50:00,,,,,10.0,1013.0,2410.166219532878,8.0,13.0,190.0,10000.0,99999,,1395.266219532878,0.0,111600191310100208030130441015113952600007000080000
918,EGNS,54.0833,-4.62389,2024-04-29 23:50:00,,,,,10.0,1007.0,1192.5620050067118,9.0,12.0,190.0,10000.0,99999,,185.8620050067118,0.0,11160019121010020903007041925511858600007000080000
1045,LGBL,39.2196,22.7943,2024-04-29 23:50:00,,,,,12.0,1021.0,1274.0886134761095,9.0,0.0,0.0,10000.0,99999,,251.2886134761095,0.0,11160000001012020903021042740512512600007000080000
1046,LGLR,39.65628,22.34,2024-04-29 23:50:00,,,,,12.0,1021.0,1813.4684408105866,9.0,0.0,0.0,10000.0,99999,,790.9684408105866,0.0,11160000001012020903021048134517909600007000080000
1049,LGTG,38.3398,23.565,2024-04-29 23:50:00,,,,,14.0,1021.0,2478.7801160018043,7.0,5.0,320.0,10000.0,99999,,1456.4801160018044,0.0,111600320510140207030210447875114564600007000080000
1125,LTAY,37.7856,29.7013,2024-04-29 23:50:00,,,,,9.0,1016.0,14.9959516221308,9.0,3.0,200.0,10000.0,99999,,-999.9040483778692,0.0,1116002003100902090301604149519990600007000080000
1126,LTBD,37.815,27.8953,2024-04-29 23:50:00,,,,,14.0,1014.0,1279.3945944366442,10.0,2.0,,10000.0,99999,,265.59459443664423,0.0,111600360210140201003014042793512655600007000080000
1128,LTBH,40.1377,26.4268,2024-04-29 23:50:00,,,,,14.0,1020.0,1077.94423198603,10.0,9.0,30.0,10000.0,99999,,57.744231986029945,0.0,11160003091014020100302004077951577600007000080000
1130,LTBY,39.8099,30.5194,2024-04-29 23:50:00,,,,,10.0,1019.0,13.173071425749594,8.0,5.0,240.0,10000.0,99999,,0.0,0.0,111600240510100208030190413151000600007000080000
1132,LTCB,40.96667,38.08,2024-04-29 23:50:00,,,,,15.0,1020.0,1062.190725203083,13.0,2.0,,6000.0,99999,,45.590725203083025,0.0,11130036021015020130302004062151455600007000080000
1137,LTCT,39.97663,43.87665,2024-04-29 23:50:00,,,,,16.0,1018.0,10.454868338915064,2.0,7.0,220.0,10000.0,99999,,0.0,0.0,111600220710160202030180410451000600007000080000
1138,LTDA,36.36278,36.28222,2024-04-29 23:50:00,,,,,20.0,1010.0,1516.5927290268955,17.0,5.0,200.0,10000.0,99999,,505.4927290268955,0.0,111600200510200201703010045165515054600007000080000
1139,LTFD,39.5546,27.0138,2024-04-29 23:50:00,,,,,15.0,1018.0,1136.7361148376688,10.0,13.0,80.0,10000.0,99999,,117.93611483766881,0.0,111600081310150201003018041367511179600007000080000
1140,LTFG,36.29922,32.3006,2024-04-29 23:50:00,,,,,17.0,1010.0,1190.8913309944696,15.0,3.0,20.0,10000.0,99999,,179.39133099446963,0.0,111600020310170201503010041908511793600007000080000
1180,LGPZ,38.9255,20.7653,2024-04-29 23:50:00,,,,,15.0,1019.0,1044.6714569208712,11.0,4.0,30.0,10000.0,99999,,25.371456920871196,0.0,11160003041015020110301904044651253600007000080000
1181,LGRX,38.1511,21.4256,2024-04-29 23:50:00,,,,,17.0,1018.0,1113.9669129561717,8.0,7.0,20.0,10000.0,99999,,95.1669129561717,0.0,1116000207101702080301804113951951600007000080000
1218,ETEK,49.6503,7.30007,2024-04-29 23:55:00,,,,,12.5,30.11,1030.11,7.0,0.0,0.0,10000.0,99999,,10.209999999999923,0.0,111600000010125207533014030151102600007000080000
1230,LBPL,43.4514,24.5028,2024-04-30 00:00:00,,,,,14.0,1026.0,1976.745306181373,10.0,2.0,120.0,10000.0,99999,,951.1453061813731,0.0,111600120210140201003026049767519511600007000080000
1244,ETIC,49.6987,11.9402,2024-04-29 23:55:00,,,,,9.2,30.06,8398.20509202735,7.6,0.0,0.0,10000.0,99999,,7379.305092027351,0.0,11160000001009120713300439825173793600007000080000
1293,EGQL,56.3729,-2.86844,2024-04-29 23:50:00,,,,,10.0,1007.0,1141.326625270169,7.0,11.0,200.0,10000.0,99999,,135.526625270169,0.0,11160020111010020703007041413511355600007000080000
1294,EGQS,57.7052,-3.33917,2024-04-29 23:50:00,,,,,10.0,1004.0,1152.4281717988213,5.0,7.0,170.0,10000.0,99999,,149.6281717988213,0.0,11160017071010020503004041524511496600007000080000
1521,LTAB,39.935,32.7408,2024-04-29 23:50:00,,,,,15.0,1018.0,9.78455238051766,13.0,3.0,110.0,10000.0,99999,,-1006.3154476194824,0.0,11160011031015020130301804975110066600007000080000
1522,LTAD,39.9498,32.6886,2024-04-29 23:50:00,,,,,14.0,1019.0,10.270290554427639,12.0,5.0,100.0,10000.0,99999,,-1005.7297094455723,0.0,111600100510140201203019041025110052600007000080000
1528,LTBF,39.6193,27.926,2024-04-29 23:50:00,,,,,14.0,1018.0,1993.1868384830914,11.0,8.0,10.0,10000.0,99999,,974.1868384830914,0.0,111600010810140201103018049931519741600007000080000
1529,LTBG,40.318,27.9777,2024-04-29 23:50:00,,,,,14.0,1019.0,1476.9538000111697,13.0,11.0,30.0,10000.0,99999,,457.3538000111697,0.0,111600031110140201303019044769514573600007000080000
1530,LTBL,38.513,27.0101,2024-04-29 23:50:00,,,,,13.0,1016.0,1059.1123584514157,10.0,3.0,340.0,10000.0,99999,,43.01235845141571,0.0,11160034031013020100301604059151430600007000080000
1531,LTCA,38.6069,39.2914,2024-04-29 23:50:00,,,,,10.0,1015.0,14.366487133973333,6.0,5.0,210.0,10000.0,99999,,-998.4335128660266,0.0,1116002105101002060301504143519985600007000080000
1716,LTAR,39.8138,36.9035,2024-04-29 23:50:00,,,,,8.0,1021.0,23.08048034061735,8.0,1.0,310.0,10000.0,99999,,-991.9195196593827,0.0,1116003101100802080302104230519910600007000080000
1717,LTBI,39.7841,30.5821,2024-04-29 23:50:00,,,,,10.0,1019.0,13.146131208013145,9.0,5.0,240.0,10000.0,99999,,-1005.2538687919869,0.0,11160024051010020903019041315110057600007000080000
1718,LTBQ,40.735,30.0833,2024-04-29 23:50:00,,,,,13.0,1020.0,1554.1995267528257,13.0,0.0,0.0,7000.0,99999,,534.2995267528257,0.0,111400000010130201303020045541515342600007000080000
1719,LTCI,38.4682,43.3323,2024-04-29 23:50:00,,,,,11.0,1021.0,20.180967165505542,1.0,2.0,130.0,10000.0,99999,,-1000.8190328344945,0.0,11160013021011020103021042015110001600007000080000
1782,LBPG,42.2904,24.714,2024-04-30 00:00:00,63.0,36.0,',green,12.0,1024.0,1636.7472641189427,10.0,4.0,260.0,10000.0,99999,,612.3472641189426,0.2,111600260410120201003024046367516123600207630080000
1807,ULPB,61.8852,34.1547,2024-04-30 00:00:00,51.0,36.0,T,green,6.0,1021.0,2038.6822164171997,4.0,1.0,,10000.0,99999,,1015.0822164171997,0.2,111600360110060204030210403865110150600207510080000
1838,LTAE,40.0789,32.5656,2024-04-29 23:50:00,,,,,13.0,1018.0,11.291295230056235,12.0,3.0,20.0,10000.0,99999,,-1004.9087047699438,0.0,111600020310130201203018041125110040600007000080000
2091,LPBJ,38.0789,-7.9324,2024-04-30 00:00:00,,,,,9.0,1020.0,4299.052221650484,6.0,6.0,300.0,10000.0,99999,,3279.252221650484,0.0,111600300610090206030200429905132792600007000080000
2111,URMN,43.5129,43.6366,2024-04-30 00:00:00,,,,,20.0,1018.0,4415.556735579677,15.0,1.0,340.0,10000.0,99999,,3398.1567355796765,0.0,1116003401102002015030180441555133981600007000080000
2123,UWLW,54.401,48.8027,2024-04-30 00:00:00,,,,,5.0,1028.0,3277.3965317803027,4.0,3.0,250.0,10000.0,99999,,2249.3965317803027,0.0,111600250310050204030280427735122493600007000080000
2158,EGUL,52.4093,0.561,2024-04-29 23:55:00,,,,,10.0,29.97,1145.190762811578,3.3,9.0,120.0,10000.0,99999,,129.39076281157804,0.0,1116001209101002030329941451511293600007000080000
2160,EGVA,51.6822,-1.79003,2024-04-29 23:55:00,51.0,36.0,T,green,10.4,29.87,2163.386004597599,6.4,11.0,170.0,10000.0,99999,,1150.1860045975989,0.0,11160017111010420643298416335111501600007510080000
2249,LGHI,38.3432,26.1406,2024-04-29 23:50:00,,,,,16.0,1016.0,1048.7703036134917,11.0,9.0,10.0,10000.0,99999,,32.37030361349173,0.0,11160001091016020110301604048751323600007000080000
2252,LKKB,50.1214,14.5436,2024-04-30 00:00:00,,,,,18.0,1020.0,3341.4437828444416,6.0,8.0,120.0,10000.0,99999,,0.0,0.0,1116001208101802060302004341451000600007000080000
2253,LKKV,50.203,12.915,2024-04-30 00:00:00,,,,,11.0,1020.0,9.881975122124764,9.0,3.0,60.0,10000.0,99999,,-1010.3180248778752,0.0,1116000603101102090302004985110106600007000080000
2254,LKLN,49.6752,13.2746,2024-04-30 00:00:00,,,,,12.0,1019.0,5788.155225923878,9.0,1.0,,10000.0,99999,,4768.155225923878,0.0,111600360110120209030190478815147681600007000080000
2259,LOXZ,47.2028,14.7442,2024-04-29 23:50:00,,,,,8.0,1024.0,13.943748146980578,6.0,2.0,,10000.0,99999,,-1010.2562518530194,0.0,11160036021008020603024041395110107600007000080000
2269,LTCD,39.7102,39.527,2024-04-29 23:50:00,,,,,12.0,1018.0,15.183064177656634,6.0,0.0,0.0,10000.0,99999,,-1000.5169358223434,0.0,11160000001012020603018041515110004600007000080000
2270,LTCF,40.5622,43.115,2024-04-29 23:50:00,,,,,5.0,1023.0,28.612396747349475,-3.0,6.0,300.0,10000.0,99999,,-989.8876032526505,0.0,1116003006100502130302304286519891600007000080000
2273,LTFH,41.2545,36.5671,2024-04-29 23:50:00,,,,,14.0,1020.0,1065.2321412949843,14.0,4.0,220.0,10000.0,99999,,0.0,0.0,11160022041014020140302004065251000600007000080000
2278,ULOO,57.7839,28.3956,2024-04-30 00:00:00,,,,,15.0,1027.0,1412.8905097124414,7.0,4.0,190.0,10000.0,99999,,385.79050971244146,0.0,11160019041015020703027044128513857600007000080000
2320,EIME,53.3017,-6.45133,2024-04-30 00:00:00,,,,,9.0,1004.0,2475.1547982070892,5.0,5.0,80.0,10000.0,99999,,1469.8547982070893,0.0,111600080510090205030040447515114698600007000080000
2340,LPMR,39.8312,-8.88726,2024-04-30 00:00:00,,,,,12.0,1019.0,1618.3050194699952,9.0,1.0,150.0,10000.0,99999,,598.3050194699952,0.0,11160015011012020903019046183515983600007000080000
2373,LPMT,38.7039,-9.03592,2024-04-30 00:00:00,,,,,13.0,1020.0,1146.4691558306158,9.0,3.0,290.0,10000.0,99999,,125.46915583061582,0.0,11160029031013020903020041464511254600007000080000
2388,LIPL,45.4322,10.2677,2024-04-29 23:55:00,,,,,15.0,1020.0,1904.3587275751083,15.0,2.0,40.0,10000.0,99999,,884.2587275751083,0.0,111600040210150201503020049043518842600007000080000
2410,ETIH,49.2181,11.8361,2024-04-29 23:55:00,,,,,9.0,30.07,9.065061627709971,6.3,0.0,0.0,10000.0,99999,,-1009.93493837229,0.0,111600000010090206033004905110090600007000080000
2411,ETIK,49.4739,10.3881,2024-04-29 23:55:00,,,,,7.8,30.07,7903.45561942145,6.1,0.0,0.0,10000.0,99999,,6884.45561942145,0.0,11160000001007720673300490345168844600007000080000
2414,LICT,37.9114,12.488,2024-04-29 23:55:00,,,,,16.0,1016.0,1070.8624709143132,15.0,4.0,100.0,10000.0,99999,,53.862470914313235,0.0,11160010041016020150301604070851538600007000080000
2415,LIBN,40.2392,18.1333,2024-04-29 23:55:00,,,,,13.0,1019.0,1471.1866438199372,13.0,2.0,60.0,10000.0,99999,,451.6866438199372,0.0,111600060210130201303019044711514516600007000080000
2417,LIPC,44.2242,12.3072,2024-04-29 23:55:00,,,,,11.0,1021.0,1078.7691163886288,9.0,3.0,290.0,10000.0,99999,,58.16911638862882,0.0,1116002903101102090302104078751581600007000080000
2418,LIPI,45.9787,13.0493,2024-04-29 23:55:00,,,,,11.0,1020.0,1648.7961082639088,8.0,5.0,320.0,10000.0,99999,,628.7961082639088,0.0,11160032051011020803020046487516287600007000080000
2419,LIPS,45.6849,12.0829,2024-04-29 23:55:00,,,,,14.0,1021.0,1385.5931325591653,10.0,2.0,350.0,10000.0,99999,,364.49313255916525,0.0,111600350210140201003021043855513644600007000080000
2420,LIRE,41.6545,12.4452,2024-04-29 23:55:00,,,,,15.0,1018.0,1114.9590653201935,13.0,0.0,310.0,10000.0,99999,,96.45906532019353,0.0,11160031001015020130301804114951964600007000080000
2421,LIRS,42.7597,11.0719,2024-04-29 23:55:00,,,,,14.0,1018.0,1060.6136519419751,12.0,6.0,30.0,10000.0,99999,,42.01365194197513,0.0,11160003061014020120301804060651420600007000080000
2422,ETAD,49.9727,6.6925,2024-04-29 23:55:00,,,,,11.2,30.08,6268.920390927357,7.9,0.0,0.0,10000.0,99999,,5248.920390927357,0.4,11160000001011120713300426895152489600407000080000
2423,ETAR,49.4369,7.60028,2024-04-29 23:55:00,,,,,7.7,30.07,5945.628644070711,6.6,0.0,0.0,10000.0,99999,,4925.828644070711,0.0,11160000001007720673300494565149258600007000080000
2424,LICZ,37.4017,14.9224,2024-04-29 23:55:00,,,,,15.0,1019.0,1209.2651345761124,15.0,2.0,310.0,10000.0,99999,,190.16513457611234,0.0,111600310210150201503019042092511901600007000080000
2425,ETOU,50.0498,8.3254,2024-04-29 23:55:00,,,,,11.8,30.07,2715.8368175877413,7.9,0.0,0.0,10000.0,99999,,1696.2368175877414,0.0,11160000001011820783300471585116962600007000080000
2426,LIRM,41.0608,14.0819,2024-04-29 23:55:00,,,,,17.0,1018.0,1078.0761129791663,15.0,6.0,330.0,10000.0,99999,,59.57611297916628,0.0,11160033061017020150301804078051595600007000080000
2444,UMGG,52.527,31.0167,2024-04-30 00:00:00,,,,,9.0,1034.0,3401.6193903646426,5.0,1.0,,10000.0,99999,,2368.3193903646425,0.0,111600360110090205030340440165123683600007000080000
2454,LIBV,40.7678,16.9333,2024-04-29 23:55:00,,,,,11.0,1019.0,6255.582499653634,10.0,1.0,,10000.0,99999,,5235.282499653634,0.0,1116003601101102010030190425555152352600007000080000
2455,EGUN,52.3619,0.48641,2024-04-29 23:55:00,,,,,10.0,29.97,1148.873568362475,5.0,7.0,130.0,10000.0,99999,,133.17356836247495,0.0,1116001307101002050329941488511331600007000080000
2473,LATI,41.4147,19.7206,2024-04-30 00:20:00,,,,,13.0,1020.0,1380.5527661226517,12.0,4.0,160.0,10000.0,99999,,360.55276612265175,0.0,111600160410130201203020043805513605600007000080000
2475,LMML,35.8575,14.4775,2024-04-30 00:15:00,,,,,16.0,1016.0,1747.2260585912452,15.0,11.0,90.0,10000.0,99999,,730.1260585912452,0.0,111600091110160201503016047472517301600007000080000
2476,LWSK,41.9616,21.6214,2024-04-30 00:20:00,,,,,10.0,1023.0,4704.0080722192215,4.0,2.0,,10000.0,99999,,3680.2080722192213,0.0,111600360210100204030230470405136802600007000080000
2479,EVGA,56.7783,24.8539,2024-04-30 00:20:00,,,,,13.0,1027.0,1622.6552350894142,9.0,3.0,170.0,10000.0,99999,,596.6552350894142,0.0,11160017031013020903027046226515966600007000080000
2514,EVVA,57.3578,21.5442,2024-04-30 00:20:00,,,,,9.0,1027.0,1102.219979255639,8.0,2.0,,6000.0,99999,,0.0,0.0,1113003602100902080302704102251000600007000080000
2528,LSZC,46.97444,8.39694,2024-04-30 00:20:00,,,,,10.0,1017.0,8259.534737310516,6.0,4.0,240.0,10000.0,99999,,7241.734737310516,0.0,111600240410100206030170425955172417600007000080000
2556,EKRS,55.4258,11.8067,2024-04-30 00:20:00,,,,,9.0,1025.0,1502.4560323595933,8.0,6.0,100.0,10000.0,99999,,477.45603235959334,0.0,11160010061009020803025045024514774600007000080000
2582,LSMA,46.9439,8.28417,2024-04-30 00:20:00,,,,,9.0,1017.0,8976.735659511802,6.0,1.0,,10000.0,99999,,7958.335659511802,0.0,111600360110090206030170497675179583600007000080000
2583,LSMD,47.3986,8.64823,2024-04-30 00:20:00,,,,,9.0,1018.0,9.038917329321158,8.0,2.0,,10000.0,99999,,-1008.2610826706788,0.0,1116003602100902080301804905110087600007000080000
2584,LSME,47.0924,8.30512,2024-04-30 00:20:00,,,,,8.0,1018.0,9.591879622649092,7.0,0.0,0.0,10000.0,99999,,-1008.4081203773509,0.0,1116000000100802070301804955110085600007000080000
2585,LSMM,46.7433,8.11,2024-04-30 00:20:00,,,,,17.0,1018.0,6435.178742462169,3.0,16.0,100.0,10000.0,99999,,5415.778742462169,0.0,111600101610170203030180443515154157600007000080000
2586,LSMP,46.8432,6.91506,2024-04-30 00:20:00,,,,,8.0,1018.0,9.968992023411145,7.0,0.0,0.0,10000.0,99999,,-1008.0310079765889,0.0,1116000000100802070301804995110089600007000080000
2704,EGCK,53.1042,-4.34028,2024-04-30 00:20:00,61.0,36.0,^,green,10.0,1006.0,1009.4400958228376,9.0,8.0,160.0,8000.0,99999,,1.2400958228375885,0.2,1114001608101002090300604009451012600207610080000
2705,EGHQ,50.4406,-4.99541,2024-04-30 00:20:00,,,,,11.0,1006.0,2480.561673581574,11.0,20.0,170.0,8000.0,99999,,1471.2616735815739,0.1,1114001720101102011030060448055114712600107000080000
2745,ESOH,60.0201,13.5789,2024-04-30 00:20:00,,,,,1.0,1026.0,19.736561049003626,0.0,2.0,,10000.0,99999,,-1004.6634389509965,0.0,11160036021001020003026041975110043600007000080000
2764,ESNZ,63.1944,14.5003,2024-04-30 00:20:00,,,,,3.0,1021.0,18.084855948006396,3.0,6.0,220.0,10000.0,99999,,-1002.7151440519935,0.2,11160022061003020303021041805110022600207000080000
2773,EFET,68.3626,23.4243,2024-04-30 00:20:00,,,,,0.0,1019.0,38.967236030157345,-1.0,3.0,70.0,10000.0,99999,,0.0,0.0,111600070310000211030190438951000600007000080000
2774,EFHA,61.856,24.7866,2024-04-30 00:20:00,,,,,7.0,1022.0,4189.96420108283,5.0,6.0,240.0,10000.0,99999,,3169.3642010828303,0.0,111600240610070205030220418995131693600007000080000
2775,EFJO,62.6629,29.6075,2024-04-30 00:20:00,,,,,5.0,1019.0,4764.68655947029,5.0,5.0,180.0,9000.0,99999,,3744.2865594702903,0.0,111500180510050205030190476465137442600007000080000
2780,EFKS,65.9876,29.2394,2024-04-30 00:20:00,51.0,36.0,T,green,0.0,1017.0,38.890754703307174,-0.0,7.0,90.0,10000.0,99999,,-983.3092452966929,0.7,1116000907100002100301704388519836600707510080000
2782,EFLP,61.0446,28.1444,2024-04-30 00:20:00,,,,,11.0,1021.0,2340.836183501143,9.0,6.0,230.0,10000.0,99999,,1318.8361835011428,0.0,111600230610110209030210434085113188600007000080000
2783,EFMI,61.6866,27.2018,2024-04-30 00:20:00,,,,,11.0,1021.0,2255.9063266328767,8.0,9.0,260.0,10000.0,99999,,1235.9063266328767,0.0,111600260910110208030210425595112359600007000080000
2785,EFSA,61.9431,28.9451,2024-04-30 00:20:00,,,,,11.0,1020.0,2178.0943135160214,9.0,8.0,210.0,10000.0,99999,,1157.0943135160214,0.0,111600210810110209030200417805111570600007000080000
2786,EFSI,62.6921,22.8323,2024-04-30 00:20:00,,,,,6.0,1021.0,3251.7054641131454,5.0,6.0,230.0,10000.0,99999,,0.0,0.0,1116002306100602050302104251751000600007000080000
2787,EFUT,60.8964,26.9384,2024-04-30 00:20:00,,,,,11.0,1022.0,2300.5136020032774,8.0,9.0,260.0,10000.0,99999,,1278.3136020032773,0.0,111600260910110208030220430055112783600007000080000
2795,EFKT,67.701,24.8468,2024-04-30 00:20:00,,,,,1.0,1019.0,22.868154781941964,-1.0,5.0,50.0,10000.0,99999,,-998.8318452180581,0.0,1116000505100102110301904228519981600007000080000
2899,EVLA,56.5175,21.0969,2024-04-30 00:20:00,,,,,9.0,1027.0,1090.1938408819856,6.0,3.0,20.0,10000.0,99999,,64.09384088198567,0.0,1116000203100902060302704090151640600007000080000
2901,EYKA,54.9639,24.0848,2024-04-30 00:20:00,,,,,15.0,1028.0,1695.4968604108522,6.0,8.0,160.0,10000.0,99999,,0.0,0.0,1116001608101502060302804695451000600007000080000
2902,EYPA,55.9732,21.0939,2024-04-30 00:20:00,,,,,10.0,1027.0,1145.5607005138615,6.0,7.0,20.0,10000.0,99999,,118.8607005138615,0.0,11160002071010020603027041455511188600007000080000
2917,ESCF,58.4023,15.5257,2024-04-30 00:20:00,,,,,3.0,1027.0,6027.843039052587,1.0,4.0,190.0,10000.0,99999,,5000.943039052587,0.0,111600190410030201030270402785150009600007000080000
2919,ESIB,58.4264,12.7144,2024-04-30 00:20:00,,,,,5.0,1026.0,2565.790814537059,3.0,4.0,110.0,10000.0,99999,,1539.8908145370588,0.0,111600110410050203030260456575115398600007000080000
2920,ESMV,57.2922,14.1372,2024-04-30 00:20:00,,,,,3.0,1027.0,10.15936946000531,1.0,2.0,20.0,10000.0,99999,,-1015.8406305399947,0.0,11160002021003020103027041015110151600007000080000
2922,ESPE,65.8753,20.1499,2024-04-30 00:20:00,,,,,0.0,1019.0,38.967236030157345,0.0,4.0,330.0,10000.0,99999,,-979.0327639698427,0.5,1116003304100002000301904389519799600507000080000
2923,ESIA,58.5138,14.5071,2024-04-30 00:20:00,,,,,2.0,1027.0,8663.008982654455,1.0,1.0,,10000.0,99999,,7637.208982654455,0.0,111600360110020201030270466305176372600007000080000
2924,ESCM,59.8973,17.5886,2024-04-30 00:20:00,,,,,5.0,1026.0,1546.8034545052203,2.0,6.0,230.0,10000.0,99999,,521.8034545052203,0.0,11160023061005020203026045468515218600007000080000
2946,LIMZ,44.547,7.62322,2024-04-30 00:20:00,61.0,36.0,^,green,12.0,1021.0,6145.895228450672,11.0,3.0,240.0,10000.0,99999,,0.0,0.0,11160024031012020110302104145851000600007610080000
2963,ESNV,64.5791,16.8336,2024-04-30 00:20:00,71.0,36.0,h,magenta,1.0,1019.0,28.233185204405356,-1.0,3.0,280.0,300.0,99999,,-989.7668147955947,0.0,1110002803100102110301904282519892600007710080000
2965,ESST,60.1576,12.9913,2024-04-30 00:20:00,,,,,2.0,1026.0,10.65832157971217,1.0,2.0,180.0,10000.0,99999,,0.0,0.0,111600180210020201030260410651000600007000080000
2966,ESUP,67.2456,23.0689,2024-04-30 00:20:00,61.0,36.0,^,green,1.0,1019.0,21.049400818783404,1.0,5.0,10.0,10000.0,99999,,-999.1505991812166,0.0,1116000105100102010301904210519998600007610080000
2967,ESND,62.0478,14.4229,2024-04-30 00:20:00,,,,,1.0,1023.0,28.613781551535187,0.0,2.0,,10000.0,99999,,-992.6862184484647,0.0,1116003602100102000302304286519923600007000080000
2972,LICB,36.9946,14.60718,2024-04-30 00:20:00,,,,,20.0,1016.0,2302.446127821866,7.0,7.0,,10000.0,99999,,1284.446127821866,0.0,111600360710200207030160430245112844600007000080000
2974,LIPO,45.4289,10.3306,2024-04-30 00:20:00,,,,,15.0,1020.0,1969.4317772937136,11.0,5.0,10.0,10000.0,99999,,0.0,0.0,11160001051015020110302004969451000600007000080000
2996,EEKE,58.2299,22.5095,2024-04-30 00:20:00,,,,,9.0,1027.0,1082.2072478517907,9.0,2.0,320.0,8000.0,99999,,56.50724785179068,0.0,1114003202100902090302704082251565600007000080000
2997,EETU,58.3075,26.6904,2024-04-30 00:20:00,61.0,36.0,^,green,13.0,1026.0,1682.8137337499525,11.0,4.0,250.0,10000.0,99999,,657.6137337499524,0.0,111600250410130201103026046828516576600007610080000
2998,EEPU,58.419,24.4728,2024-04-30 00:20:00,61.0,36.0,^,green,8.0,1027.0,1241.771826984264,8.0,5.0,210.0,10000.0,99999,,0.0,0.0,1116002105100802080302704241751000600007610080000
3014,EDBC,51.8564,11.4203,2024-04-30 00:20:00,,,,,11.0,1021.0,3438.179388305069,8.0,4.0,30.0,10000.0,99999,,2416.579388305069,0.0,111600030410110208030210443815124165600007000080000
3041,EDJA,47.9888,10.2395,2024-04-30 00:20:00,,,,,10.0,1018.0,11.068802673868367,7.0,3.0,160.0,10000.0,99999,,0.0,0.0,111600160310100207030180411051000600007000080000
3048,EDTY,49.11833,9.78389,2024-04-30 00:20:00,,,,,10.0,1018.0,7384.469377186139,8.0,2.0,80.0,10000.0,99999,,6365.469377186139,0.0,111600080210100208030180438445163654600007000080000
3052,EDWE,53.39111,7.2275,2024-04-30 00:20:00,,,,,13.0,1019.0,1027.0489639769346,7.0,3.0,120.0,10000.0,99999,,6.748963976934647,0.0,1116001203101302070301904027051067600007000080000
3060,EKRN,55.0633,14.7596,2024-04-30 00:20:00,,,,,10.0,1026.0,1215.0631749124989,6.0,4.0,100.0,10000.0,99999,,188.86317491249883,0.0,11160010041010020603026042150511888600007000080000
3061,EKSB,54.9644,9.79173,2024-04-30 00:20:00,,,,,11.0,1022.0,1099.3994213044064,9.0,7.0,120.0,10000.0,99999,,76.29942130440634,0.0,1116001207101102090302204099351762600007000080000
3063,EKSP,55.2256,9.26393,2024-04-30 00:20:00,,,,,10.0,1022.0,1561.3753271886453,8.0,8.0,100.0,10000.0,99999,,538.2753271886453,0.0,11160010081010020803022045613515382600007000080000
3064,EKVD,55.4363,9.33092,2024-04-30 00:20:00,,,,,11.0,1023.0,1517.6649443172344,9.0,8.0,120.0,10000.0,99999,,494.66494431723436,0.0,11160012081011020903023045176514946600007000080000
3072,EETN,59.4133,24.8328,2024-04-30 00:20:00,,,,,8.0,1026.0,1662.8232361525286,6.0,9.0,260.0,10000.0,99999,,638.4232361525285,0.0,11160026091008020603026046628516384600007000080000
3073,EFHK,60.3172,24.9633,2024-04-30 00:20:00,,,,,8.0,1024.0,1919.5850508276044,7.0,7.0,260.0,10000.0,99999,,896.5850508276044,0.0,11160026071008020703024049195518965600007000080000
3074,EFIV,68.6073,27.4053,2024-04-30 00:20:00,,,,,1.0,1021.0,19.79986008130447,-2.0,3.0,40.0,10000.0,99999,,-1002.2001399186955,0.0,11160004031001021203021041975110027600007000080000
3075,EFJY,62.3995,25.6783,2024-04-30 00:20:00,,,,,7.0,1021.0,4036.428852965461,4.0,7.0,280.0,10000.0,99999,,3017.428852965461,0.0,111600280710070204030210403645130174600007000080000
3076,EFKE,65.7787,24.5821,2024-04-30 00:20:00,,,,,2.0,1016.0,2272.2306840960036,2.0,6.0,30.0,10000.0,99999,,1255.4306840960037,0.2,111600030610020202030160427225112554600207000080000
3077,EFKK,63.7212,23.1431,2024-04-30 00:20:00,41.0,36.0,J,yellow,3.0,1020.0,2165.5661756150907,3.0,7.0,220.0,2100.0,99999,,1147.5661756150907,0.0,111100220710030203030200416555111475600007410080000
3079,EFMA,60.1222,19.8982,2024-04-30 00:20:00,,,,,7.0,1026.0,1112.640341195517,2.0,3.0,250.0,10000.0,99999,,87.64034119551707,0.0,1116002503100702020302604112651876600007000080000
3081,EFPO,61.4617,21.8,2024-04-30 00:20:00,,,,,6.0,1023.0,1292.582493748194,3.0,6.0,250.0,10000.0,99999,,270.5824937481941,0.0,11160025061006020303023042925512705600007000080000
3082,EFRO,66.5648,25.8304,2024-04-30 00:20:00,53.0,36.0,V,green,1.0,1017.0,22.791116924042527,0.0,13.0,70.0,5000.0,99999,,-995.2088830759575,0.6,1113000713100102000301704227519957600607530080000
3083,EFTP,61.4141,23.6044,2024-04-30 00:20:00,,,,,6.0,1023.0,4014.4566219634094,6.0,7.0,220.0,10000.0,99999,,2992.6566219634096,0.0,111600220710060206030230401445129926600007000080000
3084,EFTU,60.5141,22.2628,2024-04-30 00:20:00,10.0,36.0,+,yellow,4.0,1025.0,2760.3515556912616,3.0,4.0,260.0,3600.0,99999,,1736.3515556912616,0.0,111200260410040203030250476035117363600007100080000
3085,EFVA,63.0507,21.7622,2024-04-30 00:20:00,41.0,36.0,J,yellow,4.0,1021.0,1192.3432261539817,4.0,4.0,210.0,1000.0,99999,,172.34322615398173,0.0,11100021041004020403021041923511723600007410080000
3087,ENBR,60.2934,5.21814,2024-04-30 00:20:00,,,,,9.0,1019.0,1758.3489769037728,2.0,12.0,140.0,10000.0,99999,,0.0,0.0,1116001412100902020301904758351000600007000080000
3088,ENCN,58.2042,8.08537,2024-04-30 00:20:00,,,,,6.0,1024.0,1378.3655963413628,5.0,5.0,60.0,10000.0,99999,,355.16559634136274,0.0,11160006051006020503024043783513551600007000080000
3090,ENHD,59.3453,5.20836,2024-04-30 00:20:00,,,,,8.0,1019.0,1421.0830100747517,3.0,12.0,130.0,10000.0,99999,,402.6830100747517,0.0,11160013121008020303019044210514026600007000080000
3093,ENVA,63.4578,10.924,2024-04-30 00:20:00,,,,,4.0,1020.0,1554.1995267528257,3.0,6.0,120.0,10000.0,99999,,534.6995267528257,0.0,11160012061004020303020045541515346600007000080000
3094,ENZV,58.8767,5.63778,2024-04-30 00:20:00,,,,,9.0,1020.0,1134.9154990046777,2.0,15.0,140.0,10000.0,99999,,0.0,0.0,1116001415100902020302004134951000600007000080000
3095,EVRA,56.9236,23.9711,2024-04-30 00:20:00,,,,,13.0,1028.0,1127.2222463913704,9.0,6.0,350.0,10000.0,99999,,0.0,0.0,1116003506101302090302804127251000600007000080000
3096,EYVI,54.6341,25.2858,2024-04-30 00:20:00,,,,,12.0,1030.0,3459.897590730393,5.0,9.0,170.0,10000.0,99999,,2429.897590730393,0.0,111600170910120205030300445985124298600007000080000
3099,LGAV,37.9364,23.9445,2024-04-30 00:20:00,,,,,15.0,1020.0,1831.2667590145409,10.0,10.0,350.0,10000.0,99999,,0.0,0.0,11160035101015020100302004831251000600007000080000
3100,LGIR,35.3397,25.1803,2024-04-30 00:20:00,,,,,18.0,1018.0,1250.2924193100089,13.0,16.0,290.0,10000.0,99999,,231.59241931000884,0.0,111600291610180201303018042502512315600007000080000
3102,LGKR,39.6019,19.9117,2024-04-30 00:20:00,,,,,15.0,1018.0,1031.9550595539301,13.0,4.0,250.0,10000.0,99999,,12.855059553930118,0.0,11160025041015020130301804031951128600007000080000
3103,LGRP,36.4054,28.0862,2024-04-30 00:20:00,,,,,19.0,1011.0,1042.1120039173247,14.0,11.0,230.0,10000.0,99999,,29.71200391732475,0.0,11160023111019020140301104042151297600007000080000
3130,ENAL,62.5625,6.1197,2024-04-30 00:20:00,,,,,10.0,1018.0,1269.7097949382655,3.0,8.0,180.0,10000.0,99999,,253.6097949382655,0.0,11160018081010020303018042697512536600007000080000
3136,ENDU,69.0558,18.5404,2024-04-30 00:20:00,,,,,-0.0,1019.0,38.967236030157345,-3.0,2.0,,10000.0,99999,,0.0,0.0,111600360211000213030190438951000600007000080000
3151,ENRO,62.5784,11.3423,2024-04-30 00:20:00,,,,,-1.0,1020.0,48.054001508294,-3.0,0.0,0.0,10000.0,99999,,-971.945998491706,0.0,1116000000110102130302004480519710600007000080000
3159,ENTO,59.1867,10.2586,2024-04-30 00:20:00,,,,,4.0,1025.0,4364.078970897851,4.0,3.0,10.0,200.0,99999,,0.0,0.0,1110000103100402040302504364051000600007000080000
3162,ESGG,57.6628,12.2798,2024-04-30 00:20:00,,,,,6.0,1026.0,5048.906711433265,0.0,8.0,130.0,10000.0,99999,,4023.306711433265,0.0,111600130810060200030260404895140233600007000080000
3163,ESGJ,57.7576,14.0687,2024-04-30 00:20:00,,,,,-0.0,1027.0,39.27316133755799,-0.0,0.0,0.0,10000.0,99999,,-987.726838662442,0.0,1116000000110002100302704392519872600007000080000
3164,ESGP,57.7747,11.8704,2024-04-30 00:20:00,,,,,5.0,1026.0,1473.1775819192533,2.0,3.0,110.0,10000.0,99999,,447.8775819192533,0.0,11160011031005020203026044731514478600007000080000
3165,ESKN,58.7886,16.9122,2024-04-30 00:20:00,,,,,4.0,1027.0,2510.4859897869646,2.0,0.0,0.0,10000.0,99999,,1484.7859897869646,0.0,111600000010040202030270451045114847600007000080000
3166,ESMK,55.9217,14.0855,2024-04-30 00:20:00,,,,,5.0,1026.0,1613.3344695156827,5.0,0.0,0.0,10000.0,99999,,587.3344695156827,0.0,11160000001005020503026046133515873600007000080000
3167,ESMS,55.53631,13.3762,2024-04-30 00:20:00,,,,,7.0,1025.0,2444.1589307294853,6.0,3.0,90.0,10000.0,99999,,1418.0589307294854,0.0,111600090310070206030250444415114180600007000080000
3168,ESMX,56.9291,14.728,2024-04-30 00:20:00,,,,,4.0,1027.0,8588.98539539116,4.0,0.0,0.0,10000.0,99999,,7562.085395391161,0.0,111600000010040204030270458895175620600007000080000
3169,ESNN,62.5281,17.4439,2024-04-30 00:20:00,45.0,36.0,N,yellow,0.0,1022.0,39.08195802043258,0.0,0.0,0.0,150.0,99999,,-981.0180419795674,0.0,1110000000100002000302204390519819600007450080000
3170,ESNO,63.4083,18.99,2024-04-30 00:20:00,45.0,36.0,N,yellow,2.0,1019.0,9.69483600959956,2.0,2.0,,400.0,99999,,-1008.9051639904004,0.0,1110003602100202020301904965110080600007450080000
3171,ESNQ,67.822,20.3368,2024-04-30 00:20:00,,,,,-0.0,1018.0,38.92899536673225,-1.0,0.0,0.0,10000.0,99999,,-982.2710046332678,0.0,1116000000110002110301804389519827600007000080000
3174,ESOK,59.4447,13.3374,2024-04-30 00:20:00,,,,,4.0,1026.0,5243.844770592489,2.0,2.0,,10000.0,99999,,4218.344770592489,0.0,111600360210040202030260424385142183600007000080000
3177,ESSB,59.3544,17.9417,2024-04-30 00:20:00,,,,,3.0,1027.0,1634.5182002314918,1.0,0.0,0.0,10000.0,99999,,609.6182002314918,0.0,11160000001003020103027046345516096600007000080000
3178,ESSD,60.422,15.5152,2024-04-30 00:20:00,,,,,5.0,1025.0,5906.887304087165,2.0,4.0,200.0,10000.0,99999,,4882.887304087165,0.0,111600200410050202030250490685148828600007000080000
3179,ESSP,58.5863,16.2506,2024-04-30 00:20:00,,,,,2.0,1027.0,1648.5772107378177,1.0,2.0,160.0,10000.0,99999,,622.2772107378178,0.0,11160016021002020103027046485516222600007000080000
3180,ESSV,57.6628,18.3462,2024-04-30 00:20:00,,,,,3.0,1027.0,3492.674138650774,3.0,0.0,0.0,10000.0,99999,,2466.074138650774,0.0,111600000010030203030270449265124660600007000080000
3181,LSGC,47.0839,6.79284,2024-04-30 00:20:00,,,,,6.0,1019.0,21.423854699916408,6.0,1.0,,10000.0,99999,,-996.3761453000835,0.0,1116003601100602060301904214519966600007000080000
3182,LSGG,46.2381,6.10895,2024-04-30 00:20:00,,,,,9.0,1018.0,8722.421260915196,8.0,1.0,,10000.0,99999,,7703.821260915196,0.0,111600360110090208030180472245177038600007000080000
3183,LSGS,46.2196,7.32676,2024-04-30 00:20:00,,,,,10.0,1019.0,8814.613564967012,4.0,3.0,,10000.0,99999,,7796.313564967012,0.0,111600360310100204030190481465177963600007000080000
3184,LSZA,46.0043,8.91058,2024-04-30 00:20:00,,,,,12.0,1022.0,4601.681761268713,11.0,2.0,,10000.0,99999,,3579.7817612687127,0.0,1116003602101202011030220460165135797600007000080000
3185,LSZB,46.9141,7.49715,2024-04-30 00:20:00,,,,,7.0,1018.0,12.38634981091696,6.0,2.0,,10000.0,99999,,-1005.613650189083,0.0,11160036021007020603018041235110053600007000080000
3186,LSZG,47.1816,7.41719,2024-04-30 00:20:00,10.0,36.0,+,yellow,7.0,1018.0,10.800304727390037,7.0,0.0,0.0,3600.0,99999,,-1007.1996952726099,0.0,11120000001007020703018041085110078600007100080000
3187,LSZH,47.4647,8.54917,2024-04-30 00:20:00,,,,,8.0,1018.0,9.68532194089534,7.0,3.0,,10000.0,99999,,-1007.9146780591046,0.0,1116003603100802070301804965110070600007000080000
3188,LSZL,46.1608,8.87861,2024-04-30 00:20:00,,,,,14.0,1022.0,3058.223414928605,11.0,1.0,,10000.0,99999,,2036.223414928605,0.0,1116003601101402011030220405825120362600007000080000
3189,LSZR,47.485,9.56077,2024-04-30 00:20:00,,,,,15.0,1017.0,5148.659610036592,6.0,8.0,110.0,10000.0,99999,,4131.059610036592,0.0,111600110810150206030170414865141310600007000080000
3190,LSZS,46.5341,9.88411,2024-04-30 00:20:00,,,,,4.0,1024.0,29.985203377803135,1.0,3.0,,10000.0,99999,,-992.9147966221968,0.0,1116003603100402010302404299519920600007000080000
3192,EGBB,52.4539,-1.74803,2024-04-30 00:20:00,,,,,10.0,1011.0,2363.249189061671,6.0,10.0,160.0,10000.0,99999,,1351.049189061671,0.0,111600161010100206030110436325113510600007000080000
3194,EGFF,51.3967,-3.34333,2024-04-30 00:20:00,,,,,11.0,1010.0,1790.3487521963773,8.0,13.0,160.0,10000.0,99999,,778.9487521963773,0.4,11160016131011020803010047903517789600407000080000
3195,EGGD,51.3827,-2.71909,2024-04-30 00:20:00,,,,,10.0,1011.0,3823.0331334510547,8.0,8.0,130.0,10000.0,99999,,2810.833133451055,0.2,111600130810100208030110482305128108600207000080000
3199,EGKK,51.1481,-0.19028,2024-04-30 00:20:00,,,,,10.0,1014.0,1806.0736635728929,7.0,6.0,140.0,10000.0,99999,,790.3736635728928,0.0,11160014061010020703014048060517903600007000080000
3200,EGLF,51.2758,-0.77633,2024-04-30 00:20:00,,,,,8.0,1014.0,2233.100831464262,5.0,6.0,150.0,10000.0,99999,,1216.5008314642619,0.0,111600150610080205030140423315112165600007000080000
3202,EGMD,50.9561,0.93917,2024-04-30 00:20:00,,,,,9.0,1015.0,1065.6247172493102,8.0,7.0,100.0,10000.0,99999,,0.0,0.0,1116001007100902080301504065651000600007000080000
3203,EGNJ,53.5744,-0.35083,2024-04-30 00:20:00,,,,,11.0,1013.0,1422.6255774676715,5.0,13.0,170.0,10000.0,99999,,409.9255774676715,0.0,11160017131011020503013044226514099600007000080000
3204,EGNM,53.8659,-1.66057,2024-04-30 00:20:00,,,,,9.0,1010.0,4517.218155721796,6.0,11.0,170.0,10000.0,99999,,3506.7181557217964,0.0,111600171110090206030100451725135067600007000080000
3207,EGPA,58.9578,-2.905,2024-04-30 00:20:00,61.0,36.0,^,green,9.0,1004.0,1202.1270648515758,7.0,14.0,160.0,10000.0,99999,,198.62706485157582,0.0,11160016141009020703004042021511986600007610080000
3208,EGPB,59.8789,-1.29556,2024-04-30 00:20:00,,,,,9.0,1007.0,1084.6978240001188,7.0,20.0,160.0,10000.0,99999,,77.19782400011877,0.0,1116001620100902070300704084651771600007000080000
3215,EGTE,50.7344,-3.41389,2024-04-30 00:20:00,,,,,11.0,1010.0,1350.680791768545,8.0,17.0,160.0,10000.0,99999,,338.6807917685451,0.0,11160016171011020803010043506513386600007000080000
3216,EGCC,53.3537,-2.27495,2024-04-30 00:20:00,,,,,11.0,1010.0,1936.7547258067448,7.0,6.0,160.0,10000.0,99999,,926.3547258067448,0.0,11160016061011020703010049367519263600007000080000
3217,EGLL,51.4706,-0.46194,2024-04-30 00:20:00,,,,,9.0,1014.0,1354.0608204377122,4.0,7.0,150.0,10000.0,99999,,340.0608204377122,0.0,11160015071009020403014043540513400600007000080000
3220,EGGP,53.3336,-2.84972,2024-04-30 00:20:00,,,,,11.0,1009.0,1272.5932311665217,8.0,10.0,160.0,10000.0,99999,,0.0,0.0,1116001610101102080300904272551000600007000080000
3224,EGPC,58.4589,-3.09306,2024-04-30 00:20:00,,,,,9.0,1004.0,1529.8199263331735,7.0,9.0,150.0,10000.0,99999,,526.2199263331735,0.0,11160015091009020703004045298515262600007000080000
3225,EGPE,57.5425,-4.0475,2024-04-30 00:20:00,,,,,10.0,1004.0,1112.7303703550417,5.0,7.0,220.0,10000.0,99999,,110.73037035504171,0.0,11160022071010020503004041127511107600007000080000
3226,EGPF,55.8719,-4.43306,2024-04-30 00:20:00,,,,,7.0,1007.0,1138.2196583307993,5.0,3.0,60.0,10000.0,99999,,133.5196583307993,0.0,11160006031007020503007041382511335600007000080000
3227,EGPL,57.4811,-7.36278,2024-04-30 00:20:00,,,,,9.0,1001.0,1074.3156759833444,8.0,0.0,0.0,10000.0,99999,,73.71567598334434,0.4,1116000000100902080300104074351737600407000080000
3229,EGSS,51.885,0.235,2024-04-30 00:20:00,,,,,9.0,1015.0,2656.7207546017676,4.0,7.0,150.0,10000.0,99999,,1642.3207546017675,0.0,111600150710090204030150465675116423600007000080000
3236,EDGS,50.7077,8.08297,2024-04-30 00:20:00,,,,,13.0,1020.0,8468.073408846854,7.0,4.0,320.0,10000.0,99999,,7447.773408846854,1.4,111600320410130207030200446805174477601307000080000
3237,EDLV,51.6024,6.14217,2024-04-30 00:20:00,,,,,14.0,1019.0,1296.6694599472314,11.0,6.0,140.0,10000.0,99999,,0.0,0.0,11160014061014020110301904296651000600007000080000
3243,ESGT,58.3181,12.345,2024-04-30 00:20:00,,,,,2.0,1026.0,4210.124109803162,2.0,2.0,,10000.0,99999,,3184.5241098031624,0.0,111600360210020202030260421015131845600007000080000
3245,ESMQ,56.6855,16.2876,2024-04-30 00:20:00,,,,,7.0,1027.0,1113.7247859725107,5.0,2.0,360.0,10000.0,99999,,87.0247859725107,0.0,1116003602100702050302704113751870600007000080000
3246,ESMT,56.6911,12.8202,2024-04-30 00:20:00,,,,,6.0,1026.0,1682.2686786965273,4.0,7.0,60.0,10000.0,99999,,656.2686786965273,0.0,11160006071006020403026046822516562600007000080000
3247,ESNG,67.1324,20.8146,2024-04-30 00:20:00,68.0,36.0,e,magenta,0.0,1019.0,38.967236030157345,-0.0,3.0,320.0,6000.0,99999,,-981.3327639698426,0.7,1113003203100002100301904389519816600707680080000
3248,ESNK,63.0486,17.7689,2024-04-30 00:20:00,45.0,36.0,N,yellow,3.0,1021.0,1447.21898669408,3.0,3.0,340.0,150.0,99999,,428.21898669408006,0.0,11100034031003020303021044472514282600007450080000
3249,ESNL,64.5483,18.7162,2024-04-30 00:20:00,,,,,1.0,1019.0,23.79404791200131,1.0,1.0,,10000.0,99999,,0.0,0.0,111600360110010201030190423751000600007000080000
3250,ESNX,65.5903,19.2819,2024-04-30 00:20:00,71.0,36.0,h,magenta,-0.0,1018.0,38.92899536673225,-0.0,6.0,290.0,9000.0,99999,,0.0,0.0,111500290611000210030180438951000600007710080000
3251,ESOE,59.2237,15.038,2024-04-30 00:20:00,,,,,3.0,1027.0,3907.9283087539043,1.0,3.0,,10000.0,99999,,2881.9283087539043,0.0,111600360310030201030270490795128819600007000080000
3252,ESSL,58.4062,15.6805,2024-04-30 00:20:00,,,,,3.0,1027.0,3630.355516177124,1.0,3.0,160.0,10000.0,99999,,2604.355516177124,0.0,111600160310030201030270463035126043600007000080000
3253,ESTA,56.2961,12.8471,2024-04-30 00:20:00,,,,,8.0,1026.0,1341.7144715841816,6.0,4.0,110.0,10000.0,99999,,316.21447158418164,0.0,11160011041008020603026043417513162600007000080000
3254,ESTL,56.0828,13.2125,2024-04-30 00:20:00,,,,,7.0,1026.0,1818.710712627211,7.0,2.0,160.0,10000.0,99999,,792.710712627211,0.0,11160016021007020703026048187517927600007000080000
3255,ESUT,65.8061,15.0828,2024-04-30 00:20:00,,,,,-0.0,1019.0,38.967236030157345,-0.0,1.0,,10000.0,99999,,-978.0327639698427,0.0,1116003601110002100301904389519789600007000080000
3256,LTCN,37.53883,36.95352,2024-04-30 00:23:00,95.0,36.0,2,red,21.0,1014.0,4869.794245625817,11.0,17.0,130.0,10000.0,99999,,3857.094245625817,0.0,1116001317102102011030140486975138570600007950080000
3279,ENAT,69.9761,23.3717,2024-04-30 00:20:00,,,,,2.0,1021.0,1183.0518960653192,-2.0,3.0,170.0,10000.0,99999,,159.6518960653192,0.0,11160017031002021203021041830511596600007000080000
3280,ENBL,61.3911,5.75694,2024-04-30 00:20:00,,,,,7.0,1019.0,8371.047061446843,0.0,6.0,170.0,10000.0,99999,,7353.547061446843,0.2,111600170610070200030190437105173535600207000080000
3281,ENBN,65.4611,12.2175,2024-04-30 00:20:00,,,,,8.0,1020.0,1131.3732489203132,4.0,7.0,210.0,10000.0,99999,,0.0,0.0,1116002107100802040302004131351000600007000080000
3282,ENEV,68.4913,16.6781,2024-04-30 00:20:00,,,,,6.0,1019.0,1552.6758017265975,-2.0,4.0,200.0,10000.0,99999,,0.0,0.0,1116002004100602120301904552651000600007000080000
3283,ENFL,61.5836,5.02472,2024-04-30 00:20:00,,,,,10.0,1018.0,1150.1298985934259,3.0,16.0,160.0,10000.0,99999,,133.7298985934259,0.0,11160016161010020303018041501511337600007000080000
3284,ENKB,63.1118,7.82452,2024-04-30 00:20:00,,,,,8.0,1018.0,2047.7015369300987,5.0,6.0,40.0,10000.0,99999,,0.0,0.0,1116000406100802050301804047751000600007000080000
3285,ENML,62.7447,7.2625,2024-04-30 00:20:00,,,,,8.0,1018.0,1061.8782325911202,4.0,5.0,50.0,10000.0,99999,,45.97823259112022,0.0,1116000505100802040301804061851459600007000080000
3286,ENNA,70.0688,24.9735,2024-04-30 00:20:00,,,,,-2.0,1022.0,628.1337928576582,-4.0,2.0,330.0,10000.0,99999,,-395.5662071423418,0.0,11160033021102021403022046281513954600007000080000
3287,LGKL,37.0683,22.0255,2024-04-30 00:20:00,,,,,12.0,1017.0,1093.4777193259592,8.0,0.0,0.0,10000.0,99999,,74.67771932595929,0.0,1116000000101202080301704093451746600007000080000
3288,LGSA,35.5317,24.1497,2024-04-30 00:20:00,,,,,14.0,1018.0,2488.4856257089873,12.0,0.0,0.0,10000.0,99999,,1469.4856257089873,0.0,1116000000101402012030180448845114694600007000080000
3300,EGNT,55.0375,-1.69167,2024-04-30 00:20:00,,,,,11.0,1009.0,1970.963077735645,7.0,11.0,220.0,10000.0,99999,,962.163077735645,0.0,11160022111011020703009049709519621600007000080000
3309,ESNS,64.6248,21.0769,2024-04-30 00:20:00,10.0,36.0,+,yellow,1.0,1019.0,8741.79533722045,1.0,6.0,280.0,1800.0,99999,,7724.79533722045,0.0,111100280610010201030190474175177247600007100080000
3310,ESNU,63.7918,20.2828,2024-04-30 00:20:00,,,,,3.0,1020.0,1314.4757948795925,2.0,4.0,270.0,10000.0,99999,,295.8757948795925,0.0,11160027041003020203020043144512958600007000080000
3313,EDDB,52.36217,13.50067,2024-04-30 00:20:00,,,,,11.0,1021.0,1563.2249187733128,7.0,7.0,50.0,10000.0,99999,,540.5249187733127,0.0,11160005071011020703021045632515405600007000080000
3314,EDDC,51.1328,13.7672,2024-04-30 00:20:00,,,,,15.0,1020.0,3248.5206399563253,9.0,3.0,150.0,10000.0,99999,,2227.2206399563256,0.0,111600150310150209030200424855122272600007000080000
3315,EDDE,50.9798,10.9581,2024-04-30 00:20:00,,,,,14.0,1020.0,4474.198441715446,8.0,2.0,30.0,10000.0,99999,,3453.5984417154464,0.0,111600030210140208030200447415134535600007000080000
3316,EDDF,50.0264,8.54313,2024-04-30 00:20:00,,,,,10.0,1018.0,2555.366356980556,8.0,1.0,,10000.0,99999,,1536.2663569805559,0.0,111600360110100208030180455535115362600007000080000
3317,EDDG,52.1346,7.68483,2024-04-30 00:20:00,,,,,15.0,1019.0,1417.765907208958,9.0,2.0,,10000.0,99999,,398.365907208958,0.0,11160036021015020903019044177513983600007000080000
3318,EDDH,53.6304,9.98823,2024-04-30 00:20:00,,,,,15.0,1022.0,1148.5290250357768,8.0,6.0,110.0,10000.0,99999,,127.12902503577686,0.0,11160011061015020803022041485511271600007000080000
3319,EDDK,50.8659,7.14274,2024-04-30 00:20:00,,,,,13.0,1019.0,1948.1081363221363,10.0,2.0,,10000.0,99999,,928.3081363221363,0.0,111600360210130201003019049481519283600007000080000
3320,EDDL,51.2895,6.76678,2024-04-30 00:20:00,,,,,15.0,1019.0,1383.4420453141718,9.0,5.0,160.0,10000.0,99999,,364.1420453141718,0.0,11160016051015020903019043834513641600007000080000
3321,EDDM,48.3538,11.7861,2024-04-30 00:20:00,,,,,11.0,1018.0,7652.167446650201,9.0,2.0,,10000.0,99999,,6633.767446650201,0.0,111600360210110209030180465215166337600007000080000
3322,EDDN,49.4987,11.0669,2024-04-30 00:20:00,,,,,11.0,1018.0,5576.777725107706,8.0,2.0,90.0,10000.0,99999,,4557.777725107706,0.0,111600090210110208030180457675145577600007000080000
3323,EDDP,51.4324,12.2416,2024-04-30 00:20:00,,,,,13.0,1020.0,2530.1388771534776,9.0,7.0,50.0,10000.0,99999,,1509.3388771534776,0.0,111600050710130209030200453015115093600007000080000
3324,EDDR,49.2146,7.10951,2024-04-30 00:20:00,,,,,12.0,1019.0,5216.8684049283165,8.0,5.0,330.0,10000.0,99999,,4197.168404928317,0.0,111600330510120208030190421685141971600007000080000
3325,EDDS,48.6899,9.22196,2024-04-30 00:20:00,,,,,11.0,1017.0,6663.889329247342,8.0,1.0,280.0,10000.0,99999,,5645.389329247342,0.0,111600280110110208030170466385156453600007000080000
3326,EDDV,52.4611,9.68508,2024-04-30 00:20:00,,,,,14.0,1020.0,1516.1286197923587,9.0,2.0,80.0,10000.0,99999,,494.92861979235863,0.0,11160008021014020903020045161514949600007000080000
3327,EDDW,53.0475,8.78667,2024-04-30 00:20:00,,,,,16.0,1020.0,1050.6921890839285,8.0,10.0,110.0,10000.0,99999,,30.29218908392852,0.0,1116001110101602080302004050651302600007000080000
3329,EDFM,49.47306,8.51417,2024-04-30 00:20:00,,,,,14.0,1018.0,1891.822305196555,9.0,6.0,340.0,10000.0,99999,,872.8223051965549,0.0,11160034061014020903018048918518728600007000080000
3353,ENKR,69.7258,29.8913,2024-04-30 00:20:00,,,,,1.0,1022.0,14.117593092956483,-1.0,5.0,180.0,10000.0,99999,,0.0,0.0,111600180510010211030220414151000600007000080000
3354,LGAD,37.9207,21.2926,2024-04-30 00:20:00,,,,,11.0,1018.0,1198.1331894809648,9.0,0.0,0.0,10000.0,99999,,179.03318948096478,0.0,11160000001011020903018041981511790600007000080000
3355,LGTS,40.5197,22.9709,2024-04-30 00:20:00,,,,,16.0,1022.0,1070.4991036718231,11.0,2.0,,10000.0,99999,,47.799103671823104,0.0,11160036021016020110302204070451477600007000080000
3356,LOWG,46.9911,15.4396,2024-04-30 00:20:00,,,,,11.0,1023.0,5935.655732304069,9.0,1.0,,10000.0,99999,,4912.955732304069,0.0,111600360110110209030230493565149129600007000080000
3357,LOWI,47.2602,11.344,2024-04-30 00:20:00,,,,,17.0,1020.0,6481.564538992893,2.0,9.0,60.0,10000.0,99999,,5463.464538992893,0.0,111600060910170202030200448155154634600007000080000
3358,LOWK,46.6425,14.3377,2024-04-30 00:20:00,,,,,12.0,1023.0,7040.3571926255,8.0,2.0,,10000.0,99999,,6017.8571926255,0.0,111600360210120208030230404035160178600007000080000
3359,LOWL,48.2332,14.1875,2024-04-30 00:20:00,,,,,15.0,1019.0,4009.1739209899115,9.0,6.0,50.0,10000.0,99999,,2991.0739209899116,0.0,111600050610150209030190400915129910600007000080000
3360,LOWS,47.7933,13.0043,2024-04-30 00:20:00,,,,,12.0,1019.0,6759.040789996453,5.0,5.0,170.0,10000.0,99999,,5740.840789996453,0.0,111600170510120205030190475905157408600007000080000
3361,LOWW,48.1103,16.5697,2024-04-30 00:20:00,,,,,13.0,1023.0,3047.4556500976137,9.0,7.0,170.0,10000.0,99999,,2024.9556500976137,0.0,111600170710130209030230404745120249600007000080000
3363,EDFH,49.9487,7.26389,2024-04-30 00:20:00,,,,,12.0,1019.0,7772.402313466773,7.0,2.0,280.0,10000.0,99999,,6752.602313466773,0.0,111600280210120207030190477245167526600007000080000
3364,EDHL,53.8054,10.7192,2024-04-30 00:20:00,,,,,13.0,1022.0,1168.539017562638,8.0,7.0,120.0,10000.0,99999,,146.63901756263806,0.0,11160012071013020803022041685511466600007000080000
3366,EDLP,51.6141,8.61632,2024-04-30 00:20:00,,,,,11.0,1020.0,3926.9609373584594,8.0,6.0,170.0,10000.0,99999,,2906.9609373584594,0.0,111600170610110208030200492695129069600007000080000
3367,EDLW,51.5183,7.61224,2024-04-30 00:20:00,,,,,13.0,1019.0,2381.5871616095033,8.0,3.0,200.0,10000.0,99999,,1362.1871616095032,0.0,111600200310130208030190438155113621600007000080000
3368,EDMA,48.42528,10.93167,2024-04-30 00:20:00,,,,,8.0,1018.0,10.260211760949298,7.0,2.0,,10000.0,99999,,-1008.0397882390506,0.0,11160036021008020703018041025110089600007000080000
3370,EDQM,50.28861,11.85639,2024-04-30 00:20:00,,,,,10.0,1020.0,10.569135294640036,8.0,3.0,350.0,10000.0,99999,,-1010.0308647053599,0.0,11160035031010020803020041055110109600007000080000
3372,EDVK,51.40833,9.3775,2024-04-30 00:20:00,,,,,10.0,1020.0,5366.432467790482,8.0,2.0,,10000.0,99999,,4345.632467790482,0.0,111600360210100208030200436645143456600007000080000
3373,EGJJ,49.2079,-2.19551,2024-04-30 00:20:00,,,,,10.0,1013.0,2137.0422163845074,8.0,10.0,180.0,10000.0,99999,,1121.7422163845074,0.0,111600181010100208030130413705111217600007000080000
3381,EKBI,55.7403,9.15178,2024-04-30 00:20:00,,,,,11.0,1023.0,1921.23679622422,8.0,6.0,110.0,10000.0,99999,,897.7367962242199,0.0,11160011061011020803023049212518977600007000080000
3382,EKCH,55.6179,12.656,2024-04-30 00:20:00,,,,,8.0,1026.0,1101.6485373408022,6.0,3.0,70.0,10000.0,99999,,75.64853734080225,0.0,1116000703100802060302604101651756600007000080000
3383,EKEB,55.5259,8.5534,2024-04-30 00:20:00,,,,,11.0,1022.0,1348.905782347001,8.0,10.0,90.0,10000.0,99999,,325.9057823470009,0.0,11160009101011020803022043489513259600007000080000
3384,EKRK,55.5856,12.1314,2024-04-30 00:20:00,,,,,7.0,1025.0,1854.4407796288542,6.0,4.0,90.0,10000.0,99999,,829.2407796288542,0.0,11160009041007020603025048544518292600007000080000
3391,ENBV,70.8714,29.0342,2024-04-30 00:20:00,,,,,-1.0,1022.0,86.00027248600092,-2.0,12.0,250.0,10000.0,99999,,-937.0997275139991,0.0,1116002512110102120302204860519379600007000080000
3392,ENHF,70.6797,23.6686,2024-04-30 00:20:00,,,,,-1.0,1021.0,608.0998241596757,-4.0,6.0,40.0,10000.0,99999,,0.0,0.0,1116000406110102140302104608051000600007000080000
3394,ENSS,70.3554,31.0449,2024-04-30 00:20:00,,,,,1.0,1022.0,2838.2148791595914,-1.0,8.0,240.0,10000.0,99999,,1814.7148791595914,0.0,111600240810010211030220483825118147600007000080000
3395,ENST,65.9568,12.4689,2024-04-30 00:20:00,80.0,36.0,q,green,8.0,1020.0,1276.024702017431,4.0,13.0,190.0,10000.0,99999,,259.1247020174311,0.0,11160019131008020403020042760512591600007800080000
3396,ENVD,70.0653,29.8447,2024-04-30 00:20:00,,,,,2.0,1022.0,3932.2925138127016,-1.0,3.0,280.0,10000.0,99999,,0.0,0.0,1116002803100202110302204932251000600007000080000
3397,LIBR,40.6576,17.947,2024-04-30 00:20:00,,,,,14.0,1019.0,1138.7213661551257,13.0,5.0,290.0,10000.0,99999,,118.42136615512572,0.0,111600290510140201303019041387511184600007000080000
3401,LIEA,40.6321,8.29077,2024-04-30 00:20:00,,,,,12.0,1015.0,1279.2934927895967,10.0,3.0,350.0,10000.0,99999,,263.09349278959667,0.0,111600350310120201003015042792512630600007000080000
3402,LIEO,40.8987,9.51763,2024-04-30 00:20:00,,,,,11.0,1017.0,1136.7228653477534,10.0,2.0,250.0,10000.0,99999,,119.12286534775342,0.0,111600250210110201003017041367511191600007000080000
3403,LIPH,45.6484,12.1944,2024-04-30 00:20:00,,,,,14.0,1020.0,1171.3211448231439,10.0,1.0,,10000.0,99999,,149.9211448231439,0.0,111600360110140201003020041713511499600007000080000
3404,LIPX,45.3957,10.8885,2024-04-30 00:20:00,,,,,13.0,1020.0,1738.4328373627745,10.0,3.0,360.0,10000.0,99999,,716.7328373627745,0.0,111600360310130201003020047384517167600007000080000
3406,LIPZ,45.5053,12.3519,2024-04-30 00:20:00,,,,,15.0,1020.0,1036.3208053753092,11.0,2.0,340.0,10000.0,99999,,15.620805375309146,0.0,11160034021015020110302004036351156600007000080000
3407,LIRF,41.8045,12.2508,2024-04-30 00:20:00,,,,,13.0,1018.0,1058.4750459340198,10.0,3.0,40.0,10000.0,99999,,39.67504593401986,0.0,11160004031013020100301804058451396600007000080000
3409,LIRQ,43.81,11.2051,2024-04-30 00:20:00,,,,,12.0,1019.0,1464.4688532138487,10.0,1.0,,10000.0,99999,,445.0688532138487,0.0,111600360110120201003019044644514450600007000080000
3417,ENBS,70.6005,29.6914,2024-04-30 00:20:00,,,,,-1.0,1022.0,115.46315222022231,-2.0,6.0,200.0,10000.0,99999,,-908.1368477797777,0.0,11160020061101021203022041154519088600007000080000
3418,ENNM,64.4722,11.5786,2024-04-30 00:20:00,,,,,4.0,1021.0,1082.8308106445675,3.0,10.0,40.0,10000.0,99999,,64.03081064456751,0.0,1116000410100402030302104082851640600007000080000
3419,ENOV,62.18,6.0741,2024-04-30 00:20:00,,,,,11.0,1018.0,1895.8217683486223,0.0,9.0,,10000.0,99999,,0.0,0.0,1116003609101102000301804895851000600007000080000
3420,ENRA,66.3639,14.3014,2024-04-30 00:20:00,,,,,2.0,1020.0,6605.607597004815,1.0,0.0,0.0,10000.0,99999,,0.0,0.0,1116000000100202010302004605651000600007000080000
3421,ENSG,61.1561,7.13778,2024-04-30 00:20:00,,,,,6.0,1020.0,1020.0,-2.0,3.0,,10000.0,99999,,2.6000000000000227,0.0,1116003603100602120302004020051026600007000080000
3422,ENSK,68.57883,15.03342,2024-04-30 00:20:00,,,,,6.0,1019.0,1083.6865062502673,1.0,9.0,160.0,10000.0,99999,,66.18650625026726,0.0,1116001609100602010301904083651661600007000080000
3423,ENSR,69.7868,20.9594,2024-04-30 00:20:00,,,,,3.0,1021.0,1214.1374013644952,-3.0,5.0,180.0,10000.0,99999,,193.1374013644952,0.0,11160018051003021303021042141511931600007000080000
3424,LIBD,41.1389,16.7606,2024-04-30 00:20:00,,,,,10.0,1019.0,1707.5212933623734,9.0,5.0,240.0,10000.0,99999,,687.2212933623734,0.0,11160024051010020903019047075516872600007000080000
3425,LICJ,38.176,13.091,2024-04-30 00:20:00,,,,,16.0,1016.0,1161.14908289068,11.0,2.0,140.0,10000.0,99999,,144.54908289067987,0.0,111600140210160201103016041611511445600007000080000
3426,LIEE,39.2515,9.05428,2024-04-30 00:20:00,,,,,18.0,1015.0,1040.1812257368292,11.0,7.0,150.0,10000.0,99999,,23.581225736829197,0.0,11160015071018020110301504040151235600007000080000
3427,LIMC,45.6306,8.72811,2024-04-30 00:20:00,,,,,14.0,1021.0,3482.018781514814,9.0,6.0,20.0,10000.0,99999,,2460.418781514814,0.0,111600020610140209030210448205124604600007000080000
3428,LIME,45.6739,9.70417,2024-04-30 00:20:00,,,,,15.0,1021.0,3343.024468119593,11.0,4.0,10.0,10000.0,99999,,2321.7244681195934,0.0,1116000104101502011030210434305123217600007000080000
3429,LIMF,45.2008,7.64963,2024-04-30 00:20:00,,,,,14.0,1021.0,4302.016592433074,9.0,1.0,,10000.0,99999,,3280.416592433074,0.0,111600360110140209030210430205132804600007000080000
3430,LIML,45.4451,9.27674,2024-04-30 00:20:00,,,,,15.0,1020.0,1963.487640651455,12.0,2.0,10.0,10000.0,99999,,942.387640651455,0.0,111600010210150201203020049634519423600007000080000
3431,LIPE,44.5354,11.2887,2024-04-30 00:20:00,,,,,12.0,1020.0,1402.599388722477,9.0,4.0,190.0,10000.0,99999,,382.199388722477,0.0,11160019041012020903020044025513821600007000080000
3432,LIPQ,45.8275,13.4722,2024-04-30 00:20:00,,,,,12.0,1020.0,1135.928411366474,10.0,2.0,,10000.0,99999,,115.92841136647394,0.0,111600360210120201003020041359511159600007000080000
3433,LIRA,41.7994,12.5949,2024-04-30 00:20:00,,,,,15.0,1018.0,2182.7276672524936,8.0,2.0,,10000.0,99999,,1164.3276672524935,0.0,111600360210150208030180418275111643600007000080000
3434,LIRP,43.6839,10.3927,2024-04-30 00:15:00,,,,,13.0,1019.0,1035.125029432499,12.0,5.0,100.0,10000.0,99999,,15.725029432499127,0.0,11160010051013020120301904035151157600007000080000
3438,EGPH,55.95,-3.3725,2024-04-30 00:20:00,,,,,9.0,1007.0,1575.2419096231024,7.0,6.0,200.0,10000.0,99999,,569.7419096231024,0.0,11160020061009020703007045752515697600007000080000
3439,EGPK,55.5094,-4.58667,2024-04-30 00:20:00,61.0,36.0,^,green,8.0,1006.0,1301.2053149606427,7.0,7.0,160.0,10000.0,99999,,295.9053149606427,0.0,11160016071008020703006043012512959600007610080000
3440,EGPO,58.2156,-6.33111,2024-04-30 00:20:00,,,,,9.0,1001.0,1101.8750314781405,8.0,6.0,170.0,10000.0,99999,,100.47503147814052,0.2,11160017061009020803001041018511004600207000080000
3441,EKAH,56.3,10.619,2024-04-30 00:20:00,,,,,11.0,1024.0,1298.519288967598,7.0,4.0,120.0,10000.0,99999,,273.719288967598,0.0,11160012041011020703024042985512737600007000080000
3442,EKKA,56.2975,9.12463,2024-04-30 00:20:00,,,,,10.0,1023.0,1684.4195080747115,7.0,6.0,110.0,10000.0,99999,,661.4195080747115,0.0,11160011061010020703023046844516614600007000080000
3443,EKYT,57.09276,9.84924,2024-04-30 00:20:00,,,,,6.0,1024.0,1083.0245299107871,5.0,7.0,100.0,10000.0,99999,,59.02452991078712,0.0,1116001007100602050302404083051590600007000080000
3444,ENAN,69.2925,16.1442,2024-04-30 00:20:00,,,,,2.0,1019.0,1871.7106371472075,-2.0,7.0,180.0,10000.0,99999,,0.0,0.0,1116001807100202120301904871751000600007000080000
3445,ENBO,67.2692,14.3653,2024-04-30 00:20:00,61.0,36.0,^,green,3.0,1019.0,1552.6758017265975,2.0,17.0,90.0,10000.0,99999,,535.6758017265975,0.2,11160009171003020203019045526515356600207610080000
3446,ENGM,60.1939,11.1004,2024-04-30 00:20:00,,,,,7.0,1024.0,5725.865607962325,4.0,7.0,180.0,10000.0,99999,,0.0,0.0,1116001807100702040302404725851000600007000080000
3447,ENOL,63.6989,9.604,2024-04-30 00:20:00,,,,,7.0,1019.0,1162.2769901267097,4.0,13.0,120.0,10000.0,99999,,144.6769901267097,0.0,11160012131007020403019041622511446600007000080000
3448,ENSH,68.2433,14.6692,2024-04-30 00:20:00,,,,,5.0,1019.0,1214.2550784285525,2.0,4.0,240.0,10000.0,99999,,197.25507842855245,0.0,11160024041005020203019042142511972600007000080000
3449,ENTC,69.6833,18.9189,2024-04-30 00:20:00,,,,,0.0,1020.0,39.00547669358242,-3.0,0.0,0.0,10000.0,99999,,-981.1945233064176,0.0,1116000000100002130302004390519818600007000080000
3450,ESSA,59.6519,17.9186,2024-04-30 00:20:00,,,,,4.0,1026.0,2472.1194735743948,1.0,4.0,220.0,10000.0,99999,,1447.4194735743947,0.0,111600220410040201030260447215114474600007000080000
3451,EFKI,64.2855,27.6924,2024-04-30 00:20:00,80.0,36.0,q,green,8.0,1016.0,3747.752299613401,7.0,5.0,240.0,6000.0,99999,,2729.752299613401,0.3,111300240510080207030160474775127297600307800080000
3452,EFKU,63.0071,27.7978,2024-04-30 00:20:00,,,,,10.0,1019.0,2363.128586289908,9.0,10.0,250.0,10000.0,99999,,1344.128586289908,0.5,111600251010100209030190436315113441600507000080000
3453,EFOU,64.9301,25.3546,2024-04-30 00:20:00,,,,,3.0,1017.0,1618.6027357696469,3.0,9.0,240.0,9000.0,99999,,602.1027357696469,0.1,11150024091003020303017046186516021600107000080000
3462,ENHK,70.4867,22.1397,2024-04-30 00:20:00,,,,,2.0,1021.0,1413.9101239485428,-1.0,8.0,90.0,10000.0,99999,,392.41012394854283,0.0,11160009081002021103021044139513924600007000080000
3463,ENHV,71.0097,25.9836,2024-04-30 00:20:00,,,,,-0.0,1022.0,39.08195802043258,-2.0,0.0,0.0,10000.0,99999,,-983.8180419795674,0.0,1116000000110002120302204390519831600007000080000
3464,ENMH,71.0297,27.8267,2024-04-30 00:20:00,,,,,-0.0,1022.0,39.08195802043258,-3.0,5.0,180.0,10000.0,99999,,-983.8180419795674,0.0,1116001805110002130302204390519831600007000080000
3465,ENMS,65.784,13.2149,2024-04-30 00:20:00,61.0,36.0,^,green,4.0,1020.0,3704.370132572985,2.0,0.0,0.0,10000.0,99999,,0.0,0.0,1116000000100402020302004704351000600007610080000
3466,ENRM,64.8383,11.1461,2024-04-30 00:20:00,,,,,6.0,1020.0,1102.7005484746767,4.0,4.0,120.0,10000.0,99999,,85.10054847467666,0.0,1116001204100602040302004102751851600007000080000
3467,ENRS,67.5278,12.1033,2024-04-30 00:20:00,,,,,7.0,1017.0,1052.0051586758645,6.0,10.0,180.0,7000.0,99999,,0.0,0.0,1114001810100702060301704052051000600007000080000
3468,ENSD,61.83,6.10583,2024-04-30 00:20:00,61.0,36.0,^,green,10.0,1019.0,1788.98967643323,1.0,9.0,200.0,10000.0,99999,,0.0,0.0,1116002009101002010301904788951000600007610080000
3477,LICC,37.4668,15.0664,2024-04-30 00:20:00,,,,,15.0,1018.0,1110.1434829081454,11.0,3.0,50.0,10000.0,99999,,90.84348290814546,0.0,11160005031015020110301804110151908600007000080000
3478,LIPR,44.0203,12.6117,2024-04-30 00:20:00,,,,,10.0,1020.0,1163.4175956126046,8.0,2.0,270.0,10000.0,99999,,142.31759561260458,0.0,11160027021010020803020041634511423600007000080000
3483,EDAC,50.98195,12.50639,2024-04-30 00:20:00,,,,,9.0,1019.0,4318.137548097095,9.0,1.0,,10000.0,99999,,3297.1375480970946,0.0,111600360110090209030190431815132971600007000080000
3487,EDLN,51.23028,6.50444,2024-04-30 00:20:00,,,,,13.0,1019.0,1376.1717820692152,10.0,3.0,140.0,10000.0,99999,,357.3717820692152,0.0,111600140310130201003019043761513573600007000080000
3489,EDNY,47.6713,9.51149,2024-04-30 00:20:00,,,,,11.0,1017.0,7090.003006386593,8.0,2.0,,10000.0,99999,,6072.503006386593,0.0,111600360210110208030170409005160725600007000080000
3490,EDSB,48.7794,8.0805,2024-04-30 00:20:00,,,,,12.0,1018.0,2440.992707620168,10.0,2.0,310.0,10000.0,99999,,1421.992707620168,0.0,1116003102101202010030180444095114219600007000080000
3496,ESDF,56.2667,15.265,2024-04-30 00:20:00,,,,,8.0,1026.0,1990.3703031408484,7.0,6.0,20.0,10000.0,99999,,963.7703031408485,0.0,11160002061008020703026049903519637600007000080000
3497,ESKM,60.9579,14.5114,2024-04-30 00:20:00,,,,,3.0,1024.0,11.292335389485467,2.0,3.0,,10000.0,99999,,-1011.3076646105145,0.0,11160036031003020203024041125110116600007000080000
3498,ESPA,65.5438,22.122,2024-04-30 00:20:00,10.0,36.0,+,yellow,1.0,1018.0,3994.835621856061,1.0,9.0,330.0,5000.0,99999,,2977.1356218560613,0.3,111300330910010201030180499485129771600307100080000
3503,EBAW,51.1894,4.46028,2024-04-30 00:20:00,61.0,36.0,^,green,12.0,1018.0,1133.7011007559515,9.0,3.0,100.0,10000.0,99999,,115.70110075595153,0.0,11160010031012020903018041337511157600007610080000
3504,EBBR,50.9014,4.48444,2024-04-30 00:20:00,61.0,36.0,^,green,13.0,1018.0,1557.480148181846,10.0,7.0,180.0,10000.0,99999,,538.880148181846,0.0,111600180710130201003018045574515388600007610080000
3505,EBCI,50.4592,4.45382,2024-04-30 00:20:00,61.0,36.0,^,green,12.0,1018.0,3284.2488786356153,9.0,6.0,180.0,10000.0,99999,,2265.2488786356153,0.0,111600180610120209030180428425122652600007610080000
3506,EBOS,51.1989,2.86222,2024-04-30 00:20:00,,,,,10.0,1017.0,1062.6048740005892,8.0,3.0,100.0,10000.0,99999,,44.30487400058928,0.0,1116001003101002080301704062651443600007000080000
3507,EDAH,53.8787,14.1523,2024-04-30 00:20:00,,,,,11.0,1024.0,1337.3246138217332,6.0,8.0,70.0,10000.0,99999,,312.32461382173324,0.0,11160007081011020603024043373513123600007000080000
3510,EDMO,48.0814,11.2831,2024-04-30 00:20:00,,,,,11.0,1018.0,9.68532194089534,8.0,4.0,250.0,10000.0,99999,,-1008.4146780591046,0.0,1116002504101102080301804965110085600007000080000
3514,ELLX,49.6266,6.21152,2024-04-30 00:20:00,,,,,10.0,1019.0,7059.114941620862,9.0,2.0,,10000.0,99999,,6039.714941620862,0.0,111600360210100209030190405915160397600007000080000
3533,EGSH,52.6758,1.28278,2024-04-30 00:20:00,,,,,8.0,1016.0,1573.8192253058658,5.0,6.0,150.0,10000.0,99999,,558.8192253058658,0.0,11160015061008020503016045738515588600007000080000
3534,LIPY,43.6163,13.3623,2024-04-30 00:20:00,,,,,11.0,1020.0,1180.2086734122051,10.0,2.0,200.0,10000.0,99999,,159.20867341220514,0.0,111600200210110201003020041802511592600007000080000
3536,LIBP,42.4317,14.1811,2024-04-30 00:20:00,,,,,10.0,1020.0,1193.0353912045312,10.0,4.0,210.0,10000.0,99999,,171.8353912045311,0.0,111600210410100201003020041930511718600007000080000
3537,LICA,38.9054,16.2423,2024-04-30 00:20:00,,,,,18.0,1018.0,1094.5529186566632,6.0,11.0,60.0,10000.0,99999,,75.55291865666322,0.0,1116000611101802060301804094551755600007000080000
3538,LICR,38.0712,15.6516,2024-04-30 00:20:00,,,,,17.0,1018.0,1222.3222852297595,14.0,9.0,200.0,10000.0,99999,,203.62228522975943,0.0,111600200910170201403018042223512036600007000080000
3539,LICD,35.4979,12.6181,2024-04-30 00:20:00,,,,,17.0,1014.0,1160.8849479922762,17.0,14.0,100.0,9000.0,99999,,146.58494799227628,0.0,111500101410170201703014041608511465600007000080000
3540,LIRZ,43.0959,12.5132,2024-04-30 00:20:00,,,,,12.0,1019.0,3640.638231199492,11.0,5.0,350.0,10000.0,99999,,2621.038231199492,0.0,1116003505101202011030190464065126210600007000080000
3543,EHDL,52.0606,5.87306,2024-04-30 00:25:00,,,,,13.0,1018.0,1475.9479220576036,9.0,4.0,160.0,10000.0,99999,,457.9479220576036,0.0,11160016041013020903018044759514579600007000080000
3547,EHLE,52.4603,5.52722,2024-04-30 00:25:00,,,,,11.0,1018.0,977.2481836097727,9.0,2.0,110.0,10000.0,99999,,-40.751816390227305,0.0,1116001102101102090301804977251402600007000080000
3548,EHLW,53.2286,5.76056,2024-04-30 00:25:00,,,,,13.0,1018.0,1026.0410650917756,8.0,3.0,100.0,10000.0,99999,,6.941065091775613,0.0,1116001003101302080301804026051069600007000080000
3550,EHVK,51.6564,5.70861,2024-04-30 00:25:00,53.0,36.0,V,green,14.0,1018.0,1203.4568602951988,11.0,2.0,,10000.0,99999,,184.75686029519875,0.0,111600360210140201103018042034511847600007530080000
3551,EHWO,51.4491,4.34203,2024-04-30 00:25:00,51.0,36.0,T,green,11.0,1017.0,1224.1308062403755,9.0,1.0,70.0,10000.0,99999,,206.13080624037548,0.0,11160007011011020903017042241512061600007510080000
3569,EGAA,54.6575,-6.21583,2024-04-30 00:20:00,,,,,8.0,1004.0,2384.0915729147323,7.0,6.0,110.0,10000.0,99999,,1379.9915729147324,0.0,111600110610080207030040438405113799600007000080000
3570,EGAC,54.6181,-5.8725,2024-04-30 00:20:00,,,,,9.0,1005.0,1062.9293482034582,8.0,2.0,,10000.0,99999,,58.0293482034582,0.0,1116003602100902080300504062951580600007000080000
3571,EGGW,51.8747,-0.36833,2024-04-30 00:20:00,,,,,7.0,1014.0,4507.682748105294,4.0,5.0,150.0,10000.0,99999,,3492.682748105294,0.0,111600150510070204030140450765134926600007000080000
3572,EGLC,51.5053,0.05528,2024-04-30 00:20:00,,,,,10.0,1015.0,1081.8071552543868,5.0,6.0,120.0,10000.0,99999,,65.9071552543868,0.0,1116001206101002050301504081851659600007000080000
3573,EGNX,52.8311,-1.32806,2024-04-30 00:20:00,,,,,11.0,1012.0,2140.306348457971,6.0,9.0,150.0,10000.0,99999,,1127.8063484579711,0.0,111600150910110206030120414035111278600007000080000
3574,EGPD,57.2019,-2.19778,2024-04-30 00:20:00,,,,,10.0,1007.0,1849.6689024604889,7.0,14.0,180.0,10000.0,99999,,843.9689024604888,0.0,11160018141010020703007048496518439600007000080000
3620,EYSA,55.8939,23.395,2024-04-30 00:20:00,,,,,15.0,1027.0,2251.6183229587236,7.0,8.0,180.0,10000.0,99999,,0.0,0.0,1116001808101502070302704251651000600007000080000
3659,EHEH,51.4501,5.37453,2024-04-30 00:25:00,61.0,36.0,^,green,14.0,1018.0,1208.7900600437333,10.0,5.0,160.0,10000.0,99999,,190.1900600437333,0.0,111600160510140201003018042087511901600007610080000
3660,EHKD,52.9234,4.78062,2024-04-30 00:25:00,,,,,11.0,1017.0,1026.4966509009591,8.0,3.0,160.0,10000.0,99999,,7.996650900959139,0.0,1116001603101102080301704026451079600007000080000
3687,LIRN,40.886,14.2908,2024-04-30 00:20:00,,,,,17.0,1018.0,1688.6266863720102,9.0,4.0,340.0,10000.0,99999,,669.6266863720102,0.0,11160034041017020903018046886516696600007000080000
3688,EDHI,53.53528,9.83556,2024-04-30 00:20:00,,,,,15.0,1021.0,1075.092072608525,8.0,6.0,100.0,10000.0,99999,,53.092072608525086,0.0,1116001006101502080302104075051530600007000080000
3689,EDHK,54.37944,10.14528,2024-04-30 00:20:00,,,,,14.0,1022.0,1289.4884373907794,6.0,5.0,130.0,10000.0,99999,,266.88843739077936,0.0,11160013051014020603022042894512668600007000080000
3690,EDTL,48.3693,7.82772,2024-04-30 00:20:00,,,,,12.0,1018.0,2855.7719006695993,9.0,2.0,,10000.0,99999,,1837.4719006695993,0.0,111600360210120209030180485575118374600007000080000
3691,EDVE,52.3192,10.5561,2024-04-30 00:20:00,,,,,12.0,1021.0,2012.419589842284,8.0,4.0,80.0,10000.0,99999,,990.919589842284,0.0,11160008041012020803021040124519909600007000080000
3692,EDXW,54.9132,8.34047,2024-04-30 00:20:00,,,,,11.0,1021.0,1188.116232045006,9.0,10.0,110.0,10000.0,99999,,167.11623204500597,0.0,11160011101011020903021041881511671600007000080000
3693,ETHB,52.2785,9.08217,2024-04-30 00:20:00,,,,,13.0,1020.0,1708.8694444313064,10.0,3.0,70.0,10000.0,99999,,688.3694444313064,0.0,111600070310130201003020047088516883600007000080000
3694,ETHC,52.5912,10.0221,2024-04-30 00:20:00,,,,,15.0,1020.0,1337.7598784594802,9.0,8.0,70.0,10000.0,99999,,316.45987845948025,0.0,11160007081015020903020043377513164600007000080000
3699,ETMN,53.7677,8.6585,2024-04-30 00:20:00,,,,,13.0,1020.0,1223.532759949442,7.0,6.0,100.0,10000.0,99999,,202.13275994944195,0.0,11160010061013020703020042235512021600007000080000
3700,ETNL,53.9182,12.2783,2024-04-30 00:20:00,,,,,10.0,1023.0,1550.5177539237848,6.0,8.0,70.0,10000.0,99999,,527.3177539237847,0.0,11160007081010020603023045505515273600007000080000
3703,ETSH,51.7678,13.1677,2024-04-30 00:20:00,,,,,12.0,1020.0,1899.212322183038,8.0,3.0,30.0,10000.0,99999,,877.5123221830379,0.0,11160003031012020803020048992518775600007000080000
3704,ETSL,48.1855,10.8612,2024-04-30 00:20:00,,,,,7.0,1018.0,13.217112312199609,5.0,4.0,180.0,10000.0,99999,,-1005.0828876878004,0.0,11160018041007020503018041325110059600007000080000
3705,ETSN,48.711,11.2115,2024-04-30 00:20:00,,,,,12.0,1017.0,6043.3435446323665,9.0,1.0,,10000.0,99999,,5025.043544632366,0.0,111600360110120209030170404335150250600007000080000
3729,LTCS,37.44566,38.89559,2024-04-30 00:20:00,,,,,18.0,1014.0,8379.775437575563,10.0,5.0,200.0,10000.0,99999,,7368.775437575563,0.0,1116002005101802010030140437975173687600007000080000
3733,LTFM,41.27533,28.752,2024-04-30 00:20:00,,,,,13.0,1021.0,2031.1679765370607,12.0,8.0,20.0,8000.0,99999,,0.0,0.0,11140002081013020120302104031151000600007000080000
3755,LTBR,40.2552,29.5626,2024-04-30 00:20:00,,,,,13.0,1019.0,3675.9552796233097,11.0,3.0,110.0,10000.0,99999,,2656.7552796233094,0.0,1116001103101302011030190467595126567600007000080000
3757,LTFC,37.8554,30.3684,2024-04-30 00:20:00,,,,,13.0,1016.0,11.49205756762148,9.0,5.0,10.0,10000.0,99999,,-1003.3079424323785,0.0,11160001051013020903016041145110036600007000080000
3758,LTFJ,40.8986,29.3092,2024-04-30 00:20:00,,,,,13.0,1019.0,1982.371205245623,12.0,7.0,50.0,10000.0,99999,,962.4712052456231,0.0,111600050710130201203019049823519624600007000080000
3769,EHAM,52.3086,4.76389,2024-04-30 00:25:00,,,,,13.0,1017.0,987.7781252723642,9.0,2.0,120.0,10000.0,99999,,-30.821874727635873,0.0,1116001202101302090301704987751301600007000080000
3770,EHBK,50.9117,5.77014,2024-04-30 00:25:00,61.0,36.0,^,green,13.0,1019.0,2202.3422301231403,11.0,7.0,190.0,10000.0,99999,,1183.1422301231403,0.0,1116001907101302011030190420235111831600007610080000
3771,EHGG,53.1197,6.57944,2024-04-30 00:25:00,,,,,13.0,1018.0,1063.9223633947004,8.0,5.0,100.0,10000.0,99999,,44.222363394700324,0.0,1116001005101302080301804063951442600007000080000
3772,EHRD,51.9569,4.43722,2024-04-30 00:25:00,,,,,12.0,1017.0,973.9614708058224,10.0,1.0,,10000.0,99999,,-44.43852919417759,0.0,11160036011012020100301704973951445600007000080000
3773,ETHF,51.1146,9.286,2024-04-30 00:20:00,,,,,10.0,1019.0,7625.216043032018,8.0,5.0,300.0,10000.0,99999,,6604.716043032018,0.0,111600300510100208030190462525166047600007000080000
3774,ETHL,48.2203,9.91002,2024-04-30 00:20:00,,,,,11.0,1018.0,8904.820778315054,7.0,1.0,,10000.0,99999,,7886.320778315054,0.0,111600360110110207030180490485178863600007000080000
3775,ETHN,49.39194,9.95889,2024-04-30 00:20:00,,,,,11.0,1018.0,6966.202249335195,8.0,1.0,140.0,10000.0,99999,,5947.102249335195,0.0,111600140110110208030180496625159471600007000080000
3776,ETHS,52.9194,10.1975,2024-04-30 00:20:00,,,,,14.0,1021.0,1702.3554630908652,7.0,7.0,100.0,10000.0,99999,,680.5554630908653,0.0,11160010071014020703021047023516805600007000080000
3777,ETNN,50.8312,6.65817,2024-04-30 00:20:00,,,,,13.0,1019.0,2227.1995943214724,9.0,1.0,150.0,10000.0,99999,,1207.8995943214725,0.0,111600150110130209030190422715112078600007000080000
3778,ETNW,52.4573,9.42717,2024-04-30 00:20:00,,,,,15.0,1020.0,1491.5190882356517,9.0,5.0,100.0,10000.0,99999,,471.2190882356517,0.0,11160010051015020903020044915514712600007000080000
3780,LBGO,43.1514,25.7129,2024-04-30 00:30:00,80.0,36.0,q,green,12.0,1025.0,1982.8220141203185,12.0,6.0,260.0,10000.0,99999,,957.2220141203186,0.2,111600260610120201203025049828519572600207800080000
3805,EPBY,53.0968,17.9777,2024-04-30 00:30:00,,,,,11.0,1024.0,1874.887895190668,8.0,6.0,60.0,10000.0,99999,,0.0,0.0,1116000606101102080302404874851000600007000080000
3809,EPRA,51.38883,21.21167,2024-04-30 00:30:00,,,,,14.0,1026.0,2973.582134654723,6.0,8.0,140.0,10000.0,99999,,1947.5821346547232,0.0,111600140810140206030260497355119475600007000080000
3811,EPSY,53.48194,20.93778,2024-04-30 00:30:00,,,,,13.0,1027.0,2543.7947339878465,6.0,2.0,,10000.0,99999,,1518.0947339878464,0.0,111600360210130206030270454375115180600007000080000
3820,LFCK,43.5563,2.28918,2024-04-30 00:30:00,10.0,36.0,+,yellow,11.0,1017.0,4337.157259326199,11.0,1.0,280.0,5000.0,99999,,0.0,0.0,11130028011011020110301704337151000600007100080000
3821,LFLP,45.9292,6.09876,2024-04-30 00:30:00,,,,,8.0,1018.0,10.288540354418048,8.0,3.0,70.0,10000.0,99999,,-1007.711459645582,0.0,11160007031008020803018041025110072600007000080000
3826,LFQA,49.2087,4.15658,2024-04-30 00:30:00,61.0,36.0,^,green,12.0,1018.0,2074.0485728540266,11.0,5.0,100.0,10000.0,99999,,1054.9485728540267,0.0,1116001005101202011030180407405110549600007610080000
3842,LFJR,47.5603,-0.31222,2024-04-30 00:30:00,,,,,6.0,1016.0,2357.733648043312,5.0,1.0,70.0,10000.0,99999,,1340.433648043312,0.0,111600070110060205030160435775113404600007000080000
3878,LFPT,49.0966,2.04083,2024-04-30 00:30:00,,,,,10.0,1017.0,2367.8774272147534,9.0,4.0,150.0,10000.0,99999,,1350.1774272147534,0.0,111600150410100209030170436785113501600007000080000
3882,LHKE,46.9175,19.7492,2024-04-30 00:15:00,,,,,13.0,1024.0,2216.712190082631,9.0,3.0,120.0,10000.0,99999,,1192.3121900826309,0.0,111600120310130209030240421675111923600007000080000
3883,LHPA,47.3636,17.5008,2024-04-30 00:15:00,,,,,15.0,1023.0,2314.402768270572,7.0,1.0,,10000.0,99999,,1290.802768270572,0.0,111600360110150207030230431445112908600007000080000
3885,LHPR,47.6244,17.8136,2024-04-30 00:15:00,,,,,10.0,1024.0,2863.534414178135,8.0,5.0,100.0,10000.0,99999,,1839.3344141781351,0.0,111600100510100208030240486355118393600007000080000
3886,LHSM,46.6864,17.1591,2024-04-30 00:15:00,,,,,11.0,1023.0,2601.249287683905,9.0,2.0,320.0,10000.0,99999,,0.0,0.0,1116003202101102090302304601251000600007000080000
3887,LHSN,47.1229,20.2355,2024-04-30 00:15:00,,,,,13.0,1024.0,2026.7153075040428,8.0,3.0,90.0,10000.0,99999,,1002.2153075040428,0.0,111600090310130208030240402675110022600007000080000
3889,LYBT,44.9353,20.2575,2024-04-30 00:30:00,,,,,13.0,1024.0,1831.9460874556669,7.0,3.0,110.0,10000.0,99999,,808.0460874556669,0.0,11160011031013020703024048319518080600007000080000
3890,LYKV,43.8183,20.5872,2024-04-30 00:30:00,,,,,7.0,1024.0,5763.663100952212,5.0,0.0,0.0,10000.0,99999,,4739.663100952212,0.0,111600000010070205030240476365147396600007000080000
3894,LYVR,45.1469,21.3099,2024-04-30 00:30:00,,,,,18.0,1024.0,1615.7679148931463,6.0,20.0,140.0,10000.0,99999,,591.1679148931464,0.0,11160014201018020603024046157515911600007000080000
3925,LTAF,36.9822,35.2804,2024-04-30 00:20:00,,,,,22.0,1009.0,1113.039651373503,18.0,3.0,100.0,10000.0,99999,,101.53965137350292,0.0,111600100310220201803009041130511015600007000080000
3926,LTAI,36.8987,30.8005,2024-04-30 00:20:00,,,,,19.0,1010.0,1352.3540356598755,13.0,7.0,350.0,10000.0,99999,,339.6540356598755,0.0,111600350710190201303010043523513396600007000080000
3927,LTAT,38.4353,38.091,2024-04-30 00:20:00,,,,,12.0,1015.0,12.209483848037618,8.0,4.0,230.0,10000.0,99999,,-1000.5905161519623,0.0,11160023041012020803015041225110004600007000080000
3928,LTAU,38.7704,35.4954,2024-04-30 00:20:00,,,,,13.0,1018.0,13.448776898340185,10.0,5.0,290.0,10000.0,99999,,-1000.0512231016598,0.0,111600290510130201003018041345110009600007000080000
3929,LTBA,40.9769,28.8146,2024-04-30 00:20:00,,,,,14.0,1019.0,1456.805348823911,12.0,6.0,30.0,10000.0,99999,,435.4053488239109,0.0,111600030610140201203019044568514354600007000080000
3930,LTBS,36.7131,28.7925,2024-04-30 00:20:00,,,,,18.0,1010.0,1048.6578035127188,14.0,6.0,60.0,10000.0,99999,,36.65780351271883,0.0,11160006061018020140301004048651366600007000080000
3933,LTCE,39.9565,41.1702,2024-04-30 00:20:00,,,,,6.0,1022.0,26.833086668913886,0.0,2.0,,10000.0,99999,,-986.8669133310862,0.0,1116003602100602000302204268519861600007000080000
3935,LTCJ,37.929,41.1166,2024-04-30 00:20:00,,,,,15.0,1013.0,6918.640062452765,11.0,6.0,30.0,10000.0,99999,,5907.140062452765,0.0,1116000306101502011030130491865159071600007000080000
3944,LFBY,43.6892,-1.06889,2024-04-30 00:30:00,,,,,11.0,1016.0,1380.0837950900673,10.0,1.0,,10000.0,99999,,362.48379509006725,0.0,111600360110110201003016043800513624600007000080000
3970,LFLN,46.4125,4.01326,2024-04-30 00:30:00,45.0,36.0,N,yellow,10.0,1018.0,4760.010713975226,10.0,2.0,,500.0,99999,,3741.0107139752263,0.0,1110003602101002010030180476005137410600007450080000
4009,EGXV,53.8758,-0.435,2024-04-30 00:20:00,,,,,11.0,1012.0,1127.8416909980951,5.0,8.0,170.0,10000.0,99999,,115.44169099809517,0.0,11160017081011020503012041278511154600007000080000
4029,LFPM,48.6047,2.67112,2024-04-30 00:30:00,,,,,12.0,1017.0,2030.695214589904,10.0,6.0,150.0,10000.0,99999,,1012.595214589904,0.0,1116001506101202010030170403065110125600007000080000
4060,EPLL,51.7219,19.3981,2024-04-30 00:30:00,,,,,13.0,1025.0,3068.8558690340055,8.0,2.0,,10000.0,99999,,2044.6558690340055,0.0,111600360210130208030250406885120446600007000080000
4063,LFBG,45.6583,-0.3175,2024-04-30 00:30:00,,,,,12.0,1016.0,1328.6373324849208,9.0,2.0,350.0,10000.0,99999,,311.63733248492076,0.0,11160035021012020903016043286513116600007000080000
4064,LFCR,44.4079,2.48267,2024-04-30 00:30:00,10.0,36.0,+,yellow,9.0,1016.0,11.242333113061386,9.0,0.0,0.0,1900.0,99999,,-1005.7576668869386,0.2,11110000001009020903016041125110052600207100080000
4065,LFJL,48.9821,6.25132,2024-04-30 00:30:00,,,,,12.0,1019.0,4391.011794045244,9.0,3.0,50.0,10000.0,99999,,3371.0117940452437,0.0,111600050310120209030190439105133710600007000080000
4066,LFMK,43.216,2.30632,2024-04-30 00:30:00,,,,,11.0,1016.0,2693.071282684004,11.0,1.0,,7000.0,99999,,1674.671282684004,0.5,1114003601101102011030160469305116746600507000080000
4067,LFMO,44.1405,4.86672,2024-04-30 00:30:00,,,,,12.0,1016.0,1648.3637032558222,11.0,4.0,300.0,10000.0,99999,,631.3637032558222,0.0,111600300410120201103016046483516313600007000080000
4068,LFMU,43.3235,3.3539,2024-04-30 00:30:00,,,,,14.0,1015.0,1157.714568183131,13.0,10.0,70.0,10000.0,99999,,141.414568183131,1.1,111600071010140201303015041577511414601107000080000
4071,LKCV,49.9397,15.3818,2024-04-30 00:30:00,,,,,16.0,1021.0,3215.894271678394,8.0,13.0,140.0,10000.0,99999,,2195.494271678394,0.0,111600141310160208030210421585121954600007000080000
4072,LKNA,49.1658,16.1249,2024-04-30 00:30:00,,,,,14.0,1023.0,6419.722368957738,8.0,11.0,120.0,10000.0,99999,,5397.222368957738,0.0,111600121110140208030230441975153972600007000080000
4073,LKPD,50.0134,15.7386,2024-04-30 00:30:00,,,,,13.0,1022.0,3595.5110466400856,8.0,7.0,100.0,10000.0,99999,,2574.6110466400855,0.0,111600100710130208030220459555125746600007000080000
4077,LZPP,48.6252,17.8284,2024-04-30 00:30:00,,,,,19.0,1023.0,2203.497788236379,8.0,6.0,110.0,10000.0,99999,,0.0,0.0,1116001106101902080302304203451000600007000080000
4078,LZZI,49.2315,18.6135,2024-04-30 00:30:00,,,,,8.0,1025.0,7312.069118515023,8.0,2.0,,10000.0,99999,,0.0,0.0,1116003602100802080302504312051000600007000080000
4079,EGDY,51.0094,-2.63882,2024-04-30 00:20:00,,,,,12.0,1011.0,1236.4753541652,7.0,16.0,180.0,10000.0,99999,,223.67535416520013,0.2,11160018161012020703011042364512236600207000080000
4080,EGOS,52.7982,-2.66804,2024-04-30 00:20:00,,,,,11.0,1009.0,1902.9017389002133,7.0,14.0,160.0,10000.0,99999,,892.4017389002133,0.1,11160016141011020703009049029518924600107000080000
4081,EGVN,51.75,-1.58362,2024-04-30 00:20:00,,,,,10.0,1012.0,2185.100978440196,7.0,8.0,160.0,10000.0,99999,,1171.6009784401958,0.0,111600160810100207030120418515111716600007000080000
4082,EGWU,51.553,-0.41817,2024-04-30 00:20:00,,,,,8.0,1014.0,1606.9032595503736,4.0,5.0,140.0,10000.0,99999,,592.8032595503736,0.0,11160014051008020403014046069515928600007000080000
4101,LQMO,43.2829,17.8459,2024-04-30 00:30:00,,,,,12.0,1019.0,1511.7307705369128,9.0,1.0,,10000.0,99999,,491.1307705369128,0.0,11160036011012020903019045117514911600007000080000
4115,EPWR,51.1027,16.8858,2024-04-30 00:30:00,,,,,11.0,1023.0,2583.6928515243735,8.0,6.0,120.0,10000.0,99999,,1560.6928515243735,0.0,111600120610110208030230458365115606600007000080000
4117,LFBE,44.8253,0.51861,2024-04-30 00:30:00,61.0,36.0,^,green,11.0,1015.0,1610.3773895469901,11.0,1.0,,6000.0,99999,,593.3773895469901,0.0,111300360110110201103015046103515933600007610080000
4123,LFRL,48.2817,-4.44502,2024-04-30 00:30:00,,,,,11.0,1011.0,2060.127421033519,10.0,15.0,180.0,10000.0,99999,,1046.127421033519,0.0,1116001815101102010030110406015110461600007000080000
4130,LFYR,47.3208,1.68889,2024-04-30 00:30:00,61.0,36.0,^,green,11.0,1016.0,2078.5329762657148,11.0,4.0,70.0,10000.0,99999,,1060.5329762657148,0.0,1116000704101102011030160407855110605600007610080000
4131,LHDC,47.4889,21.6153,2024-04-30 00:15:00,,,,,14.0,1026.0,2070.287051028739,7.0,6.0,100.0,10000.0,99999,,1045.687051028739,0.0,111600100610140207030260407025110456600007000080000
4132,LHPP,45.9909,18.241,2024-04-30 00:15:00,,,,,15.0,1023.0,4101.668053330646,5.0,6.0,90.0,10000.0,99999,,3077.9680533306464,0.0,111600090610150205030230410165130779600007000080000
4144,LTAC,40.1281,32.9951,2024-04-30 00:20:00,,,,,14.0,1018.0,11.731370831584458,11.0,5.0,70.0,10000.0,99999,,-1003.8686291684155,0.0,111600070510140201103018041175110031600007000080000
4145,LTAG,37.0021,35.4259,2024-04-30 00:20:00,,,,,22.0,1009.0,1409.826657902194,17.0,4.0,70.0,10000.0,99999,,398.5266579021941,0.0,111600070410220201703009044098513985600007000080000
4146,LTAJ,36.9472,37.4787,2024-04-30 00:20:00,,,,,17.0,1013.0,7664.504010279739,11.0,4.0,240.0,10000.0,99999,,6654.3040102797395,0.0,1116002404101702011030130466455166543600007000080000
4147,LTAP,40.8294,35.522,2024-04-30 00:20:00,,,,,14.0,1018.0,7163.524820118773,12.0,11.0,10.0,10000.0,99999,,6145.624820118774,0.0,1116000111101402012030180416355161456600007000080000
4148,LTBJ,38.2924,27.157,2024-04-30 00:20:00,,,,,15.0,1014.0,2128.5327919743004,10.0,15.0,360.0,10000.0,99999,,1112.7327919743004,0.0,1116003615101502010030140412855111127600007000080000
4149,LTBU,41.1382,27.9191,2024-04-30 00:20:00,,,,,13.0,1020.0,2939.021224593076,12.0,7.0,10.0,6000.0,99999,,1918.621224593076,0.0,1113000107101302012030200493905119186600007000080000
4150,LTCC,37.8939,40.201,2024-04-30 00:20:00,,,,,17.0,1013.0,7475.145566673804,11.0,4.0,20.0,10000.0,99999,,6464.945566673804,0.0,1116000204101702011030130447515164649600007000080000
4151,LTCG,40.9951,39.7897,2024-04-30 00:20:00,,,,,16.0,1020.0,1256.9681299393014,14.0,9.0,90.0,8000.0,99999,,236.16812993930148,0.0,111400090910160201403020042569512361600007000080000
4152,LTFE,37.2506,27.6643,2024-04-30 00:20:00,,,,,15.0,1013.0,1061.9547964914134,12.0,5.0,140.0,10000.0,99999,,0.0,0.0,11160014051015020120301304061951000600007000080000
4168,LFOV,48.0314,-0.74299,2024-04-30 00:30:00,,,,,8.0,1016.0,2784.863362422663,5.0,2.0,190.0,10000.0,99999,,1767.463362422663,0.0,111600190210080205030160478485117674600007000080000
4171,LFRV,47.7233,-2.71856,2024-04-30 00:30:00,,,,,9.0,1014.0,3190.363076382543,8.0,4.0,180.0,10000.0,99999,,2174.363076382543,0.0,111600180410090208030140419035121743600007000080000
4174,LFAQ,49.9715,2.69766,2024-04-30 00:30:00,,,,,12.0,1017.0,2266.7298546438224,10.0,5.0,140.0,10000.0,99999,,1248.9298546438224,0.0,1116001405101202010030170426675112489600007000080000
4175,LFBU,45.7292,0.22146,2024-04-30 00:30:00,,,,,12.0,1016.0,2547.157366025212,10.0,2.0,,10000.0,99999,,1530.157366025212,0.0,1116003602101202010030160454715115301600007000080000
4181,LFOZ,47.8969,2.16333,2024-04-30 00:30:00,,,,,11.0,1017.0,2533.72059050882,10.0,3.0,,10000.0,99999,,1515.8205905088198,0.0,1116003603101102010030170453375115158600007000080000
4202,LJCE,45.9,15.5302,2024-04-30 00:30:00,,,,,9.0,1022.0,3578.35322111109,8.0,2.0,260.0,10000.0,99999,,0.0,0.0,1116002602100902080302204578351000600007000080000
4229,LEMI,37.803,-1.125,2024-04-30 00:30:00,,,,,14.0,1016.0,2979.9597588836564,6.0,11.0,300.0,10000.0,99999,,0.0,0.0,1116003011101402060301604979951000600007000080000
4231,UUBW,55.5533,38.15,2024-04-30 00:30:00,,,,,5.0,1033.0,4605.860677721863,5.0,0.0,0.0,9000.0,99999,,3572.660677721863,0.0,111500000010050205030330460585135726600007000080000
4232,UUOL,52.7028,39.5378,2024-04-30 00:30:00,,,,,6.0,1034.0,5784.327119943131,1.0,1.0,310.0,10000.0,99999,,0.0,0.0,1116003101100602010303404784351000600007000080000
4235,UUDL,57.5607,40.1574,2024-04-30 00:30:00,,,,,7.0,1030.0,2810.8636788880062,4.0,2.0,230.0,10000.0,99999,,1780.8636788880062,0.0,111600230210070204030300481085117808600007000080000
4238,UUMO,55.5117,37.5072,2024-04-30 00:30:00,,,,,4.0,1034.0,8120.080927955423,3.0,0.0,0.0,10000.0,99999,,7087.080927955423,0.0,111600000010040203030340412005170870600007000080000
4239,UUBC,54.55,36.36667,2024-04-30 00:30:00,,,,,3.0,1034.0,11.72106111158028,3.0,0.0,0.0,10000.0,99999,,0.0,0.0,111600000010030203030340411751000600007000080000
4240,UUOB,50.6438,36.5901,2024-04-30 00:30:00,,,,,7.0,1033.0,6187.14229615432,1.0,3.0,10.0,10000.0,99999,,5155.542296154321,0.0,111600010310070201030330418715151555600007000080000
4241,UUOK,51.7506,36.2956,2024-04-30 00:30:00,,,,,3.0,1034.0,12.146384263935278,1.0,3.0,360.0,10000.0,99999,,-1020.7536157360648,0.0,11160036031003020103034041215110202600007000080000
4244,UWPS,54.12513,45.21226,2024-04-30 00:30:00,,,,,3.0,1031.0,11.970916065068604,1.0,3.0,250.0,10000.0,99999,,-1017.9290839349314,0.0,11160025031003020103031041195110170600007000080000
4253,UWKS,56.0903,47.3473,2024-04-30 00:30:00,,,,,10.0,1028.0,3554.547058894745,3.0,5.0,330.0,10000.0,99999,,2526.447058894745,0.0,111600330510100203030280455455125264600007000080000
4262,URMG,43.3883,45.6986,2024-04-30 00:30:00,,,,,19.0,1017.0,1017.0,14.0,3.0,250.0,10000.0,99999,,1.2000000000000455,0.0,11160025031019020140301704017051012600007000080000
4265,URMO,43.2051,44.6066,2024-04-30 00:30:00,,,,,16.0,1019.0,6080.355279647813,14.0,0.0,0.0,10000.0,99999,,5063.555279647813,0.0,1116000000101602014030190408035150635600007000080000
4267,URRP,47.50083,39.93361,2024-04-30 00:30:00,,,,,13.0,1025.0,1891.221449847405,8.0,9.0,40.0,10000.0,99999,,0.0,0.0,1116000409101302080302504891251000600007000080000
4278,LEHC,42.0761,-0.31667,2024-04-30 00:30:00,,,,,10.0,1015.0,9.647480978691279,9.0,1.0,20.0,8000.0,99999,,-1006.3525190213087,0.0,1114000201101002090301504965110066600007000080000
4281,LESB,39.5989,2.70278,2024-04-30 00:30:00,,,,,15.0,1014.0,1402.8991348335796,12.0,7.0,300.0,10000.0,99999,,388.7991348335796,0.0,111600300710150201203014044028513887600007000080000
4304,LRBC,46.5219,26.9103,2024-04-30 00:30:00,,,,,8.0,1030.0,4617.750566142593,4.0,6.0,340.0,10000.0,99999,,3587.950566142593,0.0,111600340610080204030300461775135879600007000080000
4305,LRBM,47.6584,23.47,2024-04-30 00:30:00,,,,,9.0,1029.0,4155.008043683047,5.0,5.0,90.0,10000.0,99999,,3127.1080436830466,0.0,111600090510090205030290415505131271600007000080000
4306,LRIA,47.1785,27.6206,2024-04-30 00:30:00,,,,,12.0,1030.0,2425.931605660658,4.0,7.0,40.0,10000.0,99999,,1395.931605660658,0.0,111600040710120204030300442595113959600007000080000
4307,LROD,47.0253,21.9025,2024-04-30 00:30:00,,,,,13.0,1026.0,2545.022047019086,7.0,2.0,,10000.0,99999,,1520.322047019086,0.0,111600360210130207030260454505115203600007000080000
4308,LRSV,47.6875,26.3541,2024-04-30 00:30:00,,,,,11.0,1031.0,7225.362551873135,4.0,6.0,70.0,10000.0,99999,,6194.962551873135,0.0,111600070610110204030310422535161949600007000080000
4310,LUKK,46.9277,28.931,2024-04-30 00:30:00,,,,,12.0,1030.0,2433.886196456264,3.0,8.0,60.0,10000.0,99999,,1405.086196456264,0.0,111600060810120203030300443385114050600007000080000
4318,LEBG,42.3576,-3.62076,2024-04-30 00:30:00,,,,,4.0,1016.0,24.15793454628314,3.0,2.0,,10000.0,99999,,-992.8420654537168,0.0,1116003602100402030301604241519921600007000080000
4339,LRCL,46.7852,23.6862,2024-04-30 00:30:00,,,,,8.0,1029.0,7443.682390925699,4.0,4.0,90.0,10000.0,99999,,6416.382390925699,0.0,111600090410080204030290444365164163600007000080000
4340,LRCV,44.3181,23.8886,2024-04-30 00:30:00,,,,,13.0,1026.0,3157.138913416817,8.0,4.0,350.0,10000.0,99999,,2131.3389134168174,0.0,111600350410130208030260415715121313600007000080000
4342,LRSM,47.7033,22.8857,2024-04-30 00:30:00,,,,,14.0,1027.0,2223.461813542031,4.0,2.0,110.0,10000.0,99999,,1196.461813542031,0.0,111600110210140204030270422345111964600007000080000
4367,LRSB,45.7856,24.0913,2024-04-30 00:30:00,,,,,6.0,1028.0,12.917841827215645,4.0,1.0,220.0,10000.0,99999,,-1014.7821581727844,0.0,11160022011006020403028041295110142600007000080000
4372,LFBX,45.1981,0.81556,2024-04-30 00:30:00,,,,,12.0,1015.0,2124.5649003973454,11.0,1.0,,8000.0,99999,,1107.2649003973454,0.0,1114003601101202011030150412455111072600007000080000
4374,LFKS,41.9244,9.406,2024-04-30 00:30:00,,,,,14.0,1017.0,1087.511784294117,6.0,5.0,270.0,10000.0,99999,,68.611784294117,0.0,1116002705101402060301704087551686600007000080000
4375,LFLW,44.8914,2.42194,2024-04-30 00:30:00,,,,,9.0,1016.0,12.108377645311055,9.0,4.0,90.0,10000.0,99999,,-1005.7916223546889,0.5,11160009041009020903016041215110052600507000080000
4376,LFMC,43.3847,6.38714,2024-04-30 00:30:00,,,,,19.0,1016.0,1545.9461385730044,9.0,8.0,110.0,10000.0,99999,,528.8461385730044,0.0,11160011081019020903016045459515288600007000080000
4378,LFMY,43.6064,5.10925,2024-04-30 00:30:00,,,,,12.0,1016.0,1641.3782945830926,11.0,2.0,,10000.0,99999,,625.3782945830926,0.3,111600360210120201103016046413516253600307000080000
4386,LFRJ,48.5303,-4.15164,2024-04-30 00:30:00,,,,,11.0,1011.0,2313.6840945505787,8.0,14.0,180.0,10000.0,99999,,1300.6840945505787,0.0,111600181410110208030110431365113006600007000080000
4396,GEML,35.2798,-2.95626,2024-04-30 00:30:00,,,,,15.0,1018.0,1405.789891734113,8.0,8.0,280.0,10000.0,99999,,387.08989173411305,0.0,11160028081015020803018044057513870600007000080000
4397,EPGD,54.3776,18.4662,2024-04-30 00:30:00,,,,,10.0,1026.0,3194.885891987505,3.0,3.0,360.0,10000.0,99999,,2168.185891987505,0.0,111600360310100203030260419485121681600007000080000
4398,EPKK,50.0777,19.7848,2024-04-30 00:30:00,,,,,11.0,1024.0,4381.389586731292,9.0,3.0,20.0,10000.0,99999,,3356.089586731292,0.0,111600020310110209030240438135133560600007000080000
4399,EPKT,50.4743,19.08,2024-04-30 00:30:00,,,,,10.0,1024.0,5842.992281566691,8.0,1.0,,10000.0,99999,,4818.692281566691,0.0,111600360110100208030240484295148186600007000080000
4400,EPLB,51.24028,22.71361,2024-04-30 00:30:00,,,,,10.0,1028.0,3944.8984450537423,6.0,7.0,90.0,10000.0,99999,,0.0,0.0,1116000907101002060302804944851000600007000080000
4401,EPMO,52.4511,20.6518,2024-04-30 00:30:00,,,,,17.0,1026.0,1821.2788676077957,6.0,9.0,130.0,10000.0,99999,,795.0788676077957,0.0,11160013091017020603026048212517950600007000080000
4402,EPPO,52.421,16.8263,2024-04-30 00:30:00,,,,,14.0,1022.0,1899.2557916609815,11.0,4.0,80.0,10000.0,99999,,876.4557916609815,0.0,111600080410140201103022048992518764600007000080000
4403,EPRZ,50.11,22.019,2024-04-30 00:30:00,,,,,11.0,1027.0,3839.867193352931,5.0,9.0,90.0,10000.0,99999,,2813.4671933529307,0.0,111600090910110205030270483985128134600007000080000
4404,EPSC,53.5847,14.9022,2024-04-30 00:30:00,,,,,12.0,1023.0,1510.8528881755371,4.0,5.0,50.0,10000.0,99999,,486.5528881755372,0.0,11160005051012020403023045108514865600007000080000
4405,EPWA,52.1657,20.9671,2024-04-30 00:30:00,,,,,16.0,1026.0,1934.456480902201,5.0,11.0,130.0,10000.0,99999,,908.4564809022011,0.0,11160013111016020503026049344519084600007000080000
4407,LBBG,42.5696,27.5152,2024-04-30 00:30:00,,,,,15.0,1021.0,1354.6972292779683,14.0,7.0,20.0,10000.0,99999,,331.49722927796824,0.4,111600020710150201403021043546513314600407000080000
4408,LBPD,42.0678,24.8508,2024-04-30 00:30:00,80.0,36.0,q,green,13.0,1024.0,3038.8744109782674,12.0,3.0,300.0,10000.0,99999,,2013.2744109782675,0.0,1116003003101302012030240403885120132600007800080000
4409,LBSF,42.69669,23.41144,2024-04-30 00:30:00,,,,,12.0,1025.0,8208.119845739091,5.0,3.0,220.0,10000.0,99999,,7183.219845739091,0.0,111600220310120205030250420815171832600007000080000
4410,LBWN,43.2321,27.8251,2024-04-30 00:30:00,61.0,36.0,^,green,15.0,1021.0,1611.0342198299827,13.0,11.0,40.0,10000.0,99999,,587.7342198299827,0.5,111600041110150201303021046110515877600507610080000
4411,LHBP,47.4369,19.2556,2024-04-30 00:30:00,,,,,18.0,1024.0,2151.0552484371246,7.0,8.0,70.0,10000.0,99999,,1126.4552484371247,0.0,111600070810180207030240415105111264600007000080000
4412,LRAR,46.1766,21.262,2024-04-30 00:30:00,,,,,13.0,1026.0,2135.8104018756094,8.0,6.0,120.0,10000.0,99999,,1111.4104018756093,0.0,111600120610130208030260413585111114600007000080000
4413,LRBS,44.5032,26.1021,2024-04-30 00:30:00,,,,,17.0,1026.0,1709.4347411379883,6.0,10.0,40.0,10000.0,99999,,682.9347411379883,0.0,11160004101017020603026047094516829600007000080000
4414,LRCK,44.3622,28.4883,2024-04-30 00:30:00,61.0,36.0,^,green,13.0,1024.0,2135.1719399380704,12.0,12.0,30.0,8000.0,99999,,1108.9719399380704,1.0,1114000312101302012030240413515111089601007610080000
4415,LROP,44.5722,26.1022,2024-04-30 00:30:00,,,,,16.0,1026.0,1802.3669483076242,3.0,10.0,40.0,10000.0,99999,,773.4669483076241,0.0,11160004101016020303026048023517734600007000080000
4416,LRTC,45.0625,28.7143,2024-04-30 00:30:00,,,,,15.0,1025.0,1534.316345363595,7.0,12.0,10.0,9000.0,99999,,508.7163453635951,0.0,11150001121015020703025045343515087600007000080000
4417,LRTM,46.4677,24.4125,2024-04-30 00:30:00,,,,,8.0,1029.0,6971.075965006184,5.0,3.0,100.0,10000.0,99999,,5942.475965006184,0.0,111600100310080205030290497105159424600007000080000
4418,LRTR,45.8099,21.3379,2024-04-30 00:30:00,,,,,9.0,1025.0,2682.895343317056,8.0,7.0,100.0,10000.0,99999,,1658.9953433170558,0.0,111600100710090208030250468285116589600007000080000
4419,LDDU,42.5614,18.2682,2024-04-30 00:30:00,,,,,18.0,1020.0,2224.442081706243,8.0,7.0,80.0,10000.0,99999,,1204.9420817062428,0.0,111600080710180208030200422445112049600007000080000
4420,LDOS,45.4627,18.8102,2024-04-30 00:30:00,,,,,11.0,1023.0,2096.994059618394,5.0,10.0,80.0,10000.0,99999,,1074.8940596183943,0.0,111600081010110205030230409695110748600007000080000
4421,LDPL,44.8935,13.9222,2024-04-30 00:30:00,,,,,12.0,1020.0,1932.3736510145534,7.0,2.0,,10000.0,99999,,911.5736510145534,0.0,11160036021012020703020049323519115600007000080000
4422,LDRI,45.2169,14.5703,2024-04-30 00:30:00,,,,,16.0,1020.0,1695.37748114443,10.0,2.0,,10000.0,99999,,674.67748114443,0.0,111600360210160201003020046953516746600007000080000
4423,LDSP,43.5389,16.298,2024-04-30 00:30:00,,,,,14.0,1019.0,1223.3651404871225,10.0,1.0,260.0,10000.0,99999,,203.46514048712254,0.0,111600260110140201003019042233512034600007000080000
4424,LDZA,45.7429,16.0688,2024-04-30 00:30:00,,,,,11.0,1021.0,2357.9252672054877,7.0,3.0,20.0,10000.0,99999,,1336.3252672054878,0.0,111600020310110207030210435795113363600007000080000
4425,LDZD,44.1083,15.3467,2024-04-30 00:30:00,,,,,11.0,1019.0,2084.670376786184,9.0,2.0,290.0,10000.0,99999,,1064.170376786184,0.0,111600290210110209030190408465110641600007000080000
4429,LKMT,49.6963,18.1111,2024-04-30 00:30:00,,,,,11.0,1024.0,4635.939201971072,8.0,0.0,0.0,10000.0,99999,,3612.3392019710723,0.0,111600000010110208030240463595136123600007000080000
4430,LKPR,50.1008,14.26,2024-04-30 00:30:00,,,,,15.0,1020.0,4955.9693815287355,6.0,2.0,,10000.0,99999,,3935.2693815287357,0.0,111600360210150206030200495595139352600007000080000
4431,LKTB,49.1513,16.6944,2024-04-30 00:30:00,,,,,14.0,1023.0,3525.511000373418,8.0,7.0,90.0,10000.0,99999,,2502.911000373418,0.0,111600090710140208030230452555125029600007000080000
4432,LQSA,43.8246,18.3315,2024-04-30 00:30:00,,,,,8.0,1023.0,11.374966751445172,6.0,2.0,,10000.0,99999,,-1010.9250332485548,0.0,11160036021008020603023041135110100600007000080000
4433,LYBE,44.8184,20.3091,2024-04-30 00:30:00,,,,,17.0,1024.0,1802.3676862585232,5.0,16.0,140.0,10000.0,99999,,778.3676862585232,0.0,11160014161017020503024048023517783600007000080000
4434,LYNI,43.3373,21.8537,2024-04-30 00:30:00,,,,,11.0,1025.0,3704.8494724432244,5.0,1.0,,10000.0,99999,,2680.9494724432243,0.0,111600360110110205030250470485126809600007000080000
4435,LYPG,42.3594,19.2519,2024-04-30 00:30:00,,,,,17.0,1020.0,1325.8697251941494,7.0,5.0,290.0,10000.0,99999,,0.0,0.0,1116002905101702070302004325851000600007000080000
4436,LYTV,42.4047,18.7233,2024-04-30 00:30:00,,,,,11.0,1019.0,1083.1450113349542,10.0,1.0,,10000.0,99999,,63.34501133495428,0.0,11160036011011020100301904083151633600007000080000
4437,LZIB,48.1702,17.2127,2024-04-30 00:30:00,,,,,13.0,1023.0,2431.035376514741,9.0,4.0,20.0,10000.0,99999,,1407.4353765147412,0.0,111600020410130209030230443105114074600007000080000
4438,LZKZ,48.6631,21.2411,2024-04-30 00:30:00,,,,,10.0,1027.0,4584.411380367635,8.0,6.0,100.0,10000.0,99999,,0.0,0.0,1116001006101002080302704584451000600007000080000
4439,LZTT,49.0736,20.2411,2024-04-30 00:30:00,,,,,8.0,1027.0,14.60029965141033,4.0,6.0,260.0,10000.0,99999,,-1012.0997003485897,0.0,11160026061008020403027041465110129600007000080000
4444,LFAT,50.5174,1.62059,2024-04-30 00:30:00,,,,,9.0,1016.0,1158.8551736690256,7.0,6.0,130.0,10000.0,99999,,141.4551736690256,0.0,11160013061009020703016041588511414600007000080000
4445,LFBD,44.8283,-0.71556,2024-04-30 00:30:00,,,,,12.0,1016.0,1527.6429377720547,8.0,2.0,350.0,10000.0,99999,,509.4429377720546,0.0,11160035021012020803016045276515094600007000080000
4446,LFBH,46.1792,-1.19528,2024-04-30 00:30:00,,,,,9.0,1016.0,1317.8924580349476,8.0,0.0,0.0,10000.0,99999,,300.8924580349476,0.0,11160000001009020803016043178513008600007000080000
4447,LFBI,46.5877,0.30667,2024-04-30 00:30:00,,,,,11.0,1016.0,2649.091690713592,9.0,2.0,340.0,10000.0,99999,,1631.991690713592,0.0,111600340210110209030160464905116319600007000080000
4449,LFBO,43.6291,1.36382,2024-04-30 00:30:00,61.0,36.0,^,green,11.0,1016.0,2987.364201205674,11.0,5.0,240.0,9000.0,99999,,1969.864201205674,1.2,1115002405101102011030160498735119698601107610080000
4450,LFBP,43.38,-0.41861,2024-04-30 00:30:00,,,,,11.0,1016.0,3523.267815376455,10.0,2.0,,10000.0,99999,,2505.367815376455,0.0,1116003602101102010030160452325125053600007000080000
4451,LFBT,43.1787,-0.00644,2024-04-30 00:30:00,61.0,36.0,^,green,10.0,1016.0,7171.343765441554,9.0,2.0,,10000.0,99999,,6153.143765441554,0.3,111600360210100209030160417135161531600307610080000
4452,LFBZ,43.4684,-1.52332,2024-04-30 00:30:00,,,,,9.0,1016.0,2121.601115864231,9.0,3.0,180.0,10000.0,99999,,1103.4011158642309,0.0,111600180310090209030160412165111034600007000080000
4453,LFGJ,47.039,5.42725,2024-04-30 00:30:00,,,,,8.0,1018.0,4814.017413222623,8.0,3.0,10.0,10000.0,99999,,3795.017413222623,0.0,111600010310080208030180481405137950600007000080000
4454,LFKB,42.5527,9.48373,2024-04-30 00:30:00,,,,,11.0,1018.0,1101.6281238437555,9.0,3.0,220.0,10000.0,99999,,83.12812384375547,0.0,1116002203101102090301804101651831600007000080000
4455,LFKC,42.5308,8.79319,2024-04-30 00:30:00,,,,,13.0,1016.0,1634.1351811305453,7.0,5.0,180.0,10000.0,99999,,618.3351811305454,0.0,11160018051013020703016046341516183600007000080000
4456,LFKJ,41.9236,8.80292,2024-04-30 00:30:00,,,,,15.0,1015.0,1056.9839079226758,4.0,7.0,50.0,10000.0,99999,,40.3839079226758,0.0,1116000507101502040301504056951403600007000080000
4457,LFLB,45.6381,5.88023,2024-04-30 00:30:00,,,,,10.0,1018.0,4670.488414677208,9.0,2.0,,8000.0,99999,,3652.4884146772083,0.0,111400360210100209030180467045136524600007000080000
4458,LFLC,45.7867,3.16917,2024-04-30 00:30:00,10.0,36.0,+,yellow,10.0,1017.0,6300.2053978703725,10.0,3.0,10.0,4000.0,99999,,5281.7053978703725,0.8,1112000103101002010030170430025152817600807100080000
4459,LFLL,45.7264,5.09083,2024-04-30 00:30:00,10.0,36.0,+,yellow,12.0,1018.0,4172.943235522509,11.0,3.0,340.0,5000.0,99999,,3154.443235522509,0.0,1113003403101202011030180417295131544600007100080000
4460,LFLS,45.3629,5.32937,2024-04-30 00:30:00,,,,,11.0,1018.0,6792.747214898291,10.0,3.0,270.0,8000.0,99999,,5773.747214898291,0.0,1114002703101102010030180479275157737600007000080000
4461,LFLY,45.7272,4.94427,2024-04-30 00:30:00,,,,,12.0,1018.0,3474.8263089226007,11.0,2.0,,10000.0,99999,,2455.8263089226007,0.6,1116003602101202011030180447485124558600607000080000
4462,LFMD,43.542,6.95348,2024-04-30 00:30:00,,,,,13.0,1016.0,1050.970738657501,10.0,1.0,,10000.0,99999,,33.17073865750103,0.0,11160036011013020100301604050951331600007000080000
4463,LFMH,45.5406,4.29639,2024-04-30 00:30:00,10.0,36.0,+,yellow,10.0,1018.0,7516.514344700051,10.0,0.0,0.0,4800.0,99999,,6497.514344700051,0.2,1112000000101002010030180451655164975600207100080000
4464,LFML,43.43927,5.22142,2024-04-30 00:30:00,,,,,15.0,1016.0,1193.3030559886618,12.0,2.0,110.0,10000.0,99999,,176.5030559886618,0.3,111600110210150201203016041933511765600307000080000
4465,LFMN,43.6584,7.21587,2024-04-30 00:30:00,,,,,16.0,1016.0,1042.180760589246,10.0,7.0,310.0,10000.0,99999,,24.480760589245847,0.0,11160031071016020100301604042151244600007000080000
4466,LFMP,42.7404,2.87067,2024-04-30 00:30:00,,,,,13.0,1015.0,1428.494828817661,11.0,3.0,,10000.0,99999,,411.39482881766105,0.0,111600360310130201103015044284514113600007000080000
4468,LFMT,43.5762,3.96301,2024-04-30 00:30:00,61.0,36.0,^,green,14.0,1016.0,1058.5299316041717,12.0,11.0,60.0,10000.0,99999,,41.52993160417168,0.6,11160006111014020120301604058551415600607610080000
4469,LFOB,49.4544,2.11278,2024-04-30 00:30:00,,,,,9.0,1017.0,2721.23488044517,8.0,3.0,110.0,10000.0,99999,,1704.23488044517,0.0,111600110310090208030170472125117042600007000080000
4471,LFOT,47.4322,0.72761,2024-04-30 00:30:00,,,,,11.0,1016.0,2363.4169457372172,10.0,4.0,120.0,10000.0,99999,,1345.7169457372172,0.0,1116001204101102010030160436345113457600007000080000
4474,LFPN,48.7519,2.10619,2024-04-30 00:30:00,,,,,12.0,1017.0,2964.0046998276366,10.0,7.0,170.0,10000.0,99999,,1947.0046998276366,0.0,1116001707101202010030170496405119470600007000080000
4475,LFPO,48.7253,2.35944,2024-04-30 00:30:00,,,,,13.0,1017.0,1906.8865392204364,10.0,6.0,180.0,10000.0,99999,,888.4865392204364,0.0,111600180610130201003017049068518884600007000080000
4478,LFRC,49.6501,-1.47028,2024-04-30 00:30:00,,,,,8.0,1014.0,3586.5319207672333,7.0,8.0,180.0,10000.0,99999,,2570.5319207672333,0.0,111600180810080207030140458655125705600007000080000
4479,LFRD,48.5877,-2.07996,2024-04-30 00:30:00,,,,,8.0,1014.0,2124.365268294549,7.0,9.0,170.0,10000.0,99999,,1107.9652682945489,0.0,111600170910080207030140412435111079600007000080000
4480,LFRG,49.3653,0.15431,2024-04-30 00:30:00,,,,,9.0,1015.0,3378.505988249287,6.0,6.0,170.0,10000.0,99999,,2361.7059882492867,0.0,111600170610090206030150437855123617600007000080000
4481,LFRK,49.1733,-0.45,2024-04-30 00:30:00,,,,,8.0,1015.0,2339.818395922779,5.0,5.0,220.0,10000.0,99999,,1323.218395922779,0.0,111600220510080205030150433985113232600007000080000
4482,LFRN,48.0695,-1.73479,2024-04-30 00:30:00,,,,,7.0,1015.0,1701.423909184722,6.0,6.0,120.0,10000.0,99999,,684.5239091847221,0.0,11160012061007020603015047014516845600007000080000
4483,LFRQ,47.975,-4.16779,2024-04-30 00:30:00,,,,,12.0,1012.0,2002.1072416343532,9.0,14.0,180.0,10000.0,99999,,987.1072416343532,0.0,11160018141012020903012040021519871600007000080000
4484,LFRS,47.1532,-1.61073,2024-04-30 00:30:00,,,,,6.0,1015.0,1587.7562445555602,5.0,1.0,140.0,10000.0,99999,,570.2562445555602,0.0,11160014011006020503015045877515702600007000080000
4485,LFRT,48.5378,-2.85444,2024-04-30 00:30:00,,,,,9.0,1013.0,3226.2268708585857,7.0,9.0,200.0,10000.0,99999,,2210.8268708585856,0.0,111600200910090207030130422625122108600007000080000
4486,LFRZ,47.3122,-2.14918,2024-04-30 00:30:00,,,,,9.0,1015.0,1065.6247172493102,8.0,7.0,160.0,10000.0,99999,,48.3247172493102,0.0,1116001607100902080301504065651483600007000080000
4487,LFSB,47.5896,7.52991,2024-04-30 00:30:00,,,,,10.0,1018.0,5229.331931649801,9.0,2.0,20.0,10000.0,99999,,4211.331931649801,0.0,111600020210100209030180422935142113600007000080000
4488,LFSN,48.6921,6.23046,2024-04-30 00:30:00,,,,,10.0,1019.0,4527.655442712318,9.0,0.0,0.0,10000.0,99999,,3508.1554427123183,0.0,111600000010100209030190452765135081600007000080000
4489,LFST,48.5383,7.62823,2024-04-30 00:30:00,,,,,13.0,1018.0,2673.267698924654,9.0,6.0,320.0,10000.0,99999,,1654.2676989246538,0.0,111600320610130209030180467325116542600007000080000
4491,LFTW,43.7574,4.41635,2024-04-30 00:30:00,,,,,14.0,1016.0,1891.2415963004746,12.0,4.0,360.0,10000.0,99999,,874.2415963004746,0.0,111600360410140201203016048912518742600007000080000
4492,LFBA,44.1747,0.59056,2024-04-30 00:30:00,51.0,36.0,T,green,12.0,1016.0,1672.893665888472,11.0,2.0,180.0,10000.0,99999,,655.793665888472,0.5,111600180210120201103016046728516557600507510080000
4493,LFBC,44.5333,-1.125,2024-04-30 00:30:00,,,,,10.0,1016.0,1324.7652790190177,8.0,3.0,340.0,10000.0,99999,,306.7652790190177,0.0,11160034031010020803016043247513067600007000080000
4494,LFBL,45.8628,1.17944,2024-04-30 00:30:00,61.0,36.0,^,green,10.0,1016.0,7375.039686540763,10.0,2.0,80.0,10000.0,99999,,6357.539686540763,0.0,1116000802101002010030160437505163575600007610080000
4495,LFBM,43.9117,-0.5075,2024-04-30 00:30:00,,,,,11.0,1016.0,1734.5994673065397,10.0,4.0,280.0,10000.0,99999,,716.7994673065398,0.0,111600280410110201003016047345517167600007000080000
4496,LFKF,41.5006,9.09778,2024-04-30 00:30:00,,,,,15.0,1016.0,1225.6553882488715,12.0,10.0,70.0,10000.0,99999,,207.75538824887155,0.0,111600071010150201203016042256512077600007000080000
4497,LFOE,49.0287,1.21986,2024-04-30 00:30:00,,,,,9.0,1016.0,3297.436355121184,7.0,4.0,150.0,10000.0,99999,,2279.836355121184,0.0,111600150410090207030160429745122798600007000080000
4498,LFOP,49.3842,1.1748,2024-04-30 00:30:00,,,,,9.0,1016.0,3568.7153300642653,6.0,6.0,140.0,10000.0,99999,,2551.015330064265,0.0,111600140610090206030160456875125510600007000080000
4499,LFPB,48.9694,2.44139,2024-04-30 00:30:00,,,,,14.0,1017.0,1614.6326905077951,10.0,9.0,160.0,10000.0,99999,,596.5326905077951,0.0,111600160910140201003017046146515965600007000080000
4500,LFPG,49.0128,2.55,2024-04-30 00:30:00,,,,,13.0,1017.0,2258.4056454673305,10.0,8.0,150.0,10000.0,99999,,1240.5056454673304,0.0,1116001508101302010030170425845112405600007000080000
4501,LFPV,48.7744,2.20154,2024-04-30 00:30:00,,,,,12.0,1017.0,3155.1510506660925,9.0,6.0,160.0,10000.0,99999,,2137.2510506660924,0.0,111600160610120209030170415515121372600007000080000
4502,LFQB,48.3221,4.0167,2024-04-30 00:30:00,61.0,36.0,^,green,12.0,1018.0,2366.2894183770977,11.0,7.0,180.0,10000.0,99999,,1347.8894183770976,0.0,1116001807101202011030180436625113478600007610080000
4503,LFQQ,50.5619,3.08944,2024-04-30 00:30:00,,,,,12.0,1017.0,1512.153905279305,10.0,5.0,140.0,10000.0,99999,,494.053905279305,0.0,111600140510120201003017045121514940600007000080000
4504,LFRH,47.7606,-3.44,2024-04-30 00:30:00,,,,,12.0,1014.0,1517.8505114133516,8.0,10.0,190.0,10000.0,99999,,501.85051141335157,0.0,11160019101012020803014045178515018600007000080000
4505,LFSD,47.2689,5.09,2024-04-30 00:30:00,,,,,11.0,1018.0,4046.8835829762193,10.0,5.0,50.0,10000.0,99999,,3027.7835829762193,0.5,1116000505101102010030180404685130277600507000080000
4506,LFSI,48.636,4.89942,2024-04-30 00:30:00,61.0,36.0,^,green,12.0,1019.0,2642.981958299646,11.0,4.0,110.0,7000.0,99999,,1623.8819582996462,0.2,1114001104101202011030190464295116238600207610080000
4509,LFSO,48.5831,5.955,2024-04-30 00:30:00,,,,,11.0,1019.0,5869.442782432711,8.0,1.0,210.0,10000.0,99999,,4849.542782432712,0.1,111600210110110208030190486945148495600107000080000
4510,LFSX,47.7831,6.36406,2024-04-30 00:30:00,,,,,10.0,1018.0,5377.0014526853,8.0,8.0,280.0,10000.0,99999,,4358.5014526853,0.0,111600280810100208030180437705143585600007000080000
4511,LFTH,43.0973,6.14603,2024-04-30 00:30:00,,,,,17.0,1016.0,1030.338507700628,12.0,11.0,100.0,10000.0,99999,,13.938507700628065,0.0,11160010111017020120301604030351139600007000080000
4515,LPFR,37.0144,-7.96591,2024-04-30 00:30:00,,,,,13.0,1020.0,1085.2087132040765,8.0,7.0,310.0,10000.0,99999,,66.2087132040765,0.0,1116003107101302080302004085251662600007000080000
4516,LPMA,32.6979,-16.7745,2024-04-30 00:30:00,,,,,17.0,1026.0,1452.7245543453157,11.0,8.0,350.0,10000.0,99999,,425.8245543453156,0.0,111600350810170201103026044527514258600007000080000
4517,LPPR,41.2481,-8.68139,2024-04-30 00:30:00,,,,,13.0,1018.0,1698.9854218162598,10.0,6.0,170.0,10000.0,99999,,678.9854218162598,0.0,111600170610130201003018046989516789600007000080000
4518,LPPS,33.0734,-16.35,2024-04-30 00:30:00,,,,,17.0,1027.0,1823.0539932097527,10.0,12.0,360.0,10000.0,99999,,796.2539932097527,0.0,111600361210170201003027048230517962600007000080000
4520,ULAA,64.6003,40.7167,2024-04-30 00:30:00,61.0,36.0,^,green,1.0,1025.0,3865.5454903495606,1.0,2.0,120.0,10000.0,99999,,2838.245490349561,0.4,111600120210010201030250486555128382600407610080000
4523,ULLI,59.8003,30.2625,2024-04-30 00:30:00,,,,,16.0,1024.0,1200.5170935448134,7.0,3.0,270.0,10000.0,99999,,176.31709354481336,0.0,11160027031016020703024042005511763600007000080000
4524,ULMM,68.7817,32.7508,2024-04-30 00:30:00,,,,,1.0,1023.0,13.500254685456563,-2.0,1.0,220.0,10000.0,99999,,-1011.6997453145435,0.0,11160022011001021203023041355110113600007000080000
4525,UUDD,55.4088,37.9063,2024-04-30 00:30:00,,,,,7.0,1033.0,5065.513415994827,3.0,2.0,180.0,10000.0,99999,,4032.5134159948266,0.0,111600180210070203030330406555140325600007000080000
4528,URKA,45.0021,37.3473,2024-04-30 00:30:00,,,,,15.0,1021.0,1457.9390236731576,12.0,8.0,70.0,10000.0,99999,,438.3390236731576,0.0,111600070810150201203021044579514383600007000080000
4529,URKK,45.0347,39.1705,2024-04-30 00:30:00,,,,,14.0,1022.0,1333.701080688838,11.0,5.0,40.0,10000.0,99999,,315.7010806888379,0.0,111600040510140201103022043337513157600007000080000
4531,URMT,45.1092,42.1128,2024-04-30 00:30:00,,,,,12.0,1021.0,7095.279982178055,11.0,5.0,20.0,10000.0,99999,,6078.479982178055,0.0,1116000205101202011030210409525160784600007000080000
4533,URWA,46.2833,48.0063,2024-04-30 00:30:00,,,,,13.0,1017.0,849.7866294287281,10.0,6.0,70.0,10000.0,99999,,-167.01337057127182,0.0,111600070610130201003017048497511679600007000080000
4534,URWI,46.3739,44.3309,2024-04-30 00:30:00,,,,,13.0,1019.0,2660.9782184483984,10.0,9.0,30.0,10000.0,99999,,1644.1782184483984,0.0,1116000309101302010030190466095116441600007000080000
4535,URWW,48.7825,44.3455,2024-04-30 00:30:00,,,,,11.0,1024.0,2933.850573011947,8.0,10.0,40.0,10000.0,99999,,1911.1505730119468,0.0,111600041010110208030240493385119111600007000080000
4536,UUEE,55.9726,37.4146,2024-04-30 00:30:00,,,,,8.0,1033.0,4731.295038972037,2.0,2.0,230.0,10000.0,99999,,3697.995038972037,0.0,111600230210080202030330473125136979600007000080000
4537,UUOO,51.8142,39.2296,2024-04-30 00:30:00,,,,,5.0,1033.0,6070.155323483508,2.0,2.0,360.0,10000.0,99999,,5038.655323483508,0.0,111600360210050202030330407015150386600007000080000
4538,UUWW,55.5915,37.2615,2024-04-30 00:30:00,,,,,5.0,1033.0,7857.9141487642355,3.0,2.0,230.0,10000.0,99999,,6824.9141487642355,0.0,111600230210050203030330485795168249600007000080000
4539,UUYY,61.647,50.8451,2024-04-30 00:30:00,,,,,4.0,1025.0,5105.947588289419,2.0,2.0,310.0,10000.0,99999,,4080.3475882894195,0.0,111600310210040202030250410595140803600007000080000
4541,UWKD,55.6062,49.2787,2024-04-30 00:30:00,,,,,5.0,1026.0,4935.5219260333215,2.0,1.0,200.0,10000.0,99999,,3907.4219260333216,0.0,111600200110050202030260493555139074600007000080000
4542,UWKE,55.5647,52.0925,2024-04-30 00:30:00,,,,,3.0,1026.0,11.444324355263133,1.0,3.0,250.0,10000.0,99999,,-1015.7556756447369,0.0,11160025031003020103026041145110152600007000080000
4543,UWWW,53.5049,50.1643,2024-04-30 00:30:00,,,,,4.0,1028.0,6905.7004124638415,1.0,3.0,300.0,10000.0,99999,,5878.900412463841,0.0,111600300310040201030280490575158789600007000080000
4544,LEAL,38.2822,-0.55816,2024-04-30 00:30:00,,,,,12.0,1015.0,1458.720202170811,10.0,4.0,240.0,10000.0,99999,,441.9202021708111,0.0,111600240410120201003015044587514419600007000080000
4545,LEAM,36.8439,-2.3701,2024-04-30 00:30:00,,,,,15.0,1016.0,1183.4189222415541,7.0,5.0,30.0,10000.0,99999,,166.61892224155417,0.0,11160003051015020703016041834511666600007000080000
4546,LEAS,43.5636,-6.03462,2024-04-30 00:30:00,,,,,11.0,1015.0,2615.8320079733253,7.0,3.0,210.0,10000.0,99999,,1598.8320079733253,0.0,111600210310110207030150461585115988600007000080000
4547,LEBB,43.3011,-2.91061,2024-04-30 00:30:00,,,,,9.0,1016.0,1603.1447280580437,8.0,3.0,80.0,10000.0,99999,,584.7447280580437,0.0,11160008031009020803016046031515847600007000080000
4548,LEBL,41.2971,2.07846,2024-04-30 00:30:00,,,,,14.0,1013.0,1042.8556341672834,12.0,15.0,60.0,10000.0,99999,,27.955634167283392,5.1,11160006151014020120301304042851279605007000080000
4549,LECO,43.3021,-8.37726,2024-04-30 00:30:00,,,,,11.0,1015.0,2230.0599905760873,7.0,9.0,180.0,10000.0,99999,,1213.0599905760873,0.0,111600180910110207030150423005112130600007000080000
4550,LEDA,41.72819,0.53502,2024-04-30 00:30:00,,,,,12.0,1014.0,5681.1788447038725,12.0,2.0,260.0,10000.0,99999,,4666.1788447038725,0.6,1116002602101202012030140468115146661600607000080000
4551,LEGE,41.901,2.76055,2024-04-30 00:30:00,,,,,12.0,1014.0,2670.1922273841233,11.0,3.0,340.0,10000.0,99999,,1655.1922273841233,3.4,1116003403101202011030140467015116551603307000080000
4552,LEGR,37.1887,-3.77736,2024-04-30 00:30:00,,,,,6.0,1018.0,15.006699164195398,6.0,2.0,150.0,10000.0,99999,,-1003.9933008358046,0.0,11160015021006020603018041505110030600007000080000
4553,LEIB,38.8729,1.37312,2024-04-30 00:30:00,,,,,14.0,1015.0,1075.1977371647868,12.0,4.0,280.0,10000.0,99999,,59.69773716478676,0.0,11160028041014020120301504075151596600007000080000
4554,LEJR,36.7446,-6.06011,2024-04-30 00:30:00,,,,,12.0,1019.0,1303.5418742022212,8.0,2.0,,8000.0,99999,,284.2418742022212,0.0,11140036021012020803019043035512842600007000080000
4555,LELC,37.775,-0.81239,2024-04-30 00:30:00,,,,,13.0,1016.0,1045.5578075914889,11.0,2.0,240.0,10000.0,99999,,28.45780759148886,0.0,11160024021013020110301604045551284600007000080000
4556,LELL,41.5209,2.10508,2024-04-30 00:30:00,61.0,36.0,^,green,13.0,1014.0,2588.7524377469263,11.0,4.0,320.0,10000.0,99999,,1574.6524377469264,4.6,1116003204101302011030140458875115746604507610080000
4557,LEMD,40.4936,-3.56676,2024-04-30 00:30:00,,,,,9.0,1015.0,11.659939715388845,6.0,2.0,120.0,10000.0,99999,,-1004.7400602846111,0.0,11160012021009020603015041165110042600007000080000
4558,LEMG,36.6749,-4.49911,2024-04-30 00:30:00,,,,,12.0,1018.0,1176.4942841295988,9.0,7.0,270.0,10000.0,99999,,159.0942841295988,0.0,11160027071012020903018041764511590600007000080000
4559,LEMH,39.8626,4.21865,2024-04-30 00:30:00,,,,,16.0,1013.0,1747.4024255221043,16.0,4.0,160.0,3700.0,99999,,732.4024255221043,0.0,111200160410160201603013047474517324600007000080000
4560,LEPA,39.5517,2.73881,2024-04-30 00:30:00,,,,,16.0,1014.0,1073.187491462114,13.0,4.0,290.0,10000.0,99999,,58.78749146211396,0.0,11160029041016020130301404073151587600007000080000
4561,LEPP,42.77,-1.64633,2024-04-30 00:30:00,,,,,6.0,1015.0,12.806678588134234,5.0,1.0,130.0,10000.0,99999,,-1004.9933214118657,0.0,11160013011006020503015041285110040600007000080000
4562,LERS,41.1474,1.16717,2024-04-30 00:30:00,,,,,13.0,1014.0,1708.5947014551368,12.0,3.0,320.0,3400.0,99999,,694.5947014551368,2.7,111200320310130201203014047085516945602707000080000
4563,LESO,43.3565,-1.79061,2024-04-30 00:30:00,,,,,9.0,1016.0,1078.5169837741942,9.0,2.0,,10000.0,99999,,59.91698377419414,0.0,1116003602100902090301604078551599600007000080000
4564,LEST,42.8963,-8.41514,2024-04-30 00:30:00,,,,,9.0,1016.0,7616.772656870106,8.0,5.0,150.0,10000.0,99999,,6597.972656870106,0.0,111600150510090208030160461675165979600007000080000
4566,LEVC,39.4893,-0.48162,2024-04-30 00:30:00,,,,,12.0,1014.0,1797.4392423040858,11.0,4.0,250.0,10000.0,99999,,781.1392423040859,0.0,111600250410120201103014047974517811600007000080000
4567,LEVD,41.7061,-4.85194,2024-04-30 00:30:00,,,,,6.0,1016.0,19.28191555154293,1.0,0.0,0.0,10000.0,99999,,-996.718084448457,0.0,1116000000100602010301604192519962600007000080000
4568,LEVT,42.8828,-2.72447,2024-04-30 00:30:00,,,,,1.0,1016.0,31.02371430633059,1.0,2.0,,10000.0,99999,,-985.9762856936694,0.0,1116003602100102010301604310519850600007000080000
4569,LEVX,42.2318,-8.62677,2024-04-30 00:30:00,,,,,10.0,1017.0,5071.366139968848,8.0,6.0,180.0,10000.0,99999,,4052.366139968848,0.0,111600180610100208030170407135140523600007000080000
4570,LEXJ,43.4271,-3.82001,2024-04-30 00:30:00,10.0,36.0,+,yellow,9.0,1016.0,1078.5169837741942,8.0,1.0,180.0,5000.0,99999,,60.51698377419416,0.0,1113001801100902080301604078551605600007100080000
4571,LEZG,41.6662,-1.04155,2024-04-30 00:30:00,,,,,11.0,1015.0,4685.8335766054,8.0,3.0,280.0,10000.0,99999,,3669.6335766054,0.0,111600280310110208030150468585136696600007000080000
4572,LEZL,37.418,-5.89311,2024-04-30 00:30:00,,,,,13.0,1018.0,1335.7347560681044,8.0,4.0,220.0,10000.0,99999,,317.63475606810437,0.0,11160022041013020803018043357513176600007000080000
4578,LELN,42.589,-5.65556,2024-04-30 00:30:00,,,,,7.0,1015.0,18.454379337209946,4.0,4.0,40.0,10000.0,99999,,-998.2456206627901,0.0,1116000404100702040301504184519987600007000080000
4579,LESA,40.9521,-5.50199,2024-04-30 00:30:00,,,,,5.0,1017.0,20.543108838801963,3.0,8.0,260.0,10000.0,99999,,-996.0568911611981,0.0,1116002608100502030301704205519969600007000080000
4583,LFMV,43.9073,4.90183,2024-04-30 00:30:00,,,,,11.0,1016.0,1437.7113801288594,10.0,0.0,0.0,10000.0,99999,,420.71138012885945,0.0,111600000010110201003016044377514207600007000080000
4584,LFOA,47.0533,2.6325,2024-04-30 00:30:00,61.0,36.0,^,green,12.0,1017.0,3138.4373836721456,11.0,6.0,130.0,10000.0,99999,,2120.4373836721456,0.0,1116001306101202011030170413845121204600007610080000
4585,LFOJ,47.9878,1.76056,2024-04-30 00:30:00,,,,,12.0,1016.0,2451.9706181846354,11.0,5.0,160.0,10000.0,99999,,1434.9706181846354,0.0,1116001605101202011030160445195114349600007000080000
4586,LFOK,48.7761,4.18449,2024-04-30 00:30:00,61.0,36.0,^,green,11.0,1018.0,3395.683410395356,11.0,8.0,170.0,7000.0,99999,,0.0,0.0,11140017081011020110301804395651000600007610080000
4587,UMKK,54.89,20.5926,2024-04-30 00:30:00,,,,,9.0,1026.0,1195.0667462793647,9.0,0.0,0.0,8000.0,99999,,169.96674627936477,0.0,11140000001009020903026041950511699600007000080000
4588,URML,42.8168,47.6523,2024-04-30 00:30:00,,,,,15.0,1015.0,1042.9087487306276,14.0,2.0,280.0,10000.0,99999,,27.508748730627644,0.0,11160028021015020140301504042951275600007000080000
4589,UWLL,54.2683,48.2267,2024-04-30 00:30:00,,,,,4.0,1029.0,6729.423851204381,3.0,2.0,190.0,10000.0,99999,,5700.523851204382,0.0,111600190210040203030290472945157005600007000080000
4591,LFRB,48.4479,-4.41854,2024-04-30 00:30:00,,,,,11.0,1011.0,2217.096116470989,10.0,17.0,180.0,10000.0,99999,,1203.3961164709888,0.0,1116001817101102010030110421705112033600007000080000
4592,LPPT,38.7813,-9.13592,2024-04-30 00:30:00,,,,,13.0,1020.0,2200.955495785773,9.0,1.0,,10000.0,99999,,1180.955495785773,0.0,111600360110130209030200420095111809600007000080000
4593,LXGB,36.1512,-5.34966,2024-04-30 00:20:00,,,,,16.0,1019.0,1051.8670663210119,10.0,10.0,270.0,10000.0,99999,,32.467066321011885,0.0,11160027101016020100301904051851324600007000080000
4613,EGDM,51.1522,-1.74741,2024-04-30 00:20:00,,,,,9.0,1012.0,2968.6194628959315,7.0,10.0,150.0,10000.0,99999,,1954.4194628959315,0.0,111600151010090207030120496865119544600007000080000
4614,EGDR,50.0861,-5.25571,2024-04-30 00:20:00,51.0,36.0,T,green,11.0,1006.0,1969.1177584137665,11.0,19.0,180.0,10000.0,99999,,959.3177584137666,0.1,111600181910110201103006049691519593600107510080000
4615,EGOM,55.05,-2.55,2024-04-30 00:20:00,,,,,8.0,1007.0,7472.877701093414,7.0,12.0,200.0,10000.0,99999,,6464.877701093414,0.0,111600201210080207030070447285164648600007000080000
4616,EGOV,53.2481,-4.53534,2024-04-30 00:20:00,61.0,36.0,^,green,10.0,1006.0,1136.5723752308315,9.0,10.0,140.0,7000.0,99999,,129.27237523083159,0.0,11140014101010020903006041365511292600007610080000
4617,EGQK,57.6494,-3.56064,2024-04-30 00:20:00,,,,,11.0,1004.0,1073.610453718086,5.0,8.0,200.0,10000.0,99999,,70.81045371808614,0.0,1116002008101102050300404073651708600007000080000
4618,EGUB,51.6164,-1.09583,2024-04-30 00:20:00,,,,,9.0,1013.0,2020.2221583636538,5.0,14.0,130.0,10000.0,99999,,1005.8221583636538,0.0,111600131410090205030130402025110058600007000080000
4619,EGUW,52.1273,0.95626,2024-04-30 00:20:00,,,,,9.0,1015.0,2319.06932432537,6.0,7.0,140.0,10000.0,99999,,1302.86932432537,0.0,111600140710090206030150431905113028600007000080000
4620,EGVO,51.2341,-0.94283,2024-04-30 00:20:00,,,,,8.0,1013.0,3240.877782019634,6.0,8.0,150.0,10000.0,99999,,2225.877782019634,0.0,111600150810080206030130424085122258600007000080000
4621,EGVP,51.1394,-1.56861,2024-04-30 00:20:00,,,,,8.0,1013.0,2577.4529441937607,6.0,8.0,150.0,10000.0,99999,,1563.1529441937607,0.0,111600150810080206030130457745115631600007000080000
4622,EGWC,52.64,-2.30558,2024-04-30 00:20:00,,,,,99999.0,99999.0,99999.0,99999.0,11.0,150.0,10000.0,99999,,98987.7,0.0,11160015111099999020999990399904999051989876600007000080000
4623,EGXC,53.093,-0.16601,2024-04-30 00:20:00,,,,,9.0,1013.0,1111.0820689765726,5.0,9.0,160.0,10000.0,99999,,97.18206897657262,0.0,1116001609100902050301304111051971600007000080000
4624,EGXE,54.2924,-1.5354,2024-04-30 00:20:00,,,,,11.0,1010.0,1458.192846180703,7.0,11.0,160.0,10000.0,99999,,448.0928461807031,0.0,11160016111011020703010044581514480600007000080000
4625,EGXW,53.1662,-0.52381,2024-04-30 00:20:00,,,,,8.0,1013.0,2190.6963556279657,5.0,14.0,150.0,10000.0,99999,,1177.2963556279656,0.0,111600151410080205030130419065111772600007000080000
4626,EGXZ,54.2055,-1.38209,2024-04-30 00:20:00,,,,,10.0,1010.0,1347.8566731212595,7.0,13.0,160.0,10000.0,99999,,337.2566731212595,0.0,11160016131010020703010043478513372600007000080000
4627,EGYD,53.0303,-0.48324,2024-04-30 00:20:00,,,,,7.0,1013.0,2295.3159119191478,5.0,12.0,150.0,10000.0,99999,,1283.5159119191478,0.0,111600151210070205030130429535112835600007000080000
4628,EGYE,52.9622,-0.56163,2024-04-30 00:20:00,,,,,7.0,1013.0,3331.732750173037,4.0,9.0,150.0,10000.0,99999,,2318.4327501730368,0.0,111600150910070204030130433175123184600007000080000
4629,EGYM,52.6484,0.55069,2024-04-30 00:20:00,,,,,9.0,1015.0,1320.884980452087,3.0,9.0,140.0,10000.0,99999,,305.68498045208685,0.0,11160014091009020303015043208513056600007000080000
4630,EICK,51.8413,-8.49111,2024-04-30 00:30:00,,,,,7.0,1001.0,4272.938590099072,6.0,6.0,160.0,10000.0,99999,,3268.238590099072,0.0,111600160610070206030010427295132682600007000080000
4631,EIDW,53.4213,-6.27007,2024-04-30 00:30:00,,,,,9.0,1004.0,2081.5722491390507,6.0,6.0,140.0,10000.0,99999,,1076.2722491390507,0.0,111600140610090206030040408155110762600007000080000
4632,EINN,52.702,-8.92482,2024-04-30 00:30:00,,,,,8.0,1002.0,1206.916351544905,6.0,7.0,110.0,10000.0,99999,,202.91635154490496,0.0,11160011071008020603002042069512029600007000080000
4634,LQBK,44.9414,17.2975,2024-04-30 00:30:00,,,,,9.0,1022.0,2959.226474906587,8.0,0.0,0.0,10000.0,99999,,1937.6264749065872,0.0,111600000010090208030220495925119376600007000080000
4635,LQTZ,44.4587,18.7248,2024-04-30 00:30:00,,,,,11.0,1022.0,4339.350563431656,7.0,3.0,160.0,10000.0,99999,,3316.550563431656,0.0,111600160310110207030220433935133165600007000080000
4642,UMMS,53.8825,28.0307,2024-04-30 00:30:00,,,,,9.0,1033.0,4554.909211432646,3.0,2.0,140.0,10000.0,99999,,3522.909211432646,0.0,111600140210090203030330455495135229600007000080000
4643,URMM,44.2251,43.0819,2024-04-30 00:30:00,,,,,16.0,1019.0,4044.342665292297,14.0,4.0,300.0,10000.0,99999,,3025.342665292297,0.0,1116003004101602014030190404435130253600007000080000
4644,URSS,43.4499,39.9566,2024-04-30 00:30:00,,,,,15.0,1020.0,1235.5086353270137,14.0,1.0,120.0,9000.0,99999,,215.8086353270137,0.0,111500120110150201403020042355512158600007000080000
4645,UWGG,56.2301,43.784,2024-04-30 00:30:00,,,,,9.0,1030.0,2207.424435659286,5.0,0.0,0.0,10000.0,99999,,1177.4244356592858,0.0,111600000010090205030300420745111774600007000080000
4653,LFLX,46.8622,1.73067,2024-04-30 00:30:00,61.0,36.0,^,green,12.0,1016.0,2924.0140355967346,11.0,7.0,120.0,10000.0,99999,,1906.7140355967347,0.0,1116001207101202011030160492405119067600007610080000
4654,LFMI,43.5227,4.92384,2024-04-30 00:30:00,,,,,14.0,1016.0,1227.8007222099911,13.0,2.0,,10000.0,99999,,211.40072220999116,0.0,111600360210140201303016042278512114600007000080000
4655,LFOH,49.5339,0.08806,2024-04-30 00:30:00,,,,,12.0,1015.0,2067.9364454291126,7.0,7.0,190.0,10000.0,99999,,1051.6364454291127,0.0,111600190710120207030150406795110516600007000080000
4658,LFSL,45.03967,1.4855,2024-04-30 00:30:00,63.0,36.0,',green,11.0,1016.0,5422.402030922914,10.0,2.0,,6000.0,99999,,4405.402030922914,0.1,1113003602101102010030160442245144054600107630080000
4659,LTAZ,38.7719,34.5345,2024-04-30 00:38:00,,,,,13.0,1019.0,12.370992461878505,12.0,6.0,220.0,10000.0,99999,,0.0,0.0,1116002206101302012030190412351000600007000080000
4660,LTCR,37.2233,40.6317,2024-04-30 00:38:00,,,,,20.0,1013.0,5096.038350807332,13.0,3.0,10.0,10000.0,99999,,4084.938350807332,0.0,1116000103102002013030130409605140849600007000080000
4668,LEAB,38.9485,-1.86352,2024-04-30 00:30:00,,,,,8.0,1016.0,14.205156177660173,6.0,7.0,270.0,10000.0,99999,,-1002.7948438223398,0.0,11160027071008020603016041425110022600007000080000
4669,LEBA,37.842,-4.84888,2024-04-30 00:30:00,,,,,10.0,1018.0,2239.595690976401,9.0,3.0,280.0,10000.0,99999,,1222.0956909764009,0.0,111600280310100209030180423955112220600007000080000
4670,LEGT,40.2941,-3.72383,2024-04-30 00:30:00,,,,,9.0,1015.0,11.798995745775091,6.0,3.0,110.0,10000.0,99999,,-1004.2010042542249,0.0,11160011031009020603015041175110047600007000080000
4671,LELO,42.46095,-2.32224,2024-04-30 00:30:00,,,,,5.0,1016.0,12.080201231168017,4.0,0.0,0.0,10000.0,99999,,-1005.419798768832,0.0,11160000001005020403016041205110055600007000080000
4674,LETO,40.4967,-3.44587,2024-04-30 00:30:00,,,,,10.0,1016.0,10.824327887935652,8.0,2.0,,10000.0,99999,,-1005.1756721120644,0.0,11160036021010020803016041085110058600007000080000
4675,LFRI,46.7019,-1.37863,2024-04-30 00:30:00,,,,,7.0,1016.0,2856.5925097652366,6.0,2.0,190.0,10000.0,99999,,1838.6925097652365,0.0,111600190210070206030160485655118386600007000080000
4677,LJLJ,46.2237,14.4576,2024-04-30 00:30:00,,,,,9.0,1022.0,7997.991553482471,8.0,2.0,,10000.0,99999,,6975.191553482471,0.0,111600360210090208030220499795169751600007000080000
4678,LJMB,46.4799,15.6861,2024-04-30 00:30:00,,,,,9.0,1023.0,5722.79172505012,7.0,3.0,330.0,10000.0,99999,,4700.09172505012,0.0,111600330310090207030230472275147000600007000080000
4679,LJPZ,45.4734,13.615,2024-04-30 00:30:00,,,,,12.0,1020.0,1040.418306651169,8.0,3.0,120.0,10000.0,99999,,19.61830665116895,0.0,1116001203101202080302004040451196600007000080000
4680,LEMO,37.1749,-5.61594,2024-04-30 00:30:00,,,,,12.0,1018.0,1969.2807906092528,8.0,8.0,200.0,10000.0,99999,,950.6807906092528,0.0,11160020081012020803018049692519506600007000080000
4681,LERT,36.6452,-6.34946,2024-04-30 00:30:00,,,,,15.0,1019.0,1226.766075281777,8.0,6.0,310.0,10000.0,99999,,208.56607528177688,0.0,11160031061015020803019042267512085600007000080000
4682,EBBE,50.7586,4.76833,2024-04-30 00:25:00,,,,,13.0,1018.0,2182.492086290568,11.0,4.0,150.0,10000.0,99999,,1163.7920862905678,0.0,1116001504101302011030180418245111637600007000080000
4683,EBBL,51.1683,5.47,2024-04-30 00:25:00,51.0,36.0,T,green,14.0,1018.0,1562.9115747607602,11.0,3.0,190.0,10000.0,99999,,544.2115747607602,0.0,111600190310140201103018045629515442600007510080000
4684,EBCV,50.5758,3.831,2024-04-30 00:25:00,,,,,13.0,1017.0,1587.6975311201907,11.0,6.0,160.0,10000.0,99999,,569.2975311201907,0.0,111600160610130201103017045876515692600007000080000
4685,EBDT,50.9992,5.06556,2024-04-30 00:25:00,,,,,13.0,1018.0,1300.0429451244404,11.0,4.0,150.0,10000.0,99999,,282.0429451244404,0.0,111600150410130201103018043000512820600007000080000
4686,EBFN,51.0903,2.65278,2024-04-30 00:25:00,,,,,8.0,1016.0,1104.363549974313,7.0,2.0,,10000.0,99999,,87.36354997431295,0.0,1116003602100802070301604104351873600007000080000
4687,EBFS,50.2433,4.64583,2024-04-30 00:25:00,,,,,11.0,1018.0,5044.703131908751,10.0,5.0,170.0,10000.0,99999,,4025.803131908751,0.0,1116001705101102010030180404475140258600007000080000
4688,EBLB,50.4817,6.18194,2024-04-30 00:25:00,,,,,10.0,1019.0,9.97302771596737,8.0,1.0,,10000.0,99999,,-1010.1269722840326,0.0,1116003601101002080301904995110108600007000080000
4690,LFRM,47.9486,0.20167,2024-04-30 00:30:00,,,,,9.0,1016.0,1868.6300641357013,7.0,3.0,90.0,10000.0,99999,,851.5300641357013,0.0,11160009031009020703016048686518515600007000080000
4693,LTAN,37.979,32.5619,2024-04-30 00:37:00,,,,,14.0,1019.0,12.493389447786406,11.0,5.0,90.0,10000.0,99999,,-1002.1066105522136,0.0,111600090510140201103019041245110028600007000080000
4694,EHGR,51.5674,4.93183,2024-04-30 00:41:00,,,,,14.0,1017.0,1141.693576308459,10.0,4.0,190.0,10000.0,99999,,123.69357630845889,0.0,111600190410140201003017041416511236600007000080000
4697,EBLG,50.6374,5.44322,2024-04-30 00:20:00,,,,,12.0,1018.0,3474.8263089226007,10.0,4.0,140.0,10000.0,99999,,2455.6263089226004,0.0,1116001404101202010030180447485124556600007000080000
