,station,lat,lon,time,weather,weatherfont,weathersymbol,weathercolour,temperature,pressure,sl_pressure,dewpoint,windspeed,winddir,visibility,visual_range,cloudcover,pressure3h_change,rain,wwletter
49,EEEI,59.2603,24.2085,2024-05-06 23:50:00,,,,,2.0,1015.0,(2363.2208344375363+0j),-2.0,2.0,,10000.0,99999,,(1348.8208344375362+0j),0.0,1116003602100202120301504000051000600007000080000
716,LGAL,40.8559,25.9563,2024-05-06 23:50:00,,,,,10.0,1014.0,(1098.6026600093312+0j),9.0,0.0,0.0,10000.0,99999,,(83.90266000933116+0j),0.0,1116000000101002090301404000051000600007000080000
719,LGKL,37.0683,22.0255,2024-05-06 23:50:00,,,,,12.0,1017.0,(1093.4777193259592+0j),10.0,6.0,320.0,10000.0,99999,,(76.2777193259592+0j),0.0,11160032061012020100301704000051000600007000080000
722,LGLM,39.9171,25.2363,2024-05-06 23:50:00,,,,,11.0,1014.0,(1058.507724840563+0j),9.0,0.0,0.0,10000.0,99999,,(43.30772484056297+0j),0.0,1116000000101102090301404000051000600007000080000
726,LGMK,37.4351,25.3481,2024-05-06 23:50:00,,,,,15.0,1015.0,(2109.4196252949305+0j),12.0,3.0,,10000.0,99999,,(1093.6196252949305+0j),0.0,11160036031015020120301504000051000600007000080000
801,ESMX,56.9291,14.728,2024-05-06 23:50:00,,,,,5.0,1017.0,(6973.377446946765+0j),3.0,6.0,30.0,10000.0,99999,,(5958.377446946765+0j),0.0,1116000306100502030301704000051000600007000080000
831,EGJB,49.435,-2.60197,2024-05-06 23:50:00,,,,,12.0,1014.0,(2152.827551052649+0j),10.0,7.0,360.0,10000.0,99999,,(1139.427551052649+0j),0.0,11160036071012020100301404000051000600007000080000
878,ETNG,50.9608,6.04242,2024-05-06 23:50:00,51.0,36.0,T,green,13.0,1012.0,(1914.3986410840419+0j),12.0,0.0,0.0,4600.0,99999,,(902.8986410840419+0j),1.7,11120000001013020120301204000051000601707510080000
998,ETEK,49.6503,7.30007,2024-05-06 23:55:00,,,,,8.7,29.93,(1029.93+0j),7.5,7.0,250.0,10000.0,99999,,(16.930000000000064+0j),0.0,111600250710086207632994000051000600007000080000
1051,LGTG,38.3398,23.565,2024-05-06 23:50:00,,,,,12.0,1015.0,(2741.5244867404313+0j),8.0,0.0,0.0,10000.0,99999,,(1725.4244867404313+0j),0.0,1116000000101202080301504000051000600007000080000
1081,LTAY,37.7856,29.7013,2024-05-06 23:50:00,,,,,6.0,1015.0,(19.33682378248561+0j),-0.0,0.0,0.0,10000.0,99999,,(-995.5631762175144+0j),0.0,1116000000100602100301504000051000600007000080000
1082,LTBD,37.815,27.8953,2024-05-06 23:50:00,,,,,12.0,1013.0,(1324.7141907551425+0j),7.0,2.0,60.0,10000.0,99999,,(310.71419075514245+0j),0.0,1116000602101202070301304000051000600007000080000
1084,LTBH,40.1377,26.4268,2024-05-06 23:50:00,,,,,10.0,1015.0,(1096.1004984783062+0j),7.0,5.0,10.0,10000.0,99999,,(80.50049847830621+0j),0.0,1116000105101002070301504000051000600007000080000
1086,LTBY,39.8099,30.5194,2024-05-06 23:50:00,,,,,5.0,1016.0,(20.493887993810507+0j),1.0,3.0,210.0,10000.0,99999,,0j,0.0,1116002103100502010301604000051000600007000080000
1087,LTCB,40.96667,38.08,2024-05-06 23:50:00,,,,,13.0,1016.0,(1064.5548759315031+0j),7.0,10.0,200.0,10000.0,99999,,(51.954875931503125+0j),0.2,1116002010101302070301604000051000600207000080000
1091,LTCN,37.53883,36.95352,2024-05-06 23:50:00,,,,,7.0,1010.0,(12.566678174502211+0j),7.0,4.0,70.0,10000.0,99999,,(-997.4333218254978+0j),0.0,1116000704100702070301004000051000600007000080000
1092,LTCT,39.97663,43.87665,2024-05-06 23:50:00,,,,,11.0,1011.0,(13.926405089773905+0j),6.0,7.0,270.0,10000.0,99999,,0j,0.0,1116002707101102060301104000051000600007000080000
1093,LTDA,36.36278,36.28222,2024-05-06 23:50:00,,,,,18.0,1010.0,(1577.6484662887444+0j),4.0,10.0,240.0,10000.0,99999,,(567.6484662887444+0j),0.0,1116002410101802040301004000051000600007000080000
1094,LTFD,39.5546,27.0138,2024-05-06 23:50:00,,,,,11.0,1015.0,(1177.7768028523335+0j),6.0,5.0,80.0,10000.0,99999,,(161.87680285233353+0j),0.0,1116000805101102060301504000051000600007000080000
1095,LTFG,36.29922,32.3006,2024-05-06 23:50:00,,,,,14.0,1012.0,(1233.6737073893926+0j),6.0,5.0,130.0,10000.0,99999,,(221.2737073893926+0j),0.0,1116001305101402060301204000051000600007000080000
1130,LGPZ,38.9255,20.7653,2024-05-06 23:50:00,,,,,15.0,1017.0,(1042.6210713331952+0j),13.0,4.0,350.0,10000.0,99999,,(24.721071333195255+0j),0.0,11160035041015020130301704000051000600007000080000
1131,LGRX,38.1511,21.4256,2024-05-06 23:50:00,,,,,14.0,1017.0,(1133.8864780395886+0j),14.0,0.0,0.0,10000.0,99999,,(116.18647803958856+0j),0.0,11160000001014020140301704000051000600007000080000
1147,EGNS,54.0833,-4.62389,2024-05-06 23:50:00,,,,,11.0,1017.0,(1186.8293775452894+0j),9.0,13.0,350.0,10000.0,99999,,(171.8293775452894+0j),0.0,1116003513101102090301704000051000600007000080000
1161,LBPG,42.2904,24.714,2024-05-07 00:00:00,,,,,12.0,1014.0,(1620.7634041177812+0j),10.0,4.0,360.0,10000.0,99999,,(606.4634041177812+0j),0.0,11160036041012020100301404000051000600007000080000
1190,LRCT,46.5023,23.8859,2024-05-07 00:00:00,,,,,11.0,1011.0,(5714.2321860007605+0j),9.0,3.0,,10000.0,99999,,0j,0.0,1116003603101102090301104000051000600007000080000
1377,EGQS,57.7052,-3.33917,2024-05-06 23:50:00,,,,,9.0,1019.0,(1186.9132694528973+0j),6.0,6.0,290.0,10000.0,99999,,(169.11326945289738+0j),0.0,1116002906100902060301904000051000600007000080000
1389,LGAD,37.9207,21.2926,2024-05-06 23:50:00,,,,,13.0,1017.0,(1168.4831630526087+0j),12.0,0.0,0.0,10000.0,99999,,(150.78316305260864+0j),0.0,11160000001013020120301704000051000600007000080000
1393,LTAB,39.935,32.7408,2024-05-06 23:50:00,,,,,7.0,1016.0,(17.256027248157082+0j),1.0,3.0,,10000.0,99999,,(-998.7439727518429+0j),0.0,1116003603100702010301604000051000600007000080000
1394,LTAD,39.9498,32.6886,2024-05-06 23:50:00,,,,,5.0,1016.0,(20.76003960940312+0j),0.0,0.0,0.0,10000.0,99999,,(-994.5399603905969+0j),0.0,1116000000100502000301604000051000600007000080000
1398,LTAN,37.979,32.5619,2024-05-06 23:50:00,,,,,5.0,1015.0,(23.278435990513508+0j),1.0,3.0,110.0,10000.0,99999,,(-991.7215640094865+0j),0.0,1116001103100502010301504000051000600007000080000
1400,LTAR,39.8138,36.9035,2024-05-06 23:50:00,,,,,2.0,1015.0,(33.47619086954889+0j),2.0,9.0,350.0,10000.0,99999,,(-982.7238091304512+0j),0.0,1116003509100202020301504000051000600007000080000
1403,LTBF,39.6193,27.926,2024-05-06 23:50:00,,,,,5.0,1015.0,(4138.9491499803435+0j),5.0,0.0,0.0,10000.0,99999,,(3122.4491499803435+0j),0.0,1116000000100502050301504000051000600007000080000
1404,LTBG,40.318,27.9777,2024-05-06 23:50:00,,,,,6.0,1015.0,(2170.190593160423+0j),6.0,2.0,,10000.0,99999,,(1153.7905931604228+0j),0.0,1116003602100602060301504000051000600007000080000
1405,LTBI,39.7841,30.5821,2024-05-06 23:50:00,,,,,6.0,1016.0,(18.491213616618822+0j),1.0,3.0,280.0,10000.0,99999,,(-997.9087863833812+0j),0.0,1116002803100602010301604000051000600007000080000
1406,LTBL,38.513,27.0101,2024-05-06 23:50:00,,,,,10.0,1014.0,(1070.083567359336+0j),7.0,3.0,280.0,10000.0,99999,,(55.58356735933603+0j),0.0,1116002803101002070301404000051000600007000080000
1407,LTBQ,40.735,30.0833,2024-05-06 23:50:00,,,,,1.0,1016.0,(9.897689103477752+0j),1.0,1.0,,10000.0,99999,,(-1006.1023108965222+0j),0.0,1116003601100102010301604000051000600007000080000
1411,LTCI,38.4682,43.3323,2024-05-06 23:50:00,80.0,36.0,q,green,5.0,1012.0,(27.712770532286864+0j),3.0,5.0,160.0,10000.0,99999,,(-980.9872294677132+0j),0.0,1116001605100502030301204000051000600007800080000
1463,LTAE,40.0789,32.5656,2024-05-06 23:50:00,,,,,3.0,1016.0,(26.308842900165757+0j),0.0,2.0,,10000.0,99999,,(-989.1911570998343+0j),0.0,1116003602100302000301604000051000600007000080000
1531,LGBL,39.2196,22.7943,2024-05-06 23:50:00,,,,,12.0,1015.0,(1266.6013150619501+0j),10.0,4.0,270.0,10000.0,99999,,(251.5013150619501+0j),0.0,11160027041012020100301504000051000600007000080000
1624,EBBL,51.1683,5.47,2024-05-06 23:55:00,61.0,36.0,^,green,99999.0,1012.0,(99999+0j),99999.0,3.0,30.0,3700.0,99999,,(98987.2+0j),1.2,11120003031099999020999990301204000051000601107610080000
1629,LGSR,36.3992,25.4793,2024-05-06 23:50:00,,,,,17.0,1015.0,(1287.7200983841828+0j),13.0,6.0,320.0,10000.0,99999,,(271.72009838418285+0j),0.0,11160032061017020130301504000051000600007000080000
1836,LRCV,44.3181,23.8886,2024-05-07 00:00:00,,,,,15.0,1011.0,(2794.6736466746156+0j),11.0,4.0,320.0,10000.0,99999,,(1782.3736466746157+0j),0.0,11160032041015020110301104000051000600007000080000
2114,LPBJ,38.0789,-7.9324,2024-05-07 00:00:00,,,,,11.0,1019.0,(3626.9984518818715+0j),9.0,7.0,290.0,10000.0,99999,,(2608.9984518818715+0j),0.0,1116002907101102090301904000051000600007000080000
2132,URMN,43.5129,43.6366,2024-05-07 00:00:00,,,,,10.0,1014.0,(8166.144989681386+0j),9.0,0.0,0.0,10000.0,99999,,(7149.144989681386+0j),0.0,1116000000101002090301404000051000600007000080000
2145,UWLW,54.401,48.8027,2024-05-07 00:00:00,,,,,4.0,1012.0,(3868.0299967115025+0j),3.0,1.0,190.0,10000.0,99999,,(2854.8299967115026+0j),0.0,1116001901100402030301204000051000600007000080000
2180,EGUL,52.4093,0.561,2024-05-06 23:55:00,,,,,9.8,29.96,(1147.584164751298+0j),7.6,3.0,50.0,10000.0,99999,,(134.58416475129798+0j),0.0,111600050310098207832994000051000600007000080000
2274,LGHI,38.3432,26.1406,2024-05-06 23:50:00,,,,,11.0,1013.0,(1060.6708428277464+0j),7.0,3.0,210.0,10000.0,99999,,(46.170842827746355+0j),0.0,1116002103101102070301304000051000600007000080000
2275,LGPA,37.0103,25.1281,2024-05-06 23:50:00,,,,,14.0,1015.0,(1360.6644085386395+0j),10.0,5.0,50.0,10000.0,99999,,0j,0.0,11160005051014020100301504000051000600007000080000
2278,LKKB,50.1214,14.5436,2024-05-07 00:00:00,,,,,14.0,1009.0,(4066.4540678288313+0j),12.0,3.0,320.0,10000.0,99999,,0j,0.0,11160032031014020120300904000051000600007000080000
2279,LKKV,50.203,12.915,2024-05-07 00:00:00,61.0,36.0,^,green,11.0,1010.0,(9.785093013084326+0j),10.0,4.0,260.0,10000.0,99999,,(-1000.1149069869157+0j),0.8,11160026041011020100301004000051000600807610080000
2282,LOXZ,47.2028,14.7442,2024-05-06 23:50:00,,,,,14.0,1011.0,(8748.846555869937+0j),6.0,9.0,270.0,10000.0,99999,,(7738.646555869937+0j),0.0,1116002709101402060301104000051000600007000080000
2283,LQBK,44.9414,17.2975,2024-05-07 00:00:00,,,,,13.0,1013.0,(2277.9862845354896+0j),12.0,3.0,180.0,10000.0,99999,,(1265.6862845354897+0j),0.0,11160018031013020120301304000051000600007000080000
2292,LTCD,39.7102,39.527,2024-05-06 23:50:00,,,,,8.0,1012.0,(19.441614808915947+0j),3.0,2.0,,10000.0,99999,,(-995.358385191084+0j),0.0,1116003602100802030301204000051000600007000080000
2293,LTCF,40.5622,43.115,2024-05-06 23:50:00,,,,,4.0,1014.0,(30.055386649619003+0j),3.0,4.0,20.0,10000.0,99999,,(-982.844613350381+0j),0.0,1116000204100402030301404000051000600007000080000
2296,LTFH,41.2545,36.5671,2024-05-06 23:50:00,,,,,9.0,1016.0,(1086.442451172884+0j),7.0,5.0,220.0,10000.0,99999,,0j,0.0,1116002205100902070301604000051000600007000080000
2301,ULOO,57.7839,28.3956,2024-05-07 00:00:00,,,,,2.0,1011.0,(4591.334202180088+0j),-5.0,4.0,20.0,10000.0,99999,,(3580.2342021800882+0j),0.0,1116000204100202150301104000051000600007000080000
2324,EIME,53.3017,-6.45133,2024-05-07 00:00:00,,,,,11.0,1019.0,(2209.4362028931046+0j),8.0,4.0,330.0,10000.0,99999,,(1192.3362028931047+0j),0.0,1116003304101102080301904000051000600007000080000
2325,ENBR,60.2934,5.21814,2024-05-06 23:50:00,,,,,10.0,1018.0,(1676.186763655969+0j),10.0,9.0,180.0,10000.0,99999,,0j,0.0,11160018091010020100301804000051000600007000080000
2356,EBFN,51.0903,2.65278,2024-05-07 00:03:00,,,,,10.0,1013.0,(1083.2344518091843+0j),10.0,3.0,260.0,200.0,99999,,(71.53445180918425+0j),0.0,11100026031010020100301304000051000600007000080000
2395,ETIH,49.2181,11.8361,2024-05-06 23:55:00,,,,,11.1,29.88,(7531.39309685723+0j),9.0,0.0,0.0,10000.0,99999,,(6519.39309685723+0j),0.0,111600000010110209032984000051000600007000080000
2396,ETIK,49.4739,10.3881,2024-05-06 23:55:00,,,,,11.2,29.88,(5708.35544480437+0j),8.8,8.0,250.0,10000.0,99999,,(4696.35544480437+0j),0.0,111600250810111208132984000051000600007000080000
2398,LIBN,40.2392,18.1333,2024-05-06 23:55:00,,,,,15.0,1016.0,(1403.0280255421012+0j),15.0,4.0,140.0,10000.0,99999,,(386.72802554210125+0j),0.0,11160014041015020150301604000051000600007000080000
2399,LIBV,40.7678,16.9333,2024-05-06 23:55:00,10.0,36.0,+,yellow,14.0,1015.0,(5018.566899405443+0j),13.0,7.0,170.0,2500.0,99999,,(4002.766899405443+0j),0.0,11110017071014020130301504000051000600007100080000
2400,LIED,39.3542,8.97248,2024-05-06 23:55:00,,,,,16.0,1013.0,(1238.9213983870898+0j),15.0,3.0,50.0,10000.0,99999,,(224.92139838708977+0j),0.0,11160005031016020150301304000051000600007000080000
2401,LIPC,44.2242,12.3072,2024-05-06 23:55:00,,,,,13.0,1013.0,(1061.411505234855+0j),12.0,3.0,260.0,10000.0,99999,,(48.71150523485494+0j),0.0,11160026031013020120301304000051000600007000080000
2402,LIRE,41.6545,12.4452,2024-05-06 23:55:00,,,,,14.0,1015.0,(1118.7195199423513+0j),12.0,7.0,100.0,10000.0,99999,,(102.91951994235137+0j),0.0,11160010071014020120301504000051000600007000080000
2409,UMGG,52.527,31.0167,2024-05-07 00:00:00,,,,,12.0,1003.0,(2657.162747937504+0j),10.0,6.0,230.0,7000.0,99999,,(1652.6627479375038+0j),0.0,11140023061012020100300304000051000600007000080000
2432,LICT,37.9114,12.488,2024-05-06 23:55:00,,,,,17.0,1015.0,(1066.55062723045+0j),14.0,11.0,150.0,10000.0,99999,,(51.05062723044989+0j),0.0,11160015111017020140301504000051000600007000080000
2433,LIBA,41.5414,15.7181,2024-05-06 23:55:00,,,,,15.0,1014.0,(1472.0045904176066+0j),12.0,4.0,190.0,10000.0,99999,,(457.2045904176066+0j),0.0,11160019041015020120301404000051000600007000080000
2435,LIPI,45.9787,13.0493,2024-05-06 23:55:00,,,,,16.0,1013.0,(1430.0751770427435+0j),14.0,4.0,50.0,10000.0,99999,,(416.47517704274344+0j),0.0,11160005041016020140301304000051000600007000080000
2436,LIPS,45.6849,12.0829,2024-05-06 23:55:00,,,,,13.0,1013.0,(1404.3504067673027+0j),13.0,4.0,50.0,10000.0,99999,,(391.0504067673028+0j),0.0,11160005041013020130301304000051000600007000080000
2437,LIRS,42.7597,11.0719,2024-05-06 23:55:00,,,,,16.0,1014.0,(1051.0999551912323+0j),14.0,6.0,130.0,10000.0,99999,,(36.29995519123236+0j),0.0,11160013061016020140301404000051000600007000080000
2438,EGUN,52.3619,0.48641,2024-05-06 23:55:00,10.0,36.0,+,yellow,10.0,29.96,(1148.8624139252743+0j),8.0,3.0,40.0,9000.0,99999,,(135.86241392527427+0j),0.0,111500040310100208032994000051000600007100080000
2439,ETAR,49.4369,7.60028,2024-05-06 23:55:00,,,,,10.8,29.91,(4403.641031445099+0j),8.7,0.0,0.0,10000.0,99999,,(3390.6410314450986+0j),0.0,111600000010108208832994000051000600007000080000
2440,LICZ,37.4017,14.9224,2024-05-06 23:55:00,,,,,16.0,1016.0,(1193.4577599340676+0j),16.0,6.0,260.0,10000.0,99999,,(176.45775993406755+0j),0.0,11160026061016020160301604000051000600007000080000
2459,LATI,41.4147,19.7206,2024-05-07 00:20:00,,,,,13.0,1017.0,(1376.4923168105263+0j),13.0,3.0,130.0,10000.0,99999,,(358.9923168105263+0j),0.0,11160013031013020130301704000051000600007000080000
2460,LGLR,39.65628,22.34,2024-05-06 23:50:00,,,,,11.0,1014.0,(1880.4077682250547+0j),11.0,0.0,0.0,10000.0,99999,,(865.2077682250547+0j),0.0,11160000001011020110301404000051000600007000080000
2461,LMML,35.8575,14.4775,2024-05-07 00:15:00,,,,,17.0,1016.0,(1700.24932368814+0j),16.0,8.0,160.0,10000.0,99999,,(682.8493236881401+0j),0.0,11160016081017020160301604000051000600007000080000
2462,LWSK,41.9616,21.6214,2024-05-07 00:20:00,,,,,12.0,1015.0,(3987.3848444021087+0j),10.0,2.0,140.0,10000.0,99999,,(2972.3848444021087+0j),0.0,11160014021012020100301504000051000600007000080000
2465,EHVK,51.6564,5.70861,2024-05-07 00:16:00,61.0,36.0,^,green,13.0,1013.0,(1212.2654467416896+0j),12.0,0.0,0.0,4800.0,99999,,(200.96544674168968+0j),1.0,11120000001013020120301304000051000601007610080000
2468,EVGA,56.7783,24.8539,2024-05-07 00:20:00,,,,,4.0,1010.0,(3199.992736088152+0j),4.0,3.0,10.0,10000.0,99999,,(2189.392736088152+0j),0.0,1116000103100402040301004000051000600007000080000
2502,EVVA,57.3578,21.5442,2024-05-07 00:20:00,,,,,6.0,1013.0,(1125.1160544689235+0j),4.0,5.0,40.0,10000.0,99999,,0j,0.0,1116000405100602040301304000051000600007000080000
2516,LSZC,46.97444,8.39694,2024-05-07 00:20:00,63.0,36.0,',green,11.0,1014.0,(7567.203777807098+0j),10.0,7.0,100.0,6000.0,99999,,(6553.103777807098+0j),0.0,11130010071011020100301404000051000600007630080000
2530,EKRS,55.4258,11.8067,2024-05-07 00:20:00,,,,,10.0,1015.0,(1437.3842047775256+0j),10.0,7.0,90.0,10000.0,99999,,(425.08420477752566+0j),0.0,11160009071010020100301504000051000600007000080000
2531,LSMA,46.9439,8.28417,2024-05-07 00:20:00,61.0,36.0,^,green,11.0,1014.0,(7498.45246858731+0j),11.0,5.0,30.0,6000.0,99999,,(6483.95246858731+0j),0.0,11130003051011020110301404000051000600007610080000
2532,LSMD,47.3986,8.64823,2024-05-07 00:20:00,53.0,36.0,V,green,11.0,1014.0,(7544.302757417404+0j),10.0,1.0,,7000.0,99999,,(6530.2027574174035+0j),0.0,11140036011011020100301404000051000600007530080000
2533,LSME,47.0924,8.30512,2024-05-07 00:20:00,61.0,36.0,^,green,11.0,1014.0,(7222.037060572768+0j),11.0,1.0,,10000.0,99999,,(6208.037060572768+0j),0.2,11160036011011020110301404000051000600207610080000
2534,LSMP,46.8432,6.91506,2024-05-07 00:20:00,61.0,36.0,^,green,10.0,1015.0,(8193.956956046275+0j),9.0,2.0,,10000.0,99999,,(7179.556956046275+0j),0.0,1116003602101002090301504000051000600007610080000
2624,LTCA,38.6069,39.2914,2024-05-06 23:50:00,,,,,9.0,1010.0,(15.389900734510425+0j),7.0,6.0,200.0,10000.0,99999,,(-996.0100992654895+0j),0.0,1116002006100902070301004000051000600007000080000
2626,EGCK,53.1042,-4.34028,2024-05-07 00:20:00,,,,,12.0,1018.0,(1020.9005882586533+0j),10.0,4.0,320.0,10000.0,99999,,(6.000588258653352+0j),0.0,11160032041012020100301804000051000600007000080000
2627,EGHQ,50.4406,-4.99541,2024-05-07 00:20:00,,,,,10.0,1017.0,(2678.0922043882156+0j),10.0,8.0,340.0,10000.0,99999,,(1662.8922043882155+0j),0.0,11160034081010020100301704000051000600007000080000
2665,ESOH,60.0201,13.5789,2024-05-07 00:20:00,,,,,5.0,1020.0,(5572.382190804153+0j),-2.0,4.0,90.0,10000.0,99999,,(4553.382190804153+0j),0.0,1116000904100502120302004000051000600007000080000
2673,ESNZ,63.1944,14.5003,2024-05-07 00:20:00,,,,,1.0,1017.0,(28.81137071912688+0j),-3.0,9.0,130.0,10000.0,99999,,(-990.6886292808731+0j),0.0,1116001309100102130301704000051000600007000080000
2685,ESCF,58.4023,15.5257,2024-05-07 00:20:00,,,,,3.0,1019.0,(5980.888078670483+0j),-3.0,9.0,30.0,10000.0,99999,,(4963.488078670483+0j),0.0,1116000309100302130301904000051000600007000080000
2687,ESIB,58.4264,12.7144,2024-05-07 00:20:00,,,,,7.0,1019.0,(2065.847644455156+0j),2.0,4.0,50.0,10000.0,99999,,(1049.0476444551562+0j),0.0,1116000504100702020301904000051000600007000080000
2688,ESMV,57.2922,14.1372,2024-05-07 00:20:00,,,,,1.0,1017.0,(21.280217494918624+0j),1.0,0.0,0.0,10000.0,99999,,(-994.7197825050814+0j),0.0,1116000000100102010301704000051000600007000080000
2690,ESPE,65.8753,20.1499,2024-05-07 00:20:00,,,,,-4.0,1020.0,(-52840932732.173416-55230029172.03578j),-6.0,3.0,320.0,10000.0,99999,,(-52840933751.173416-55230029172.03578j),0.0,1116003203110402160302004000051000600007000080000
2692,ESIA,58.5138,14.5071,2024-05-07 00:20:00,,,,,3.0,1019.0,(5980.888078670483+0j),-2.0,10.0,40.0,10000.0,99999,,(4964.288078670483+0j),0.0,1116000410100302120301904000051000600007000080000
2693,ESCM,59.8973,17.5886,2024-05-07 00:20:00,,,,,-2.0,1019.0,(176.36507501541988+0j),-3.0,5.0,320.0,10000.0,99999,,(-842.2349249845802+0j),0.0,1116003205110202130301904000051000600007000080000
2726,EFJO,62.6629,29.6075,2024-05-07 00:20:00,,,,,0.0,1014.0,(38.77603271303194+0j),-6.0,2.0,,10000.0,99999,,(-976.9239672869681+0j),0.0,1116003602100002160301404000051000600007000080000
2730,EFKT,67.701,24.8468,2024-05-07 00:20:00,,,,,-2.0,1019.0,(282.3108540574533+0j),-6.0,9.0,340.0,10000.0,99999,,(-737.6891459425467+0j),0.0,1116003409110202160301904000051000600007000080000
2732,EFLP,61.0446,28.1444,2024-05-07 00:20:00,,,,,3.0,1015.0,(6668.001727551001+0j),-7.0,5.0,20.0,10000.0,99999,,(5653.001727551001+0j),0.0,1116000205100302170301504000051000600007000080000
2733,EFMI,61.6866,27.2018,2024-05-07 00:20:00,,,,,1.0,1015.0,(15.588157585829492+0j),-6.0,2.0,,10000.0,99999,,(-999.4118424141705+0j),0.0,1116003602100102160301504000051000600007000080000
2734,EFSA,61.9431,28.9451,2024-05-07 00:20:00,,,,,0.0,1015.0,(38.81427337645702+0j),-4.0,4.0,310.0,10000.0,99999,,(-976.185726623543+0j),0.0,1116003104100002140301504000051000600007000080000
2735,EFSI,62.6921,22.8323,2024-05-07 00:20:00,,,,,-2.0,1018.0,(-742815470890.8168-776400377614.0739j),-7.0,5.0,340.0,10000.0,99999,,0j,0.0,1116003405110202170301804000051000600007000080000
2736,EFUT,60.8964,26.9384,2024-05-07 00:20:00,,,,,2.0,1015.0,(9.305359415260941+0j),-5.0,4.0,10.0,10000.0,99999,,(-1005.994640584739+0j),0.0,1116000104100202150301504000051000600007000080000
2831,EFET,68.3626,23.4243,2024-05-07 00:20:00,,,,,-4.0,1019.0,(831.0305993109718+0j),-8.0,8.0,350.0,10000.0,99999,,0j,0.0,1116003508110402180301904000051000600007000080000
2832,EFHA,61.856,24.7866,2024-05-07 00:20:00,,,,,-3.0,1016.0,(44626050.14894053+0j),-7.0,6.0,310.0,10000.0,99999,,(44625033.748940535+0j),0.0,1116003106110302170301604000051000600007000080000
2834,EFKS,65.9876,29.2394,2024-05-07 00:20:00,,,,,-2.0,1014.0,(139.39049443008926+0j),-5.0,5.0,350.0,10000.0,99999,,(-874.6095055699108+0j),0.0,1116003505110202150301404000051000600007000080000
2885,ESNV,64.5791,16.8336,2024-05-07 00:20:00,,,,,-4.0,1017.0,(440.13080746746476+0j),-5.0,2.0,80.0,10000.0,99999,,(-579.3691925325352+0j),0.0,1116000802110402150301704000051000600007000080000
2887,ESST,60.1576,12.9913,2024-05-07 00:20:00,,,,,6.0,1020.0,(4028.75023686124+0j),2.0,1.0,,10000.0,99999,,0j,0.0,1116003601100602020302004000051000600007000080000
2888,ESUP,67.2456,23.0689,2024-05-07 00:20:00,,,,,-1.0,1020.0,(100.90501299459248+0j),-7.0,7.0,350.0,10000.0,99999,,(-919.3949870054075+0j),0.0,1116003507110102170302004000051000600007000080000
2889,ESND,62.0478,14.4229,2024-05-07 00:20:00,,,,,4.0,1018.0,(14.472351553199335+0j),-4.0,2.0,,10000.0,99999,,(-1005.6276484468007+0j),0.0,1116003602100402140301804000051000600007000080000
2914,EVLA,56.5175,21.0969,2024-05-07 00:20:00,,,,,3.0,1012.0,(1203.4349169254351+0j),2.0,2.0,,8000.0,99999,,(193.8349169254351+0j),0.2,1114003602100302020301204000051000600207000080000
2916,EYKA,54.9639,24.0848,2024-05-07 00:20:00,,,,,6.0,1007.0,(2828.9697968652913+0j),5.0,9.0,30.0,10000.0,99999,,0j,0.0,1116000309100602050300704000051000600007000080000
2917,EYPA,55.9732,21.0939,2024-05-07 00:20:00,,,,,5.0,1011.0,(1249.6459086288278+0j),3.0,9.0,30.0,10000.0,99999,,(241.14590862882778+0j),0.4,1116000309100502030301104000051000600407000080000
2922,LIMZ,44.547,7.62322,2024-05-07 00:20:00,10.0,36.0,+,yellow,12.0,1013.0,(6097.739340274761+0j),12.0,2.0,,2700.0,99999,,0j,0.0,11110036021012020120301304000051000600007100080000
2925,LICB,36.9946,14.60718,2024-05-07 00:20:00,,,,,12.0,1016.0,(3315.6916298253805+0j),8.0,5.0,100.0,10000.0,99999,,(2297.99162982538+0j),0.0,1116001005101202080301604000051000600007000080000
2927,LIPO,45.4289,10.3306,2024-05-07 00:20:00,,,,,14.0,1013.0,(2031.2388946668182+0j),13.0,3.0,360.0,10000.0,99999,,0j,0.0,11160036031014020130301304000051000600007000080000
2961,EEKE,58.2299,22.5095,2024-05-07 00:20:00,,,,,6.0,1014.0,(1096.2140746601196+0j),-3.0,6.0,50.0,10000.0,99999,,(83.5140746601196+0j),0.0,1116000506100602130301404000051000600007000080000
2962,EETU,58.3075,26.6904,2024-05-07 00:20:00,,,,,4.0,1012.0,(3445.8887582455004+0j),-5.0,7.0,50.0,10000.0,99999,,(2434.2887582455005+0j),0.0,1116000507100402150301204000051000600007000080000
2963,EEPU,58.419,24.4728,2024-05-07 00:20:00,,,,,2.0,1014.0,(1950.46129377167+0j),-3.0,8.0,20.0,10000.0,99999,,0j,0.0,1116000208100202130301404000051000600007000080000
2992,EDBC,51.8564,11.4203,2024-05-07 00:20:00,,,,,10.0,1013.0,(3686.639418916027+0j),7.0,5.0,20.0,10000.0,99999,,(2676.139418916027+0j),0.0,1116000205101002070301304000051000600007000080000
3035,EDDE,50.9798,10.9581,2024-05-07 00:20:00,61.0,36.0,^,green,11.0,1011.0,(5490.873792331132+0j),11.0,8.0,10.0,6000.0,99999,,(4480.973792331132+0j),2.3,11130001081011020110301104000051000602207610080000
3037,EDDG,52.1346,7.68483,2024-05-07 00:20:00,,,,,13.0,1013.0,(1474.882825413128+0j),8.0,3.0,350.0,10000.0,99999,,(463.68282541312806+0j),0.0,1116003503101302080301304000051000600007000080000
3043,EDDP,51.4324,12.2416,2024-05-07 00:20:00,,,,,13.0,1011.0,(2507.8141223550647+0j),8.0,8.0,40.0,10000.0,99999,,(1497.8141223550647+0j),0.0,1116000408101302080301104000051000600007000080000
3044,EDDR,49.2146,7.10951,2024-05-07 00:20:00,,,,,9.0,1014.0,(6724.444655247579+0j),9.0,3.0,240.0,10000.0,99999,,(5711.54465524758+0j),0.0,1116002403100902090301404000051000600007000080000
3046,EDDV,52.4611,9.68508,2024-05-07 00:20:00,,,,,12.0,1013.0,(1594.9612270301661+0j),8.0,2.0,,10000.0,99999,,(583.5612270301662+0j),0.0,1116003602101202080301304000051000600007000080000
3130,EDDB,52.36217,13.50067,2024-05-07 00:20:00,,,,,10.0,1012.0,(1607.8792760343722+0j),7.0,6.0,30.0,10000.0,99999,,(597.2792760343722+0j),0.0,1116000306101002070301204000051000600007000080000
3131,EDDC,51.1328,13.7672,2024-05-07 00:20:00,,,,,11.0,1010.0,(4151.537787623549+0j),9.0,6.0,40.0,10000.0,99999,,(3141.7377876235487+0j),0.0,1116000406101102090301004000051000600007000080000
3179,EBOS,51.1989,2.86222,2024-05-07 00:20:00,45.0,36.0,N,yellow,9.0,1014.0,(1064.5748406805915+0j),9.0,4.0,190.0,200.0,99999,,(52.37484068059143+0j),0.0,1110001904100902090301404000051000600007450080000
3181,EDDF,50.0264,8.54313,2024-05-07 00:20:00,,,,,11.0,1012.0,(2383.8917906062566+0j),10.0,6.0,200.0,10000.0,99999,,(1371.7917906062567+0j),0.1,11160020061011020100301204000051000600107000080000
3182,EDDH,53.6304,9.98823,2024-05-07 00:20:00,,,,,9.0,1013.0,(1225.364306459655+0j),9.0,2.0,320.0,10000.0,99999,,(212.86430645965493+0j),0.0,1116003202100902090301304000051000600007000080000
3183,EDDK,50.8659,7.14274,2024-05-07 00:20:00,,,,,13.0,1012.0,(1934.7256466712481+0j),13.0,5.0,320.0,4200.0,99999,,(923.0256466712481+0j),1.2,11120032051013020130301204000051000601107000080000
3184,EDDL,51.2895,6.76678,2024-05-07 00:20:00,,,,,13.0,1013.0,(1434.8582136762313+0j),12.0,3.0,310.0,3700.0,99999,,(423.35821367623134+0j),1.2,11120031031013020120301304000051000601107000080000
3185,EDDM,48.3538,11.7861,2024-05-07 00:20:00,,,,,11.0,1013.0,(7614.583127167636+0j),10.0,7.0,240.0,10000.0,99999,,(6601.583127167636+0j),0.0,11160024071011020100301304000051000600007000080000
3186,EDDN,49.4987,11.0669,2024-05-07 00:20:00,,,,,12.0,1012.0,(5128.590773975985+0j),9.0,7.0,240.0,10000.0,99999,,(4117.490773975985+0j),0.0,1116002407101202090301204000051000600007000080000
3187,EDDS,48.6899,9.22196,2024-05-07 00:20:00,,,,,12.0,1013.0,(6136.787418698712+0j),9.0,3.0,,10000.0,99999,,(5123.687418698712+0j),0.0,1116003603101202090301304000051000600007000080000
3188,EDDW,53.0475,8.78667,2024-05-07 00:20:00,,,,,10.0,1013.0,(1061.9547964914134+0j),9.0,5.0,30.0,10000.0,99999,,(49.754796491413344+0j),0.0,1116000305101002090301304000051000600007000080000
3189,EDFM,49.47306,8.51417,2024-05-07 00:20:00,,,,,13.0,1013.0,(1957.0519664560454+0j),10.0,5.0,220.0,10000.0,99999,,(944.3519664560454+0j),0.2,11160022051013020100301304000051000600207000080000
3191,EDHL,53.8054,10.7192,2024-05-07 00:20:00,,,,,10.0,1014.0,(1204.572139292913+0j),9.0,1.0,,10000.0,99999,,(192.37213929291306+0j),0.0,1116003601101002090301404000051000600007000080000
3192,EDJA,47.9888,10.2395,2024-05-07 00:20:00,,,,,10.0,1014.0,(11.025310325444524+0j),9.0,4.0,230.0,10000.0,99999,,0j,0.0,1116002304101002090301404000051000600007000080000
3193,EDLN,51.23028,6.50444,2024-05-07 00:20:00,,,,,13.0,1013.0,(1368.0687097508487+0j),12.0,3.0,350.0,3000.0,99999,,(356.0687097508487+0j),2.1,11110035031013020120301304000051000602107000080000
3198,EDQM,50.28861,11.85639,2024-05-07 00:20:00,,,,,11.0,1010.0,(9.659610051927022+0j),11.0,6.0,210.0,5000.0,99999,,(-1000.8403899480729+0j),1.1,11130021061011020110301004000051000601107000080000
3199,EDTY,49.11833,9.78389,2024-05-07 00:20:00,,,,,11.0,1013.0,(6745.358237611536+0j),10.0,6.0,240.0,10000.0,99999,,(5732.258237611536+0j),0.0,11160024061011020100301304000051000600007000080000
3201,EDNY,47.6713,9.51149,2024-05-07 00:20:00,,,,,11.0,1014.0,(7069.08854324091+0j),11.0,0.0,0.0,10000.0,99999,,(6054.98854324091+0j),0.0,11160000001011020110301404000051000600007000080000
3202,EDVK,51.40833,9.3775,2024-05-07 00:20:00,,,,,12.0,1012.0,(4530.518518798459+0j),11.0,2.0,,9000.0,99999,,(3519.518518798459+0j),3.1,11150036021012020110301204000051000603107000080000
3203,EDWE,53.39111,7.2275,2024-05-07 00:20:00,,,,,8.0,1014.0,(1027.0290894551758+0j),7.0,4.0,360.0,6000.0,99999,,(14.429089455175813+0j),0.0,1113003604100802070301404000051000600007000080000
3206,EKBI,55.7403,9.15178,2024-05-07 00:20:00,,,,,10.0,1015.0,(2005.8067729338582+0j),9.0,5.0,90.0,10000.0,99999,,(992.7067729338581+0j),0.0,1116000905101002090301504000051000600007000080000
3207,EKCH,55.6179,12.656,2024-05-07 00:20:00,,,,,9.0,1016.0,(1082.4766710875597+0j),6.0,11.0,80.0,10000.0,99999,,(69.0766710875597+0j),0.0,1116000811100902060301604000051000600007000080000
3208,EKEB,55.5259,8.5534,2024-05-07 00:20:00,,,,,11.0,1014.0,(1338.3468329744217+0j),9.0,9.0,70.0,10000.0,99999,,(325.34683297442166+0j),0.0,1116000709101102090301404000051000600007000080000
3210,EKRK,55.5856,12.1314,2024-05-07 00:20:00,,,,,10.0,1016.0,(1572.7877310319614+0j),7.0,6.0,80.0,10000.0,99999,,(559.7877310319614+0j),0.0,1116000806101002070301604000051000600007000080000
3211,EKRN,55.0633,14.7596,2024-05-07 00:20:00,,,,,7.0,1014.0,(1284.8462486426126+0j),5.0,13.0,50.0,10000.0,99999,,(271.84624864261264+0j),0.0,1116000513100702050301404000051000600007000080000
3212,EKSB,54.9644,9.79173,2024-05-07 00:20:00,,,,,11.0,1014.0,(1090.7935549928259+0j),9.0,6.0,60.0,10000.0,99999,,(77.79355499282588+0j),0.0,1116000606101102090301404000051000600007000080000
3213,EKSP,55.2256,9.26393,2024-05-07 00:20:00,,,,,10.0,1014.0,(1549.1532111245465+0j),9.0,3.0,60.0,10000.0,99999,,(536.1532111245465+0j),0.0,1116000603101002090301404000051000600007000080000
3214,EKVD,55.4363,9.33092,2024-05-07 00:20:00,,,,,9.0,1015.0,(1624.678161792167+0j),8.0,6.0,80.0,10000.0,99999,,(611.678161792167+0j),0.0,1116000806100902080301504000051000600007000080000
3216,LOWG,46.9911,15.4396,2024-05-07 00:20:00,,,,,16.0,1009.0,(4201.896356081459+0j),8.0,4.0,300.0,10000.0,99999,,(3194.096356081459+0j),0.0,1116003004101602080300904000051000600007000080000
3217,LOWI,47.2602,11.344,2024-05-07 00:20:00,,,,,13.0,1013.0,(8183.496979426307+0j),9.0,5.0,90.0,10000.0,99999,,(7170.596979426307+0j),0.4,1116000905101302090301304000051000600407000080000
3218,LOWK,46.6425,14.3377,2024-05-07 00:20:00,,,,,15.0,1012.0,(5696.120173987928+0j),7.0,1.0,,10000.0,99999,,(4686.120173987928+0j),0.0,1116003601101502070301204000051000600007000080000
3219,LOWL,48.2332,14.1875,2024-05-07 00:20:00,,,,,13.0,1012.0,(4503.384979895521+0j),12.0,10.0,250.0,10000.0,99999,,(3491.184979895521+0j),5.0,11160025101013020120301204000051000605007000080000
3220,LOWS,47.7933,13.0043,2024-05-07 00:20:00,,,,,13.0,1014.0,(6257.625057164695+0j),10.0,4.0,240.0,10000.0,99999,,(5244.525057164695+0j),0.0,11160024041013020100301404000051000600007000080000
3222,EETN,59.4133,24.8328,2024-05-07 00:20:00,,,,,4.0,1015.0,(2374.9455130787437+0j),-1.0,5.0,20.0,10000.0,99999,,(1360.6455130787438+0j),0.0,1116000205100402110301504000051000600007000080000
3223,EFHK,60.3172,24.9633,2024-05-07 00:20:00,,,,,3.0,1015.0,(3707.6241059850063+0j),-4.0,5.0,360.0,10000.0,99999,,(2692.1241059850063+0j),0.0,1116003605100302140301504000051000600007000080000
3224,EFIV,68.6073,27.4053,2024-05-07 00:20:00,85.0,36.0,v,magenta,-3.0,1019.0,(26400483.56014745+0j),-6.0,7.0,20.0,10000.0,99999,,(26399465.56014745+0j),0.2,1116000207110302160301904000051000600207850080000
3225,EFJY,62.3995,25.6783,2024-05-07 00:20:00,,,,,1.0,1016.0,(19.195614598970444+0j),-7.0,3.0,360.0,10000.0,99999,,(-996.8043854010295+0j),0.0,1116003603100102170301604000051000600007000080000
3226,EFKE,65.7787,24.5821,2024-05-07 00:20:00,,,,,0.0,1019.0,(38.967236030157345+0j),-6.0,6.0,340.0,10000.0,99999,,(-979.0327639698427+0j),0.0,1116003406100002160301904000051000600007000080000
3227,EFKK,63.7212,23.1431,2024-05-07 00:20:00,,,,,-6.0,1019.0,(585.2566192781352+0j),-7.0,4.0,300.0,10000.0,99999,,(-433.7433807218648+0j),0.0,1116003004110602170301904000051000600007000080000
3229,EFMA,60.1222,19.8982,2024-05-07 00:20:00,,,,,2.0,1017.0,(1329.9450463948467+0j),-1.0,4.0,360.0,10000.0,99999,,(313.74504639484667+0j),0.0,1116003604100202110301704000051000600007000080000
3230,EFOU,64.9301,25.3546,2024-05-07 00:20:00,,,,,1.0,1018.0,(3074.7743626298916+0j),-5.0,6.0,340.0,10000.0,99999,,(2056.7743626298916+0j),0.0,1116003406100102150301804000051000600007000080000
3231,EFPO,61.4617,21.8,2024-05-07 00:20:00,,,,,1.0,1017.0,(2922.774446125681+0j),-6.0,6.0,10.0,10000.0,99999,,(1905.7744461256812+0j),0.0,1116000106100102160301704000051000600007000080000
3232,EFRO,66.5648,25.8304,2024-05-07 00:20:00,,,,,-2.0,1017.0,(284.5492331744352+0j),-6.0,4.0,320.0,10000.0,99999,,(-734.1507668255649+0j),0.0,1116003204110202160301704000051000600007000080000
3233,EFTP,61.4141,23.6044,2024-05-07 00:20:00,,,,,-3.0,1016.0,(-1802366.5501755537-1883856.9267776613j),-5.0,1.0,,10000.0,99999,,(-1803383.3501755537-1883856.9267776613j),0.0,1116003601110302150301604000051000600007000080000
3234,EFTU,60.5141,22.2628,2024-05-07 00:20:00,,,,,0.0,1016.0,(38.852514039882095+0j),-6.0,4.0,60.0,10000.0,99999,,(-976.1474859601179+0j),0.0,1116000604100002160301604000051000600007000080000
3235,EFVA,63.0507,21.7622,2024-05-07 00:20:00,,,,,-3.0,1019.0,(809.0674344981262+0j),-7.0,1.0,350.0,10000.0,99999,,(-210.13256550187384+0j),0.0,1116003501110302170301904000051000600007000080000
3237,ENCN,58.2042,8.08537,2024-05-07 00:20:00,,,,,9.0,1018.0,(1248.1889975789857+0j),5.0,8.0,40.0,10000.0,99999,,(231.2889975789857+0j),0.0,1116000408100902050301804000051000600007000080000
3239,ENHD,59.3453,5.20836,2024-05-07 00:20:00,,,,,10.0,1018.0,(1335.1368198742657+0j),8.0,3.0,220.0,10000.0,99999,,(318.1368198742657+0j),0.0,1116002203101002080301804000051000600007000080000
3240,ENKR,69.7258,29.8913,2024-05-07 00:20:00,71.0,36.0,h,magenta,-4.0,1020.0,(0.045239292944784584+0j),-5.0,4.0,350.0,10000.0,99999,,0j,0.0,1116003504110402150302004000051000600007710080000
3242,ENVA,63.4578,10.924,2024-05-07 00:20:00,,,,,5.0,1016.0,(1434.8089753600675+0j),1.0,6.0,90.0,10000.0,99999,,(419.3089753600675+0j),0.0,1116000906100502010301604000051000600007000080000
3243,ENZV,58.8767,5.63778,2024-05-07 00:20:00,,,,,10.0,1018.0,(1120.9907248741727+0j),9.0,4.0,360.0,10000.0,99999,,0j,0.0,1116003604101002090301804000051000600007000080000
3244,EVRA,56.9236,23.9711,2024-05-07 00:20:00,,,,,4.0,1011.0,(1341.428892066627+0j),4.0,3.0,350.0,10000.0,99999,,0j,0.0,1116003503100402040301104000051000600007000080000
3245,EYVI,54.6341,25.2858,2024-05-07 00:20:00,51.0,36.0,T,green,6.0,1005.0,(6157.134538148395+0j),6.0,9.0,30.0,6000.0,99999,,(5151.334538148395+0j),0.0,1113000309100602060300504000051000600007510080000
3246,LGAV,37.9364,23.9445,2024-05-07 00:20:00,,,,,13.0,1015.0,(1960.915840032464+0j),8.0,2.0,,10000.0,99999,,0j,0.0,1116003602101302080301504000051000600007000080000
3247,LGIR,35.3397,25.1803,2024-05-07 00:20:00,,,,,14.0,1016.0,(1317.5859594948429+0j),7.0,7.0,170.0,10000.0,99999,,(301.2859594948429+0j),0.0,1116001707101402070301604000051000600007000080000
3248,LGKO,36.7933,27.0917,2024-05-07 00:20:00,,,,,16.0,1014.0,(2050.890375252149+0j),10.0,5.0,350.0,10000.0,99999,,(1036.7903752521493+0j),0.0,11160035051016020100301404000051000600007000080000
3250,LGRP,36.4054,28.0862,2024-05-07 00:20:00,,,,,18.0,1012.0,(1044.884720560724+0j),11.0,10.0,230.0,10000.0,99999,,(32.08472056072401+0j),0.0,11160023101018020110301204000051000600007000080000
3251,LGSA,35.5317,24.1497,2024-05-07 00:20:00,,,,,15.0,1015.0,(2371.0355597660346+0j),10.0,6.0,280.0,10000.0,99999,,(1354.4355597660347+0j),0.0,11160028061015020100301504000051000600007000080000
3252,LGTS,40.5197,22.9709,2024-05-07 00:20:00,,,,,13.0,1015.0,(1074.4166850669321+0j),9.0,4.0,110.0,10000.0,99999,,(58.91668506693213+0j),0.0,1116001104101302090301504000051000600007000080000
3253,LIBD,41.1389,16.7606,2024-05-07 00:20:00,,,,,16.0,1013.0,(1425.1071581073484+0j),10.0,6.0,190.0,10000.0,99999,,(410.3071581073484+0j),0.0,11160019061016020100301304000051000600007000080000
3254,LIBP,42.4317,14.1811,2024-05-07 00:20:00,,,,,14.0,1012.0,(1133.4885154248502+0j),14.0,1.0,,10000.0,99999,,(119.08851542485024+0j),0.0,11160036011014020140301204000051000600007000080000
3255,LIBR,40.6576,17.947,2024-05-07 00:20:00,,,,,15.0,1015.0,(1126.129256080935+0j),14.0,7.0,200.0,10000.0,99999,,(109.92925608093492+0j),0.0,11160020071015020140301504000051000600007000080000
3256,LICA,38.9054,16.2423,2024-05-07 00:20:00,,,,,10.0,1015.0,(1154.0517879006516+0j),8.0,4.0,70.0,10000.0,99999,,(138.05178790065156+0j),0.0,1116000704101002080301504000051000600007000080000
3257,LICC,37.4668,15.0664,2024-05-07 00:20:00,,,,,14.0,1016.0,(1114.6590620964478+0j),10.0,4.0,220.0,10000.0,99999,,(97.25906209644779+0j),0.0,11160022041014020100301604000051000600007000080000
3258,LICJ,38.176,13.091,2024-05-07 00:20:00,,,,,18.0,1014.0,(1142.3705962711051+0j),10.0,2.0,,10000.0,99999,,(126.87059627110511+0j),0.0,11160036021018020100301404000051000600007000080000
3259,LICR,38.0712,15.6516,2024-05-07 00:20:00,,,,,14.0,1015.0,(1264.3401131222324+0j),12.0,2.0,20.0,10000.0,99999,,(247.7401131222324+0j),0.0,11160002021014020120301504000051000600007000080000
3260,LIEA,40.6321,8.29077,2024-05-07 00:20:00,,,,,16.0,1012.0,(1207.309039212954+0j),16.0,2.0,,10000.0,99999,,(193.50903921295412+0j),0.0,11160036021016020160301204000051000600007000080000
3261,LIEE,39.2515,9.05428,2024-05-07 00:20:00,,,,,17.0,1013.0,(1039.6181194620976+0j),15.0,4.0,110.0,10000.0,99999,,(25.21811946209766+0j),0.0,11160011041017020150301304000051000600007000080000
3265,LIMF,45.2008,7.64963,2024-05-07 00:20:00,,,,,12.0,1013.0,(4884.353603000435+0j),12.0,3.0,20.0,5000.0,99999,,(3870.553603000435+0j),2.0,11130002031012020120301304000051000602007000080000
3266,LIMJ,44.4133,8.8375,2024-05-07 00:20:00,61.0,36.0,^,green,16.0,1013.0,(1041.2915271638744+0j),14.0,6.0,70.0,10000.0,99999,,(27.791527163874434+0j),0.0,11160007061016020140301304000051000600007610080000
3267,LIML,45.4451,9.27674,2024-05-07 00:20:00,,,,,15.0,1013.0,(1950.0127254705135+0j),12.0,3.0,360.0,10000.0,99999,,(936.4127254705135+0j),0.0,11160036031015020120301304000051000600007000080000
3268,LIPE,44.5354,11.2887,2024-05-07 00:20:00,,,,,14.0,1012.0,(1334.4499169297774+0j),11.0,3.0,260.0,10000.0,99999,,(321.7499169297773+0j),0.0,11160026031014020110301204000051000600007000080000
3269,LIPH,45.6484,12.1944,2024-05-07 00:20:00,,,,,15.0,1013.0,(1152.9957877214388+0j),13.0,3.0,20.0,10000.0,99999,,(139.5957877214388+0j),0.0,11160002031015020130301304000051000600007000080000
3270,LIPQ,45.8275,13.4722,2024-05-07 00:20:00,,,,,14.0,1013.0,(1111.3677459682103+0j),13.0,2.0,350.0,10000.0,99999,,(97.56774596821037+0j),0.0,11160035021014020130301304000051000600007000080000
3271,LIPR,44.0203,12.6117,2024-05-07 00:20:00,,,,,17.0,1012.0,(1094.7528312128993+0j),10.0,5.0,230.0,10000.0,99999,,(81.45283121289935+0j),0.0,11160023051017020100301204000051000600007000080000
3273,LIPY,43.6163,13.3623,2024-05-07 00:20:00,,,,,16.0,1013.0,(1121.349793158623+0j),13.0,3.0,200.0,10000.0,99999,,(107.24979315862299+0j),0.0,11160020031016020130301304000051000600007000080000
3274,LIPZ,45.5053,12.3519,2024-05-07 00:20:00,,,,,15.0,1013.0,(1029.2087998482239+0j),15.0,6.0,40.0,9000.0,99999,,(15.708799848223862+0j),0.0,11150004061015020150301304000051000600007000080000
3277,LIRP,43.6839,10.3927,2024-05-07 00:15:00,,,,,14.0,1014.0,(1028.89619776714+0j),13.0,4.0,110.0,10000.0,99999,,(14.296197767139915+0j),0.0,11160011041014020130301404000051000600007000080000
3278,LIRQ,43.81,11.2051,2024-05-07 00:20:00,,,,,16.0,1014.0,(1340.552344294972+0j),10.0,2.0,,10000.0,99999,,(326.05234429497204+0j),0.0,11160036021016020100301404000051000600007000080000
3280,LICD,35.4979,12.6181,2024-05-07 00:20:00,,,,,18.0,1014.0,(1152.5085098629115+0j),18.0,13.0,140.0,10000.0,99999,,(137.4085098629115+0j),0.0,11160014131018020180301404000051000600007000080000
3281,LIMC,45.6306,8.72811,2024-05-07 00:20:00,,,,,12.0,1013.0,(3923.4949895992263+0j),10.0,8.0,360.0,10000.0,99999,,(2909.4949895992263+0j),0.0,11160036081012020100301304000051000600007000080000
3282,LIPX,45.3957,10.8885,2024-05-07 00:20:00,,,,,13.0,1013.0,(1726.5024159298928+0j),11.0,2.0,70.0,10000.0,99999,,(713.2024159298928+0j),0.0,11160007021013020110301304000051000600007000080000
3283,LIRZ,43.0959,12.5132,2024-05-07 00:20:00,,,,,15.0,1015.0,(3039.170803815175+0j),7.0,3.0,190.0,10000.0,99999,,(2024.5708038151752+0j),0.0,1116001903101502070301504000051000600007000080000
3285,ENAL,62.5625,6.1197,2024-05-07 00:20:00,,,,,8.0,1017.0,(1334.796034955164+0j),7.0,8.0,260.0,6000.0,99999,,(319.39603495516405+0j),0.0,1113002608100802070301704000051000600007000080000
3287,ENAT,69.9761,23.3717,2024-05-07 00:20:00,,,,,1.0,1023.0,(1357.3508967202367+0j),-3.0,8.0,50.0,10000.0,99999,,(335.1508967202367+0j),0.0,1116000508100102130302304000051000600007000080000
3288,ENBL,61.3911,5.75694,2024-05-07 00:20:00,,,,,11.0,1017.0,(5571.299554454359+0j),8.0,2.0,,10000.0,99999,,(4555.199554454359+0j),0.0,1116003602101102080301704000051000600007000080000
3289,ENBN,65.4611,12.2175,2024-05-07 00:20:00,,,,,6.0,1017.0,(1166.1230188469867+0j),-3.0,6.0,50.0,10000.0,99999,,0j,0.0,1116000506100602130301704000051000600007000080000
3290,ENBV,70.8714,29.0342,2024-05-07 00:20:00,,,,,-1.0,1022.0,(86.00027248600092+0j),-5.0,15.0,60.0,10000.0,99999,,(-934.9997275139991+0j),0.0,1116000615110102150302204000051000600007000080000
3291,ENDU,69.0558,18.5404,2024-05-07 00:20:00,,,,,-4.0,1021.0,(2.038546767343886+0j),-5.0,0.0,0.0,10000.0,99999,,0j,0.0,1116000000110402150302104000051000600007000080000
3292,ENEV,68.4913,16.6781,2024-05-07 00:20:00,,,,,-1.0,1020.0,(-0.15985852769043254-0.1670862093311526j),-4.0,5.0,30.0,10000.0,99999,,0j,0.0,1116000305110102140302004000051000600007000080000
3293,ENFL,61.5836,5.02472,2024-05-07 00:20:00,,,,,9.0,1017.0,(1164.079138422457+0j),7.0,0.0,0.0,10000.0,99999,,(148.07913842245694+0j),0.0,1116000000100902070301704000051000600007000080000
3294,ENHF,70.6797,23.6686,2024-05-07 00:20:00,16.0,36.0,1,,-1.0,1022.0,(608.6954165437693+0j),-3.0,5.0,60.0,10000.0,99999,,0j,0.0,1116000605110102130302204000051000600007160080000
3295,ENHV,71.0097,25.9836,2024-05-07 00:20:00,,,,,0.0,1023.0,(39.120198683857666+0j),-4.0,15.0,50.0,10000.0,99999,,(-982.8798013161423+0j),0.0,1116000515100002140302304000051000600007000080000
3296,ENKB,63.1118,7.82452,2024-05-07 00:20:00,10.0,36.0,+,yellow,7.0,1016.0,(2209.5051708642136+0j),6.0,10.0,270.0,1000.0,99999,,0j,0.0,1110002710100702060301604000051000600007100080000
3297,ENMH,71.0297,27.8267,2024-05-07 00:20:00,71.0,36.0,h,magenta,-2.0,1023.0,(448.56495196111115+0j),-4.0,6.0,80.0,10000.0,99999,,(-572.4350480388889+0j),0.0,1116000806110202140302304000051000600007710080000
3298,ENML,62.7447,7.2625,2024-05-07 00:20:00,,,,,9.0,1016.0,(1054.887453830616+0j),8.0,2.0,,10000.0,99999,,(40.887453830616096+0j),0.0,1116003602100902080301604000051000600007000080000
3299,ENMS,65.784,13.2149,2024-05-07 00:20:00,,,,,-1.0,1017.0,(1216.721446867215+0j),-4.0,3.0,,10000.0,99999,,0j,0.0,1116003603110102140301704000051000600007000080000
3300,ENNA,70.0688,24.9735,2024-05-07 00:20:00,,,,,-1.0,1023.0,(329.1478721390321+0j),-4.0,7.0,10.0,10000.0,99999,,(-691.8521278609679+0j),0.2,1116000107110102140302304000051000600207000080000
3301,ENNM,64.4722,11.5786,2024-05-07 00:20:00,,,,,3.0,1017.0,(1099.4573115673982+0j),-1.0,7.0,60.0,10000.0,99999,,(83.45731156739816+0j),0.0,1116000607100302110301704000051000600007000080000
3303,ENOV,62.18,6.0741,2024-05-07 00:20:00,,,,,8.0,1016.0,(2266.432743359213+0j),7.0,2.0,240.0,10000.0,99999,,0j,0.0,1116002402100802070301604000051000600007000080000
3304,ENRA,66.3639,14.3014,2024-05-07 00:20:00,,,,,-2.0,1018.0,(-21130.139250330907-22085.495975630052j),-4.0,0.0,0.0,10000.0,99999,,0j,0.0,1116000000110202140301804000051000600007000080000
3305,ENRM,64.8383,11.1461,2024-05-07 00:20:00,,,,,4.0,1016.0,(1140.5709670888832+0j),-2.0,4.0,70.0,10000.0,99999,,(124.57096708888321+0j),0.0,1116000704100402120301604000051000600007000080000
3306,ENRO,62.5784,11.3423,2024-05-07 00:20:00,,,,,2.0,1016.0,(27.266358376792816+0j),-1.0,2.0,130.0,10000.0,99999,,(-988.7336416232072+0j),0.0,1116001302100202110301604000051000600007000080000
3307,ENRS,67.5278,12.1033,2024-05-07 00:20:00,,,,,5.0,1018.0,(1067.1964292480345+0j),1.0,11.0,70.0,10000.0,99999,,0j,0.0,1116000711100502010301804000051000600007000080000
3308,ENRY,59.3789,10.7856,2024-05-07 00:20:00,,,,,9.0,1019.0,(1777.4786996670207+0j),1.0,8.0,130.0,10000.0,99999,,0j,0.0,1116001308100902010301904000051000600007000080000
3309,ENSD,61.83,6.10583,2024-05-07 00:20:00,,,,,12.0,1016.0,(1644.869706408028+0j),8.0,4.0,60.0,10000.0,99999,,0j,0.0,1116000604101202080301604000051000600007000080000
3310,ENSG,61.1561,7.13778,2024-05-07 00:20:00,,,,,10.0,1016.0,(1016+0j),6.0,3.0,230.0,10000.0,99999,,(2.3999999999999773+0j),0.0,1116002303101002060301604000051000600007000080000
3312,ENSK,68.57883,15.03342,2024-05-07 00:20:00,,,,,1.0,1019.0,(1431.0517901673813+0j),-4.0,9.0,60.0,10000.0,99999,,(412.05179016738134+0j),0.0,1116000609100102140301904000051000600007000080000
3313,ENSR,69.7868,20.9594,2024-05-07 00:20:00,,,,,-1.0,1023.0,(534.7967956787132+0j),-6.0,2.0,,10000.0,99999,,(-488.20320432128676+0j),0.0,1116003602110102160302304000051000600007000080000
3314,ENTO,59.1867,10.2586,2024-05-07 00:20:00,,,,,8.0,1019.0,(2526.7384823460748+0j),4.0,2.0,,10000.0,99999,,0j,0.0,1116003602100802040301904000051000600007000080000
3315,ENVD,70.0653,29.8447,2024-05-07 00:20:00,,,,,-4.0,1021.0,(209.62635443082533+0j),-7.0,10.0,20.0,10000.0,99999,,0j,0.0,1116000210110402170302104000051000600007000080000
3316,ESDF,56.2667,15.265,2024-05-07 00:20:00,,,,,3.0,1016.0,(3917.8404007253994+0j),3.0,5.0,10.0,10000.0,99999,,(2903.4404007253993+0j),0.0,1116000105100302030301604000051000600007000080000
3317,ESGG,57.6628,12.2798,2024-05-07 00:20:00,,,,,5.0,1017.0,(5892.260319365482+0j),2.0,5.0,60.0,10000.0,99999,,(4876.260319365482+0j),0.0,1116000605100502020301704000051000600007000080000
3318,ESGJ,57.7576,14.0687,2024-05-07 00:20:00,,,,,3.0,1017.0,(12.687679656843342+0j),3.0,4.0,10.0,10000.0,99999,,(-1004.0123203431567+0j),0.0,1116000104100302030301704000051000600007000080000
3319,ESGP,57.7747,11.8704,2024-05-07 00:20:00,,,,,4.0,1018.0,(1582.0885442068368+0j),3.0,2.0,60.0,10000.0,99999,,(566.0885442068368+0j),0.0,1116000602100402030301804000051000600007000080000
3320,ESKN,58.7886,16.9122,2024-05-07 00:20:00,,,,,1.0,1018.0,(7894.433321032917+0j),-3.0,7.0,340.0,10000.0,99999,,(6876.8333210329165+0j),0.0,1116003407100102130301804000051000600007000080000
3321,ESMK,55.9217,14.0855,2024-05-07 00:20:00,,,,,5.0,1016.0,(1597.6099620155298+0j),5.0,6.0,20.0,10000.0,99999,,(584.2099620155299+0j),0.0,1116000206100502050301604000051000600007000080000
3322,ESMS,55.53631,13.3762,2024-05-07 00:20:00,,,,,7.0,1015.0,(2420.3134777467585+0j),6.0,10.0,70.0,10000.0,99999,,(1407.3134777467585+0j),0.0,1116000710100702060301504000051000600007000080000
3323,ESNN,62.5281,17.4439,2024-05-07 00:20:00,,,,,-2.0,1021.0,(758.9735587333989+0j),-5.0,3.0,310.0,10000.0,99999,,(-261.92644126660105+0j),0.0,1116003103110202150302104000051000600007000080000
3324,ESNO,63.4083,18.99,2024-05-07 00:20:00,,,,,-5.0,1020.0,(0.04348327871902499+0j),-7.0,2.0,310.0,10000.0,99999,,(-1020.356516721281+0j),0.0,1116003102110502170302004000051000600007000080000
3325,ESNQ,67.822,20.3368,2024-05-07 00:20:00,,,,,-3.0,1019.0,(111.0901472804784+0j),-7.0,7.0,40.0,10000.0,99999,,(-906.9098527195216+0j),0.0,1116000407110302170301904000051000600007000080000
3326,ESNS,64.6248,21.0769,2024-05-07 00:20:00,,,,,-4.0,1020.0,(112.52445291881344+0j),-4.0,3.0,270.0,10000.0,99999,,(-907.4755470811865+0j),0.0,1116002703110402140302004000051000600007000080000
3327,ESNU,63.7918,20.2828,2024-05-07 00:20:00,,,,,-4.0,1020.0,(820.3763527394898+0j),-6.0,3.0,310.0,10000.0,99999,,(-199.6236472605102+0j),0.0,1116003103110402160302004000051000600007000080000
3328,ESOK,59.4447,13.3374,2024-05-07 00:20:00,,,,,5.0,1020.0,(4285.063278239098+0j),-3.0,7.0,90.0,10000.0,99999,,(3267.2632782390974+0j),0.0,1116000907100502130302004000051000600007000080000
3329,ESPA,65.5438,22.122,2024-05-07 00:20:00,,,,,-1.0,1020.0,(1.013152318744047+0j),-6.0,5.0,340.0,10000.0,99999,,(-1018.986847681256+0j),0.0,1116003405110102160302004000051000600007000080000
3331,ESSB,59.3544,17.9417,2024-05-07 00:20:00,,,,,0.0,1018.0,(38.92899536673225+0j),-2.0,4.0,310.0,10000.0,99999,,(-978.9710046332677+0j),0.0,1116003104100002120301804000051000600007000080000
3332,ESSD,60.422,15.5152,2024-05-07 00:20:00,,,,,-2.0,1020.0,(826.9180003851139+0j),-5.0,5.0,260.0,10000.0,99999,,(-192.08199961488606+0j),0.0,1116002605110202150302004000051000600007000080000
3333,ESSP,58.5863,16.2506,2024-05-07 00:20:00,,,,,3.0,1019.0,(1417.765907208958+0j),-3.0,3.0,350.0,10000.0,99999,,(400.865907208958+0j),0.0,1116003503100302130301904000051000600007000080000
3334,ESSV,57.6628,18.3462,2024-05-07 00:20:00,,,,,3.0,1015.0,(3451.863924761962+0j),1.0,13.0,20.0,10000.0,99999,,(2437.2639247619622+0j),0.0,1116000213100302010301504000051000600007000080000
3335,LSGC,47.0839,6.79284,2024-05-07 00:20:00,61.0,36.0,^,green,6.0,1014.0,(21.31873274358708+0j),6.0,0.0,0.0,10000.0,99999,,(-992.7812672564129+0j),0.9,1116000000100602060301404000051000600907610080000
3336,LSGG,46.2381,6.10895,2024-05-07 00:20:00,,,,,10.0,1014.0,(7918.238536678002+0j),10.0,1.0,,5000.0,99999,,(6903.738536678002+0j),0.3,11130036011010020100301404000051000600307000080000
3337,LSGS,46.2196,7.32676,2024-05-07 00:20:00,61.0,36.0,^,green,11.0,1014.0,(8066.789928846458+0j),10.0,5.0,260.0,7000.0,99999,,(7052.789928846458+0j),0.1,11140026051011020100301404000051000600107610080000
3338,LSZA,46.0043,8.91058,2024-05-07 00:20:00,,,,,11.0,1014.0,(4929.363381596881+0j),10.0,0.0,0.0,10000.0,99999,,(3914.7633815968807+0j),0.0,11160000001011020100301404000051000600007000080000
3339,LSZB,46.9141,7.49715,2024-05-07 00:20:00,61.0,36.0,^,green,10.0,1014.0,(9.196899091192087+0j),9.0,2.0,,10000.0,99999,,(-1005.1031009088078+0j),0.7,1116003602101002090301404000051000600707610080000
3340,LSZG,47.1816,7.41719,2024-05-07 00:20:00,,,,,10.0,1014.0,(7918.238536678002+0j),10.0,2.0,40.0,10000.0,99999,,(6903.738536678002+0j),0.2,11160004021010020100301404000051000600207000080000
3341,LSZH,47.4647,8.54917,2024-05-07 00:20:00,61.0,36.0,^,green,11.0,1014.0,(7295.963374988209+0j),10.0,1.0,,10000.0,99999,,(6281.363374988208+0j),0.0,11160036011011020100301404000051000600007610080000
3342,LSZL,46.1608,8.87861,2024-05-07 00:20:00,,,,,11.0,1015.0,(3678.0401672144244+0j),11.0,0.0,0.0,4200.0,99999,,(2662.4401672144245+0j),0.0,11120000001011020110301504000051000600007000080000
3343,LSZR,47.485,9.56077,2024-05-07 00:20:00,,,,,11.0,1014.0,(6784.769080971209+0j),11.0,1.0,,10000.0,99999,,(5770.769080971209+0j),0.0,11160036011011020110301404000051000600007000080000
3344,LSZS,46.5341,9.88411,2024-05-07 00:20:00,,,,,2.0,1015.0,(33.786858899913284+0j),2.0,2.0,,10000.0,99999,,(-981.2131411000867+0j),0.0,1116003602100202020301504000051000600007000080000
3345,EGAA,54.6575,-6.21583,2024-05-07 00:20:00,,,,,8.0,1019.0,(2419.7104709164464+0j),7.0,6.0,340.0,10000.0,99999,,(1402.5104709164464+0j),0.0,1116003406100802070301904000051000600007000080000
3346,EGBB,52.4539,-1.74803,2024-05-07 00:20:00,,,,,13.0,1016.0,(2028.1229772408146+0j),11.0,5.0,350.0,10000.0,99999,,(1014.6229772408146+0j),0.0,11160035051013020110301604000051000600007000080000
3348,EGFF,51.3967,-3.34333,2024-05-07 00:20:00,,,,,10.0,1016.0,(1888.1055619643416+0j),9.0,7.0,330.0,10000.0,99999,,(874.2055619643417+0j),0.0,1116003307101002090301604000051000600007000080000
3349,EGGD,51.3827,-2.71909,2024-05-07 00:20:00,,,,,11.0,1015.0,(3547.6504861066296+0j),11.0,2.0,,10000.0,99999,,(2534.1504861066296+0j),0.0,11160036021011020110301504000051000600007000080000
3352,EGJJ,49.2079,-2.19551,2024-05-07 00:20:00,,,,,11.0,1014.0,(2025.383809315424+0j),11.0,6.0,350.0,10000.0,99999,,(1012.283809315424+0j),0.0,11160035061011020110301404000051000600007000080000
3353,EGKK,51.1481,-0.19028,2024-05-07 00:20:00,10.0,36.0,+,yellow,12.0,1014.0,(1662.5930216357492+0j),12.0,6.0,30.0,5000.0,99999,,(650.0930216357492+0j),0.9,11130003061012020120301404000051000600907100080000
3354,EGLF,51.2758,-0.77633,2024-05-07 00:20:00,,,,,12.0,1015.0,(1792.0198779576765+0j),11.0,4.0,10.0,5000.0,99999,,(779.0198779576765+0j),0.0,11130001041012020110301504000051000600007000080000
3356,EGMD,50.9561,0.93917,2024-05-07 00:20:00,,,,,11.0,1014.0,(1055.3016610807167+0j),10.0,5.0,50.0,10000.0,99999,,0j,0.0,11160005051011020100301404000051000600007000080000
3357,EGNJ,53.5744,-0.35083,2024-05-07 00:20:00,,,,,12.0,1017.0,(1391.8909733097225+0j),10.0,5.0,50.0,6000.0,99999,,(378.39097330972254+0j),0.0,11130005051012020100301704000051000600007000080000
3358,EGCC,53.3537,-2.27495,2024-05-07 00:20:00,,,,,11.0,1017.0,(1950.1777783618409+0j),10.0,2.0,130.0,8000.0,99999,,(935.7777783618409+0j),0.0,11140013021011020100301704000051000600007000080000
3359,EGLL,51.4706,-0.46194,2024-05-07 00:20:00,61.0,36.0,^,green,12.0,1015.0,(1266.6013150619501+0j),10.0,3.0,10.0,10000.0,99999,,(254.10131506195012+0j),0.0,11160001031012020100301504000051000600007610080000
3360,EGNM,53.8659,-1.66057,2024-05-07 00:20:00,,,,,11.0,1017.0,(3830.673609686664+0j),10.0,6.0,20.0,4000.0,99999,,(2817.173609686664+0j),0.0,11120002061011020100301704000051000600007000080000
3362,EGNX,52.8311,-1.32806,2024-05-07 00:20:00,,,,,12.0,1016.0,(2043.6785476630455+0j),11.0,3.0,20.0,10000.0,99999,,(1030.7785476630456+0j),0.0,11160002031012020110301604000051000600007000080000
3363,EGPB,59.8789,-1.29556,2024-05-07 00:20:00,63.0,36.0,',green,9.0,1015.0,(1093.3150857598018+0j),9.0,5.0,320.0,4000.0,99999,,(79.31508575980183+0j),0.0,1112003205100902090301504000051000600007630080000
3371,EGAC,54.6181,-5.8725,2024-05-07 00:20:00,,,,,9.0,1018.0,(1076.678683055841+0j),7.0,6.0,10.0,10000.0,99999,,(59.378683055841066+0j),0.0,1116000106100902070301804000051000600007000080000
3372,EGGP,53.3336,-2.84972,2024-05-07 00:20:00,,,,,12.0,1017.0,(1259.5920880163405+0j),10.0,4.0,310.0,10000.0,99999,,0j,0.0,11160031041012020100301704000051000600007000080000
3373,EGGW,51.8747,-0.36833,2024-05-07 00:20:00,,,,,10.0,1015.0,(3346.986017288209+0j),10.0,3.0,20.0,10000.0,99999,,(2334.286017288209+0j),0.0,11160002031010020100301504000051000600007000080000
3374,EGLC,51.5053,0.05528,2024-05-07 00:20:00,61.0,36.0,^,green,12.0,1015.0,(1070.547499808694+0j),11.0,2.0,,7000.0,99999,,(59.2474998086941+0j),0.0,11140036021012020110301504000051000600007610080000
3375,EGNT,55.0375,-1.69167,2024-05-07 00:20:00,,,,,10.0,1018.0,(2097.468834031204+0j),10.0,8.0,20.0,7000.0,99999,,(1081.8688340312042+0j),0.0,11140002081010020100301804000051000600007000080000
3376,EGPC,58.4589,-3.09306,2024-05-07 00:20:00,,,,,9.0,1019.0,(1552.6758017265975+0j),7.0,12.0,300.0,10000.0,99999,,(535.9758017265974+0j),0.0,1116003012100902070301904000051000600007000080000
3377,EGPE,57.5425,-4.0475,2024-05-07 00:20:00,,,,,9.0,1020.0,(1143.0292430210272+0j),6.0,1.0,360.0,10000.0,99999,,(125.92924302102722+0j),0.0,1116003601100902060302004000051000600007000080000
3378,EGPF,55.8719,-4.43306,2024-05-07 00:20:00,,,,,12.0,1018.0,(1094.5529186566632+0j),10.0,6.0,60.0,10000.0,99999,,(79.25291865666327+0j),0.0,11160006061012020100301804000051000600007000080000
3379,EGPL,57.4811,-7.36278,2024-05-07 00:20:00,,,,,9.0,1021.0,(1095.7805246543403+0j),3.0,5.0,50.0,10000.0,99999,,(76.58052465434025+0j),0.0,1116000505100902030302104000051000600007000080000
3381,EGSS,51.885,0.235,2024-05-07 00:20:00,10.0,36.0,+,yellow,10.0,1015.0,(2471.6627478526675+0j),10.0,4.0,340.0,2700.0,99999,,(1459.2627478526674+0j),0.2,11110034041010020100301504000051000600207100080000
3383,EDMA,48.42528,10.93167,2024-05-07 00:20:00,,,,,11.0,1013.0,(7746.726543197868+0j),10.0,7.0,230.0,10000.0,99999,,(6734.226543197868+0j),0.0,11160023071011020100301304000051000600007000080000
3386,EDAC,50.98195,12.50639,2024-05-07 00:20:00,,,,,13.0,1010.0,(3161.561884220805+0j),13.0,4.0,10.0,10000.0,99999,,(2152.561884220805+0j),0.0,11160001041013020130301004000051000600007000080000
3388,EDGS,50.7077,8.08297,2024-05-07 00:20:00,,,,,10.0,1012.0,(10.517323881435566+0j),10.0,7.0,10.0,10000.0,99999,,(-1000.4826761185644+0j),2.4,11160001071010020100301204000051000602307000080000
3389,EDLV,51.6024,6.14217,2024-05-07 00:20:00,,,,,13.0,1013.0,(1311.3691442443424+0j),12.0,2.0,70.0,5000.0,99999,,0j,0.0,11130007021013020120301304000051000600007000080000
3390,EDSB,48.7794,8.0805,2024-05-07 00:20:00,,,,,10.0,1014.0,(2757.4632546153725+0j),10.0,5.0,220.0,10000.0,99999,,(1744.1632546153726+0j),0.0,11160022051010020100301404000051000600007000080000
3393,ENBS,70.6005,29.6914,2024-05-07 00:20:00,,,,,-4.0,1021.0,(-193111.94316367523-201843.11106802846j),-6.0,13.0,50.0,10000.0,99999,,(-194133.04316367523-201843.11106802846j),0.1,1116000513110402160302104000051000600107000080000
3394,ENHK,70.4867,22.1397,2024-05-07 00:20:00,,,,,0.0,1023.0,(39.120198683857666+0j),-3.0,6.0,80.0,10000.0,99999,,(-983.6798013161423+0j),0.0,1116000806100002130302304000051000600007000080000
3395,ENSS,70.3554,31.0449,2024-05-07 00:20:00,,,,,-2.0,1021.0,(413.2171564052941+0j),-5.0,11.0,30.0,10000.0,99999,,(-606.7828435947059+0j),0.0,1116000311110202150302104000051000600007000080000
3396,ESGT,58.3181,12.345,2024-05-07 00:20:00,,,,,7.0,1019.0,(1787.7551747093169+0j),4.0,4.0,360.0,10000.0,99999,,(771.5551747093168+0j),0.0,1116003604100702040301904000051000600007000080000
3398,ESMQ,56.6855,16.2876,2024-05-07 00:20:00,,,,,4.0,1016.0,(1168.041938805631+0j),2.0,6.0,360.0,10000.0,99999,,(154.04193880563093+0j),0.0,1116003606100402020301604000051000600007000080000
3399,ESMT,56.6911,12.8202,2024-05-07 00:20:00,,,,,5.0,1017.0,(1811.4170767787298+0j),3.0,5.0,70.0,10000.0,99999,,(797.2170767787297+0j),0.0,1116000705100502030301704000051000600007000080000
3400,ESNG,67.1324,20.8146,2024-05-07 00:20:00,,,,,-1.0,1020.0,(60.79817774277462+0j),-8.0,7.0,40.0,10000.0,99999,,(-958.2018222572253+0j),0.0,1116000407110102180302004000051000600007000080000
3401,ESNK,63.0486,17.7689,2024-05-07 00:20:00,,,,,-3.0,1021.0,(660.4432537452742+0j),-6.0,0.0,0.0,10000.0,99999,,(-359.5567462547258+0j),0.0,1116000000110302160302104000051000600007000080000
3402,ESNL,64.5483,18.7162,2024-05-07 00:20:00,,,,,-5.0,1018.0,(-125596841.8577246-131275450.31948528j),-6.0,0.0,0.0,10000.0,99999,,0j,0.0,1116000000110502160301804000051000600007000080000
3403,ESNX,65.5903,19.2819,2024-05-07 00:20:00,,,,,-3.0,1018.0,(151.2471868704386+0j),-7.0,0.0,0.0,10000.0,99999,,0j,0.0,1116000000110302170301804000051000600007000080000
3404,ESOE,59.2237,15.038,2024-05-07 00:20:00,,,,,0.0,1020.0,(39.00547669358242+0j),-5.0,8.0,10.0,10000.0,99999,,(-979.2945233064175+0j),0.0,1116000108100002150302004000051000600007000080000
3405,ESSL,58.4062,15.6805,2024-05-07 00:20:00,,,,,2.0,1019.0,(5102.46048253847+0j),-3.0,6.0,10.0,10000.0,99999,,(4085.2604825384706+0j),0.0,1116000106100202130301904000051000600007000080000
3406,ESTA,56.2961,12.8471,2024-05-07 00:20:00,,,,,6.0,1016.0,(1440.1317242714842+0j),4.0,8.0,70.0,10000.0,99999,,(426.4317242714842+0j),0.0,1116000708100602040301604000051000600007000080000
3407,ESTL,56.0828,13.2125,2024-05-07 00:20:00,,,,,7.0,1016.0,(1800.98448735794+0j),5.0,4.0,80.0,10000.0,99999,,(787.18448735794+0j),0.0,1116000804100702050301604000051000600007000080000
3408,ESUT,65.8061,15.0828,2024-05-07 00:20:00,,,,,-5.0,1017.0,(356.4925662538806+0j),-5.0,2.0,,10000.0,99999,,(-662.8074337461194+0j),0.0,1116003602110502150301704000051000600007000080000
3413,EGPD,57.2019,-2.19778,2024-05-07 00:20:00,,,,,9.0,1019.0,(1977.4105843996172+0j),7.0,10.0,320.0,10000.0,99999,,(961.3105843996171+0j),0.0,1116003210100902070301904000051000600007000080000
3414,EGPH,55.95,-3.3725,2024-05-07 00:20:00,,,,,10.0,1018.0,(1530.6501089094013+0j),10.0,2.0,,10000.0,99999,,(515.3501089094013+0j),0.0,11160036021010020100301804000051000600007000080000
3415,EGPK,55.5094,-4.58667,2024-05-07 00:20:00,,,,,11.0,1018.0,(1232.1731014094091+0j),10.0,6.0,110.0,10000.0,99999,,(216.97310140940908+0j),0.0,11160011061011020100301804000051000600007000080000
3416,EGPO,58.2156,-6.33111,2024-05-07 00:20:00,,,,,8.0,1021.0,(1137.0420666717353+0j),4.0,3.0,310.0,10000.0,99999,,(117.94206667173523+0j),0.0,1116003103100802040302104000051000600007000080000
3417,EKAH,56.3,10.619,2024-05-07 00:20:00,,,,,11.0,1016.0,(1288.3746070225386+0j),7.0,8.0,90.0,10000.0,99999,,(274.3746070225386+0j),0.0,1116000908101102070301604000051000600007000080000
3418,EKKA,56.2975,9.12463,2024-05-07 00:20:00,,,,,10.0,1015.0,(1671.2471170047236+0j),9.0,6.0,100.0,10000.0,99999,,(657.2471170047236+0j),0.0,1116001006101002090301504000051000600007000080000
3419,EKYT,57.09276,9.84924,2024-05-07 00:20:00,,,,,9.0,1017.0,(1055.925728883599+0j),6.0,9.0,90.0,10000.0,99999,,(40.92572888359905+0j),0.0,1116000909100902060301704000051000600007000080000
3420,ENAN,69.2925,16.1442,2024-05-07 00:20:00,,,,,1.0,1021.0,(2884.7622263381036+0j),-5.0,11.0,90.0,10000.0,99999,,0j,0.0,1116000911100102150302104000051000600007000080000
3421,ENBO,67.2692,14.3653,2024-05-07 00:20:00,,,,,3.0,1018.0,(1551.1520767003692+0j),-3.0,12.0,90.0,10000.0,99999,,(533.1520767003692+0j),0.0,1116000912100302130301804000051000600007000080000
3422,ENGM,60.1939,11.1004,2024-05-07 00:20:00,61.0,36.0,^,green,5.0,1019.0,(7711.087831768171+0j),3.0,4.0,50.0,10000.0,99999,,0j,0.0,1116000504100502030301904000051000600007610080000
3424,ENSH,68.2433,14.6692,2024-05-07 00:20:00,,,,,2.0,1019.0,(1532.1536944780746+0j),-3.0,3.0,20.0,10000.0,99999,,(513.1536944780746+0j),0.0,1116000203100202130301904000051000600007000080000
3425,ENTC,69.6833,18.9189,2024-05-07 00:20:00,,,,,-0.0,1023.0,(39.120198683857666+0j),-6.0,6.0,60.0,10000.0,99999,,(-983.5798013161424+0j),0.0,1116000606110002160302304000051000600007000080000
3426,ESSA,59.6519,17.9186,2024-05-07 00:20:00,,,,,-1.0,1018.0,(-21523605.05439687-22496751.544242118j),-3.0,7.0,340.0,10000.0,99999,,(-21524622.75439687-22496751.544242118j),0.0,1116003407110102130301804000051000600007000080000
3442,EBBR,50.9014,4.48444,2024-05-07 00:20:00,,,,,12.0,1013.0,(1598.41103299488+0j),11.0,2.0,230.0,10000.0,99999,,(586.1110329948801+0j),0.0,11160023021012020110301304000051000600007000080000
3443,EBCI,50.4592,4.45382,2024-05-07 00:20:00,,,,,9.0,1013.0,(4142.341013935199+0j),9.0,2.0,180.0,6000.0,99999,,(3130.141013935199+0j),0.0,1113001802100902090301304000051000600007000080000
3453,ELLX,49.6266,6.21152,2024-05-07 00:20:00,,,,,8.0,1013.0,(8557.06441388865+0j),7.0,5.0,280.0,10000.0,99999,,(7544.064413888649+0j),0.0,1116002805100802070301304000051000600007000080000
3454,ESKM,60.9579,14.5114,2024-05-07 00:20:00,,,,,3.0,1020.0,(11.24822470437029+0j),-5.0,2.0,130.0,10000.0,99999,,(-1008.9517752956298+0j),0.0,1116001302100302150302004000051000600007000080000
3463,EDAH,53.8787,14.1523,2024-05-07 00:20:00,,,,,8.0,1014.0,(1448.9429720451685+0j),7.0,6.0,40.0,10000.0,99999,,(436.9429720451685+0j),0.0,1116000406100802070301404000051000600007000080000
3464,EDFH,49.9487,7.26389,2024-05-07 00:20:00,,,,,8.0,1013.0,(10.946138991455397+0j),8.0,5.0,270.0,10000.0,99999,,(-1001.0538610085446+0j),0.0,1116002705100802080301304000051000600007000080000
3467,EDLP,51.6141,8.61632,2024-05-07 00:20:00,61.0,36.0,^,green,11.0,1012.0,(3896.1612437321187+0j),11.0,3.0,250.0,10000.0,99999,,(2885.1612437321187+0j),1.3,11160025031011020110301204000051000601307610080000
3468,EDLW,51.5183,7.61224,2024-05-07 00:20:00,,,,,12.0,1012.0,(2493.5596635065926+0j),11.0,0.0,0.0,10000.0,99999,,(1482.5596635065926+0j),0.9,11160000001012020110301204000051000600907000080000
3484,EBAW,51.1894,4.46028,2024-05-07 00:20:00,,,,,13.0,1013.0,(1119.0925471710175+0j),12.0,4.0,360.0,6000.0,99999,,(107.29254717101753+0j),0.0,11130036041013020120301304000051000600007000080000
3485,EBLG,50.6374,5.44322,2024-05-07 00:20:00,,,,,12.0,1013.0,(3457.7593820614875+0j),11.0,3.0,170.0,10000.0,99999,,(2445.7593820614875+0j),0.0,11160017031012020110301304000051000600007000080000
3486,EDHI,53.53528,9.83556,2024-05-07 00:20:00,,,,,11.0,1013.0,(1086.4741104674538+0j),9.0,6.0,40.0,10000.0,99999,,(73.47411046745378+0j),0.0,1116000406101102090301304000051000600007000080000
3487,EDHK,54.37944,10.14528,2024-05-07 00:20:00,,,,,10.0,1014.0,(1392.3784605455373+0j),8.0,6.0,60.0,10000.0,99999,,(380.6784605455373+0j),0.0,1116000606101002080301404000051000600007000080000
3488,EDMO,48.0814,11.2831,2024-05-07 00:20:00,,,,,10.0,1013.0,(10.443146952656647+0j),9.0,7.0,220.0,10000.0,99999,,(-1002.5568530473433+0j),0.0,1116002207101002090301304000051000600007000080000
3489,EDTL,48.3693,7.82772,2024-05-07 00:20:00,,,,,12.0,1014.0,(2844.5507930048857+0j),9.0,4.0,190.0,10000.0,99999,,(1831.0507930048857+0j),0.0,1116001904101202090301404000051000600007000080000
3491,EDXW,54.9132,8.34047,2024-05-07 00:20:00,,,,,11.0,1014.0,(1179.97047922981+0j),9.0,4.0,310.0,10000.0,99999,,(166.97047922981005+0j),0.0,1116003104101102090301404000051000600007000080000
3503,EGSH,52.6758,1.28278,2024-05-07 00:20:00,,,,,9.0,1016.0,(1507.2801402016717+0j),8.0,2.0,360.0,3300.0,99999,,(494.28014020167166+0j),0.0,1112003602100902080301604000051000600007000080000
3511,EDVE,52.3192,10.5561,2024-05-07 00:20:00,,,,,12.0,1012.0,(1994.6803378260445+0j),8.0,3.0,60.0,10000.0,99999,,(983.5803378260445+0j),0.0,1116000603101202080301204000051000600007000080000
3523,LGKR,39.6019,19.9117,2024-05-07 00:20:00,,,,,14.0,1016.0,(1030.9255788278247+0j),13.0,0.0,0.0,10000.0,99999,,(13.72557882782462+0j),0.0,11160000001014020130301604000051000600007000080000
3524,LIEO,40.8987,9.51763,2024-05-07 00:20:00,,,,,18.0,1013.0,(1085.213761308116+0j),16.0,2.0,,10000.0,99999,,(72.01376130811605+0j),0.0,11160036021018020160301304000051000600007000080000
3525,LIME,45.6739,9.70417,2024-05-07 00:20:00,61.0,36.0,^,green,14.0,1013.0,(3505.5901714795973+0j),11.0,3.0,360.0,10000.0,99999,,(2491.8901714795975+0j),0.0,11160036031014020110301304000051000600007610080000
3526,LIRA,41.7994,12.5949,2024-05-07 00:20:00,,,,,15.0,1015.0,(2176.295267447231+0j),9.0,3.0,70.0,10000.0,99999,,(1161.0952674472308+0j),0.0,1116000703101502090301504000051000600007000080000
3527,LIRF,41.8045,12.2508,2024-05-07 00:20:00,,,,,13.0,1015.0,(1055.3557678025836+0j),12.0,3.0,90.0,10000.0,99999,,(39.75576780258359+0j),0.0,11160009031013020120301504000051000600007000080000
3528,LOWW,48.1103,16.5697,2024-05-07 00:20:00,80.0,36.0,q,green,15.0,1009.0,(2705.1905190426914+0j),11.0,19.0,300.0,10000.0,99999,,(1698.0905190426915+0j),0.0,11160030191015020110300904000051000600007800080000
3532,EHLE,52.4603,5.52722,2024-05-07 00:25:00,,,,,11.0,1013.0,(972.4483398788799+0j),9.0,6.0,50.0,10000.0,99999,,(-39.55166012112011+0j),0.0,1116000506101102090301304000051000600007000080000
3536,ETHC,52.5912,10.0221,2024-05-07 00:20:00,,,,,12.0,1013.0,(1412.7154948044392+0j),8.0,4.0,360.0,10000.0,99999,,(401.4154948044393+0j),0.0,1116003604101202080301304000051000600007000080000
3537,ETHF,51.1146,9.286,2024-05-07 00:20:00,61.0,36.0,^,green,13.0,1011.0,(5975.326050406826+0j),12.0,2.0,360.0,8000.0,99999,,(4965.326050406826+0j),3.1,11140036021013020120301104000051000603107610080000
3538,ETHL,48.2203,9.91002,2024-05-07 00:20:00,,,,,11.0,1013.0,(8861.083937557121+0j),9.0,6.0,240.0,10000.0,99999,,(7848.183937557122+0j),0.0,1116002406101102090301304000051000600007000080000
3540,ETHS,52.9194,10.1975,2024-05-07 00:20:00,,,,,8.0,1013.0,(2271.3062732010217+0j),6.0,2.0,40.0,10000.0,99999,,(1259.7062732010218+0j),0.0,1116000402100802060301304000051000600007000080000
3542,ETNN,50.8312,6.65817,2024-05-07 00:20:00,,,,,13.0,1012.0,(2211.8998915145535+0j),12.0,3.0,270.0,6000.0,99999,,(1200.1998915145534+0j),0.4,11130027031013020120301204000051000600407000080000
3543,ETNW,52.4573,9.42717,2024-05-07 00:20:00,,,,,12.0,1012.0,(1607.188105695422+0j),8.0,5.0,40.0,10000.0,99999,,(595.7881056954221+0j),0.0,1116000405101202080301204000051000600007000080000
3546,LSMM,46.7433,8.11,2024-05-07 00:20:00,80.0,36.0,q,green,10.0,1014.0,(10.219896587035942+0j),10.0,0.0,0.0,5000.0,99999,,(-1004.080103412964+0j),0.6,11130000001010020100301404000051000600607800080000
3548,EFKI,64.2855,27.6924,2024-05-07 00:20:00,,,,,0.0,1016.0,(38.852514039882095+0j),-6.0,4.0,350.0,10000.0,99999,,(-976.1474859601179+0j),0.0,1116003504100002160301604000051000600007000080000
3549,EFKU,63.0071,27.7978,2024-05-07 00:20:00,,,,,1.0,1015.0,(15.393748071879859+0j),-6.0,6.0,330.0,10000.0,99999,,(-999.6062519281202+0j),0.0,1116003306100102160301504000051000600007000080000
3573,ETHN,49.39194,9.95889,2024-05-07 00:20:00,,,,,10.0,1012.0,(7542.680833148815+0j),9.0,9.0,260.0,10000.0,99999,,(6530.980833148815+0j),0.0,1116002609101002090301204000051000600007000080000
3574,ETMN,53.7677,8.6585,2024-05-07 00:20:00,42.0,36.0,K,yellow,9.0,1014.0,(1311.018167138884+0j),8.0,2.0,20.0,10000.0,99999,,(298.31816713888406+0j),0.0,1116000202100902080301404000051000600007420080000
3575,ETOU,50.0498,8.3254,2024-05-07 00:25:00,,,,,11.0,29.89,(2855.612640404261+0j),10.0,0.0,0.0,10000.0,99999,,(1843.6126404042611+0j),0.0,1116000000101102010032984000051000600007000080000
3599,EYSA,55.8939,23.395,2024-05-07 00:20:00,61.0,36.0,^,green,5.0,1010.0,(5193.4703774157615+0j),4.0,7.0,360.0,10000.0,99999,,0j,0.0,1116003607100502040301004000051000600007610080000
3607,LIRN,40.886,14.2908,2024-05-07 00:20:00,,,,,14.0,1015.0,(1842.5622526028812+0j),10.0,1.0,,10000.0,99999,,(826.0622526028812+0j),0.0,11160036011014020100301504000051000600007000080000
3615,ETHB,52.2785,9.08217,2024-05-07 00:20:00,,,,,11.0,1012.0,(1833.1730585426676+0j),8.0,1.0,320.0,10000.0,99999,,(822.0730585426676+0j),0.0,1116003201101102080301204000051000600007000080000
3616,ETSL,48.1855,10.8612,2024-05-07 00:20:00,,,,,11.0,1013.0,(9.1041916079051+0j),9.0,4.0,220.0,10000.0,99999,,(-1003.7958083920948+0j),0.0,1116002204101102090301304000051000600007000080000
3617,ETSN,48.711,11.2115,2024-05-07 00:20:00,,,,,12.0,1013.0,(6019.574248488287+0j),11.0,4.0,240.0,10000.0,99999,,(5007.374248488287+0j),0.0,11160024041012020110301304000051000600007000080000
3624,EHKD,52.9234,4.78062,2024-05-07 00:25:00,,,,,12.0,1014.0,(1022.6781440859136+0j),8.0,9.0,60.0,10000.0,99999,,(9.678144085913573+0j),0.0,1116000609101202080301404000051000600007000080000
3654,LTCS,37.44566,38.89559,2024-05-07 00:20:00,,,,,10.0,1010.0,(13.507323992426402+0j),4.0,4.0,300.0,10000.0,99999,,(-996.7926760075735+0j),0.0,1116003004101002040301004000051000600007000080000
3658,LTFM,41.27533,28.752,2024-05-07 00:20:00,,,,,10.0,1015.0,(2363.2208344375363+0j),7.0,6.0,190.0,10000.0,99999,,0j,0.0,1116001906101002070301504000051000600007000080000
3677,LTAZ,38.7719,34.5345,2024-05-07 00:20:00,,,,,2.0,1016.0,(30.4751136141954+0j),1.0,2.0,300.0,10000.0,99999,,0j,0.0,1116003002100202010301604000051000600007000080000
3678,LTBR,40.2552,29.5626,2024-05-07 00:20:00,,,,,4.0,1016.0,(10.307842488274462+0j),4.0,1.0,,10000.0,99999,,(-1005.6921575117256+0j),0.0,1116003601100402040301604000051000600007000080000
3680,LTFC,37.8554,30.3684,2024-05-07 00:20:00,,,,,4.0,1015.0,(23.753981415124212+0j),-1.0,3.0,300.0,10000.0,99999,,(-990.5460185848757+0j),0.0,1116003003100402110301504000051000600007000080000
3681,LTFJ,40.8986,29.3092,2024-05-07 00:20:00,,,,,11.0,1015.0,(2171.577584013563+0j),8.0,2.0,60.0,10000.0,99999,,(1155.077584013563+0j),0.0,1116000602101102080301504000051000600007000080000
3682,EGVN,51.75,-1.58362,2024-05-07 00:20:00,10.0,36.0,+,yellow,11.0,1015.0,(2072.3815049875243+0j),10.0,2.0,120.0,4000.0,99999,,(1059.4815049875242+0j),0.0,11120012021011020100301504000051000600007100080000
3689,LBGO,43.1514,25.7129,2024-05-07 00:30:00,,,,,11.0,1012.0,(2053.9902350684183+0j),10.0,4.0,110.0,10000.0,99999,,(1041.9902350684183+0j),0.0,11160011041011020100301204000051000600007000080000
3694,EHAM,52.3086,4.76389,2024-05-07 00:25:00,,,,,13.0,1013.0,(983.8930588996114+0j),10.0,8.0,50.0,10000.0,99999,,(-27.50694110038853+0j),0.0,11160005081013020100301304000051000600007000080000
3695,EHBK,50.9117,5.77014,2024-05-07 00:25:00,,,,,12.0,1012.0,(2298.021341181934+0j),12.0,3.0,180.0,6000.0,99999,,(1286.4213411819342+0j),0.0,11130018031012020120301204000051000600007000080000
3696,EHGG,53.1197,6.57944,2024-05-07 00:25:00,,,,,8.0,1014.0,(1088.7637591262899+0j),8.0,2.0,320.0,9000.0,99999,,(75.76375912628987+0j),0.0,1115003202100802080301404000051000600007000080000
3697,EHLW,53.2286,5.76056,2024-05-07 00:25:00,,,,,8.0,1014.0,(1027.0290894551758+0j),8.0,4.0,20.0,10000.0,99999,,(13.729089455175881+0j),0.0,1116000204100802080301404000051000600007000080000
3698,EHRD,51.9569,4.43722,2024-05-07 00:25:00,,,,,13.0,1013.0,(973.3998433392187+0j),11.0,5.0,60.0,10000.0,99999,,(-38.50015666078127+0j),0.0,11160006051013020110301304000051000600007000080000
3717,LFCK,43.5563,2.28918,2024-05-07 00:30:00,,,,,11.0,1019.0,(4345.6865754704+0j),9.0,7.0,270.0,10000.0,99999,,0j,0.0,1116002707101102090301904000051000600007000080000
3718,LFLP,45.9292,6.09876,2024-05-07 00:30:00,,,,,11.0,1015.0,(7784.79257223444+0j),11.0,1.0,250.0,3100.0,99999,,(6770.49257223444+0j),1.2,11110025011011020110301504000051000601107000080000
3723,LFQA,49.2087,4.15658,2024-05-07 00:30:00,,,,,7.0,1013.0,(2946.4726341148767+0j),7.0,3.0,80.0,10000.0,99999,,(1934.2726341148766+0j),0.0,1116000803100702070301304000051000600007000080000
3763,LFOV,48.0314,-0.74299,2024-05-07 00:30:00,,,,,10.0,1014.0,(2384.3342734464177+0j),9.0,5.0,300.0,9000.0,99999,,(1372.4342734464176+0j),0.2,1115003005101002090301404000051000600207000080000
3766,LFJR,47.5603,-0.31222,2024-05-07 00:30:00,,,,,11.0,1014.0,(1696.449872580566+0j),10.0,4.0,300.0,7000.0,99999,,(684.749872580566+0j),0.0,11140030041011020100301404000051000600007000080000
3787,LHKE,46.9175,19.7492,2024-05-07 00:15:00,,,,,18.0,1009.0,(1826.8654564669887+0j),8.0,7.0,240.0,10000.0,99999,,(818.0654564669887+0j),0.0,1116002407101802080300904000051000600007000080000
3788,LHPA,47.3636,17.5008,2024-05-07 00:15:00,,,,,16.0,1009.0,(2193.4658490672086+0j),9.0,2.0,,10000.0,99999,,(1185.8658490672087+0j),0.0,1116003602101602090300904000051000600007000080000
3790,LHPR,47.6244,17.8136,2024-05-07 00:15:00,,,,,16.0,1008.0,(2072.3705192599173+0j),10.0,17.0,280.0,10000.0,99999,,(1065.5705192599173+0j),0.0,11160028171016020100300804000051000600007000080000
3791,LHSM,46.6864,17.1591,2024-05-07 00:15:00,,,,,17.0,1009.0,(1962.9171207976779+0j),9.0,14.0,240.0,10000.0,99999,,0j,0.0,1116002414101702090300904000051000600007000080000
3792,LHSN,47.1229,20.2355,2024-05-07 00:15:00,,,,,17.0,1008.0,(1741.5904790424781+0j),8.0,8.0,220.0,10000.0,99999,,(732.3904790424781+0j),0.0,1116002208101702080300804000051000600007000080000
3793,EPBY,53.0968,17.9777,2024-05-07 00:30:00,,,,,10.0,1010.0,(1942.7671663800659+0j),7.0,5.0,310.0,10000.0,99999,,0j,0.0,1116003105101002070301004000051000600007000080000
3797,EPRA,51.38883,21.21167,2024-05-07 00:30:00,,,,,12.0,1008.0,(3289.583821716519+0j),11.0,5.0,260.0,10000.0,99999,,(2281.283821716519+0j),0.1,11160026051012020110300804000051000600107000080000
3799,EPSY,53.48194,20.93778,2024-05-07 00:30:00,,,,,8.0,1008.0,(3597.096625955654+0j),7.0,3.0,260.0,10000.0,99999,,(2589.496625955654+0j),0.0,1116002603100802070300804000051000600007000080000
3802,LTAC,40.1281,32.9951,2024-05-07 00:20:00,,,,,4.0,1015.0,(24.717348977611373+0j),1.0,3.0,10.0,10000.0,99999,,(-990.5826510223886+0j),0.0,1116000103100402010301504000051000600007000080000
3804,LTAI,36.8987,30.8005,2024-05-07 00:20:00,,,,,15.0,1012.0,(1453.075743569478+0j),4.0,8.0,340.0,10000.0,99999,,(439.67574356947796+0j),0.0,1116003408101502040301204000051000600007000080000
3805,LTAJ,36.9472,37.4787,2024-05-07 00:20:00,,,,,7.0,1010.0,(15.56611545843682+0j),4.0,0.0,0.0,10000.0,99999,,(-993.8338845415632+0j),0.0,1116000000100702040301004000051000600007000080000
3806,LTAP,40.8294,35.522,2024-05-07 00:20:00,,,,,2.0,1016.0,(25.865210277974928+0j),1.0,2.0,20.0,10000.0,99999,,(-992.3347897220251+0j),0.0,1116000202100202010301604000051000600007000080000
3807,LTAT,38.4353,38.091,2024-05-07 00:20:00,,,,,8.0,1011.0,(16.28837792194117+0j),5.0,2.0,,10000.0,99999,,(-996.0116220780587+0j),0.0,1116003602100802050301104000051000600007000080000
3809,LTBA,40.9769,28.8146,2024-05-07 00:20:00,,,,,13.0,1015.0,(1487.1072532801406+0j),10.0,5.0,90.0,10000.0,99999,,(470.60725328014064+0j),0.0,11160009051013020100301504000051000600007000080000
3811,LTBU,41.1382,27.9191,2024-05-07 00:20:00,,,,,10.0,1014.0,(3587.8101723402765+0j),6.0,0.0,0.0,10000.0,99999,,(2571.7101723402766+0j),0.0,1116000000101002060301404000051000600007000080000
3812,LTCE,39.9565,41.1702,2024-05-07 00:20:00,,,,,4.0,1012.0,(29.841752608616204+0j),3.0,7.0,80.0,10000.0,99999,,(-981.7582473913839+0j),0.0,1116000807100402030301204000051000600007000080000
3813,LTCG,40.9951,39.7897,2024-05-07 00:20:00,,,,,12.0,1016.0,(1335.1004737230112+0j),9.0,2.0,,10000.0,99999,,(317.90047372301115+0j),0.0,1116003602101202090301604000051000600007000080000
3815,LTFE,37.2506,27.6643,2024-05-07 00:20:00,,,,,11.0,1014.0,(1081.0649910800325+0j),6.0,3.0,140.0,10000.0,99999,,0j,0.0,1116001403101102060301404000051000600007000080000
3816,LTCR,37.2233,40.6317,2024-05-07 00:32:00,,,,,11.0,1008.0,(8656.170884295087+0j),8.0,3.0,270.0,10000.0,99999,,(7646.370884295086+0j),0.0,1116002703101102080300804000051000600007000080000
3818,LYBT,44.9353,20.2575,2024-05-07 00:30:00,,,,,14.0,1012.0,(1747.9635095173471+0j),12.0,2.0,,10000.0,99999,,(735.8635095173471+0j),0.0,11160036021014020120301204000051000600007000080000
3819,LYKV,43.8183,20.5872,2024-05-07 00:30:00,,,,,11.0,1013.0,(3839.030444116855+0j),9.0,0.0,0.0,10000.0,99999,,(2826.030444116855+0j),0.0,1116000000101102090301304000051000600007000080000
3823,LYVR,45.1469,21.3099,2024-05-07 00:30:00,,,,,12.0,1012.0,(1924.5536746578828+0j),12.0,1.0,,10000.0,99999,,(912.7536746578828+0j),0.0,11160036011012020120301204000051000600007000080000
3854,LFPM,48.6047,2.67112,2024-05-07 00:30:00,,,,,10.0,1013.0,(2251.6543039927806+0j),9.0,4.0,100.0,10000.0,99999,,(1239.6543039927806+0j),0.0,1116001004101002090301304000051000600007000080000
3903,LFRJ,48.5303,-4.15164,2024-05-07 00:30:00,,,,,12.0,1016.0,(2202.9314839444496+0j),11.0,9.0,320.0,10000.0,99999,,(1187.5314839444495+0j),0.0,11160032091012020110301604000051000600007000080000
3904,LFRL,48.2817,-4.44502,2024-05-07 00:30:00,,,,,12.0,1017.0,(1974.7668632632226+0j),11.0,8.0,320.0,10000.0,99999,,(959.1668632632226+0j),0.0,11160032081012020110301704000051000600007000080000
3918,LFBY,43.6892,-1.06889,2024-05-07 00:30:00,,,,,12.0,1019.0,(1352.0435618357+0j),11.0,4.0,250.0,10000.0,99999,,(333.0435618357001+0j),0.2,11160025041012020110301904000051000600207000080000
3925,LFLN,46.4125,4.01326,2024-05-07 00:30:00,,,,,10.0,1014.0,(4741.30733199497+0j),7.0,1.0,,10000.0,99999,,(3727.30733199497+0j),0.0,1116003601101002070301404000051000600007000080000
3974,EGXV,53.8758,-0.435,2024-05-07 00:20:00,,,,,12.0,1016.0,(1122.4067403018298+0j),11.0,5.0,360.0,10000.0,99999,,(107.90674030182981+0j),0.0,11160036051012020110301604000051000600007000080000
4013,EPLL,51.7219,19.3981,2024-05-07 00:30:00,,,,,9.0,1009.0,(4068.50545380229+0j),7.0,3.0,290.0,10000.0,99999,,(3059.60545380229+0j),0.0,1116002903100902070300904000051000600007000080000
4014,EPWR,51.1027,16.8858,2024-05-07 00:30:00,,,,,12.0,1010.0,(2406.1561027157554+0j),10.0,5.0,360.0,10000.0,99999,,(1396.8561027157555+0j),0.0,11160036051012020100301004000051000600007000080000
4016,LFBG,45.6583,-0.3175,2024-05-07 00:30:00,,,,,12.0,1016.0,(1328.6373324849208+0j),11.0,7.0,250.0,10000.0,99999,,(313.8373324849208+0j),0.0,11160025071012020110301604000051000600007000080000
4018,LFJL,48.9821,6.25132,2024-05-07 00:30:00,,,,,9.0,1014.0,(5637.500638704544+0j),8.0,8.0,180.0,10000.0,99999,,(4624.6006387045445+0j),0.0,1116001808100902080301404000051000600007000080000
4020,LFMO,44.1405,4.86672,2024-05-07 00:30:00,10.0,36.0,+,yellow,12.0,1014.0,(1645.1188928163424+0j),11.0,2.0,,5000.0,99999,,(630.4188928163423+0j),0.0,11130036021012020110301404000051000600007100080000
4021,LFMU,43.3235,3.3539,2024-05-07 00:30:00,,,,,12.0,1016.0,(1183.4189222415541+0j),9.0,6.0,230.0,10000.0,99999,,(167.41892224155413+0j),0.0,1116002306101202090301604000051000600007000080000
4022,LFOJ,47.9878,1.76056,2024-05-07 00:30:00,,,,,10.0,1012.0,(2771.4668601264093+0j),9.0,5.0,130.0,10000.0,99999,,(1760.4668601264093+0j),0.0,1116001305101002090301204000051000600007000080000
4023,LFOK,48.7761,4.18449,2024-05-07 00:30:00,,,,,10.0,1013.0,(3650.764921314954+0j),9.0,5.0,180.0,10000.0,99999,,0j,0.0,1116001805101002090301304000051000600007000080000
4024,LHDC,47.4889,21.6153,2024-05-07 00:15:00,,,,,14.0,1009.0,(2035.9840492085748+0j),10.0,7.0,190.0,10000.0,99999,,(1027.084049208575+0j),0.0,11160019071014020100300904000051000600007000080000
4025,LHPP,45.9909,18.241,2024-05-07 00:15:00,,,,,15.0,1011.0,(4053.554645080433+0j),9.0,8.0,240.0,10000.0,99999,,(3043.754645080433+0j),0.0,1116002408101502090301104000051000600007000080000
4028,LZPP,48.6252,17.8284,2024-05-07 00:30:00,,,,,14.0,1007.0,(2648.33319270617+0j),12.0,5.0,260.0,10000.0,99999,,0j,0.0,11160026051014020120300704000051000600007000080000
4029,LZZI,49.2315,18.6135,2024-05-07 00:30:00,81.0,36.0,r,green,16.0,1007.0,(3887.4145688109215+0j),13.0,4.0,,7000.0,99999,,0j,0.0,11140036041016020130300704000051000600007810080000
4030,EBBE,50.7586,4.76833,2024-05-07 00:25:00,,,,,12.0,1013.0,(2280.9569238288564+0j),11.0,1.0,,10000.0,99999,,(1268.9569238288564+0j),0.0,11160036011012020110301304000051000600007000080000
4031,EBCV,50.5758,3.831,2024-05-07 00:25:00,,,,,12.0,1013.0,(1633.0531846890967+0j),12.0,1.0,,7000.0,99999,,(621.4531846890967+0j),0.0,11140036011012020120301304000051000600007000080000
4032,EBDT,50.9992,5.06556,2024-05-07 00:25:00,,,,,12.0,1013.0,(1318.2822514265656+0j),12.0,3.0,260.0,9000.0,99999,,(306.88225142656563+0j),0.0,11150026031012020120301304000051000600007000080000
4033,EBFS,50.2433,4.64583,2024-05-07 00:25:00,,,,,8.0,1013.0,(6682.772104821047+0j),7.0,2.0,,10000.0,99999,,(5670.272104821047+0j),0.0,1116003602100802070301304000051000600007000080000
4034,EBLB,50.4817,6.18194,2024-05-07 00:25:00,,,,,9.0,1013.0,(10.824461024951239+0j),9.0,1.0,,7000.0,99999,,(-1002.1755389750488+0j),0.0,1114003601100902090301304000051000600007000080000
4037,LTAF,36.9822,35.2804,2024-05-07 00:20:00,,,,,12.0,1010.0,(1204.149359511961+0j),6.0,4.0,60.0,10000.0,99999,,(192.14935951196094+0j),0.0,1116000604101202060301004000051000600007000080000
4038,LTAU,38.7704,35.4954,2024-05-07 00:20:00,,,,,5.0,1015.0,(23.521633627382556+0j),3.0,4.0,270.0,10000.0,99999,,(-991.8783663726174+0j),0.0,1116002704100502030301504000051000600007000080000
4039,LTBJ,38.2924,27.157,2024-05-07 00:20:00,,,,,13.0,1013.0,(2320.8661280878205+0j),8.0,8.0,10.0,10000.0,99999,,(1305.7661280878206+0j),0.0,1116000108101302080301304000051000600007000080000
4040,LTBS,36.7131,28.7925,2024-05-07 00:20:00,,,,,14.0,1012.0,(1061.9147546212994+0j),6.0,3.0,40.0,10000.0,99999,,(49.41475462129938+0j),0.0,1116000403101402060301204000051000600007000080000
4041,LTCC,37.8939,40.201,2024-05-07 00:20:00,,,,,9.0,1009.0,(12.709375640553482+0j),9.0,5.0,260.0,10000.0,99999,,(-995.7906243594465+0j),0.2,1116002605100902090300904000051000600207000080000
4042,LTCJ,37.929,41.1166,2024-05-07 00:20:00,42.0,36.0,K,yellow,7.0,1009.0,(13.100261613958157+0j),7.0,2.0,,10000.0,99999,,(-997.1997383860418+0j),0.0,1116003602100702070300904000051000600007420080000
4045,LJCE,45.9,15.5302,2024-05-07 00:30:00,,,,,14.0,1011.0,(2539.155206850897+0j),9.0,11.0,280.0,10000.0,99999,,0j,0.0,1116002811101402090301104000051000600007000080000
4051,LFRV,47.7233,-2.71856,2024-05-07 00:30:00,,,,,9.0,1015.0,(3193.509391053532+0j),9.0,5.0,280.0,10000.0,99999,,(2179.509391053532+0j),0.0,1116002805100902090301504000051000600007000080000
4055,LFOZ,47.8969,2.16333,2024-05-07 00:30:00,,,,,10.0,1013.0,(2696.5480520010533+0j),9.0,3.0,150.0,10000.0,99999,,(1684.8480520010532+0j),0.0,1116001503101002090301304000051000600007000080000
4056,LFPT,49.0966,2.04083,2024-05-07 00:30:00,,,,,7.0,1013.0,(3031.291897576005+0j),7.0,2.0,,10000.0,99999,,(2019.5918975760048+0j),0.0,1116003602100702070301304000051000600007000080000
4070,LFAQ,49.9715,2.69766,2024-05-07 00:30:00,,,,,9.0,1013.0,(2737.470872944065+0j),8.0,6.0,20.0,10000.0,99999,,(1725.470872944065+0j),0.0,1116000206100902080301304000051000600007000080000
4071,LFBU,45.7292,0.22146,2024-05-07 00:30:00,,,,,12.0,1015.0,(2544.6503213736128+0j),10.0,6.0,230.0,10000.0,99999,,(1529.6503213736128+0j),0.5,11160023061012020100301504000051000600507000080000
4111,LECH,40.21417,0.07333,2024-05-07 00:30:00,,,,,14.0,1017.0,(5009.636400858734+0j),6.0,7.0,360.0,10000.0,99999,,(3993.6364008587343+0j),0.0,1116003607101402060301704000051000600007000080000
4117,LEMI,37.803,-1.125,2024-05-07 00:30:00,,,,,16.0,1015.0,(2700.0543831391565+0j),13.0,3.0,290.0,10000.0,99999,,0j,0.0,11160029031016020130301504000051000600007000080000
4130,UUDL,57.5607,40.1574,2024-05-07 00:30:00,,,,,-4.0,1011.0,(0.018871956058767396+0j),-6.0,2.0,90.0,10000.0,99999,,(-1012.8811280439412+0j),0.0,1116000902110402160301104000051000600007000080000
4133,UUMO,55.5117,37.5072,2024-05-07 00:30:00,61.0,36.0,^,green,1.0,1007.0,(21.295741055761077+0j),-0.0,5.0,70.0,7000.0,99999,,(-987.704258944239+0j),0.3,1114000705100102100300704000051000600307610080000
4136,URMG,43.3883,45.6986,2024-05-07 00:30:00,,,,,9.0,1015.0,(1015+0j),8.0,1.0,350.0,10000.0,99999,,(-2.7000000000000455+0j),0.0,1116003501100902080301504000051000600007000080000
4139,URMO,43.2051,44.6066,2024-05-07 00:30:00,61.0,36.0,^,green,9.0,1015.0,(10.06600549357494+0j),8.0,2.0,160.0,10000.0,99999,,(-1006.933994506425+0j),0.0,1116001602100902080301504000051000600007610080000
4141,URRP,47.50083,39.93361,2024-05-07 00:30:00,,,,,10.0,1013.0,(2159.82666268501+0j),1.0,2.0,200.0,10000.0,99999,,0j,0.0,1116002002101002010301304000051000600007000080000
4159,UWKS,56.0903,47.3473,2024-05-07 00:30:00,,,,,0.0,1012.0,(38.699551386181774+0j),0.0,1.0,90.0,10000.0,99999,,(-973.7004486138183+0j),0.0,1116000901100002000301204000051000600007000080000
4163,ULPB,61.8852,34.1547,2024-05-07 00:30:00,,,,,-2.0,1014.0,(2.7363518681178705e-05+0j),-5.0,1.0,210.0,10000.0,99999,,(-1014.2999726364812+0j),0.0,1116002101110202150301404000051000600007000080000
4167,UUBW,55.5533,38.15,2024-05-07 00:30:00,61.0,36.0,^,green,2.0,1007.0,(10.104427210507472+0j),-1.0,4.0,50.0,10000.0,99999,,(-999.7955727894926+0j),0.0,1116000504100202110300704000051000600007610080000
4168,UUOL,52.7028,39.5378,2024-05-07 00:30:00,,,,,12.0,1004.0,(3114.8197196349624+0j),11.0,4.0,210.0,10000.0,99999,,0j,0.0,11160021041012020110300404000051000600007000080000
4169,ULWC,59.27667,38.02833,2024-05-07 00:30:00,,,,,-5.0,1012.0,(3.876594880677383e-05+0j),-6.0,0.0,0.0,10000.0,99999,,(-1012.6999612340512+0j),0.0,1116000000110502160301204000051000600007000080000
4170,UUBC,54.55,36.36667,2024-05-07 00:30:00,61.0,36.0,^,green,7.0,1003.0,(5423.154613390926+0j),7.0,3.0,20.0,5000.0,99999,,0j,0.0,1113000203100702070300304000051000600007610080000
4171,UUOB,50.6438,36.5901,2024-05-07 00:30:00,80.0,36.0,q,green,14.0,1007.0,(3315.584657490959+0j),10.0,3.0,230.0,9000.0,99999,,(2308.184657490959+0j),0.0,11150023031014020100300704000051000600007800080000
4172,UUOK,51.7506,36.2956,2024-05-07 00:30:00,,,,,15.0,1005.0,(2973.1669027338953+0j),11.0,5.0,230.0,10000.0,99999,,(1967.2669027338952+0j),0.5,11160023051015020110300504000051000600507000080000
4175,UWPS,54.12513,45.21226,2024-05-07 00:30:00,61.0,36.0,^,green,5.0,1009.0,(7585.425304010556+0j),4.0,2.0,130.0,9000.0,99999,,(6572.225304010556+0j),0.0,1115001302100502040300904000051000600007610080000
4177,EGDR,50.0861,-5.25571,2024-05-07 00:20:00,,,,,11.0,1017.0,(1990.6488671041757+0j),10.0,6.0,320.0,10000.0,99999,,(975.1488671041757+0j),0.0,11160032061011020100301704000051000600007000080000
4189,EGWU,51.553,-0.41817,2024-05-07 00:20:00,,,,,12.0,1015.0,(1399.0133917980659+0j),11.0,6.0,20.0,6000.0,99999,,(386.6133917980659+0j),0.0,11130002061012020110301504000051000600007000080000
4216,EGXW,53.1662,-0.52381,2024-05-07 00:20:00,,,,,11.0,1016.0,(1844.3775848714554+0j),8.0,8.0,30.0,10000.0,99999,,(830.7775848714554+0j),0.0,1116000308101102080301604000051000600007000080000
4229,LQTZ,44.4587,18.7248,2024-05-07 00:30:00,,,,,10.0,1012.0,(4669.128777043498+0j),10.0,1.0,,10000.0,99999,,(3656.0287770434984+0j),0.0,11160036011010020100301204000051000600007000080000
4236,LEHC,42.0761,-0.31667,2024-05-07 00:30:00,,,,,10.0,1017.0,(9.666490793427617+0j),4.0,12.0,270.0,10000.0,99999,,(-1006.3335092065723+0j),0.0,1116002712101002040301704000051000600007000080000
4239,LESB,39.5989,2.70278,2024-05-07 00:30:00,,,,,16.0,1015.0,(1378.5023089525534+0j),13.0,9.0,60.0,10000.0,99999,,(364.50230895255345+0j),0.0,11160006091016020130301504000051000600007000080000
4241,LEBG,42.3576,-3.62076,2024-05-07 00:30:00,,,,,4.0,1021.0,(24.276822019443983+0j),3.0,4.0,50.0,10000.0,99999,,(-995.723177980556+0j),0.0,1116000504100402030302104000051000600007000080000
4261,LRBM,47.6584,23.47,2024-05-07 00:30:00,,,,,14.0,1010.0,(2864.1619785408943+0j),12.0,3.0,110.0,10000.0,99999,,(1853.0619785408944+0j),0.0,11160011031014020120301004000051000600007000080000
4271,LFMK,43.216,2.30632,2024-05-07 00:30:00,,,,,11.0,1018.0,(2698.37260410661+0j),8.0,8.0,270.0,10000.0,99999,,(1681.1726041066102+0j),0.0,1116002708101102080301804000051000600007000080000
4272,LFMY,43.6064,5.10925,2024-05-07 00:30:00,,,,,12.0,1014.0,(1638.1472349480866+0j),11.0,1.0,280.0,10000.0,99999,,(623.7472349480867+0j),0.0,11160028011012020110301404000051000600007000080000
4304,LRCL,46.7852,23.6862,2024-05-07 00:30:00,,,,,12.0,1011.0,(5079.864963933261+0j),10.0,3.0,250.0,10000.0,99999,,(4068.264963933261+0j),0.0,11160025031012020100301104000051000600007000080000
4305,LRSM,47.7033,22.8857,2024-05-07 00:30:00,,,,,17.0,1009.0,(1955.1175941561798+0j),10.0,7.0,190.0,10000.0,99999,,(945.3175941561799+0j),0.0,11160019071017020100300904000051000600007000080000
4307,LUKK,46.9277,28.931,2024-05-07 00:30:00,,,,,11.0,1011.0,(2531.7385185558983+0j),8.0,7.0,200.0,10000.0,99999,,(1519.7385185558983+0j),0.0,1116002007101102080301104000051000600007000080000
4335,LQMO,43.2829,17.8459,2024-05-07 00:30:00,,,,,12.0,1015.0,(1505.7965967565913+0j),11.0,2.0,,10000.0,99999,,(489.3965967565913+0j),0.0,11160036021012020110301504000051000600007000080000
4339,LRSB,45.7856,24.0913,2024-05-07 00:30:00,,,,,11.0,1012.0,(7648.095432764544+0j),9.0,3.0,80.0,10000.0,99999,,(6636.195432764544+0j),0.0,1116000803101102090301204000051000600007000080000
4341,ETIC,49.6987,11.9402,2024-05-07 00:30:00,51.0,36.0,T,green,11.0,29.85,(7160.714514909638+0j),10.0,0.0,0.0,10000.0,99999,,(6150.014514909638+0j),2.1,1116000000101102010032984000051000602107510080000
4343,GEML,35.2798,-2.95626,2024-05-07 00:30:00,,,,,20.0,1015.0,(1300.3441871418956+0j),11.0,11.0,270.0,10000.0,99999,,(284.84418714189565+0j),0.0,11160027111020020110301504000051000600007000080000
4344,EPGD,54.3776,18.4662,2024-05-07 00:30:00,53.0,36.0,V,green,8.0,1010.0,(3764.06312032435+0j),7.0,11.0,330.0,5000.0,99999,,(2754.76312032435+0j),0.0,1113003311100802070301004000051000600007530080000
4345,EPKK,50.0777,19.7848,2024-05-07 00:30:00,80.0,36.0,q,green,13.0,1008.0,(3742.3389233890866+0j),12.0,7.0,70.0,10000.0,99999,,(2733.638923389087+0j),1.7,11160007071013020120300804000051000601707800080000
4346,EPKT,50.4743,19.08,2024-05-07 00:30:00,,,,,12.0,1008.0,(4886.3506581172705+0j),10.0,3.0,330.0,10000.0,99999,,(3877.6506581172707+0j),0.0,11160033031012020100300804000051000600007000080000
4347,EPLB,51.24028,22.71361,2024-05-07 00:30:00,,,,,12.0,1008.0,(3331.4450062190786+0j),12.0,4.0,290.0,10000.0,99999,,0j,0.0,11160029041012020120300804000051000600007000080000
4348,EPMO,52.4511,20.6518,2024-05-07 00:30:00,,,,,9.0,1008.0,(2601.169884805267+0j),7.0,3.0,320.0,10000.0,99999,,(1593.469884805267+0j),0.0,1116003203100902070300804000051000600007000080000
4349,EPPO,52.421,16.8263,2024-05-07 00:30:00,,,,,9.0,1011.0,(2434.668922041592+0j),7.0,4.0,340.0,10000.0,99999,,(1424.668922041592+0j),0.0,1116003404100902070301104000051000600007000080000
4350,EPRZ,50.11,22.019,2024-05-07 00:30:00,,,,,14.0,1008.0,(3104.7513131419573+0j),13.0,5.0,320.0,10000.0,99999,,(2096.7513131419573+0j),0.7,11160032051014020130300804000051000600707000080000
4351,EPSC,53.5847,14.9022,2024-05-07 00:30:00,,,,,9.0,1013.0,(1672.626756094441+0j),7.0,5.0,350.0,10000.0,99999,,(661.2267560944409+0j),0.0,1116003505100902070301304000051000600007000080000
4352,EPWA,52.1657,20.9671,2024-05-07 00:30:00,,,,,10.0,1008.0,(2520.7769405978124+0j),7.0,5.0,300.0,10000.0,99999,,(1513.2769405978124+0j),0.0,1116003005101002070300804000051000600007000080000
4354,LBBG,42.5696,27.5152,2024-05-07 00:30:00,,,,,11.0,1013.0,(1473.4764939655317+0j),10.0,3.0,20.0,10000.0,99999,,(458.97649396553174+0j),0.0,11160002031011020100301304000051000600007000080000
4355,LBPD,42.0678,24.8508,2024-05-07 00:30:00,,,,,13.0,1014.0,(3009.1979030585576+0j),10.0,4.0,170.0,10000.0,99999,,(1994.4979030585575+0j),0.0,11160017041013020100301404000051000600007000080000
4356,LBSF,42.69669,23.41144,2024-05-07 00:30:00,,,,,11.0,1015.0,(8773.427408637002+0j),9.0,3.0,80.0,10000.0,99999,,(7759.427408637002+0j),0.0,1116000803101102090301504000051000600007000080000
4357,LBWN,43.2321,27.8251,2024-05-07 00:30:00,,,,,11.0,1013.0,(1834.984494371267+0j),10.0,6.0,90.0,10000.0,99999,,(819.5844943712669+0j),0.0,11160009061011020100301304000051000600007000080000
4358,LHBP,47.4369,19.2556,2024-05-07 00:30:00,,,,,16.0,1008.0,(2274.5042339943675+0j),8.0,7.0,230.0,10000.0,99999,,(1266.0042339943675+0j),0.0,1116002307101602080300804000051000600007000080000
4359,LRAR,46.1766,21.262,2024-05-07 00:30:00,,,,,14.0,1011.0,(2017.6512495631039+0j),10.0,3.0,180.0,10000.0,99999,,(1006.6512495631039+0j),0.0,11160018031014020100301104000051000600007000080000
4360,LRBS,44.5032,26.1021,2024-05-07 00:30:00,,,,,12.0,1011.0,(2000.1288747947935+0j),10.0,3.0,290.0,10000.0,99999,,(988.0288747947935+0j),0.0,11160029031012020100301104000051000600007000080000
4362,LROP,44.5722,26.1022,2024-05-07 00:30:00,,,,,12.0,1011.0,(2063.533138318002+0j),11.0,3.0,240.0,10000.0,99999,,(1050.233138318002+0j),0.0,11160024031012020110301104000051000600007000080000
4363,LRTC,45.0625,28.7143,2024-05-07 00:30:00,,,,,11.0,1012.0,(1716.1883060196828+0j),8.0,8.0,110.0,8000.0,99999,,(702.8883060196829+0j),0.0,1114001108101102080301204000051000600007000080000
4364,LRTM,46.4677,24.4125,2024-05-07 00:30:00,,,,,11.0,1011.0,(5143.367431660293+0j),9.0,0.0,0.0,10000.0,99999,,(4131.067431660293+0j),0.0,1116000000101102090301104000051000600007000080000
4365,LRTR,45.8099,21.3379,2024-05-07 00:30:00,,,,,11.0,1011.0,(2313.6840945505787+0j),11.0,6.0,100.0,10000.0,99999,,(1302.8840945505788+0j),0.0,11160010061011020110301104000051000600007000080000
4366,LDDU,42.5614,18.2682,2024-05-07 00:30:00,,,,,15.0,1016.0,(2489.9343507319136+0j),11.0,9.0,80.0,10000.0,99999,,(1473.5343507319135+0j),0.0,11160008091015020110301604000051000600007000080000
4367,LDOS,45.4627,18.8102,2024-05-07 00:30:00,,,,,16.0,1011.0,(1712.085252223115+0j),12.0,6.0,210.0,10000.0,99999,,(701.485252223115+0j),0.0,11160021061016020120301104000051000600007000080000
4368,LDPL,44.8935,13.9222,2024-05-07 00:30:00,,,,,16.0,1013.0,(1673.211165128644+0j),16.0,6.0,100.0,10000.0,99999,,(658.7111651286441+0j),0.0,11160010061016020160301304000051000600007000080000
4369,LDRI,45.2169,14.5703,2024-05-07 00:30:00,,,,,16.0,1014.0,(1685.404672431816+0j),14.0,3.0,120.0,10000.0,99999,,(670.604672431816+0j),0.0,11160012031016020140301404000051000600007000080000
4370,LDSP,43.5389,16.298,2024-05-07 00:30:00,,,,,16.0,1014.0,(1191.1084336349847+0j),10.0,4.0,20.0,10000.0,99999,,(175.50843363498473+0j),0.0,11160002041016020100301404000051000600007000080000
4371,LDZA,45.7429,16.0688,2024-05-07 00:30:00,,,,,15.0,1011.0,(1946.1627497045304+0j),8.0,10.0,220.0,10000.0,99999,,(934.8627497045304+0j),0.0,1116002210101502080301104000051000600007000080000
4372,LDZD,44.1083,15.3467,2024-05-07 00:30:00,,,,,14.0,1014.0,(1825.2411181818409+0j),12.0,3.0,120.0,10000.0,99999,,(810.0411181818408+0j),0.0,11160012031014020120301404000051000600007000080000
4373,LJLJ,46.2237,14.4576,2024-05-07 00:30:00,,,,,14.0,1013.0,(5331.103196216042+0j),9.0,5.0,230.0,10000.0,99999,,(4318.503196216042+0j),0.0,1116002305101402090301304000051000600007000080000
4374,LJMB,46.4799,15.6861,2024-05-07 00:30:00,,,,,14.0,1010.0,(3838.34304730942+0j),8.0,7.0,200.0,10000.0,99999,,(2829.34304730942+0j),0.0,1116002007101402080301004000051000600007000080000
4375,LJPZ,45.4734,13.615,2024-05-07 00:30:00,,,,,16.0,1013.0,(1028.192525800276+0j),13.0,1.0,,10000.0,99999,,(14.692525800275916+0j),0.0,11160036011016020130301304000051000600007000080000
4376,LKMT,49.6963,18.1111,2024-05-07 00:30:00,,,,,13.0,1009.0,(3955.552475639405+0j),12.0,5.0,360.0,10000.0,99999,,(2947.652475639405+0j),0.4,11160036051013020120300904000051000600407000080000
4377,LKPR,50.1008,14.26,2024-05-07 00:30:00,61.0,36.0,^,green,12.0,1010.0,(5993.082531444673+0j),12.0,4.0,290.0,7000.0,99999,,(4983.382531444673+0j),0.4,11140029041012020120301004000051000600407610080000
4378,LKTB,49.1513,16.6944,2024-05-07 00:30:00,,,,,14.0,1009.0,(3477.2635380027164+0j),13.0,3.0,250.0,10000.0,99999,,(2470.1635380027165+0j),0.0,11160025031014020130300904000051000600007000080000
4379,LQSA,43.8246,18.3315,2024-05-07 00:30:00,,,,,10.0,1015.0,(9.366670354139226+0j),9.0,1.0,,10000.0,99999,,(-1005.9333296458607+0j),0.0,1116003601101002090301504000051000600007000080000
4380,LYBE,44.8184,20.3091,2024-05-07 00:30:00,,,,,16.0,1012.0,(1834.4050112047084+0j),12.0,5.0,180.0,10000.0,99999,,(822.4050112047084+0j),0.0,11160018051016020120301204000051000600007000080000
4381,LYNI,43.3373,21.8537,2024-05-07 00:30:00,,,,,13.0,1014.0,(3204.9425231235523+0j),11.0,1.0,,10000.0,99999,,(2191.742523123552+0j),0.0,11160036011013020110301404000051000600007000080000
4382,LYPG,42.3594,19.2519,2024-05-07 00:30:00,,,,,14.0,1017.0,(1391.421201063455+0j),12.0,3.0,340.0,10000.0,99999,,0j,0.0,11160034031014020120301704000051000600007000080000
4383,LYTV,42.4047,18.7233,2024-05-07 00:30:00,,,,,11.0,1016.0,(1079.9561643928494+0j),11.0,0.0,0.0,10000.0,99999,,(63.256164392849314+0j),0.0,11160000001011020110301604000051000600007000080000
4384,LZIB,48.1702,17.2127,2024-05-07 00:30:00,,,,,15.0,1007.0,(2186.457183063857+0j),11.0,18.0,280.0,10000.0,99999,,(1179.5571830638569+0j),0.0,11160028181015020110300704000051000600007000080000
4385,LZKZ,48.6631,21.2411,2024-05-07 00:30:00,,,,,15.0,1007.0,(3207.117925917666+0j),11.0,4.0,10.0,10000.0,99999,,0j,0.0,11160001041015020110300704000051000600007000080000
4386,LZTT,49.0736,20.2411,2024-05-07 00:30:00,,,,,10.0,1008.0,(12.122595556094799+0j),8.0,4.0,50.0,10000.0,99999,,(-996.4774044439052+0j),0.0,1116000504101002080300804000051000600007000080000
4391,LFAT,50.5174,1.62059,2024-05-07 00:30:00,,,,,11.0,1014.0,(1130.0706271463125+0j),10.0,3.0,20.0,10000.0,99999,,(118.07062714631252+0j),0.0,11160002031011020100301404000051000600007000080000
4393,LFBH,46.1792,-1.19528,2024-05-07 00:30:00,,,,,14.0,1015.0,(1205.2278103579463+0j),12.0,11.0,290.0,10000.0,99999,,(191.22781035794628+0j),0.0,11160029111014020120301504000051000600007000080000
4395,LFBO,43.6291,1.36382,2024-05-07 00:30:00,,,,,11.0,1018.0,(2993.2448393970235+0j),9.0,10.0,270.0,10000.0,99999,,(1975.1448393970236+0j),0.0,1116002710101102090301804000051000600007000080000
4396,LFBP,43.38,-0.41861,2024-05-07 00:30:00,,,,,11.0,1019.0,(3533.671165225008+0j),10.0,7.0,230.0,10000.0,99999,,(2514.671165225008+0j),0.2,11160023071011020100301904000051000600207000080000
4398,LFBZ,43.4684,-1.52332,2024-05-07 00:30:00,,,,,13.0,1020.0,(1758.2370019964007+0j),11.0,12.0,270.0,10000.0,99999,,(738.5370019964007+0j),0.1,11160027121013020110302004000051000600107000080000
4400,LFKB,42.5527,9.48373,2024-05-07 00:30:00,,,,,16.0,1013.0,(1069.9138329217135+0j),15.0,3.0,40.0,10000.0,99999,,(56.513832921713515+0j),0.0,11160004031016020150301304000051000600007000080000
4401,LFKC,42.5308,8.79319,2024-05-07 00:30:00,,,,,15.0,1012.0,(1539.2865883145096+0j),12.0,7.0,80.0,10000.0,99999,,(527.2865883145096+0j),0.0,11160008071015020120301204000051000600007000080000
4402,LFKJ,41.9236,8.80292,2024-05-07 00:30:00,,,,,17.0,1013.0,(1049.934143556201+0j),15.0,8.0,50.0,10000.0,99999,,(36.234143556200934+0j),0.0,11160005081017020150301304000051000600007000080000
4403,LFLB,45.6381,5.88023,2024-05-07 00:30:00,,,,,12.0,1014.0,(3974.8217623644823+0j),11.0,4.0,190.0,10000.0,99999,,(2960.2217623644824+0j),0.3,11160019041012020110301404000051000600307000080000
4404,LFLC,45.7867,3.16917,2024-05-07 00:30:00,,,,,10.0,1014.0,(6281.6207211804885+0j),6.0,6.0,230.0,10000.0,99999,,(5266.6207211804885+0j),0.0,1116002306101002060301404000051000600007000080000
4405,LFLL,45.7264,5.09083,2024-05-07 00:30:00,,,,,12.0,1014.0,(4156.54660198411+0j),10.0,4.0,190.0,10000.0,99999,,(3142.0466019841097+0j),0.3,11160019041012020100301404000051000600307000080000
4407,LFLY,45.7272,4.94427,2024-05-07 00:30:00,,,,,11.0,1014.0,(3716.4249279995174+0j),10.0,3.0,150.0,10000.0,99999,,(2701.9249279995174+0j),1.1,11160015031011020100301404000051000601107000080000
4409,LFMH,45.5406,4.29639,2024-05-07 00:30:00,,,,,9.0,1014.0,(8221.488546002509+0j),6.0,8.0,160.0,10000.0,99999,,(7207.488546002509+0j),0.0,1116001608100902060301404000051000600007000080000
4410,LFML,43.43927,5.22142,2024-05-07 00:30:00,,,,,14.0,1014.0,(1204.0403937960173+0j),12.0,7.0,310.0,10000.0,99999,,(189.74039379601732+0j),0.0,11160031071014020120301404000051000600007000080000
4411,LFMN,43.6584,7.21587,2024-05-07 00:30:00,,,,,16.0,1013.0,(1039.103455193805+0j),10.0,6.0,320.0,10000.0,99999,,(25.80345519380512+0j),0.0,11160032061016020100301304000051000600007000080000
4412,LFMP,42.7404,2.87067,2024-05-07 00:30:00,,,,,13.0,1016.0,(1429.9022128854617+0j),7.0,6.0,270.0,10000.0,99999,,(413.10221288546177+0j),0.0,1116002706101302070301604000051000600007000080000
4413,LFMT,43.5762,3.96301,2024-05-07 00:30:00,,,,,13.0,1015.0,(1060.7870322648535+0j),8.0,8.0,280.0,10000.0,99999,,(45.78703226485345+0j),0.0,1116002808101302080301504000051000600007000080000
4414,LFOB,49.4544,2.11278,2024-05-07 00:30:00,,,,,8.0,1013.0,(2954.403418750141+0j),8.0,3.0,340.0,10000.0,99999,,(1942.403418750141+0j),0.0,1116003403100802080301304000051000600007000080000
4419,LFPN,48.7519,2.10619,2024-05-07 00:30:00,,,,,9.0,1013.0,(3706.0200453128523+0j),8.0,1.0,320.0,10000.0,99999,,(2694.0200453128523+0j),0.0,1116003201100902080301304000051000600007000080000
4420,LFPO,48.7253,2.35944,2024-05-07 00:30:00,,,,,11.0,1013.0,(2080.5980137160986+0j),9.0,1.0,10.0,10000.0,99999,,(1068.6980137160986+0j),0.0,1116000101101102090301304000051000600007000080000
4423,LFRC,49.6501,-1.47028,2024-05-07 00:30:00,,,,,11.0,1014.0,(2802.670433050535+0j),11.0,6.0,300.0,10000.0,99999,,(1789.670433050535+0j),0.0,11160030061011020110301404000051000600007000080000
4424,LFRD,48.5877,-2.07996,2024-05-07 00:30:00,10.0,36.0,+,yellow,12.0,1014.0,(1722.4787321979975+0j),12.0,5.0,280.0,5000.0,99999,,(709.4787321979975+0j),0.0,11130028051012020120301404000051000600007100080000
4425,LFRG,49.3653,0.15431,2024-05-07 00:30:00,,,,,11.0,1013.0,(2888.92933046473+0j),10.0,2.0,,10000.0,99999,,(1877.0293304647298+0j),0.0,11160036021011020100301304000051000600007000080000
4427,LFRN,48.0695,-1.73479,2024-05-07 00:30:00,,,,,11.0,1014.0,(1434.8812396167948+0j),10.0,3.0,280.0,10000.0,99999,,(420.9812396167948+0j),0.0,11160028031011020100301404000051000600007000080000
4428,LFRS,47.1532,-1.61073,2024-05-07 00:30:00,,,,,10.0,1015.0,(1346.7362269511634+0j),10.0,4.0,280.0,10000.0,99999,,(332.83622695116344+0j),0.0,11160028041010020100301504000051000600007000080000
4430,LFRZ,47.3122,-2.14918,2024-05-07 00:30:00,,,,,12.0,1015.0,(1052.870385106454+0j),10.0,7.0,290.0,10000.0,99999,,(38.770385106454+0j),0.0,11160029071012020100301504000051000600007000080000
4431,LFSB,47.5896,7.52991,2024-05-07 00:30:00,61.0,36.0,^,green,11.0,1014.0,(4786.154587008968+0j),10.0,0.0,0.0,10000.0,99999,,(3771.7545870089675+0j),0.0,11160000001011020100301404000051000600007610080000
4432,LFSN,48.6921,6.23046,2024-05-07 00:30:00,,,,,9.0,1014.0,(4943.15873960222+0j),8.0,3.0,140.0,10000.0,99999,,(3929.45873960222+0j),0.0,1116001403100902080301404000051000600007000080000
4433,LFST,48.5383,7.62823,2024-05-07 00:30:00,,,,,11.0,1014.0,(3008.5044101956964+0j),10.0,0.0,0.0,10000.0,99999,,(1995.1044101956963+0j),0.0,11160000001011020100301404000051000600007000080000
4434,LFTW,43.7574,4.41635,2024-05-07 00:30:00,,,,,11.0,1014.0,(2156.9767147412845+0j),9.0,5.0,260.0,10000.0,99999,,(1142.7767147412844+0j),0.0,1116002605101102090301404000051000600007000080000
4439,LFKF,41.5006,9.09778,2024-05-07 00:30:00,,,,,17.0,1012.0,(1195.429171125081+0j),11.0,7.0,220.0,10000.0,99999,,(181.92917112508098+0j),0.0,11160022071017020110301204000051000600007000080000
4440,LFOE,49.0287,1.21986,2024-05-07 00:30:00,,,,,8.0,1013.0,(3614.939367155831+0j),8.0,3.0,300.0,10000.0,99999,,(2602.939367155831+0j),0.0,1116003003100802080301304000051000600007000080000
4441,LFOP,49.3842,1.1748,2024-05-07 00:30:00,,,,,9.0,1013.0,(3558.1777847983276+0j),8.0,5.0,280.0,6000.0,99999,,(2546.2777847983275+0j),0.0,1113002805100902080301304000051000600007000080000
4442,LFPB,48.9694,2.44139,2024-05-07 00:30:00,,,,,11.0,1013.0,(1787.8367476168721+0j),9.0,3.0,,10000.0,99999,,(775.9367476168721+0j),0.0,1116003603101102090301304000051000600007000080000
4443,LFPG,49.0128,2.55,2024-05-07 00:30:00,,,,,12.0,1013.0,(2366.363568515264+0j),8.0,3.0,200.0,10000.0,99999,,(1354.363568515264+0j),0.0,1116002003101202080301304000051000600007000080000
4444,LFPV,48.7744,2.20154,2024-05-07 00:30:00,,,,,10.0,1013.0,(3635.4050278948253+0j),9.0,2.0,60.0,10000.0,99999,,(2623.605027894825+0j),0.0,1116000602101002090301304000051000600007000080000
4445,LFQB,48.3221,4.0167,2024-05-07 00:30:00,,,,,10.0,1014.0,(2665.363127004531+0j),9.0,3.0,190.0,10000.0,99999,,(1652.1631270045311+0j),0.0,1116001903101002090301404000051000600007000080000
4446,LFQQ,50.5619,3.08944,2024-05-07 00:30:00,,,,,11.0,1013.0,(1554.7026060777469+0j),10.0,3.0,250.0,8000.0,99999,,(542.6026060777468+0j),0.0,11140025031011020100301304000051000600007000080000
4447,LFRH,47.7606,-3.44,2024-05-07 00:30:00,,,,,10.0,1016.0,(1630.919616465066+0j),9.0,5.0,270.0,10000.0,99999,,(615.9196164650659+0j),0.0,1116002705101002090301604000051000600007000080000
4448,LFSD,47.2689,5.09,2024-05-07 00:30:00,,,,,10.0,1014.0,(4374.690708353992+0j),9.0,2.0,,10000.0,99999,,(3360.490708353992+0j),0.0,1116003602101002090301404000051000600007000080000
4449,LFSI,48.636,4.89942,2024-05-07 00:30:00,,,,,11.0,1014.0,(2798.231063846869+0j),10.0,3.0,120.0,10000.0,99999,,(1785.231063846869+0j),0.0,11160012031011020100301404000051000600007000080000
4451,LFSO,48.5831,5.955,2024-05-07 00:30:00,,,,,9.0,1014.0,(6998.32720807225+0j),8.0,4.0,160.0,10000.0,99999,,(5985.32720807225+0j),0.0,1116001604100902080301404000051000600007000080000
4452,LFSX,47.7831,6.36406,2024-05-07 00:30:00,,,,,9.0,1014.0,(5887.6611704610505+0j),8.0,6.0,100.0,10000.0,99999,,(4873.86117046105+0j),0.0,1116001006100902080301404000051000600007000080000
4453,LFTH,43.0973,6.14603,2024-05-07 00:30:00,,,,,14.0,1013.0,(1030.3707808351046+0j),11.0,5.0,300.0,10000.0,99999,,(17.370780835104597+0j),0.0,11160030051014020110301304000051000600007000080000
4457,LPFR,37.0144,-7.96591,2024-05-07 00:30:00,,,,,18.0,1017.0,(1063.7853962551267+0j),9.0,9.0,350.0,10000.0,99999,,(47.18539625512665+0j),0.0,1116003509101802090301704000051000600007000080000
4458,LPMA,32.6979,-16.7745,2024-05-07 00:30:00,,,,,19.0,1018.0,(1394.1259761606843+0j),16.0,7.0,20.0,10000.0,99999,,(375.3259761606844+0j),0.0,11160002071019020160301804000051000600007000080000
4459,LPPR,41.2481,-8.68139,2024-05-07 00:30:00,,,,,10.0,1021.0,(1932.788980670631+0j),9.0,3.0,340.0,10000.0,99999,,(912.388980670631+0j),0.0,1116003403101002090302104000051000600007000080000
4460,LPPS,33.0734,-16.35,2024-05-07 00:30:00,,,,,19.0,1019.0,(1718.0551210427261+0j),15.0,11.0,80.0,10000.0,99999,,(700.0551210427261+0j),0.0,11160008111019020150301904000051000600007000080000
4462,ULAA,64.6003,40.7167,2024-05-07 00:30:00,,,,,-5.0,1013.0,(625.370217863403+0j),-8.0,1.0,20.0,10000.0,99999,,(-387.129782136597+0j),0.0,1116000201110502180301304000051000600007000080000
4463,UMMS,53.8825,28.0307,2024-05-07 00:30:00,,,,,7.0,1003.0,(5526.947970726288+0j),7.0,3.0,50.0,900.0,99999,,(4522.247970726288+0j),0.0,1110000503100702070300304000051000600007000080000
4466,ULMM,68.7817,32.7508,2024-05-07 00:30:00,85.0,36.0,v,magenta,-5.0,1018.0,(19.535299230716927+0j),-6.0,1.0,290.0,2800.0,99999,,(-998.2647007692831+0j),0.0,1111002901110502160301804000051000600007850080000
4467,UUDD,55.4088,37.9063,2024-05-07 00:30:00,61.0,36.0,^,green,2.0,1006.0,(14.284378265005582+0j),-0.0,5.0,50.0,8000.0,99999,,(-995.0156217349944+0j),0.3,1114000505100202100300604000051000600307610080000
4470,URKA,45.0021,37.3473,2024-05-07 00:30:00,,,,,5.0,1015.0,(2471.6627478526675+0j),4.0,3.0,120.0,10000.0,99999,,(1455.1627478526675+0j),0.0,1116001203100502040301504000051000600007000080000
4471,URKK,45.0347,39.1705,2024-05-07 00:30:00,,,,,6.0,1015.0,(1784.8374394489567+0j),4.0,2.0,30.0,10000.0,99999,,(769.1374394489567+0j),0.0,1116000302100602040301504000051000600007000080000
4472,URMM,44.2251,43.0819,2024-05-07 00:30:00,,,,,9.0,1015.0,(6708.150318143948+0j),8.0,1.0,160.0,10000.0,99999,,(5691.350318143948+0j),0.0,1116001601100902080301504000051000600007000080000
4473,URMT,45.1092,42.1128,2024-05-07 00:30:00,,,,,6.0,1015.0,(12.68899826927578+0j),5.0,2.0,190.0,10000.0,99999,,(-1004.5110017307243+0j),0.0,1116001902100602050301504000051000600007000080000
4474,URSS,43.4499,39.9566,2024-05-07 00:30:00,,,,,13.0,1014.0,(1262.6775909676262+0j),10.0,3.0,40.0,10000.0,99999,,(246.1775909676262+0j),0.0,11160004031013020100301404000051000600007000080000
4475,URWA,46.2833,48.0063,2024-05-07 00:30:00,,,,,7.0,1017.0,(717.3744391023154+0j),7.0,3.0,230.0,10000.0,99999,,(-299.4255608976846+0j),0.0,1116002303100702070301704000051000600007000080000
4476,URWI,46.3739,44.3309,2024-05-07 00:30:00,,,,,9.0,1016.0,(3506.2478023355816+0j),6.0,4.0,270.0,10000.0,99999,,(2489.7478023355816+0j),0.0,1116002704100902060301604000051000600007000080000
4477,URWW,48.7825,44.3455,2024-05-07 00:30:00,,,,,10.0,1013.0,(3119.4390163645508+0j),2.0,5.0,210.0,10000.0,99999,,(2104.839016364551+0j),0.0,1116002105101002020301304000051000600007000080000
4478,UUEE,55.9726,37.4146,2024-05-07 00:30:00,,,,,1.0,1008.0,(22.263795056841165+0j),-3.0,7.0,80.0,7000.0,99999,,(-988.4362049431588+0j),0.0,1114000807100102130300804000051000600007000080000
4479,UUOO,51.8142,39.2296,2024-05-07 00:30:00,61.0,36.0,^,green,13.0,1006.0,(2674.958395137591+0j),11.0,4.0,220.0,10000.0,99999,,(1668.4583951375912+0j),0.0,11160022041013020110300604000051000600007610080000
4481,UUYY,61.647,50.8451,2024-05-07 00:30:00,,,,,-3.0,1007.0,(-18229.33671115873-19053.539487033733j),-8.0,2.0,300.0,10000.0,99999,,(-19236.73671115873-19053.539487033733j),0.0,1116003002110302180300704000051000600007000080000
4483,UWKD,55.6062,49.2787,2024-05-07 00:30:00,,,,,-0.0,1012.0,(38.699551386181774+0j),-1.0,3.0,330.0,10000.0,99999,,(-972.9004486138183+0j),0.0,1116003303110002110301204000051000600007000080000
4484,UWKE,55.5647,52.0925,2024-05-07 00:30:00,,,,,2.0,1011.0,(15.284221104621444+0j),0.0,2.0,210.0,10000.0,99999,,(-996.5157788953785+0j),0.0,1116002102100202000301104000051000600007000080000
4485,UWWW,53.5049,50.1643,2024-05-07 00:30:00,,,,,5.0,1013.0,(5565.584417939338+0j),-1.0,4.0,230.0,10000.0,99999,,(4552.384417939338+0j),0.0,1116002304100502110301304000051000600007000080000
4487,LEAM,36.8439,-2.3701,2024-05-07 00:30:00,,,,,18.0,1014.0,(1152.5085098629115+0j),12.0,5.0,50.0,10000.0,99999,,(139.50850986291152+0j),0.0,11160005051018020120301404000051000600007000080000
4488,LEAS,43.5636,-6.03462,2024-05-07 00:30:00,,,,,13.0,1022.0,(2355.95507451535+0j),11.0,8.0,280.0,10000.0,99999,,(1334.9550745153501+0j),0.0,11160028081013020110302204000051000600007000080000
4489,LEBB,43.3011,-2.91061,2024-05-07 00:30:00,61.0,36.0,^,green,13.0,1021.0,(1418.5047218453728+0j),12.0,6.0,290.0,10000.0,99999,,(397.50472184537284+0j),0.2,11160029061013020120302104000051000600207610080000
4490,LEBL,41.2971,2.07846,2024-05-07 00:30:00,,,,,16.0,1016.0,(1042.180760589246+0j),12.0,4.0,150.0,10000.0,99999,,(26.08076058924587+0j),0.0,11160015041016020120301604000051000600007000080000
4491,LECO,43.3021,-8.37726,2024-05-07 00:30:00,,,,,11.0,1023.0,(2247.636818088017+0j),10.0,0.0,0.0,10000.0,99999,,(1225.6368180880172+0j),0.0,11160000001011020100302304000051000600007000080000
4492,LEDA,41.72819,0.53502,2024-05-07 00:30:00,,,,,10.0,1016.0,(6709.0203594395025+0j),6.0,9.0,240.0,10000.0,99999,,(5694.120359439503+0j),0.0,1116002409101002060301604000051000600007000080000
4493,LEGE,41.901,2.76055,2024-05-07 00:30:00,,,,,11.0,1016.0,(2848.3016840600094+0j),10.0,2.0,,10000.0,99999,,(1833.1016840600093+0j),0.0,11160036021011020100301604000051000600007000080000
4494,LEGR,37.1887,-3.77736,2024-05-07 00:30:00,,,,,10.0,1017.0,(10.090914894303236+0j),8.0,1.0,,10000.0,99999,,(-1006.9090851056968+0j),0.0,1116003601101002080301704000051000600007000080000
4495,LEIB,38.8729,1.37312,2024-05-07 00:30:00,,,,,17.0,1015.0,(1064.4678072613008+0j),15.0,5.0,50.0,10000.0,99999,,(49.96780726130078+0j),0.0,11160005051017020150301504000051000600007000080000
4496,LEJR,36.7446,-6.06011,2024-05-07 00:30:00,,,,,12.0,1016.0,(1299.7041650534413+0j),11.0,2.0,,6000.0,99999,,(283.1041650534413+0j),0.0,11130036021012020110301604000051000600007000080000
4497,LELC,37.775,-0.81239,2024-05-07 00:30:00,10.0,36.0,+,yellow,17.0,1014.0,(1036.5260591291865+0j),16.0,5.0,280.0,4500.0,99999,,(22.52605912918648+0j),0.0,11120028051017020160301404000051000600007100080000
4498,LELL,41.5209,2.10508,2024-05-07 00:30:00,,,,,15.0,1016.0,(2357.733648043312+0j),11.0,3.0,260.0,10000.0,99999,,(1341.8336480433118+0j),0.0,11160026031015020110301604000051000600007000080000
4499,LEMD,40.4936,-3.56676,2024-05-07 00:30:00,,,,,10.0,1018.0,(10.735268176482279+0j),4.0,3.0,360.0,10000.0,99999,,(-1005.0647318235177+0j),0.0,1116003603101002040301804000051000600007000080000
4500,LEMG,36.6749,-4.49911,2024-05-07 00:30:00,,,,,20.0,1014.0,(1107.579161151558+0j),10.0,10.0,280.0,10000.0,99999,,(93.07916115155808+0j),0.0,11160028101020020100301404000051000600007000080000
4501,LEMH,39.8626,4.21865,2024-05-07 00:30:00,,,,,15.0,1015.0,(1804.9723045155342+0j),14.0,14.0,10.0,10000.0,99999,,(789.9723045155342+0j),0.0,11160001141015020140301504000051000600007000080000
4502,LEPA,39.5517,2.73881,2024-05-07 00:30:00,,,,,16.0,1015.0,(1074.2458617692757+0j),14.0,11.0,70.0,10000.0,99999,,(59.64586176927571+0j),0.0,11160007111016020140301504000051000600007000080000
4503,LEPP,42.77,-1.64633,2024-05-07 00:30:00,61.0,36.0,^,green,10.0,1020.0,(8427.170077430814+0j),8.0,6.0,350.0,10000.0,99999,,(7408.170077430814+0j),0.0,1116003506101002080302004000051000600007610080000
4504,LERS,41.1474,1.16717,2024-05-07 00:30:00,,,,,14.0,1017.0,(1659.4921546138285+0j),13.0,4.0,220.0,10000.0,99999,,(643.6921546138285+0j),0.1,11160022041014020130301704000051000600107000080000
4505,LESO,43.3565,-1.79061,2024-05-07 00:30:00,,,,,14.0,1020.0,(1060.1651601356748+0j),10.0,5.0,250.0,10000.0,99999,,(40.26516013567482+0j),0.3,11160025051014020100302004000051000600307000080000
4506,LEST,42.8963,-8.41514,2024-05-07 00:30:00,,,,,8.0,1023.0,(8512.424706186519+0j),7.0,4.0,90.0,10000.0,99999,,(7490.424706186519+0j),0.0,1116000904100802070302304000051000600007000080000
4508,LEVC,39.4893,-0.48162,2024-05-07 00:30:00,,,,,17.0,1016.0,(1552.9334011571807+0j),11.0,4.0,160.0,10000.0,99999,,(536.8334011571807+0j),0.0,11160016041017020110301604000051000600007000080000
4509,LEVD,41.7061,-4.85194,2024-05-07 00:30:00,,,,,5.0,1020.0,(21.327609782891955+0j),4.0,6.0,50.0,10000.0,99999,,(-996.172390217108+0j),0.0,1116000506100502040302004000051000600007000080000
4510,LEVT,42.8828,-2.72447,2024-05-07 00:30:00,,,,,8.0,1021.0,(11.212334299543619+0j),6.0,1.0,,10000.0,99999,,(-1008.7876657004564+0j),0.0,1116003601100802060302104000051000600007000080000
4511,LEVX,42.2318,-8.62677,2024-05-07 00:30:00,,,,,10.0,1022.0,(5096.299110175184+0j),8.0,3.0,40.0,10000.0,99999,,(4074.899110175184+0j),0.0,1116000403101002080302204000051000600007000080000
4512,LEXJ,43.4271,-3.82001,2024-05-07 00:30:00,,,,,13.0,1021.0,(1064.324525569779+0j),11.0,9.0,290.0,9000.0,99999,,(43.3245255697791+0j),0.6,11150029091013020110302104000051000600607000080000
4513,LEZG,41.6662,-1.04155,2024-05-07 00:30:00,,,,,12.0,1019.0,(4360.393618959833+0j),6.0,10.0,280.0,10000.0,99999,,(3342.6936189598327+0j),0.0,1116002810101202060301904000051000600007000080000
4514,LEZL,37.418,-5.89311,2024-05-07 00:30:00,,,,,14.0,1016.0,(1309.320987840849+0j),11.0,3.0,160.0,10000.0,99999,,(293.82098784084906+0j),0.0,11160016031014020110301604000051000600007000080000
4520,LELN,42.589,-5.65556,2024-05-07 00:30:00,,,,,8.0,1020.0,(17.092485259612364+0j),4.0,5.0,350.0,6000.0,99999,,(-1002.0075147403877+0j),0.0,1113003505100802040302004000051000600007000080000
4521,LESA,40.9521,-5.50199,2024-05-07 00:30:00,,,,,8.0,1020.0,(15.514607561091172+0j),6.0,2.0,,10000.0,99999,,(-1003.4853924389088+0j),0.0,1116003602100802060302004000051000600007000080000
4524,LFMI,43.5227,4.92384,2024-05-07 00:30:00,,,,,13.0,1014.0,(1242.3180002559789+0j),12.0,6.0,310.0,10000.0,99999,,(228.21800025597884+0j),0.0,11160031061013020120301404000051000600007000080000
4525,LFMV,43.9073,4.90183,2024-05-07 00:30:00,41.0,36.0,J,yellow,12.0,1014.0,(1397.6350534810235+0j),11.0,2.0,,1400.0,99999,,(383.8350534810236+0j),0.0,11100036021012020110301404000051000600007410080000
4526,LFOA,47.0533,2.6325,2024-05-07 00:30:00,,,,,10.0,1013.0,(3614.939367155831+0j),8.0,6.0,190.0,10000.0,99999,,(2601.939367155831+0j),0.0,1116001906101002080301304000051000600007000080000
4528,URML,42.8168,47.6523,2024-05-07 00:30:00,,,,,11.0,1015.0,(1053.137290597409+0j),10.0,2.0,260.0,10000.0,99999,,(36.13729059740899+0j),0.0,11160026021011020100301504000051000600007000080000
4529,UWLL,54.2683,48.2267,2024-05-07 00:30:00,,,,,4.0,1012.0,(6618.247752593619+0j),2.0,1.0,,10000.0,99999,,(5605.547752593619+0j),0.0,1116003601100402020301204000051000600007000080000
4530,LEAB,38.9485,-1.86352,2024-05-07 00:30:00,,,,,13.0,1018.0,(9.68890789021709+0j),6.0,3.0,240.0,10000.0,99999,,(-1005.3110921097829+0j),0.0,1116002403101302060301804000051000600007000080000
4531,LEAL,38.2822,-0.55816,2024-05-07 00:30:00,,,,,15.0,1015.0,(1364.9467207581993+0j),11.0,2.0,,10000.0,99999,,(350.6467207581993+0j),0.0,11160036021015020110301504000051000600007000080000
4532,LEBA,37.842,-4.84888,2024-05-07 00:30:00,,,,,14.0,1016.0,(1853.7199416066344+0j),9.0,2.0,,10000.0,99999,,(838.7199416066344+0j),0.0,1116003602101402090301604000051000600007000080000
4533,LEGT,40.2941,-3.72383,2024-05-07 00:30:00,,,,,10.0,1018.0,(10.867632371773167+0j),5.0,3.0,340.0,10000.0,99999,,(-1006.1323676282268+0j),0.0,1116003403101002050301804000051000600007000080000
4534,LELO,42.46095,-2.32224,2024-05-07 00:30:00,,,,,10.0,1020.0,(6688.738163558514+0j),6.0,5.0,270.0,10000.0,99999,,(5668.738163558514+0j),0.0,1116002705101002060302004000051000600007000080000
4537,LETO,40.4967,-3.44587,2024-05-07 00:30:00,,,,,7.0,1018.0,(14.292987697447307+0j),5.0,7.0,30.0,10000.0,99999,,(-1002.7070123025527+0j),0.0,1116000307100702050301804000051000600007000080000
4548,LRBC,46.5219,26.9103,2024-05-07 00:30:00,,,,,12.0,1010.0,(3229.192404801497+0j),9.0,6.0,180.0,10000.0,99999,,(2218.792404801497+0j),0.0,1116001806101202090301004000051000600007000080000
4549,LRCK,44.3622,28.4883,2024-05-07 00:30:00,,,,,10.0,1012.0,(2488.0281654761843+0j),9.0,5.0,170.0,10000.0,99999,,(1473.7281654761844+0j),0.0,1116001705101002090301204000051000600007000080000
4550,LRIA,47.1785,27.6206,2024-05-07 00:30:00,,,,,12.0,1009.0,(2376.470864186023+0j),10.0,9.0,100.0,10000.0,99999,,(1366.0708641860228+0j),0.0,11160010091012020100300904000051000600007000080000
4551,LROD,47.0253,21.9025,2024-05-07 00:30:00,,,,,16.0,1010.0,(2192.780365676881+0j),10.0,12.0,200.0,10000.0,99999,,(1182.580365676881+0j),0.0,11160020121016020100301004000051000600007000080000
4552,LRSV,47.6875,26.3541,2024-05-07 00:30:00,,,,,15.0,1009.0,(5348.625373115604+0j),10.0,6.0,250.0,10000.0,99999,,(4338.5253731156035+0j),0.0,11160025061015020100300904000051000600007000080000
4558,LFBX,45.1981,0.81556,2024-05-07 00:30:00,,,,,11.0,1016.0,(2240.6560042233587+0j),10.0,5.0,240.0,10000.0,99999,,(1224.6560042233587+0j),0.1,11160024051011020100301604000051000600107000080000
4559,LFGJ,47.039,5.42725,2024-05-07 00:30:00,,,,,10.0,1014.0,(3953.2441269158453+0j),10.0,3.0,160.0,10000.0,99999,,(2939.444126915845+0j),0.0,11160016031010020100301404000051000600007000080000
4560,LFKS,41.9244,9.406,2024-05-07 00:30:00,,,,,17.0,1012.0,(1069.6385239339202+0j),14.0,2.0,,10000.0,99999,,(56.63852393392017+0j),0.0,11160036021017020140301204000051000600007000080000
4562,LFLW,44.8914,2.42194,2024-05-07 00:30:00,,,,,8.0,1016.0,(13.25648878475545+0j),7.0,4.0,250.0,10000.0,99999,,(-1003.4435112152446+0j),1.0,1116002504100802070301604000051000601007000080000
4564,LFMC,43.3847,6.38714,2024-05-07 00:30:00,,,,,13.0,1013.0,(1812.2669790943266+0j),11.0,0.0,0.0,10000.0,99999,,(798.2669790943266+0j),0.0,11160000001013020110301304000051000600007000080000
4565,LFOH,49.5339,0.08806,2024-05-07 00:30:00,,,,,11.0,1013.0,(2171.4529198600303+0j),11.0,2.0,240.0,6000.0,99999,,(1159.4529198600303+0j),0.0,11130024021011020110301304000051000600007000080000
4566,LFRI,46.7019,-1.37863,2024-05-07 00:30:00,,,,,10.0,1015.0,(2242.2293215931572+0j),9.0,3.0,260.0,10000.0,99999,,(1228.3293215931571+0j),0.0,1116002603101002090301504000051000600007000080000
4567,LFRK,49.1733,-0.45,2024-05-07 00:30:00,,,,,11.0,1013.0,(1938.4905221471697+0j),10.0,4.0,280.0,7000.0,99999,,(925.4905221471697+0j),0.0,11140028041011020100301304000051000600007000080000
4570,LFRT,48.5378,-2.85444,2024-05-07 00:30:00,,,,,12.0,1015.0,(2612.552950222547+0j),11.0,9.0,300.0,10000.0,99999,,(1598.3529502225472+0j),0.0,11160030091012020110301504000051000600007000080000
4573,LFRQ,47.975,-4.16779,2024-05-07 00:30:00,,,,,12.0,1017.0,(2011.9990758321512+0j),10.0,8.0,320.0,10000.0,99999,,(995.9990758321512+0j),0.0,11160032081012020100301704000051000600007000080000
4574,LFBA,44.1747,0.59056,2024-05-07 00:30:00,,,,,12.0,1018.0,(1676.186763655969+0j),10.0,5.0,250.0,10000.0,99999,,(659.1867636559689+0j),0.0,11160025051012020100301804000051000600007000080000
4577,LFRM,47.9486,0.20167,2024-05-07 00:30:00,,,,,11.0,1013.0,(1694.776845092814+0j),10.0,4.0,320.0,10000.0,99999,,(682.776845092814+0j),0.1,11160032041011020100301304000051000600107000080000
4579,LFRB,48.4479,-4.41854,2024-05-07 00:30:00,,,,,11.0,1017.0,(2230.2539569248224+0j),10.0,6.0,320.0,9000.0,99999,,(1214.2539569248224+0j),0.0,11150032061011020100301704000051000600007000080000
4580,LPPT,38.7813,-9.13592,2024-05-07 00:30:00,,,,,12.0,1020.0,(2312.290136011784+0j),10.0,7.0,340.0,10000.0,99999,,(1293.290136011784+0j),0.0,11160034071012020100302004000051000600007000080000
4581,LXGB,36.1512,-5.34966,2024-05-07 00:20:00,,,,,18.0,1015.0,(1044.0786173069905+0j),13.0,13.0,230.0,10000.0,99999,,(28.17861730699053+0j),0.0,11160023131018020130301504000051000600007000080000
4583,LFLX,46.8622,1.73067,2024-05-07 00:30:00,61.0,36.0,^,green,11.0,1012.0,(3110.922435554294+0j),10.0,8.0,210.0,7000.0,99999,,(2098.922435554294+0j),0.3,11140021081011020100301204000051000600307610080000
4584,LKNA,49.1658,16.1249,2024-05-07 00:30:00,,,,,14.0,1009.0,(6331.866930868385+0j),12.0,8.0,240.0,10000.0,99999,,(5323.466930868385+0j),0.0,11160024081014020120300904000051000600007000080000
4585,LKPD,50.0134,15.7386,2024-05-07 00:30:00,,,,,13.0,1009.0,(3549.7755832288126+0j),12.0,4.0,270.0,10000.0,99999,,(2540.7755832288126+0j),0.0,11160027041013020120300904000051000600007000080000
4587,EGDM,51.1522,-1.74741,2024-05-07 00:20:00,10.0,36.0,+,yellow,10.0,1015.0,(2755.3125152127454+0j),9.0,8.0,340.0,6000.0,99999,,(1742.6125152127454+0j),0.0,1113003408101002090301504000051000600007100080000
4588,EGDY,51.0094,-2.63882,2024-05-07 00:20:00,,,,,10.0,1015.0,(1288.8452868054717+0j),9.0,3.0,300.0,3700.0,99999,,(275.74528680547166+0j),0.0,1112003003101002090301504000051000600007000080000
4589,EGOM,55.05,-2.55,2024-05-07 00:20:00,10.0,36.0,+,yellow,8.0,1018.0,(7554.5079441043645+0j),8.0,6.0,60.0,7000.0,99999,,(6539.0079441043645+0j),0.0,1114000606100802080301804000051000600007100080000
4590,EGOS,52.7982,-2.66804,2024-05-07 00:20:00,,,,,11.0,1017.0,(1917.9891659678067+0j),9.0,2.0,330.0,10000.0,99999,,(903.6891659678067+0j),0.0,1116003302101102090301704000051000600007000080000
4591,EGOV,53.2481,-4.53534,2024-05-07 00:20:00,,,,,11.0,1018.0,(1137.840586945932+0j),10.0,11.0,340.0,10000.0,99999,,(122.04058694593209+0j),0.0,11160034111011020100301804000051000600007000080000
4592,EGQK,57.6494,-3.56064,2024-05-07 00:20:00,,,,,9.0,1019.0,(1105.6212867918218+0j),6.0,5.0,280.0,10000.0,99999,,(87.72128679182185+0j),0.0,1116002805100902060301904000051000600007000080000
4593,EGQL,56.3729,-2.86844,2024-05-07 00:20:00,,,,,11.0,1019.0,(1142.2776371201937+0j),10.0,1.0,90.0,10000.0,99999,,(126.37763712019375+0j),0.2,11160009011011020100301904000051000600207000080000
4594,EGUB,51.6164,-1.09583,2024-05-07 00:20:00,,,,,9.0,1015.0,(2024.2107509764153+0j),8.0,3.0,310.0,1400.0,99999,,(1011.4107509764153+0j),0.0,1110003103100902080301504000051000600007000080000
4595,EGUW,52.1273,0.95626,2024-05-07 00:20:00,10.0,36.0,+,yellow,9.0,1014.0,(2316.7845269615027+0j),8.0,5.0,20.0,6000.0,99999,,(1304.5845269615027+0j),1.7,1113000205100902080301404000051000601707100080000
4596,EGVO,51.2341,-0.94283,2024-05-07 00:20:00,61.0,36.0,^,green,12.0,1014.0,(2419.6119152756123+0j),11.0,6.0,360.0,3800.0,99999,,(1407.4119152756123+0j),0.0,11120036061012020110301404000051000600007610080000
4597,EGVP,51.1394,-1.56861,2024-05-07 00:20:00,10.0,36.0,+,yellow,12.0,1015.0,(2008.042342153032+0j),10.0,7.0,350.0,9000.0,99999,,(995.442342153032+0j),0.0,11150035071012020100301504000051000600007100080000
4598,EGWC,52.64,-2.30558,2024-05-07 00:20:00,,,,,99999.0,99999.0,(99999+0j),99999.0,5.0,330.0,10000.0,99999,,(98984.7+0j),0.0,11160033051099999020999990399904000051000600007000080000
4599,EGXC,53.093,-0.16601,2024-05-07 00:20:00,,,,,12.0,1016.0,(1089.4207776744954+0j),8.0,4.0,360.0,10000.0,99999,,(75.72077767449537+0j),0.0,1116003604101202080301604000051000600007000080000
4600,EGXE,54.2924,-1.5354,2024-05-07 00:20:00,10.0,36.0,+,yellow,11.0,1017.0,(1468.2991332334407+0j),10.0,7.0,10.0,9000.0,99999,,(453.5991332334406+0j),0.0,11150001071011020100301704000051000600007100080000
4601,EGXT,52.6126,-0.47645,2024-05-07 00:20:00,10.0,36.0,+,yellow,9.0,1015.0,(2262.272175480314+0j),8.0,6.0,10.0,7000.0,99999,,(1249.2721754803142+0j),0.0,1114000106100902080301504000051000600007100080000
4602,EGXZ,54.2055,-1.38209,2024-05-07 00:20:00,10.0,36.0,+,yellow,11.0,1017.0,(1324.6608640818872+0j),10.0,6.0,340.0,3800.0,99999,,(309.96086408188717+0j),0.0,11120034061011020100301704000051000600007100080000
4603,EGYD,53.0303,-0.48324,2024-05-07 00:20:00,,,,,12.0,1016.0,(1722.3264473263177+0j),7.0,5.0,30.0,10000.0,99999,,(708.7264473263177+0j),0.0,1116000305101202070301604000051000600007000080000
4604,EGYE,52.9622,-0.56163,2024-05-07 00:20:00,,,,,10.0,1016.0,(2564.7070781707034+0j),7.0,5.0,50.0,10000.0,99999,,(1551.0070781707034+0j),0.0,1116000505101002070301604000051000600007000080000
4605,EGYM,52.6484,0.55069,2024-05-07 00:20:00,10.0,36.0,+,yellow,8.0,1015.0,(1361.3622600884048+0j),7.0,7.0,360.0,4600.0,99999,,(348.3622600884048+0j),0.0,1112003607100802070301504000051000600007100080000
4606,EICK,51.8413,-8.49111,2024-05-07 00:30:00,,,,,11.0,1020.0,(3012.7096025744486+0j),8.0,6.0,340.0,10000.0,99999,,(1994.4096025744486+0j),0.0,1116003406101102080302004000051000600007000080000
4607,EIDW,53.4213,-6.27007,2024-05-07 00:30:00,,,,,10.0,1019.0,(1991.3100405236453+0j),7.0,9.0,320.0,10000.0,99999,,(974.3100405236453+0j),0.0,1116003209101002070301904000051000600007000080000
4608,EINN,52.702,-8.92482,2024-05-07 00:30:00,,,,,10.0,1021.0,(1186.7648822678548+0j),7.0,7.0,350.0,10000.0,99999,,(168.26488226785477+0j),0.0,1116003507101002070302104000051000600007000080000
4612,EGVA,51.6822,-1.79003,2024-05-07 00:35:00,,,,,12.0,29.96,(1996.1733845536726+0j),10.0,5.0,350.0,10000.0,99999,,(983.1733845536726+0j),0.0,1116003505101202010032994000051000600007000080000
4613,ETAD,49.9727,6.6925,2024-05-07 00:25:00,,,,,9.0,29.9,(7630.009357269666+0j),8.0,4.0,290.0,10000.0,99999,,(6617.909357269666+0j),0.0,111600290410090208032984000051000600007000080000
4615,ULLI,59.8003,30.2625,2024-05-07 00:30:00,,,,,2.0,1013.0,(2667.558901716092+0j),-4.0,1.0,,10000.0,99999,,(1653.1589017160918+0j),0.0,1116003601100202140301304000051000600007000080000
4616,UMKK,54.89,20.5926,2024-05-07 00:30:00,,,,,8.0,1009.0,(1196.7809144766054+0j),8.0,8.0,40.0,3900.0,99999,,(188.2809144766054+0j),0.0,1112000408100802080300904000051000600007000080000
4617,UUWW,55.5915,37.2615,2024-05-07 00:30:00,,,,,1.0,1007.0,(23.225349260342043+0j),-0.0,5.0,60.0,3100.0,99999,,(-985.974650739658+0j),0.4,1111000605100102100300704000051000600407000080000
4618,UWGG,56.2301,43.784,2024-05-07 00:30:00,,,,,2.0,1011.0,(7237.543000673877+0j),-4.0,4.0,80.0,10000.0,99999,,(6224.443000673877+0j),0.0,1116000804100202140301104000051000600007000080000
4627,LEMO,37.1749,-5.61594,2024-05-07 00:30:00,,,,,14.0,1016.0,(1816.443085214084+0j),11.0,6.0,180.0,10000.0,99999,,(800.443085214084+0j),0.0,11160018061014020110301604000051000600007000080000
4628,LERT,36.6452,-6.34946,2024-05-07 00:30:00,,,,,14.0,1016.0,(1238.5498880510108+0j),13.0,0.0,0.0,10000.0,99999,,(222.54988805101084+0j),0.0,11160000001014020130301604000051000600007000080000
4630,LFBD,44.8283,-0.71556,2024-05-07 00:30:00,,,,,11.0,1017.0,(1579.594677516008+0j),10.0,7.0,250.0,10000.0,99999,,(561.894677516008+0j),0.0,11160025071011020100301704000051000600007000080000
4631,LFBE,44.8253,0.51861,2024-05-07 00:30:00,61.0,36.0,^,green,11.0,1017.0,(1613.5505469648167+0j),10.0,9.0,250.0,6000.0,99999,,(596.9505469648167+0j),0.1,11130025091011020100301704000051000600107610080000
4633,LFBL,45.8628,1.17944,2024-05-07 00:30:00,61.0,36.0,^,green,9.0,1014.0,(8084.29859934471+0j),9.0,8.0,260.0,7000.0,99999,,(7069.59859934471+0j),0.0,1114002608100902090301404000051000600007610080000
4634,LFBM,43.9117,-0.5075,2024-05-07 00:30:00,63.0,36.0,',green,12.0,1019.0,(1674.3109825122413+0j),11.0,6.0,260.0,6000.0,99999,,(655.8109825122413+0j),0.2,11130026061012020110301904000051000600207630080000
4636,LFLS,45.3629,5.32937,2024-05-07 00:30:00,10.0,36.0,+,yellow,10.0,1014.0,(7370.655877845912+0j),10.0,4.0,80.0,5000.0,99999,,(6355.755877845912+0j),0.0,11130008041010020100301404000051000600007100080000
4640,LFYR,47.3208,1.68889,2024-05-07 00:30:00,61.0,36.0,^,green,11.0,1012.0,(2070.349775571755+0j),10.0,2.0,,6000.0,99999,,(1058.349775571755+0j),0.0,11130036021011020100301204000051000600007610080000
4644,LFBI,46.5877,0.30667,2024-05-07 00:30:00,,,,,11.0,1014.0,(2643.8769432909276+0j),10.0,8.0,270.0,10000.0,99999,,(1631.0769432909276+0j),0.0,11160027081011020100301404000051000600007000080000
4645,LFMD,43.542,6.95348,2024-05-07 00:30:00,,,,,14.0,1013.0,(1045.3602806327488+0j),12.0,1.0,,10000.0,99999,,(32.360280632748754+0j),0.0,11160036011014020120301304000051000600007000080000
4646,LFOT,47.4322,0.72761,2024-05-07 00:30:00,,,,,11.0,1012.0,(2354.112154612267+0j),11.0,7.0,300.0,10000.0,99999,,(1342.1121546122672+0j),0.2,11160030071011020110301204000051000600207000080000
4647,LFBC,44.5333,-1.125,2024-05-07 00:30:00,,,,,13.0,1018.0,(1253.0451726190568+0j),10.0,9.0,300.0,10000.0,99999,,(236.04517261905676+0j),0.0,11160030091013020100301804000051000600007000080000
4648,LFSL,45.03967,1.4855,2024-05-07 00:30:00,,,,,9.0,1016.0,(6496.179231933615+0j),8.0,3.0,220.0,10000.0,99999,,(5483.279231933615+0j),0.0,1116002203100902080301604000051000600007000080000
4650,LFCR,44.4079,2.48267,2024-05-07 00:30:00,,,,,8.0,1017.0,(12.358348136230255+0j),7.0,9.0,250.0,10000.0,99999,,(-1003.6416518637698+0j),0.0,1116002509100802070301704000051000600007000080000
4651,LKCV,49.9397,15.3818,2024-05-07 00:30:00,,,,,12.0,1009.0,(4019.7103582704003+0j),11.0,2.0,170.0,10000.0,99999,,(3010.3103582704002+0j),0.0,11160017021012020110300904000051000600007000080000
4652,LTAG,37.0021,35.4259,2024-05-07 00:20:00,,,,,13.0,1010.0,(1718.1283445102447+0j),6.0,5.0,40.0,10000.0,99999,,(706.6283445102447+0j),0.0,1116000405101302060301004000051000600007000080000
4654,EHEH,51.4501,5.37453,2024-05-07 00:39:00,80.0,36.0,q,green,13.0,1013.0,(1218.0092118634234+0j),12.0,3.0,10.0,4400.0,99999,,(206.40921186342337+0j),0.5,11120001031013020120301304000051000600507800080000
4657,LFBT,43.1787,-0.00644,2024-05-07 00:30:00,,,,,10.0,1020.0,(7199.577402313371+0j),8.0,9.0,250.0,10000.0,99999,,(6179.9774023133705+0j),0.0,1116002509101002080302004000051000600007000080000
4669,ETSH,51.7678,13.1677,2024-05-07 00:20:00,,,,,10.0,1011.0,(2078.5382886624766+0j),7.0,2.0,20.0,10000.0,99999,,(1068.3382886624765+0j),0.0,1116000202101002070301104000051000600007000080000
4670,ENOL,63.6989,9.604,2024-05-07 00:40:00,,,,,6.0,1016.0,(1183.4189222415541+0j),6.0,5.0,230.0,10000.0,99999,,(169.61892224155417+0j),0.0,1116002305100602060301604000051000600007000080000
4674,LIRM,41.0608,14.0819,2024-05-06 23:55:00,,,,,11.0,1015.0,(1108.1805526715002+0j),11.0,3.0,310.0,10000.0,99999,,(91.78055267150023+0j),0.0,11160031031011020110301504000051000600007000080000
4676,LIPL,45.4322,10.2677,2024-05-06 23:55:00,,,,,14.0,1013.0,(1961.1916183149767+0j),14.0,2.0,50.0,10000.0,99999,,(948.6916183149767+0j),0.0,11160005021014020140301304000051000600007000080000
