,station,lat,lon,time,weather,weatherfont,weathersymbol,weathercolour,temperature,pressure,sl_pressure,dewpoint,windspeed,winddir,visibility,visual_range,cloudcover,pressure3h_change,rain,wwletter
640,EGNS,54.0833,-4.62389,2024-04-09 23:50:00,,,,,7.0,1019.0,(1291.1817824130399+0j),3.0,6.0,280.0,10000.0,99999,1.0,(273.8817824130399+0j),0.0,1116012806100702030301904000051000600007000081000
731,EGJB,49.435,-2.60197,2024-04-09 23:50:00,,,,,9.0,1026.0,(2620.632479936326+0j),5.0,8.0,290.0,10000.0,99999,1.0,(1595.232479936326+0j),0.0,1116012908100902050302604000051000600007000081000
737,EGNM,53.8659,-1.66057,2024-04-09 23:50:00,,,,,5.0,1018.0,(7703.520522806671+0j),2.0,11.0,270.0,10000.0,99999,,(6688.520522806671+0j),0.0,1116002711100502020301804000051000600007000080000
753,EEEI,59.2603,24.2085,2024-04-09 23:50:00,,,,,9.0,1012.0,(1274.4558758424507+0j),7.0,5.0,120.0,10000.0,99999,,(261.2558758424507+0j),0.0,1116001205100902070301204000051000600007000080000
766,LGAL,40.8559,25.9563,2024-04-09 23:50:00,,,,,9.0,1016.0,(1110.3644330910004+0j),6.0,0.0,0.0,10000.0,99999,,(93.76443309100034+0j),0.0,1116000000100902060301604000051000600007000080000
768,LGKO,36.7933,27.0917,2024-04-09 23:50:00,,,,,18.0,1013.0,(1921.5589931383045+0j),13.0,6.0,10.0,10000.0,99999,,(909.5589931383045+0j),0.0,11160001061018020130301304000051000600007000080000
769,LGLM,39.9171,25.2363,2024-04-09 23:50:00,,,,,12.0,1016.0,(1056.8481271658998+0j),7.0,0.0,0.0,10000.0,99999,,(40.64812716589972+0j),0.0,1116000000101202070301604000051000600007000080000
788,LGSM,37.69,26.9117,2024-04-09 23:50:00,,,,,17.0,1012.0,(1050.964033168528+0j),10.0,9.0,30.0,10000.0,99999,,(38.16403316852802+0j),0.0,11160003091017020100301204000051000600007000080000
911,ETNG,50.9608,6.04242,2024-04-09 23:50:00,,,,,9.0,1021.0,(2395.5435572778974+0j),4.0,11.0,240.0,10000.0,99999,,(1375.9435572778975+0j),0.0,1116002411100902040302104000051000600007000080000
931,ENEV,68.4913,16.6781,2024-04-09 23:50:00,,,,,6.0,1002.0,(1526.772476280717+0j),-0.0,3.0,,10000.0,99999,8.0,0j,0.0,1116083603100602100300204000051000600007000088000
1036,LGBL,39.2196,22.7943,2024-04-09 23:50:00,,,,,9.0,1017.0,(1358.066917539599+0j),6.0,5.0,260.0,10000.0,99999,,(340.26691753959904+0j),0.0,1116002605100902060301704000051000600007000080000
1039,LGTG,38.3398,23.565,2024-04-09 23:50:00,,,,,8.0,1017.0,(3764.338548140983+0j),3.0,0.0,0.0,10000.0,99999,,(2746.338548140983+0j),0.0,1116000000100802030301704000051000600007000080000
1092,LTAY,37.7856,29.7013,2024-04-09 23:50:00,,,,,9.0,1014.0,(14.966432032323455+0j),6.0,10.0,260.0,10000.0,99999,,(-998.2335679676765+0j),0.0,1116002610100902060301404000051000600007000080000
1095,LTBH,40.1377,26.4268,2024-04-09 23:50:00,,,,,7.0,1016.0,(1132.7715454161475+0j),4.0,4.0,10.0,10000.0,99999,,(116.17154541614752+0j),0.0,1116000104100702040301604000051000600007000080000
1097,LTBY,39.8099,30.5194,2024-04-09 23:50:00,,,,,11.0,1014.0,(12.181488331219624+0j),4.0,10.0,260.0,10000.0,99999,,0j,0.0,1116002610101102040301404000051000600007000080000
1099,LTCB,40.96667,38.08,2024-04-09 23:50:00,,,,,11.0,1015.0,(1072.4296308858554+0j),10.0,2.0,,8000.0,99999,6.0,(58.92963088585543+0j),0.0,11140636021011020100301504000051000600007000086000
1103,LTCN,37.53883,36.95352,2024-04-09 23:50:00,,,,,12.0,1010.0,(8009.911231503035+0j),12.0,2.0,,10000.0,99999,3.0,(6999.811231503035+0j),0.2,11160336021012020120301004000051000600207000083000
1104,LTCT,39.97663,43.87665,2024-04-09 23:50:00,80.0,36.0,q,green,10.0,1016.0,(14.980590695470386+0j),8.0,5.0,210.0,10000.0,99999,4.0,0j,0.0,1116042105101002080301604000051000600007800084000
1105,LTDA,36.36278,36.28222,2024-04-09 23:50:00,,,,,12.0,1010.0,(1895.1641276607888+0j),11.0,2.0,,10000.0,99999,4.0,(885.1641276607888+0j),0.0,11160436021012020110301004000051000600007000084000
1106,LTFD,39.5546,27.0138,2024-04-09 23:50:00,,,,,16.0,1015.0,(1125.8273016216842+0j),4.0,12.0,80.0,10000.0,99999,,(110.12730162168418+0j),0.0,1116000812101602040301504000051000600007000080000
1107,LTFG,36.29922,32.3006,2024-04-09 23:50:00,80.0,36.0,q,green,15.0,1011.0,(1217.1349382825088+0j),13.0,6.0,60.0,10000.0,99999,3.0,(205.23493828250878+0j),0.0,11160306061015020130301104000051000600007800083000
1110,LTBD,37.815,27.8953,2024-04-09 23:50:00,,,,,12.0,1012.0,(1323.4064768452163+0j),9.0,3.0,70.0,10000.0,99999,,(310.9064768452163+0j),0.0,1116000703101202090301204000051000600007000080000
1156,LGPZ,38.9255,20.7653,2024-04-09 23:50:00,,,,,12.0,1017.0,(1049.0687932320407+0j),11.0,5.0,40.0,10000.0,99999,,(31.06879323204066+0j),0.0,11160004051012020110301704000051000600007000080000
1157,LGRX,38.1511,21.4256,2024-04-09 23:50:00,,,,,12.0,1017.0,(1153.8817660113123+0j),10.0,0.0,0.0,10000.0,99999,,(136.18176601131222+0j),0.0,11160000001012020100301704000051000600007000080000
1196,LBPG,42.2904,24.714,2024-04-10 00:00:00,,,,,9.0,1017.0,(1851.039953535994+0j),4.0,4.0,360.0,10000.0,99999,,(833.2399535359941+0j),0.0,1116003604100902040301704000051000600007000080000
1197,LBPL,43.4514,24.5028,2024-04-10 00:00:00,,,,,8.0,1017.0,(2787.604369669142+0j),4.0,6.0,190.0,10000.0,99999,,(1770.8043696691423+0j),0.0,1116001906100802040301704000051000600007000080000
1212,ETEK,49.6503,7.30007,2024-04-09 23:55:00,,,,,4.7,30.21,(1030.21+0j),3.0,8.0,260.0,10000.0,99999,6.0,(8.31000000000006+0j),0.0,111606260810047203733024000051000600007000086000
1259,EGQL,56.3729,-2.86844,2024-04-09 23:50:00,,,,,5.0,1013.0,(1290.1266687088219+0j),1.0,8.0,270.0,10000.0,99999,,(279.4266687088218+0j),0.0,1116002708100502010301304000051000600007000080000
1260,EGQS,57.7052,-3.33917,2024-04-09 23:50:00,,,,,4.0,1011.0,(1400.061836740428+0j),2.0,13.0,240.0,10000.0,99999,1.0,(390.4618367404279+0j),0.0,1116012413100402020301104000051000600007000081000
1716,ULPB,61.8852,34.1547,2024-04-10 00:00:00,,,,,-2.0,1017.0,(2.744447583704018e-05+0j),-3.0,1.0,,10000.0,99999,,(-1015.9999725555242+0j),0.0,1116003601110202130301704000051000600007000080000
1725,UUMO,55.5117,37.5072,2024-04-10 00:00:00,,,,,11.0,1015.0,(3298.2704037550347+0j),9.0,2.0,70.0,9000.0,99999,,(2284.170403755035+0j),0.0,1115000702101102090301504000051000600007000080000
1807,LRCT,46.5023,23.8859,2024-04-10 00:00:00,,,,,11.0,1016.0,(5742.492483656551+0j),5.0,2.0,,10000.0,99999,1.0,0j,0.0,1116013602101102050301604000051000600007000081000
2043,ULAA,64.6003,40.7167,2024-04-10 00:00:00,45.0,36.0,N,yellow,0.0,1015.0,(38.81427337645702+0j),0.0,1.0,200.0,450.0,99999,,(-976.985726623543+0j),0.0,1110002001100002000301504000051000600007450080000
2055,URMN,43.5129,43.6366,2024-04-10 00:00:00,,,,,6.0,1015.0,(12.52410126668402+0j),5.0,2.0,310.0,10000.0,99999,,(-1006.3758987333159+0j),0.0,1116003102100602050301504000051000600007000080000
2068,UWLW,54.401,48.8027,2024-04-10 00:00:00,,,,,6.0,1017.0,(2824.3292877742706+0j),4.0,1.0,40.0,10000.0,99999,,(1807.3292877742706+0j),0.0,1116000401100602040301704000051000600007000080000
2080,LEJR,36.7446,-6.06011,2024-04-10 00:00:00,,,,,12.0,1027.0,(1313.7757652656342+0j),5.0,2.0,,10000.0,99999,,(287.27576526563416+0j),0.0,1116003602101202050302704000051000600007000080000
2103,EGUL,52.4093,0.561,2024-04-09 23:55:00,,,,,5.2,30.12,(1256.182738445085+0j),2.0,9.0,230.0,10000.0,99999,,(239.18273844508508+0j),0.0,111600230910052202233014000051000600007000080000
2105,EGVA,51.6822,-1.79003,2024-04-09 23:55:00,,,,,5.8,30.16,(3228.7188163603532+0j),3.8,8.0,250.0,10000.0,99999,,(2208.2188163603532+0j),0.0,111600250810057203733014000051000600007000080000
2195,LGHI,38.3432,26.1406,2024-04-09 23:50:00,,,,,18.0,1012.0,(1040.9926706548517+0j),11.0,6.0,10.0,10000.0,99999,,(27.492670654851736+0j),0.0,11160001061018020110301204000051000600007000080000
2197,LKKB,50.1214,14.5436,2024-04-10 00:00:00,61.0,36.0,^,green,9.0,1020.0,(6074.294292348659+0j),6.0,12.0,280.0,10000.0,99999,7.0,0j,0.0,1116072812100902060302004000051000600007610087000
2198,LKKV,50.203,12.915,2024-04-10 00:00:00,61.0,36.0,^,green,5.0,1021.0,(17.729070922703563+0j),4.0,8.0,260.0,10000.0,99999,5.0,(-1001.7709290772964+0j),1.8,1116052608100502040302104000051000601807610085000
2199,LKLN,49.6752,13.2746,2024-04-10 00:00:00,,,,,7.0,1022.0,(9.3797217019145+0j),5.0,5.0,220.0,7000.0,99999,7.0,(-1010.6202782980855+0j),1.4,1114072205100702050302204000051000601307000087000
2202,LOXZ,47.2028,14.7442,2024-04-09 23:50:00,,,,,14.0,1016.0,(8792.114837550798+0j),7.0,7.0,150.0,10000.0,99999,6.0,(7776.914837550798+0j),0.0,1116061507101402070301604000051000600007000086000
2216,LTFH,41.2545,36.5671,2024-04-09 23:50:00,,,,,11.0,1015.0,(1072.4296308858554+0j),8.0,10.0,310.0,10000.0,99999,4.0,0j,0.0,1116043110101102080301504000051000600007000084000
2221,ULOO,57.7839,28.3956,2024-04-10 00:00:00,,,,,10.0,1014.0,(1602.7533991624975+0j),8.0,2.0,90.0,10000.0,99999,,(587.9533991624976+0j),0.0,1116000902101002080301404000051000600007000080000
2257,EIME,53.3017,-6.45133,2024-04-10 00:00:00,,,,,6.0,1019.0,(3388.9929087049163+0j),3.0,9.0,220.0,10000.0,99999,,(2370.092908704916+0j),0.0,1116002209100602030301904000051000600007000080000
2268,LTAB,39.935,32.7408,2024-04-09 23:50:00,,,,,10.0,1013.0,(13.469326904992256+0j),5.0,3.0,230.0,10000.0,99999,,(-999.1306730950078+0j),0.0,1116002303101002050301304000051000600007000080000
2270,LTAN,37.979,32.5619,2024-04-09 23:50:00,,,,,12.0,1012.0,(13.934443252746748+0j),7.0,11.0,320.0,10000.0,99999,4.0,(-997.0655567472533+0j),1.3,1116043211101202070301204000051000601307000084000
2272,LTBF,39.6193,27.926,2024-04-09 23:50:00,,,,,8.0,1015.0,(2843.2691891345835+0j),6.0,3.0,230.0,10000.0,99999,,(1826.4691891345835+0j),0.0,1116002303100802060301504000051000600007000080000
2273,LTBG,40.318,27.9777,2024-04-09 23:50:00,,,,,12.0,1016.0,(1554.9469862675023+0j),11.0,10.0,10.0,10000.0,99999,,(538.9469862675023+0j),0.0,11160001101012020110301604000051000600007000080000
2274,LTBI,39.7841,30.5821,2024-04-09 23:50:00,,,,,10.0,1014.0,(13.081626148111216+0j),5.0,9.0,250.0,10000.0,99999,,(-1002.6183738518888+0j),0.0,1116002509101002050301404000051000600007000080000
2275,LTBL,38.513,27.0101,2024-04-09 23:50:00,,,,,11.0,1014.0,(1064.9321859749205+0j),8.0,3.0,290.0,10000.0,99999,,(51.03218597492048+0j),0.0,1116002903101102080301404000051000600007000080000
2276,LTBQ,40.735,30.0833,2024-04-09 23:50:00,10.0,36.0,+,yellow,4.0,1016.0,(2994.1280665642157+0j),4.0,0.0,0.0,4500.0,99999,4.0,(1977.2280665642156+0j),0.0,1112040000100402040301604000051000600007100084000
2277,LTCI,38.4682,43.3323,2024-04-09 23:50:00,80.0,36.0,q,green,5.0,1018.0,(27.877075495917023+0j),3.0,14.0,250.0,10000.0,99999,3.0,(-991.122924504083+0j),0.8,1116032514100502030301804000051000600807800083000
2279,LTAE,40.0789,32.5656,2024-04-09 23:50:00,,,,,10.0,1013.0,(13.764743009762766+0j),5.0,6.0,60.0,10000.0,99999,,(-999.0352569902371+0j),0.0,1116000606101002050301304000051000600007000080000
2299,EGYM,52.6484,0.55069,2024-04-09 23:50:00,,,,,5.0,1020.0,(1595.5777038883462+0j),2.0,9.0,240.0,10000.0,99999,,(578.9777038883461+0j),0.0,1116002409100502020302004000051000600007000080000
2312,LGLR,39.65628,22.34,2024-04-09 23:50:00,,,,,10.0,1016.0,(1980.9896848001856+0j),7.0,0.0,0.0,10000.0,99999,,(963.4896848001856+0j),0.0,1116000000101002070301604000051000600007000080000
2320,LPBJ,38.0789,-7.9324,2024-04-10 00:00:00,,,,,11.0,1028.0,(3659.0327856080116+0j),5.0,6.0,70.0,10000.0,99999,,(2631.4327856080117+0j),0.0,1116000706101102050302804000051000600007000080000
2337,LICT,37.9114,12.488,2024-04-09 23:55:00,,,,,16.0,1020.0,(1075.0784648942908+0j),14.0,14.0,270.0,10000.0,99999,1.0,(54.97846489429082+0j),0.0,11160127141016020140302004000051000600007000081000
2341,LIBN,40.2392,18.1333,2024-04-09 23:55:00,,,,,13.0,1016.0,(1466.8553779401925+0j),13.0,7.0,120.0,10000.0,99999,,(450.05537794019256+0j),0.0,11160012071013020130301604000051000600007000080000
2343,LIBV,40.7678,16.9333,2024-04-09 23:55:00,,,,,13.0,1014.0,(5356.277738311647+0j),13.0,4.0,230.0,10000.0,99999,,(4340.277738311647+0j),0.0,11160023041013020130301404000051000600007000080000
2347,LIED,39.3542,8.97248,2024-04-09 23:55:00,,,,,14.0,1021.0,(1282.7466023086436+0j),9.0,11.0,300.0,10000.0,99999,1.0,(261.0466023086435+0j),0.0,1116013011101402090302104000051000600007000081000
2349,LIPC,44.2242,12.3072,2024-04-09 23:55:00,,,,,16.0,1014.0,(1053.2999628116452+0j),15.0,3.0,240.0,10000.0,99999,,(38.99996281164522+0j),0.0,11160024031016020150301404000051000600007000080000
2351,LIPL,45.4322,10.2677,2024-04-09 23:55:00,,,,,14.0,1013.0,(1961.1916183149767+0j),14.0,4.0,240.0,3000.0,99999,3.0,(947.1916183149767+0j),1.3,11110324041014020140301304000051000601307000083000
2353,LIPS,45.6849,12.0829,2024-04-09 23:55:00,,,,,16.0,1014.0,(1328.4393922498014+0j),15.0,2.0,60.0,6000.0,99999,4.0,(314.1393922498014+0j),0.4,11130406021016020150301404000051000600407000084000
2355,LIRE,41.6545,12.4452,2024-04-09 23:55:00,,,,,15.0,1018.0,(1114.9590653201935+0j),13.0,5.0,250.0,10000.0,99999,,(98.25906532019349+0j),0.0,11160025051015020130301804000051000600007000080000
2358,LICZ,37.4017,14.9224,2024-04-09 23:55:00,,,,,17.0,1018.0,(1185.0216017000755+0j),14.0,15.0,260.0,10000.0,99999,,(166.72160170007555+0j),0.0,11160026151017020140301804000051000600007000080000
2387,ETIK,49.4739,10.3881,2024-04-09 23:55:00,,,,,8.2,30.19,(7559.5726010206545+0j),3.6,9.0,230.0,10000.0,99999,8.0,(6538.0726010206545+0j),0.0,111608230910081203133014000051000600007000088000
2392,ETAR,49.4369,7.60028,2024-04-09 23:55:00,,,,,7.0,30.21,(6480.032511257933+0j),3.8,4.0,280.0,10000.0,99999,3.0,(5457.932511257933+0j),0.0,111603280410070203033024000051000600007000083000
2393,EGXC,53.093,-0.16601,2024-04-09 23:50:00,,,,,6.0,1019.0,(1168.4162794543556+0j),4.0,8.0,270.0,10000.0,99999,,(152.71627945435557+0j),0.0,1116002708100602040301904000051000600007000080000
2394,ETOU,50.0498,8.3254,2024-04-09 23:55:00,,,,,7.3,30.19,(3945.4638437712215+0j),3.5,6.0,260.0,10000.0,99999,1.0,(2924.6638437712218+0j),0.0,111601260610072203233014000051000600007000081000
2399,UMGG,52.527,31.0167,2024-04-10 00:00:00,,,,,13.0,1017.0,(2548.4370748355354+0j),9.0,3.0,160.0,10000.0,99999,,(1530.9370748355354+0j),0.0,1116001603101302090301704000051000600007000080000
2413,LTAD,39.9498,32.6886,2024-04-09 23:50:00,,,,,12.0,1014.0,(11.59606906744371+0j),5.0,8.0,310.0,10000.0,99999,,(-1001.1039309325563+0j),0.0,1116003108101202050301404000051000600007000080000
2414,LTCA,38.6069,39.2914,2024-04-09 23:50:00,80.0,36.0,q,green,8.0,1012.0,(16.672548585061406+0j),8.0,4.0,270.0,10000.0,99999,5.0,(-994.0274514149387+0j),0.5,1116052704100802080301204000051000600507800085000
2415,LTCD,39.7102,39.527,2024-04-09 23:50:00,,,,,7.0,1013.0,(20.89453220673456+0j),4.0,0.0,0.0,10000.0,99999,4.0,(-990.2054677932655+0j),0.0,1116040000100702040301304000051000600007000084000
2416,LTCF,40.5622,43.115,2024-04-09 23:50:00,80.0,36.0,q,green,5.0,1018.0,(28.472551210949913+0j),3.0,8.0,200.0,10000.0,99999,4.0,(-987.9274487890501+0j),0.0,1116042008100502030301804000051000600007800084000
2421,LPMR,39.8312,-8.88726,2024-04-10 00:00:00,,,,,10.0,1031.0,(1770.8511617201523+0j),8.0,3.0,10.0,10000.0,99999,,(739.2511617201524+0j),0.0,1116000103101002080303104000051000600007000080000
2422,LPMT,38.7039,-9.03592,2024-04-10 00:00:00,,,,,10.0,1029.0,(1196.0637256156929+0j),8.0,6.0,20.0,10000.0,99999,,(167.06372561569287+0j),0.0,1116000206101002080302904000051000600007000080000
2424,LIBA,41.5414,15.7181,2024-04-09 23:55:00,,,,,15.0,1014.0,(1472.0045904176066+0j),6.0,2.0,280.0,10000.0,99999,,(457.00459041760655+0j),0.0,1116002802101502060301404000051000600007000080000
2425,LIRS,42.7597,11.0719,2024-04-09 23:55:00,,,,,16.0,1014.0,(1051.0999551912323+0j),13.0,4.0,140.0,8000.0,99999,3.0,(35.79995519123236+0j),0.0,11140314041016020130301404000051000600007000083000
2426,EGUN,52.3619,0.48641,2024-04-09 23:55:00,,,,,7.0,30.13,(1201.6643876802539+0j),3.0,9.0,250.0,10000.0,99999,,(184.46438768025382+0j),0.0,111600250910070203033014000051000600007000080000
2427,LIRM,41.0608,14.0819,2024-04-09 23:55:00,45.0,36.0,N,yellow,11.0,1017.0,(1110.364159671838+0j),10.0,1.0,350.0,500.0,99999,8.0,(93.06415967183807+0j),0.0,11100835011011020100301704000051000600007450088000
2442,ETIH,49.2181,11.8361,2024-04-10 00:13:00,,,,,6.0,30.19,(12.671107124601336+0j),5.0,0.0,0.0,10000.0,99999,,(-1009.3288928753987+0j),0.6,111600000010060205033014000051000600607000080000
2452,EVGA,56.7783,24.8539,2024-04-10 00:20:00,,,,,16.0,1011.0,(1479.6992746126496+0j),12.0,7.0,110.0,10000.0,99999,,(467.69927461264956+0j),0.0,11160011071016020120301104000051000600007000080000
2459,LATI,41.4147,19.7206,2024-04-10 00:20:00,,,,,11.0,1017.0,(1446.3991902354+0j),9.0,2.0,200.0,10000.0,99999,,(429.39919023540006+0j),0.0,1116002002101102090301704000051000600007000080000
2460,LMML,35.8575,14.4775,2024-04-10 00:15:00,,,,,17.0,1019.0,(1705.2697449195027+0j),15.0,12.0,310.0,10000.0,99999,6.0,(685.0697449195027+0j),0.0,11160631121017020150301904000051000600007000086000
2461,LWSK,41.9616,21.6214,2024-04-10 00:20:00,,,,,10.0,1016.0,(4671.820333699638+0j),6.0,2.0,,10000.0,99999,,(3655.5203336996374+0j),0.0,1116003602101002060301604000051000600007000080000
2495,EVVA,57.3578,21.5442,2024-04-10 00:20:00,,,,,13.0,1009.0,(1059.927243594662+0j),12.0,2.0,,10000.0,99999,,0j,0.0,11160036021013020120300904000051000600007000080000
2505,LSZC,46.97444,8.39694,2024-04-10 00:20:00,61.0,36.0,^,green,5.0,1026.0,(14.603782375643407+0j),5.0,1.0,,10000.0,99999,6.0,(-1011.4962176243565+0j),0.5,1116063601100502050302604000051000600507610086000
2532,EKRS,55.4258,11.8067,2024-04-10 00:20:00,,,,,10.0,1011.0,(1431.7196364828358+0j),8.0,14.0,230.0,10000.0,99999,3.0,(421.3196364828358+0j),0.0,1116032314101002080301104000051000600007000083000
2542,LSMA,46.9439,8.28417,2024-04-10 00:20:00,53.0,36.0,V,green,6.0,1026.0,(12.653127423387035+0j),5.0,1.0,,10000.0,99999,5.0,(-1012.9468725766129+0j),0.1,1116053601100602050302604000051000600107530085000
2543,LSMD,47.3986,8.64823,2024-04-10 00:20:00,80.0,36.0,q,green,7.0,1026.0,(11.256345473137731+0j),4.0,1.0,,10000.0,99999,5.0,(-1013.5436545268623+0j),0.2,1116053601100702040302604000051000600207800085000
2544,LSME,47.0924,8.30512,2024-04-10 00:20:00,80.0,36.0,q,green,6.0,1026.0,(12.245886495818759+0j),5.0,3.0,120.0,10000.0,99999,6.0,(-1013.7541135041812+0j),0.4,1116061203100602050302604000051000600407800086000
2545,LSMM,46.7433,8.11,2024-04-10 00:20:00,51.0,36.0,T,green,4.0,1026.0,(19.73079090823683+0j),3.0,3.0,100.0,10000.0,99999,5.0,(-1006.2692090917632+0j),1.0,1116051003100402030302604000051000601007510085000
2546,LSMP,46.8432,6.91506,2024-04-10 00:20:00,,,,,6.0,1026.0,(12.686615036894745+0j),4.0,0.0,0.0,10000.0,99999,4.0,(-1013.5133849631053+0j),0.2,1116040000100602040302604000051000600207000084000
2601,EGHQ,50.4406,-4.99541,2024-04-10 00:20:00,,,,,8.0,1025.0,(3184.1842573830954+0j),7.0,6.0,210.0,10000.0,99999,3.0,(2160.1842573830954+0j),0.0,1116032106100802070302504000051000600007000083000
2603,EGCK,53.1042,-4.34028,2024-04-10 00:20:00,,,,,9.0,1021.0,(1024.8796372498532+0j),5.0,12.0,250.0,10000.0,99999,,(5.879637249853204+0j),0.0,1116002512100902050302104000051000600007000080000
2652,ESOH,60.0201,13.5789,2024-04-10 00:20:00,63.0,36.0,',green,8.0,1005.0,(3649.8941012116175+0j),7.0,4.0,220.0,6000.0,99999,5.0,(2644.8941012116175+0j),0.8,1113052204100802070300504000051000600807630085000
2660,ESNZ,63.1944,14.5003,2024-04-10 00:20:00,61.0,36.0,^,green,4.0,1001.0,(14.69778464349734+0j),4.0,14.0,110.0,9000.0,99999,5.0,(-991.5022153565027+0j),0.0,1115051114100402040300104000051000600007610085000
2689,EFHA,61.856,24.7866,2024-04-10 00:20:00,,,,,4.0,1012.0,(6823.868007846527+0j),4.0,6.0,140.0,10000.0,99999,,(5809.368007846527+0j),0.0,1116001406100402040301204000051000600007000080000
2694,EFLP,61.0446,28.1444,2024-04-10 00:20:00,,,,,5.0,1015.0,(4232.750821103701+0j),5.0,4.0,110.0,6000.0,99999,,(3217.150821103701+0j),0.0,1113001104100502050301504000051000600007000080000
2744,EFET,68.3626,23.4243,2024-04-10 00:20:00,,,,,-3.0,1005.0,(247.00533789556738+0j),-3.0,2.0,,10000.0,99999,,0j,0.0,1116003602110302130300504000051000600007000080000
2745,EFJO,62.6629,29.6075,2024-04-10 00:20:00,41.0,36.0,J,yellow,0.0,1015.0,(38.81427337645702+0j),0.0,4.0,150.0,2200.0,99999,,(-976.185726623543+0j),0.0,1111001504100002000301504000051000600007410080000
2748,EFKS,65.9876,29.2394,2024-04-10 00:20:00,,,,,-1.0,1011.0,(66.29090549045935+0j),-1.0,3.0,110.0,10000.0,99999,,(-946.2090945095406+0j),0.0,1116001103110102110301104000051000600007000080000
2749,EFKT,67.701,24.8468,2024-04-10 00:20:00,,,,,-1.0,1007.0,(82.86583279364515+0j),-1.0,1.0,,10000.0,99999,,(-924.1341672063548+0j),0.0,1116003601110102110300704000051000600007000080000
2751,EFSA,61.9431,28.9451,2024-04-10 00:20:00,,,,,-1.0,1015.0,(315.2355503642298+0j),-2.0,1.0,,10000.0,99999,8.0,(-699.7644496357702+0j),0.0,1116083601110102120301504000051000600007000088000
2752,EFSI,62.6921,22.8323,2024-04-10 00:20:00,,,,,3.0,1011.0,(5829.685092204268+0j),1.0,7.0,130.0,10000.0,99999,,0j,0.0,1116001307100302010301104000051000600007000080000
2753,EFUT,60.8964,26.9384,2024-04-10 00:20:00,45.0,36.0,N,yellow,3.0,1014.0,(6489.144933060867+0j),3.0,5.0,110.0,450.0,99999,,(5473.944933060867+0j),0.0,1110001105100302030301404000051000600007450080000
2761,ESCF,58.4023,15.5257,2024-04-10 00:20:00,,,,,9.0,1007.0,(2425.0362062273816+0j),8.0,12.0,280.0,10000.0,99999,5.0,(1417.4362062273817+0j),0.0,1116052812100902080300704000051000600007000085000
2763,ESIB,58.4264,12.7144,2024-04-10 00:20:00,,,,,8.0,1006.0,(1896.7477775707741+0j),7.0,9.0,170.0,10000.0,99999,1.0,(889.8477775707742+0j),3.6,1116011709100802070300604000051000603607000081000
2764,ESMV,57.2922,14.1372,2024-04-10 00:20:00,,,,,8.0,1009.0,(4192.175752538939+0j),7.0,3.0,210.0,10000.0,99999,6.0,(3185.1757525389394+0j),1.7,1116062103100802070300904000051000601707000086000
2766,ESPE,65.8753,20.1499,2024-04-10 00:20:00,,,,,-4.0,1007.0,(-52167469864.018265-54526117035.52944j),-4.0,1.0,,10000.0,99999,,(-52167470872.31827-54526117035.52944j),0.0,1116003601110402140300704000051000600007000080000
2767,ESIA,58.5138,14.5071,2024-04-10 00:20:00,,,,,8.0,1007.0,(2627.8007727428408+0j),7.0,2.0,,10000.0,99999,8.0,(1623.0007727428408+0j),0.0,1116083602100802070300704000051000600007000088000
2768,ESCM,59.8973,17.5886,2024-04-10 00:20:00,61.0,36.0,^,green,10.0,1006.0,(1250.979199788889+0j),7.0,5.0,140.0,10000.0,99999,1.0,(242.979199788889+0j),0.0,1116011405101002070300604000051000600007610081000
2777,ESNV,64.5791,16.8336,2024-04-10 00:20:00,,,,,4.0,1004.0,(13.940108853469459+0j),-0.0,6.0,110.0,10000.0,99999,6.0,(-992.0598911465305+0j),0.0,1116061106100402100300404000051000600007000086000
2779,ESST,60.1576,12.9913,2024-04-10 00:20:00,63.0,36.0,',green,8.0,1005.0,(3140.659191995027+0j),7.0,5.0,150.0,7000.0,99999,7.0,0j,0.0,1114071505100802070300504000051000600007630087000
2780,ESUP,67.2456,23.0689,2024-04-10 00:20:00,,,,,-2.0,1007.0,(547.0012229410348+0j),-2.0,2.0,,10000.0,99999,,(-459.9987770589652+0j),0.0,1116003602110202120300704000051000600007000080000
2781,ESND,62.0478,14.4229,2024-04-10 00:20:00,61.0,36.0,^,green,5.0,1002.0,(12.050437249213282+0j),5.0,5.0,100.0,800.0,99999,5.0,(-992.9495627507868+0j),0.0,1110051005100502050300204000051000600007610085000
2804,LICB,36.9946,14.60718,2024-04-10 00:20:00,,,,,14.0,1019.0,(2953.294537244798+0j),13.0,3.0,120.0,10000.0,99999,6.0,(1933.194537244798+0j),0.0,11160612031014020130301904000051000600007000086000
2806,LIPO,45.4289,10.3306,2024-04-10 00:20:00,,,,,14.0,1013.0,(2031.2388946668182+0j),13.0,3.0,210.0,10000.0,99999,6.0,0j,0.0,11160621031014020130301304000051000600007000086000
2810,LIMZ,44.547,7.62322,2024-04-10 00:20:00,,,,,9.0,1016.0,(7917.775469418111+0j),7.0,7.0,240.0,10000.0,99999,6.0,0j,0.0,1116062407100902070301604000051000600007000086000
2853,EFMI,61.6866,27.2018,2024-04-10 00:20:00,,,,,-0.0,1014.0,(38.77603271303194+0j),-1.0,1.0,,10000.0,99999,3.0,(-976.4239672869681+0j),0.0,1116033601110002110301404000051000600007000083000
2963,EDBC,51.8564,11.4203,2024-04-10 00:20:00,,,,,10.0,1019.0,(3708.475387833595+0j),4.0,10.0,260.0,10000.0,99999,6.0,(2690.475387833595+0j),0.0,1116062610101002040301904000051000600007000086000
2978,EEKE,58.2299,22.5095,2024-04-10 00:20:00,45.0,36.0,N,yellow,7.0,1010.0,(1080.026452445485+0j),7.0,5.0,100.0,1200.0,99999,3.0,(68.02645244548489+0j),0.0,1110031005100702070301004000051000600007450083000
2980,EEPU,58.419,24.4728,2024-04-10 00:20:00,,,,,10.0,1011.0,(1178.8226309910203+0j),8.0,5.0,100.0,10000.0,99999,,0j,0.0,1116001005101002080301104000051000600007000080000
3004,EDJA,47.9888,10.2395,2024-04-10 00:20:00,,,,,5.0,1024.0,(18.254491552410347+0j),4.0,7.0,210.0,10000.0,99999,5.0,0j,0.0,1116052107100502040302404000051000600007000085000
3011,EDTY,49.11833,9.78389,2024-04-10 00:20:00,,,,,8.0,1023.0,(9.037075164021871+0j),4.0,7.0,230.0,10000.0,99999,8.0,(-1013.4629248359781+0j),0.0,1116082307100802040302304000051000600007000088000
3015,EDWE,53.39111,7.2275,2024-04-10 00:20:00,,,,,9.0,1015.0,(1026.5893144758738+0j),6.0,13.0,250.0,10000.0,99999,4.0,(14.28931447587388+0j),0.1,1116042513100902060301504000051000600107000084000
3018,EKBI,55.7403,9.15178,2024-04-10 00:20:00,,,,,8.0,1008.0,(2271.6204554417363+0j),5.0,21.0,210.0,10000.0,99999,6.0,(1263.1204554417363+0j),0.0,1116062121100802050300804000051000600007000086000
3019,EKCH,55.6179,12.656,2024-04-10 00:20:00,,,,,9.0,1012.0,(1078.2149519100494+0j),7.0,8.0,190.0,10000.0,99999,1.0,(66.71495191004942+0j),0.0,1116011908100902070301204000051000600007000081000
3020,EKEB,55.5259,8.5534,2024-04-10 00:20:00,,,,,8.0,1007.0,(1458.8479653537293+0j),6.0,24.0,200.0,10000.0,99999,6.0,(451.5479653537293+0j),0.0,1116062024100802060300704000051000600007000086000
3022,EKRK,55.5856,12.1314,2024-04-10 00:20:00,,,,,9.0,1011.0,(1632.1431413698542+0j),6.0,11.0,220.0,10000.0,99999,1.0,(621.3431413698543+0j),0.0,1116012211100902060301104000051000600007000081000
3024,EKSB,54.9644,9.79173,2024-04-10 00:20:00,,,,,9.0,1010.0,(1103.807162816841+0j),6.0,12.0,220.0,10000.0,99999,6.0,(94.8071628168409+0j),0.0,1116062212100902060301004000051000600007000086000
3025,EKSP,55.2256,9.26393,2024-04-10 00:20:00,,,,,8.0,1009.0,(1687.606365797986+0j),6.0,16.0,220.0,10000.0,99999,4.0,(678.006365797986+0j),0.0,1116042216100802060300904000051000600007000084000
3026,EKVD,55.4363,9.33092,2024-04-10 00:20:00,,,,,8.0,1009.0,(1698.1411872947267+0j),6.0,23.0,230.0,10000.0,99999,,(689.3411872947268+0j),0.0,1116002323100802060300904000051000600007000080000
3036,EFIV,68.6073,27.4053,2024-04-10 00:20:00,,,,,1.0,1008.0,(19.54775608418698+0j),1.0,3.0,120.0,10000.0,99999,8.0,(-989.752243915813+0j),0.0,1116081203100102010300804000051000600007000088000
3037,EFJY,62.3995,25.6783,2024-04-10 00:20:00,,,,,-0.0,1013.0,(38.73779204960685+0j),-1.0,1.0,,10000.0,99999,,(-974.2622079503932+0j),0.0,1116003601110002110301304000051000600007000080000
3038,EFKE,65.7787,24.5821,2024-04-10 00:20:00,,,,,-1.0,1009.0,(3.63839859306401+0j),-1.0,4.0,130.0,10000.0,99999,,(-1007.061601406936+0j),0.0,1116001304110102110300904000051000600007000080000
3039,EFKK,63.7212,23.1431,2024-04-10 00:20:00,,,,,1.0,1010.0,(4952.728509346346+0j),0.0,5.0,160.0,10000.0,99999,,(3941.228509346346+0j),0.0,1116001605100102000301004000051000600007000080000
3041,EFMA,60.1222,19.8982,2024-04-10 00:20:00,,,,,9.0,1008.0,(1073.9532327325394+0j),6.0,7.0,120.0,10000.0,99999,,(62.95323273253939+0j),0.0,1116001207100902060300804000051000600007000080000
3042,EFOU,64.9301,25.3546,2024-04-10 00:20:00,,,,,2.0,1010.0,(1942.7671663800659+0j),1.0,7.0,150.0,10000.0,99999,,(931.0671663800658+0j),0.0,1116001507100202010301004000051000600007000080000
3043,EFPO,61.4617,21.8,2024-04-10 00:20:00,,,,,6.0,1010.0,(1276.1567142577478+0j),4.0,4.0,110.0,10000.0,99999,,(264.1567142577478+0j),0.0,1116001104100602040301004000051000600007000080000
3044,EFRO,66.5648,25.8304,2024-04-10 00:20:00,,,,,2.0,1009.0,(15.237689836697932+0j),-0.0,9.0,160.0,10000.0,99999,,(-995.5623101633021+0j),0.0,1116001609100202100300904000051000600007000080000
3045,EFTP,61.4141,23.6044,2024-04-10 00:20:00,,,,,7.0,1012.0,(3494.864763706574+0j),5.0,5.0,140.0,10000.0,99999,,(2481.864763706574+0j),0.0,1116001405100702050301204000051000600007000080000
3046,EFTU,60.5141,22.2628,2024-04-10 00:20:00,,,,,8.0,1010.0,(1795.7223842719561+0j),7.0,7.0,130.0,10000.0,99999,,(783.7223842719561+0j),0.0,1116001307100802070301004000051000600007000080000
3047,EFVA,63.0507,21.7622,2024-04-10 00:20:00,,,,,2.0,1010.0,(1359.5207542038831+0j),2.0,3.0,130.0,10000.0,99999,,(348.12075420388317+0j),0.0,1116001303100202020301004000051000600007000080000
3049,ENBR,60.2934,5.21814,2024-04-10 00:20:00,,,,,7.0,999.0,(1955.9859053483383+0j),7.0,4.0,120.0,10000.0,99999,6.0,0j,0.0,1116061204100702070399904000051000600007000086000
3050,ENCN,58.2042,8.08537,2024-04-10 00:20:00,,,,,8.0,1002.0,(1258.2040751150366+0j),6.0,12.0,170.0,10000.0,99999,5.0,(253.90407511503668+0j),0.0,1116051712100802060300204000051000600007000085000
3052,ENHD,59.3453,5.20836,2024-04-10 00:20:00,53.0,36.0,V,green,7.0,999.0,(1453.6276299474155+0j),6.0,9.0,130.0,9000.0,99999,5.0,(453.2276299474155+0j),0.0,1115051309100702060399904000051000600007530085000
3055,ENVA,63.4578,10.924,2024-04-10 00:20:00,61.0,36.0,^,green,8.0,997.0,(1247.2515959915477+0j),6.0,2.0,,10000.0,99999,3.0,(246.15159599154765+0j),0.2,1116033602100802060399704000051000600207610083000
3056,ENZV,58.8767,5.63778,2024-04-10 00:20:00,,,,,8.0,999.0,(1125.9701585861117+0j),7.0,8.0,150.0,7000.0,99999,6.0,0j,0.0,1114061508100802070399904000051000600007000086000
3060,LGAV,37.9364,23.9445,2024-04-10 00:20:00,,,,,15.0,1016.0,(1824.0853207438956+0j),1.0,7.0,300.0,10000.0,99999,,0j,0.0,1116003007101502010301604000051000600007000080000
3061,LGIR,35.3397,25.1803,2024-04-10 00:20:00,,,,,13.0,1016.0,(1342.074326766768+0j),7.0,8.0,170.0,10000.0,99999,1.0,(325.1743267667681+0j),0.0,1116011708101302070301604000051000600007000081000
3063,LGKR,39.6019,19.9117,2024-04-10 00:20:00,,,,,13.0,1017.0,(1033.09338069956+0j),9.0,0.0,0.0,10000.0,99999,,(15.59338069955993+0j),0.0,1116000000101302090301704000051000600007000080000
3064,LGRP,36.4054,28.0862,2024-04-10 00:20:00,,,,,18.0,1011.0,(1043.8522257775612+0j),13.0,8.0,230.0,10000.0,99999,,(32.55222577756126+0j),0.0,11160023081018020130301104000051000600007000080000
3091,ENAL,62.5625,6.1197,2024-04-10 00:20:00,61.0,36.0,^,green,7.0,997.0,(1355.7784459679226+0j),6.0,3.0,170.0,10000.0,99999,7.0,(356.57844596792256+0j),0.4,1116071703100702060399704000051000600407610087000
3097,ENDU,69.0558,18.5404,2024-04-10 00:20:00,,,,,-1.0,1002.0,(802.7857635263218+0j),-2.0,1.0,,10000.0,99999,1.0,0j,0.0,1116013601110102120300204000051000600007000081000
3111,ENRO,62.5784,11.3423,2024-04-10 00:20:00,51.0,36.0,T,green,4.0,997.0,(20.026737970041673+0j),3.0,3.0,150.0,10000.0,99999,5.0,(-984.2732620299582+0j),0.3,1116051503100402030399704000051000600307510085000
3113,ENRY,59.3789,10.7856,2024-04-10 00:20:00,,,,,8.0,1004.0,(1854.9716256301804+0j),6.0,9.0,180.0,10000.0,99999,4.0,0j,0.0,1116041809100802060300404000051000600007000084000
3119,ENTO,59.1867,10.2586,2024-04-10 00:20:00,,,,,7.0,1003.0,(2730.3008438458437+0j),7.0,12.0,,10000.0,99999,8.0,0j,0.0,1116083612100702070300304000051000600007000088000
3122,ESGG,57.6628,12.2798,2024-04-10 00:20:00,,,,,7.0,1007.0,(4328.185323435439+0j),7.0,11.0,180.0,9000.0,99999,8.0,(3320.4853234354396+0j),1.9,1115081811100702070300704000051000601907000088000
3124,ESGP,57.7747,11.8704,2024-04-10 00:20:00,,,,,9.0,1007.0,(1243.032816347818+0j),7.0,9.0,170.0,10000.0,99999,5.0,(235.03281634781797+0j),2.3,1116051709100902070300704000051000602207000085000
3126,ESMK,55.9217,14.0855,2024-04-10 00:20:00,,,,,10.0,1011.0,(1287.5795281980443+0j),9.0,7.0,240.0,10000.0,99999,,(277.5795281980443+0j),0.0,1116002407101002090301104000051000600007000080000
3128,ESMX,56.9291,14.728,2024-04-10 00:20:00,,,,,9.0,1010.0,(4107.05000006312+0j),9.0,7.0,250.0,10000.0,99999,7.0,(3099.15000006312+0j),0.0,1116072507100902090301004000051000600007000087000
3129,ESNN,62.5281,17.4439,2024-04-10 00:20:00,61.0,36.0,^,green,2.0,1007.0,(1297.722672003676+0j),1.0,1.0,,10000.0,99999,7.0,(288.9226720036761+0j),0.0,1116073601100202010300704000051000600007610087000
3130,ESNO,63.4083,18.99,2024-04-10 00:20:00,10.0,36.0,+,yellow,-0.0,1007.0,(38.50834806905637+0j),-0.0,2.0,,4600.0,99999,8.0,(-970.8916519309436+0j),0.0,1112083602110002100300704000051000600007100088000
3131,ESNQ,67.822,20.3368,2024-04-10 00:20:00,,,,,-4.0,1004.0,(182.16388363772364+0j),-7.0,5.0,200.0,10000.0,99999,1.0,(-824.9361163622764+0j),0.0,1116012005110402170300404000051000600007000081000
3132,ESNS,64.6248,21.0769,2024-04-10 00:20:00,,,,,0.0,1008.0,(38.54658873248145+0j),0.0,2.0,,10000.0,99999,,(-970.8534112675185+0j),0.0,1116003602100002000300804000051000600007000080000
3133,ESNU,63.7918,20.2828,2024-04-10 00:20:00,,,,,1.0,1009.0,(1962.9171207976779+0j),0.0,2.0,150.0,550.0,99999,6.0,(953.1171207976779+0j),0.0,1110061502100102000300904000051000600007000086000
3134,ESOK,59.4447,13.3374,2024-04-10 00:20:00,53.0,36.0,V,green,7.0,1005.0,(3198.3763088254454+0j),7.0,6.0,190.0,10000.0,99999,1.0,(2193.8763088254454+0j),0.1,1116011906100702070300504000051000600107530081000
3137,ESSB,59.3544,17.9417,2024-04-10 00:20:00,,,,,8.0,1007.0,(1217.5893181822335+0j),6.0,2.0,,10000.0,99999,2.0,(208.2893181822335+0j),0.0,1116023602100802060300704000051000600007000082000
3139,ESSP,58.5863,16.2506,2024-04-10 00:20:00,,,,,7.0,1006.0,(1168.283807443881+0j),6.0,2.0,130.0,10000.0,99999,8.0,(160.483807443881+0j),0.0,1116081302100702060300604000051000600007000088000
3140,ESSV,57.6628,18.3462,2024-04-10 00:20:00,,,,,13.0,1006.0,(1477.0024622082558+0j),11.0,11.0,180.0,10000.0,99999,,(468.70246220825584+0j),0.0,11160018111013020110300604000051000600007000080000
3141,LSGC,47.0839,6.79284,2024-04-10 00:20:00,,,,,1.0,1024.0,(34.86630501144747+0j),1.0,2.0,250.0,10000.0,99999,3.0,(-991.2336949885524+0j),0.0,1116032502100102010302404000051000600007000083000
3142,LSGG,46.2381,6.10895,2024-04-10 00:20:00,,,,,5.0,1026.0,(14.143657459059801+0j),4.0,3.0,340.0,10000.0,99999,1.0,(-1011.7563425409403+0j),0.0,1116013403100502040302604000051000600007000081000
3143,LSGS,46.2196,7.32676,2024-04-10 00:20:00,,,,,6.0,1025.0,(13.456835601156246+0j),4.0,2.0,,10000.0,99999,1.0,(-1010.8431643988437+0j),0.0,1116013602100602040302504000051000600007000081000
3144,LSZA,46.0043,8.91058,2024-04-10 00:20:00,61.0,36.0,^,green,8.0,1019.0,(6592.637187450521+0j),5.0,13.0,10.0,10000.0,99999,2.0,(5575.337187450521+0j),4.7,1116020113100802050301904000051000604707610082000
3145,LSZB,46.9141,7.49715,2024-04-10 00:20:00,,,,,5.0,1025.0,(15.928768950323878+0j),3.0,4.0,110.0,10000.0,99999,8.0,(-1009.8712310496761+0j),0.5,1116081104100502030302504000051000600507000088000
3146,LSZG,47.1816,7.41719,2024-04-10 00:20:00,,,,,5.0,1026.0,(14.143657459059801+0j),5.0,4.0,250.0,10000.0,99999,1.0,(-1010.8563425409402+0j),0.0,1116012504100502050302604000051000600007000081000
3147,LSZH,47.4647,8.54917,2024-04-10 00:20:00,,,,,6.0,1026.0,(12.355461199950613+0j),4.0,4.0,140.0,10000.0,99999,3.0,(-1013.6445388000494+0j),0.2,1116031404100602040302604000051000600207000083000
3148,LSZL,46.1608,8.87861,2024-04-10 00:20:00,61.0,36.0,^,green,9.0,1020.0,(4380.724609911252+0j),6.0,6.0,120.0,10000.0,99999,3.0,(3361.7246099112517+0j),0.3,1116031206100902060302004000051000600307610083000
3149,LSZR,47.485,9.56077,2024-04-10 00:20:00,61.0,36.0,^,green,6.0,1025.0,(11.576317722093538+0j),4.0,5.0,160.0,10000.0,99999,6.0,(-1014.0236822779063+0j),0.2,1116061605100602040302504000051000600207610086000
3150,LSZS,46.5341,9.88411,2024-04-10 00:20:00,71.0,36.0,h,magenta,-0.0,1020.0,(39.00547669358242+0j),-4.0,9.0,30.0,10000.0,99999,6.0,(-977.9945233064176+0j),0.4,1116060309110002140302004000051000600407710086000
3152,EGBB,52.4539,-1.74803,2024-04-10 00:20:00,,,,,7.0,1021.0,(3069.52669649834+0j),2.0,6.0,250.0,10000.0,99999,,(2050.42669649834+0j),0.0,1116002506100702020302104000051000600007000080000
3159,EGKK,51.1481,-0.19028,2024-04-10 00:20:00,,,,,6.0,1023.0,(2437.1264287903145+0j),4.0,7.0,230.0,10000.0,99999,,(1416.0264287903146+0j),0.0,1116002307100602040302304000051000600007000080000
3160,EGLF,51.2758,-0.77633,2024-04-10 00:20:00,,,,,7.0,1023.0,(2452.9818663019955+0j),4.0,9.0,250.0,10000.0,99999,,(1432.8818663019956+0j),0.0,1116002509100702040302304000051000600007000080000
3162,EGMD,50.9561,0.93917,2024-04-10 00:20:00,,,,,6.0,1023.0,(1099.9289153101831+0j),4.0,7.0,260.0,10000.0,99999,,0j,0.0,1116002607100602040302304000051000600007000080000
3163,EGNJ,53.5744,-0.35083,2024-04-10 00:20:00,,,,,6.0,1019.0,(1813.5322338076091+0j),2.0,8.0,230.0,10000.0,99999,,(798.9322338076091+0j),0.0,1116002308100602020301904000051000600007000080000
3165,EGNX,52.8311,-1.32806,2024-04-10 00:20:00,,,,,6.0,1021.0,(3285.4752751371598+0j),2.0,7.0,210.0,10000.0,99999,,(2267.6752751371596+0j),0.0,1116002107100602020302104000051000600007000080000
3174,EGTE,50.7344,-3.41389,2024-04-10 00:20:00,,,,,5.0,1025.0,(1834.408035157218+0j),4.0,4.0,180.0,10000.0,99999,1.0,(811.108035157218+0j),0.0,1116011804100502040302504000051000600007000081000
3175,EGAC,54.6181,-5.8725,2024-04-10 00:20:00,,,,,5.0,1018.0,(1124.6162023890383+0j),2.0,7.0,180.0,10000.0,99999,,(107.91620238903829+0j),0.0,1116001807100502020301804000051000600007000080000
3177,EGGW,51.8747,-0.36833,2024-04-10 00:20:00,,,,,5.0,1022.0,(6131.770392970337+0j),3.0,8.0,250.0,10000.0,99999,,(5112.570392970337+0j),0.0,1116002508100502030302204000051000600007000080000
3178,EGLC,51.5053,0.05528,2024-04-10 00:20:00,,,,,8.0,1023.0,(1107.449644826348+0j),4.0,8.0,240.0,10000.0,99999,,(87.749644826348+0j),0.0,1116002408100802040302304000051000600007000080000
3180,EGPC,58.4589,-3.09306,2024-04-10 00:20:00,,,,,4.0,1010.0,(2305.068008458992+0j),2.0,14.0,260.0,10000.0,99999,3.0,(1297.668008458992+0j),0.0,1116032614100402020301004000051000600007000083000
3182,EGPF,55.8719,-4.43306,2024-04-10 00:20:00,,,,,4.0,1016.0,(1252.0388431552258+0j),2.0,8.0,240.0,10000.0,99999,,(238.53884315522578+0j),0.0,1116002408100402020301604000051000600007000080000
3185,EGSS,51.885,0.235,2024-04-10 00:20:00,,,,,5.0,1022.0,(4251.438803081463+0j),2.0,8.0,230.0,10000.0,99999,,(3232.0388030814634+0j),0.0,1116002308100502020302204000051000600007000080000
3192,EDGS,50.7077,8.08297,2024-04-10 00:20:00,,,,,6.0,1020.0,(15.621781855947935+0j),3.0,8.0,260.0,10000.0,99999,5.0,(-1004.4782181440521+0j),0.0,1116052608100602030302004000051000600007000085000
3193,EDLV,51.6024,6.14217,2024-04-10 00:20:00,,,,,9.0,1020.0,(1463.6670904864923+0j),5.0,10.0,220.0,10000.0,99999,,0j,0.0,1116002210100902050302004000051000600007000080000
3199,ESGT,58.3181,12.345,2024-04-10 00:20:00,,,,,8.0,1007.0,(1663.3007337458487+0j),7.0,8.0,170.0,10000.0,99999,7.0,(656.9007337458487+0j),2.5,1116071708100802070300704000051000602507000087000
3201,ESMQ,56.6855,16.2876,2024-04-10 00:20:00,,,,,10.0,1009.0,(1068.3371786804273+0j),9.0,6.0,200.0,10000.0,99999,1.0,(61.23717868042729+0j),0.0,1116012006101002090300904000051000600007000081000
3203,ESNG,67.1324,20.8146,2024-04-10 00:20:00,,,,,-6.0,1005.0,(283299.4163764243+0j),-7.0,0.0,0.0,10000.0,99999,,(282292.2163764243+0j),0.0,1116000000110602170300504000051000600007000080000
3204,ESNK,63.0486,17.7689,2024-04-10 00:20:00,53.0,36.0,V,green,2.0,1006.0,(1656.428177050987+0j),2.0,0.0,0.0,10000.0,99999,4.0,(648.428177050987+0j),0.0,1116040000100202020300604000051000600007530084000
3205,ESNL,64.5483,18.7162,2024-04-10 00:20:00,,,,,2.0,1006.0,(16.177771562820354+0j),0.0,5.0,140.0,10000.0,99999,3.0,0j,0.0,1116031405100202000300604000051000600007000083000
3206,ESNX,65.5903,19.2819,2024-04-10 00:20:00,,,,,1.0,1005.0,(28.54689456587788+0j),-1.0,7.0,120.0,10000.0,99999,,0j,0.0,1116001207100102110300504000051000600007000080000
3207,ESOE,59.2237,15.038,2024-04-10 00:20:00,61.0,36.0,^,green,9.0,1006.0,(1821.4337454963236+0j),8.0,7.0,260.0,6000.0,99999,3.0,(815.4337454963236+0j),0.0,1113032607100902080300604000051000600007610083000
3208,ESSL,58.4062,15.6805,2024-04-10 00:20:00,,,,,9.0,1007.0,(1747.0858796047762+0j),8.0,16.0,280.0,10000.0,99999,3.0,(740.0858796047762+0j),0.0,1116032816100902080300704000051000600007000083000
3209,ESTA,56.2961,12.8471,2024-04-10 00:20:00,,,,,9.0,1010.0,(1284.6122276897058+0j),9.0,6.0,160.0,10000.0,99999,,(274.61222768970583+0j),0.8,1116001606100902090301004000051000600807000080000
3210,ESTL,56.0828,13.2125,2024-04-10 00:20:00,,,,,9.0,1011.0,(1604.4493953165406+0j),9.0,5.0,180.0,10000.0,99999,,(593.8493953165406+0j),0.0,1116001805100902090301104000051000600007000080000
3211,ESUT,65.8061,15.0828,2024-04-10 00:20:00,,,,,-1.0,1002.0,(51.28499520883107+0j),-2.0,3.0,,10000.0,99999,3.0,(-954.6150047911689+0j),0.0,1116033603110102120300204000051000600007000083000
3212,EETN,59.4133,24.8328,2024-04-10 00:20:00,,,,,9.0,1012.0,(1564.7696994351857+0j),9.0,6.0,130.0,10000.0,99999,,(550.9696994351857+0j),0.0,1116001306100902090301204000051000600007000080000
3213,EETU,58.3075,26.6904,2024-04-10 00:20:00,,,,,9.0,1013.0,(1985.51596712536+0j),7.0,7.0,120.0,10000.0,99999,,(972.51596712536+0j),0.0,1116001207100902070301304000051000600007000080000
3214,EFHK,60.3172,24.9633,2024-04-10 00:20:00,,,,,6.0,1013.0,(2234.7381368805163+0j),5.0,6.0,100.0,10000.0,99999,,(1220.7381368805163+0j),0.0,1116001006100602050301304000051000600007000080000
3216,EVLA,56.5175,21.0969,2024-04-10 00:20:00,,,,,17.0,1009.0,(1041.673015690735+0j),13.0,6.0,150.0,10000.0,99999,,(31.873015690734974+0j),0.0,11160015061017020130300904000051000600007000080000
3217,EVRA,56.9236,23.9711,2024-04-10 00:20:00,,,,,16.0,1011.0,(1089.996985893174+0j),13.0,5.0,150.0,10000.0,99999,,0j,0.0,11160015051016020130301104000051000600007000080000
3218,EYKA,54.9639,24.0848,2024-04-10 00:20:00,,,,,13.0,1012.0,(1780.6631612926267+0j),10.0,3.0,150.0,10000.0,99999,,0j,0.0,11160015031013020100301204000051000600007000080000
3219,EYPA,55.9732,21.0939,2024-04-10 00:20:00,,,,,18.0,1009.0,(1073.0517024597839+0j),11.0,7.0,160.0,10000.0,99999,,(63.25170245978393+0j),0.0,11160016071018020110300904000051000600007000080000
3220,EYVI,54.6341,25.2858,2024-04-10 00:20:00,,,,,15.0,1013.0,(2865.4278690332058+0j),9.0,5.0,170.0,10000.0,99999,,(1852.0278690332057+0j),0.0,1116001705101502090301304000051000600007000080000
3239,ESGJ,57.7576,14.0687,2024-04-10 00:20:00,,,,,8.0,1008.0,(5393.347313809444+0j),8.0,4.0,200.0,10000.0,99999,3.0,(4386.747313809444+0j),4.9,1116032004100802080300804000051000604907000083000
3240,ESKN,58.7886,16.9122,2024-04-10 00:20:00,,,,,7.0,1006.0,(1783.258262088669+0j),5.0,5.0,120.0,10000.0,99999,3.0,(774.658262088669+0j),0.0,1116031205100702050300604000051000600007000083000
3241,ESMS,55.53631,13.3762,2024-04-10 00:20:00,,,,,9.0,1012.0,(2068.0752891374605+0j),7.0,9.0,220.0,10000.0,99999,,(1056.8752891374604+0j),0.0,1116002209100902070301204000051000600007000080000
3242,ESMT,56.6911,12.8202,2024-04-10 00:20:00,,,,,8.0,1009.0,(1481.7935300034053+0j),8.0,10.0,180.0,10000.0,99999,,(472.1935300034053+0j),0.6,1116001810100802080300904000051000600607000080000
3243,ESSD,60.422,15.5152,2024-04-10 00:20:00,51.0,36.0,T,green,10.0,1005.0,(3199.0878661249767+0j),8.0,10.0,170.0,10000.0,99999,7.0,(2191.8878661249764+0j),0.0,1116071710101002080300504000051000600007510087000
3250,ENBS,70.6005,29.6914,2024-04-10 00:20:00,71.0,36.0,h,magenta,-2.0,1011.0,(964.3726953546087+0j),-3.0,20.0,140.0,10000.0,99999,6.0,(-46.62730464539129+0j),0.0,1116061420110202130301104000051000600007710086000
3251,ENHK,70.4867,22.1397,2024-04-10 00:20:00,61.0,36.0,^,green,3.0,1004.0,(1256.008628260295+0j),1.0,16.0,90.0,10000.0,99999,1.0,(251.00862826029493+0j),0.1,1116010916100302010300404000051000600107610081000
3252,ENHV,71.0097,25.9836,2024-04-10 00:20:00,71.0,36.0,h,magenta,0.0,1008.0,(38.54658873248145+0j),-2.0,16.0,150.0,3600.0,99999,,(-971.5534112675185+0j),0.1,1112001516100002120300804000051000600107710080000
3253,ENKB,63.1118,7.82452,2024-04-10 00:20:00,61.0,36.0,^,green,7.0,997.0,(2168.185684401202+0j),6.0,7.0,250.0,10000.0,99999,3.0,0j,0.0,1116032507100702060399704000051000600007610083000
3254,ENNM,64.4722,11.5786,2024-04-10 00:20:00,61.0,36.0,^,green,6.0,999.0,(1039.1646447231633+0j),2.0,8.0,30.0,10000.0,99999,8.0,(37.264644723163315+0j),0.0,1116080308100602020399904000051000600007610088000
3255,ENRA,66.3639,14.3014,2024-04-10 00:20:00,,,,,1.0,1002.0,(11.78404850830566+0j),-1.0,3.0,350.0,10000.0,99999,8.0,0j,0.0,1116083503100102110300204000051000600007000088000
3256,ENSG,61.1561,7.13778,2024-04-10 00:20:00,,,,,4.0,998.0,(998+0j),4.0,2.0,70.0,300.0,99999,,(-1+0j),1.3,1110000702100402040399804000051000601307000080000
3258,ENSR,69.7868,20.9594,2024-04-10 00:20:00,,,,,3.0,1003.0,(1192.7324324863748+0j),1.0,3.0,290.0,10000.0,99999,,(187.73243248637482+0j),0.0,1116002903100302010300304000051000600007000080000
3260,LICJ,38.176,13.091,2024-04-10 00:20:00,,,,,18.0,1019.0,(1148.0035873769784+0j),14.0,19.0,250.0,10000.0,99999,1.0,(129.80358737697838+0j),0.0,11160125191018020140301904000051000600007000081000
3261,LIPX,45.3957,10.8885,2024-04-10 00:20:00,,,,,14.0,1013.0,(1670.9574038659953+0j),13.0,3.0,280.0,10000.0,99999,6.0,(656.2574038659952+0j),1.5,11160628031014020130301304000051000601507000086000
3264,EGAA,54.6575,-6.21583,2024-04-10 00:20:00,,,,,4.0,1018.0,(4099.000535875551+0j),2.0,6.0,190.0,10000.0,99999,,(3082.4005358755508+0j),0.0,1116001906100402020301804000051000600007000080000
3266,EGFF,51.3967,-3.34333,2024-04-10 00:20:00,,,,,8.0,1023.0,(2148.954608546073+0j),7.0,7.0,270.0,10000.0,99999,6.0,(1127.454608546073+0j),0.0,1116062707100802070302304000051000600007000086000
3268,EGGP,53.3336,-2.84972,2024-04-10 00:20:00,,,,,7.0,1020.0,(1449.6229872740125+0j),4.0,6.0,240.0,10000.0,99999,,0j,0.0,1116002406100702040302004000051000600007000080000
3271,EGNT,55.0375,-1.69167,2024-04-10 00:20:00,,,,,4.0,1016.0,(4064.931851788981+0j),2.0,13.0,270.0,10000.0,99999,,(3052.531851788981+0j),0.0,1116002713100402020301604000051000600007000080000
3272,EGPA,58.9578,-2.905,2024-04-10 00:20:00,,,,,5.0,1008.0,(1376.3153025201605+0j),2.0,9.0,280.0,10000.0,99999,2.0,(370.21530252016044+0j),0.0,1116022809100502020300804000051000600007000082000
3273,EGPB,59.8789,-1.29556,2024-04-10 00:20:00,,,,,6.0,1005.0,(1122.21983832206+0j),3.0,14.0,320.0,10000.0,99999,6.0,(119.21983832206001+0j),0.5,1116063214100602030300504000051000600507000086000
3275,EGPE,57.5425,-4.0475,2024-04-10 00:20:00,,,,,4.0,1013.0,(1295.8664559046615+0j),1.0,13.0,240.0,10000.0,99999,,(285.06645590466155+0j),0.0,1116002413100402010301304000051000600007000080000
3284,ENBN,65.4611,12.2175,2024-04-10 00:20:00,,,,,9.0,999.0,(1095.7265418633722+0j),2.0,12.0,120.0,10000.0,99999,2.0,0j,0.0,1116021212100902020399904000051000600007000082000
3285,ENMH,71.0297,27.8267,2024-04-10 00:20:00,71.0,36.0,h,magenta,-1.0,1010.0,(114.04952566868155+0j),-3.0,19.0,150.0,5000.0,99999,,(-897.4504743313184+0j),0.0,1113001519110102130301004000051000600007710080000
3290,ENBL,61.3911,5.75694,2024-04-10 00:20:00,61.0,36.0,^,green,5.0,998.0,(10.915192643553867+0j),4.0,2.0,,10000.0,99999,7.0,(-988.0848073564462+0j),2.1,1116073602100502040399804000051000602107610087000
3291,ENHF,70.6797,23.6686,2024-04-10 00:20:00,,,,,2.0,1004.0,(7438.1293277975965+0j),-1.0,5.0,,10000.0,99999,1.0,0j,0.0,1116013605100202110300404000051000600007000081000
3292,ENKR,69.7258,29.8913,2024-04-10 00:20:00,,,,,-1.0,1011.0,(450.8632664868423+0j),-4.0,12.0,120.0,10000.0,99999,8.0,0j,0.0,1116081212110102140301104000051000600007000088000
3293,ENSD,61.83,6.10583,2024-04-10 00:20:00,61.0,36.0,^,green,8.0,998.0,(1963.4270072252682+0j),8.0,2.0,,10000.0,99999,4.0,0j,0.0,1116043602100802080399804000051000600007610084000
3294,ENSK,68.57883,15.03342,2024-04-10 00:20:00,,,,,6.0,1000.0,(1063.4803790483486+0j),2.0,7.0,150.0,10000.0,99999,6.0,(61.08037904834862+0j),0.0,1116061507100602020300004000051000600007000086000
3295,ENSS,70.3554,31.0449,2024-04-10 00:20:00,,,,,1.0,1013.0,(2813.2208146660137+0j),-4.0,19.0,130.0,10000.0,99999,8.0,(1800.4208146660137+0j),0.0,1116081319100102140301304000051000600007000088000
3296,LGSA,35.5317,24.1497,2024-04-10 00:20:00,,,,,13.0,1016.0,(2612.3503535135587+0j),11.0,5.0,260.0,10000.0,99999,1.0,(1595.6503535135587+0j),0.0,11160126051013020110301604000051000600007000081000
3297,LIBD,41.1389,16.7606,2024-04-10 00:20:00,,,,,16.0,1014.0,(1426.5139766247298+0j),6.0,2.0,,10000.0,99999,,(411.11397662472984+0j),0.0,1116003602101602060301404000051000600007000080000
3298,LIBR,40.6576,17.947,2024-04-10 00:20:00,,,,,14.0,1015.0,(1134.2514098601105+0j),10.0,8.0,160.0,10000.0,99999,,(118.05140986011043+0j),0.0,11160016081014020100301504000051000600007000080000
3299,LICC,37.4668,15.0664,2024-04-10 00:20:00,,,,,16.0,1017.0,(1103.2014746714913+0j),12.0,12.0,260.0,10000.0,99999,,(85.20147467149127+0j),0.0,11160026121016020120301704000051000600007000080000
3301,LIME,45.6739,9.70417,2024-04-10 00:20:00,61.0,36.0,^,green,13.0,1013.0,(3725.3264443248754+0j),11.0,6.0,330.0,10000.0,99999,4.0,(2710.6264443248756+0j),2.6,11160433061013020110301304000051000602607610084000
3302,LIMF,45.2008,7.64963,2024-04-10 00:20:00,,,,,9.0,1015.0,(6334.046559462787+0j),9.0,8.0,80.0,10000.0,99999,2.0,(5317.7465594627865+0j),1.6,1116020808100902090301504000051000601607000082000
3303,LIPH,45.6484,12.1944,2024-04-10 00:20:00,,,,,17.0,1014.0,(1137.2560430237484+0j),15.0,4.0,340.0,10000.0,99999,6.0,(122.65604302374834+0j),0.0,11160634041017020150301404000051000600007000086000
3304,LIPQ,45.8275,13.4722,2024-04-10 00:20:00,,,,,13.0,1013.0,(1119.0925471710175+0j),13.0,2.0,,10000.0,99999,3.0,(104.29254717101753+0j),0.0,11160336021013020130301304000051000600007000083000
3305,LIPR,44.0203,12.6117,2024-04-10 00:20:00,,,,,17.0,1013.0,(1095.834602785244+0j),8.0,1.0,,10000.0,99999,8.0,(80.93460278524401+0j),0.0,1116083601101702080301304000051000600007000088000
3307,LOWG,46.9911,15.4396,2024-04-10 00:20:00,,,,,16.0,1014.0,(4222.718439114568+0j),9.0,7.0,360.0,10000.0,99999,,(3211.7184391145684+0j),0.0,1116003607101602090301404000051000600007000080000
3312,ENFL,61.5836,5.02472,2024-04-10 00:20:00,80.0,36.0,q,green,7.0,998.0,(1185.041728805153+0j),6.0,9.0,180.0,10000.0,99999,8.0,(186.04172880515307+0j),2.5,1116081809100702060399804000051000602507800088000
3313,ENMS,65.784,13.2149,2024-04-10 00:20:00,,,,,4.0,1001.0,(3635.3671595152528+0j),-1.0,3.0,,10000.0,99999,8.0,0j,0.0,1116083603100402110300104000051000600007000088000
3314,ENRM,64.8383,11.1461,2024-04-10 00:20:00,,,,,9.0,998.0,(1051.6483284869398+0j),2.0,5.0,90.0,10000.0,99999,6.0,(49.74832848693984+0j),0.0,1116060905100902020399804000051000600007000086000
3315,LGKL,37.0683,22.0255,2024-04-10 00:20:00,,,,,11.0,1016.0,(1099.4638249756931+0j),9.0,5.0,320.0,10000.0,99999,,(82.46382497569311+0j),0.0,1116003205101102090301604000051000600007000080000
3316,LGTS,40.5197,22.9709,2024-04-10 00:20:00,,,,,10.0,1017.0,(1094.672546446591+0j),5.0,7.0,100.0,10000.0,99999,,(76.97254644659097+0j),0.0,1116001007101002050301704000051000600007000080000
3319,LIEE,39.2515,9.05428,2024-04-10 00:20:00,,,,,14.0,1022.0,(1054.647785593948+0j),8.0,9.0,310.0,10000.0,99999,1.0,(33.34778559394795+0j),0.0,1116013109101402080302204000051000600007000081000
3320,LIEO,40.8987,9.51763,2024-04-10 00:20:00,,,,,16.0,1019.0,(1100.8698035553357+0j),7.0,23.0,260.0,10000.0,99999,,(82.06980355533574+0j),0.0,1116002623101602070301904000051000600007000080000
3321,LIMJ,44.4133,8.8375,2024-04-10 00:20:00,,,,,14.0,1014.0,(1046.3922256284377+0j),9.0,10.0,30.0,10000.0,99999,3.0,(31.992225628437723+0j),3.1,1116030310101402090301404000051000603107000083000
3322,LIML,45.4451,9.27674,2024-04-10 00:20:00,,,,,12.0,1015.0,(2219.933197756093+0j),10.0,11.0,320.0,10000.0,99999,3.0,(1204.2331977560927+0j),0.3,11160332111012020100301504000051000600307000083000
3324,LIRP,43.6839,10.3927,2024-04-10 00:15:00,63.0,36.0,',green,15.0,1014.0,(1027.9002263140326+0j),15.0,7.0,240.0,7000.0,99999,4.0,(12.200226314032534+0j),1.2,11140424071015020150301404000051000601107630084000
3325,LIRQ,43.81,11.2051,2024-04-10 00:20:00,,,,,15.0,1014.0,(1363.6019456638562+0j),13.0,2.0,100.0,10000.0,99999,6.0,(348.40194566385617+0j),0.0,11160610021015020130301404000051000600007000086000
3327,LOWL,48.2332,14.1875,2024-04-10 00:20:00,,,,,8.0,1023.0,(7027.43983633116+0j),4.0,17.0,280.0,10000.0,99999,3.0,(6008.039836331161+0j),0.0,1116032817100802040302304000051000600007000083000
3328,LOWS,47.7933,13.0043,2024-04-10 00:20:00,61.0,36.0,^,green,6.0,1025.0,(12.309286701115976+0j),4.0,6.0,300.0,10000.0,99999,3.0,(-1010.190713298884+0j),0.2,1116033006100602040302504000051000600207610083000
3348,ESDF,56.2667,15.265,2024-04-10 00:20:00,,,,,11.0,1010.0,(1678.2783609219832+0j),9.0,7.0,280.0,10000.0,99999,7.0,(669.7783609219832+0j),0.0,1116072807101102090301004000051000600007000087000
3349,ESKM,60.9579,14.5114,2024-04-10 00:20:00,61.0,36.0,^,green,8.0,1003.0,(4671.7082120401565+0j),8.0,6.0,130.0,10000.0,99999,5.0,(3665.8082120401564+0j),1.3,1116051306100802080300304000051000601307610085000
3350,ESPA,65.5438,22.122,2024-04-10 00:20:00,,,,,-2.0,1008.0,(195.7601232929922+0j),-2.0,5.0,140.0,10000.0,99999,,(-813.1398767070077+0j),0.0,1116001405110202120300804000051000600007000080000
3359,ENAT,69.9761,23.3717,2024-04-10 00:20:00,,,,,2.0,1006.0,(1165.6711140467296+0j),-1.0,9.0,150.0,10000.0,99999,8.0,(159.87111404672964+0j),0.0,1116081509100202110300604000051000600007000088000
3360,ENBV,70.8714,29.0342,2024-04-10 00:20:00,,,,,-0.0,1011.0,(38.661310722756696+0j),-3.0,8.0,130.0,10000.0,99999,4.0,(-973.3386892772432+0j),0.0,1116041308110002130301104000051000600007000084000
3361,ENML,62.7447,7.2625,2024-04-10 00:20:00,61.0,36.0,^,green,7.0,997.0,(1046.1749114203908+0j),7.0,3.0,180.0,10000.0,99999,2.0,(47.6749114203908+0j),0.0,1116021803100702070399704000051000600007610082000
3362,ENNA,70.0688,24.9735,2024-04-10 00:20:00,,,,,-0.0,1008.0,(38.54658873248145+0j),-2.0,18.0,180.0,10000.0,99999,8.0,(-968.8534112675185+0j),0.2,1116081818110002120300804000051000600207000088000
3363,ENOV,62.18,6.0741,2024-04-10 00:20:00,61.0,36.0,^,green,7.0,997.0,(2423.8383437506213+0j),6.0,0.0,0.0,10000.0,99999,,0j,0.0,1116000000100702060399704000051000600007610080000
3364,ENRS,67.5278,12.1033,2024-04-10 00:20:00,,,,,6.0,1000.0,(1040.204849572736+0j),4.0,12.0,200.0,10000.0,99999,8.0,0j,0.0,1116082012100602040300004000051000600007000088000
3365,LGAD,37.9207,21.2926,2024-04-10 00:20:00,,,,,10.0,1017.0,(1215.612379804609+0j),9.0,0.0,0.0,10000.0,99999,,(197.41237980460892+0j),0.0,1116000000101002090301704000051000600007000080000
3366,LIEA,40.6321,8.29077,2024-04-10 00:20:00,,,,,14.0,1021.0,(1247.3515023513512+0j),9.0,11.0,300.0,10000.0,99999,1.0,(225.55150235135125+0j),0.0,1116013011101402090302104000051000600007000081000
3367,LIMC,45.6306,8.72811,2024-04-10 00:20:00,63.0,36.0,',green,9.0,1016.0,(5052.340510957087+0j),5.0,21.0,10.0,10000.0,99999,6.0,(4036.140510957087+0j),0.0,1116060121100902050301604000051000600007630086000
3368,LIPE,44.5354,11.2887,2024-04-10 00:20:00,,,,,15.0,1013.0,(1313.1454510577778+0j),13.0,6.0,250.0,6000.0,99999,3.0,(298.6454510577778+0j),0.0,11130325061015020130301304000051000600007000083000
3369,LIPZ,45.5053,12.3519,2024-04-10 00:20:00,,,,,16.0,1014.0,(1029.207523357828+0j),15.0,5.0,30.0,10000.0,99999,3.0,(14.90752335782804+0j),0.0,11160303051016020150301404000051000600007000083000
3370,LIRA,41.7994,12.5949,2024-04-10 00:20:00,,,,,14.0,1016.0,(2272.2306840960036+0j),13.0,5.0,220.0,10000.0,99999,6.0,(1255.4306840960037+0j),0.0,11160622051014020130301604000051000600007000086000
3371,LOWI,47.2602,11.344,2024-04-10 00:20:00,61.0,36.0,^,green,5.0,1025.0,(17.333144588583156+0j),4.0,4.0,60.0,8000.0,99999,3.0,(-1004.2668554114168+0j),3.5,1114030604100502040302504000051000603507610083000
3372,LOWK,46.6425,14.3377,2024-04-10 00:20:00,,,,,15.0,1014.0,(5707.377328481975+0j),8.0,5.0,100.0,10000.0,99999,,(4693.677328481976+0j),0.0,1116001005101502080301404000051000600007000080000
3373,LOWW,48.1103,16.5697,2024-04-10 00:20:00,,,,,13.0,1017.0,(3029.582009921088+0j),5.0,19.0,290.0,10000.0,99999,,(2016.2820099210878+0j),0.0,1116002919101302050301704000051000600007000080000
3376,EBCI,50.4592,4.45382,2024-04-10 00:20:00,,,,,6.0,1023.0,(5986.794320525885+0j),3.0,11.0,240.0,10000.0,99999,,(4965.994320525885+0j),0.0,1116002411100602030302304000051000600007000080000
3377,EBLG,50.6374,5.44322,2024-04-10 00:20:00,,,,,8.0,1022.0,(4925.54311834875+0j),4.0,12.0,240.0,10000.0,99999,,(3905.54311834875+0j),0.0,1116002412100802040302204000051000600007000080000
3378,EBOS,51.1989,2.86222,2024-04-10 00:20:00,,,,,10.0,1022.0,(1067.8290867537878+0j),4.0,15.0,280.0,10000.0,99999,,(47.829086753787806+0j),0.0,1116002815101002040302204000051000600007000080000
3388,EGJJ,49.2079,-2.19551,2024-04-10 00:20:00,,,,,9.0,1026.0,(2307.6211725616677+0j),6.0,11.0,280.0,10000.0,99999,1.0,(1282.1211725616677+0j),0.0,1116012811100902060302604000051000600007000081000
3395,EKRN,55.0633,14.7596,2024-04-10 00:20:00,,,,,7.0,1013.0,(1283.5791418885274+0j),6.0,9.0,260.0,10000.0,99999,3.0,(272.47914188852735+0j),0.0,1116032609100702060301304000051000600007000083000
3396,ELLX,49.6266,6.21152,2024-04-10 00:20:00,,,,,4.0,1023.0,(15.02934206501063+0j),3.0,4.0,220.0,10000.0,99999,,(-1007.4706579349894+0j),0.0,1116002204100402030302304000051000600007000080000
3398,EDDB,52.36217,13.50067,2024-04-10 00:20:00,61.0,36.0,^,green,10.0,1018.0,(1617.41215711758+0j),8.0,10.0,220.0,10000.0,99999,1.0,(601.4121571175799+0j),0.0,1116012210101002080301804000051000600007610081000
3399,EDDC,51.1328,13.7672,2024-04-10 00:20:00,58.0,36.0,[,green,8.0,1020.0,(5549.951070430741+0j),7.0,6.0,240.0,10000.0,99999,3.0,(4532.051070430742+0j),0.0,1116032406100802070302004000051000600007580083000
3400,EDDE,50.9798,10.9581,2024-04-10 00:20:00,,,,,9.0,1020.0,(6637.376118288148+0j),4.0,10.0,240.0,10000.0,99999,,(5618.876118288148+0j),0.0,1116002410100902040302004000051000600007000080000
3402,EDDG,52.1346,7.68483,2024-04-10 00:20:00,,,,,10.0,1019.0,(1635.7353239939982+0j),5.0,10.0,220.0,10000.0,99999,6.0,(619.3353239939983+0j),0.0,1116062210101002050301904000051000600007000086000
3403,EDDH,53.6304,9.98823,2024-04-10 00:20:00,,,,,10.0,1014.0,(1204.572139292913+0j),6.0,13.0,230.0,10000.0,99999,6.0,(191.37213929291306+0j),0.0,1116062313101002060301404000051000600007000086000
3404,EDDK,50.8659,7.14274,2024-04-10 00:20:00,,,,,9.0,1022.0,(2429.4701126510936+0j),5.0,6.0,210.0,10000.0,99999,1.0,(1409.5701126510935+0j),0.0,1116012106100902050302204000051000600007000081000
3405,EDDL,51.2895,6.76678,2024-04-10 00:20:00,,,,,9.0,1021.0,(1652.964537640351+0j),5.0,12.0,230.0,10000.0,99999,,(634.064537640351+0j),0.0,1116002312100902050302104000051000600007000080000
3406,EDDM,48.3538,11.7861,2024-04-10 00:20:00,61.0,36.0,^,green,6.0,1024.0,(12.808130427036886+0j),5.0,12.0,230.0,10000.0,99999,3.0,(-1010.1918695729631+0j),1.0,1116032312100602050302404000051000601007610083000
3407,EDDN,49.4987,11.0669,2024-04-10 00:20:00,,,,,8.0,1023.0,(7464.176141183061+0j),4.0,4.0,200.0,10000.0,99999,1.0,(6442.576141183061+0j),0.4,1116012004100802040302304000051000600407000081000
3408,EDDP,51.4324,12.2416,2024-04-10 00:20:00,,,,,10.0,1019.0,(3052.81191611605+0j),7.0,9.0,210.0,10000.0,99999,,(2034.6119161160498+0j),0.0,1116002109101002070301904000051000600007000080000
3409,EDDR,49.2146,7.10951,2024-04-10 00:20:00,,,,,7.0,1024.0,(8496.93915071406+0j),3.0,6.0,240.0,10000.0,99999,3.0,(7473.33915071406+0j),0.0,1116032406100702030302404000051000600007000083000
3410,EDDS,48.6899,9.22196,2024-04-10 00:20:00,,,,,7.0,1023.0,(9.979119107926822+0j),3.0,4.0,220.0,10000.0,99999,,(-1013.2208808920732+0j),0.0,1116002204100702030302304000051000600007000080000
3411,EDDV,52.4611,9.68508,2024-04-10 00:20:00,,,,,10.0,1018.0,(1731.4087116395722+0j),5.0,11.0,240.0,10000.0,99999,1.0,(715.7087116395721+0j),0.0,1116012411101002050301804000051000600007000081000
3412,EDDW,53.0475,8.78667,2024-04-10 00:20:00,,,,,9.0,1016.0,(1070.6159336099508+0j),6.0,11.0,230.0,10000.0,99999,1.0,(56.715933609950866+0j),0.0,1116012311100902060301604000051000600007000081000
3414,EDFM,49.47306,8.51417,2024-04-10 00:20:00,,,,,8.0,1024.0,(2672.1628513293635+0j),6.0,2.0,200.0,10000.0,99999,3.0,(1650.6628513293635+0j),0.0,1116032002100802060302404000051000600007000083000
3415,EDHI,53.53528,9.83556,2024-04-10 00:20:00,,,,,10.0,1015.0,(1096.1004984783062+0j),6.0,13.0,230.0,10000.0,99999,8.0,(83.50049847830621+0j),0.0,1116082313101002060301504000051000600007000088000
3434,EBAW,51.1894,4.46028,2024-04-10 00:20:00,,,,,8.0,1022.0,(1198.1723335964837+0j),4.0,6.0,220.0,10000.0,99999,,(179.47233359648362+0j),0.0,1116002206100802040302204000051000600007000080000
3435,EBBR,50.9014,4.48444,2024-04-10 00:20:00,,,,,8.0,1022.0,(1943.57100345885+0j),5.0,10.0,240.0,10000.0,99999,1.0,(924.1710034588501+0j),0.0,1116012410100802050302204000051000600007000081000
3437,EGPH,55.95,-3.3725,2024-04-10 00:20:00,,,,,5.0,1015.0,(2109.4196252949305+0j),2.0,10.0,250.0,10000.0,99999,,(1097.4196252949305+0j),0.0,1116002510100502020301504000051000600007000080000
3438,EGPK,55.5094,-4.58667,2024-04-10 00:20:00,,,,,7.0,1017.0,(1360.549988087017+0j),3.0,8.0,250.0,10000.0,99999,6.0,(345.949988087017+0j),0.0,1116062508100702030301704000051000600007000086000
3439,EGPO,58.2156,-6.33111,2024-04-10 00:20:00,61.0,36.0,^,green,4.0,1012.0,(1247.1095563711501+0j),2.0,12.0,270.0,6000.0,99999,2.0,(235.90955637115007+0j),0.0,1113022712100402020301204000051000600007610082000
3440,EKAH,56.3,10.619,2024-04-10 00:20:00,,,,,9.0,1007.0,(1340.4147635769837+0j),6.0,8.0,200.0,10000.0,99999,8.0,(331.7147635769836+0j),0.0,1116082008100902060300704000051000600007000088000
3442,EKYT,57.09276,9.84924,2024-04-10 00:20:00,,,,,9.0,1005.0,(1043.4664282478043+0j),6.0,12.0,180.0,10000.0,99999,8.0,(36.96642824780429+0j),0.0,1116081812100902060300504000051000600007000088000
3443,ENAN,69.2925,16.1442,2024-04-10 00:20:00,,,,,6.0,1000.0,(1257.256918951078+0j),-0.0,15.0,200.0,10000.0,99999,,0j,0.0,1116002015100602100300004000051000600007000080000
3444,ENBO,67.2692,14.3653,2024-04-10 00:20:00,,,,,8.0,1001.0,(1187.2920667899723+0j),-0.0,13.0,100.0,10000.0,99999,,(184.49206678997234+0j),0.0,1116001013100802100300104000051000600007000080000
3445,ENGM,60.1939,11.1004,2024-04-10 00:20:00,,,,,6.0,1002.0,(6437.926362505637+0j),5.0,9.0,210.0,10000.0,99999,3.0,0j,0.0,1116032109100602050300204000051000600007000083000
3446,ENOL,63.6989,9.604,2024-04-10 00:20:00,61.0,36.0,^,green,8.0,996.0,(1118.1187826973699+0j),7.0,14.0,150.0,10000.0,99999,3.0,(118.21878269736987+0j),0.0,1116031514100802070399604000051000600007610083000
3447,ENSH,68.2433,14.6692,2024-04-10 00:20:00,,,,,4.0,1001.0,(1242.8908883741783+0j),3.0,4.0,160.0,10000.0,99999,6.0,(240.8908883741783+0j),0.0,1116061604100402030300104000051000600007000086000
3448,ENTC,69.6833,18.9189,2024-04-10 00:20:00,,,,,7.0,1001.0,(1157.2801820490286+0j),-1.0,13.0,190.0,10000.0,99999,3.0,(153.78018204902855+0j),0.0,1116031913100702110300104000051000600007000083000
3449,ESSA,59.6519,17.9186,2024-04-10 00:20:00,,,,,8.0,1006.0,(1661.6489951820495+0j),6.0,5.0,160.0,10000.0,99999,,(652.8489951820495+0j),0.0,1116001605100802060300604000051000600007000080000
3457,EGSH,52.6758,1.28278,2024-04-10 00:20:00,,,,,6.0,1020.0,(1786.4215544212645+0j),3.0,9.0,250.0,10000.0,99999,,(769.8215544212645+0j),0.0,1116002509100602030302004000051000600007000080000
3465,EDAC,50.98195,12.50639,2024-04-10 00:20:00,,,,,9.0,1020.0,(4322.375170813579+0j),7.0,8.0,180.0,10000.0,99999,5.0,(3299.8751708135787+0j),0.0,1116051808100902070302004000051000600007000085000
3467,EDFH,49.9487,7.26389,2024-04-10 00:20:00,,,,,5.0,1022.0,(15.72154338463446+0j),3.0,12.0,270.0,10000.0,99999,3.0,(-1006.6784566153655+0j),0.0,1116032712100502030302204000051000600007000083000
3468,EDHK,54.37944,10.14528,2024-04-10 00:20:00,,,,,9.0,1012.0,(1434.4619143334075+0j),6.0,14.0,230.0,10000.0,99999,6.0,(422.46191433340755+0j),0.0,1116062314100902060301204000051000600007000086000
3471,EDLP,51.6141,8.61632,2024-04-10 00:20:00,,,,,8.0,1019.0,(5175.066047083059+0j),5.0,9.0,240.0,10000.0,99999,1.0,(4157.266047083059+0j),0.0,1116012409100802050301904000051000600007000081000
3472,EDLW,51.5183,7.61224,2024-04-10 00:20:00,,,,,9.0,1020.0,(3091.9424544251005+0j),5.0,13.0,210.0,10000.0,99999,6.0,(2073.4424544251005+0j),0.0,1116062113100902050302004000051000600007000086000
3477,EDSB,48.7794,8.0805,2024-04-10 00:20:00,,,,,7.0,1025.0,(3672.5517581540444+0j),4.0,5.0,220.0,10000.0,99999,,(2649.3517581540445+0j),0.0,1116002205100702040302504000051000600007000080000
3479,EDVE,52.3192,10.5561,2024-04-10 00:20:00,,,,,10.0,1018.0,(2230.345585206252+0j),4.0,9.0,250.0,10000.0,99999,2.0,(1214.645585206252+0j),0.0,1116022509101002040301804000051000600007000082000
3480,EDVK,51.40833,9.3775,2024-04-10 00:20:00,,,,,8.0,1020.0,(6560.084482829518+0j),3.0,6.0,240.0,10000.0,99999,1.0,(5541.884482829518+0j),0.0,1116012406100802030302004000051000600007000081000
3487,EDAH,53.8787,14.1523,2024-04-10 00:20:00,,,,,12.0,1015.0,(1298.4249286705149+0j),7.0,12.0,250.0,10000.0,99999,8.0,(284.9249286705149+0j),0.0,1116082512101202070301504000051000600007000088000
3488,EDHL,53.8054,10.7192,2024-04-10 00:20:00,,,,,10.0,1015.0,(1205.760080258685+0j),5.0,6.0,,10000.0,99999,6.0,(192.7600802586851+0j),0.0,1116063606101002050301504000051000600007000086000
3490,EDMA,48.42528,10.93167,2024-04-10 00:20:00,,,,,6.0,1024.0,(12.998896695836489+0j),4.0,5.0,250.0,10000.0,99999,4.0,(-1010.5011033041635+0j),0.2,1116042505100602040302404000051000600207000084000
3491,EDMO,48.0814,11.2831,2024-04-10 00:20:00,,,,,5.0,1024.0,(17.54820273112292+0j),4.0,11.0,230.0,10000.0,99999,4.0,(-1006.6517972688771+0j),0.5,1116042311100502040302404000051000600507000084000
3492,EDNY,47.6713,9.51149,2024-04-10 00:20:00,,,,,6.0,1026.0,(12.017627172579115+0j),5.0,3.0,190.0,10000.0,99999,6.0,(-1013.0823728274208+0j),0.1,1116061903100602050302604000051000600107000086000
3494,EDTL,48.3693,7.82772,2024-04-10 00:20:00,,,,,8.0,1025.0,(3963.4365591456904+0j),5.0,5.0,200.0,10000.0,99999,3.0,(2939.6365591456906+0j),0.0,1116032005100802050302504000051000600007000083000
3495,EDXW,54.9132,8.34047,2024-04-10 00:20:00,,,,,8.0,1009.0,(1238.7174161766395+0j),5.0,26.0,240.0,10000.0,99999,5.0,(230.6174161766395+0j),0.0,1116052426100802050300904000051000600007000085000
3507,EDDF,50.0264,8.54313,2024-04-10 00:20:00,,,,,7.0,1023.0,(3342.780233899386+0j),3.0,9.0,200.0,10000.0,99999,,(2321.180233899386+0j),0.0,1116002009100702030302304000051000600007000080000
3508,LIBP,42.4317,14.1811,2024-04-10 00:20:00,,,,,12.0,1013.0,(1155.4333572113417+0j),12.0,4.0,210.0,10000.0,99999,6.0,(140.73335721134163+0j),0.0,11160621041012020120301304000051000600007000086000
3509,LICA,38.9054,16.2423,2024-04-10 00:20:00,,,,,10.0,1017.0,(1156.3257815713919+0j),9.0,4.0,80.0,10000.0,99999,,(138.32578157139187+0j),0.0,1116000804101002090301704000051000600007000080000
3510,LICR,38.0712,15.6516,2024-04-10 00:20:00,,,,,16.0,1016.0,(1233.1706242286618+0j),8.0,7.0,360.0,10000.0,99999,,(214.4706242286618+0j),0.0,1116003607101602080301604000051000600007000080000
3511,LIPY,43.6163,13.3623,2024-04-10 00:20:00,,,,,13.0,1013.0,(1147.0046130250407+0j),9.0,1.0,,10000.0,99999,6.0,(132.20461302504077+0j),0.0,1116063601101302090301304000051000600007000086000
3513,LICD,35.4979,12.6181,2024-04-10 00:20:00,,,,,18.0,1021.0,(1160.4646830079216+0j),16.0,13.0,340.0,10000.0,99999,1.0,(139.96468300792162+0j),0.0,11160134131018020160302104000051000600007000081000
3514,LIRZ,43.0959,12.5132,2024-04-10 00:20:00,,,,,15.0,1015.0,(3039.170803815175+0j),10.0,6.0,220.0,10000.0,99999,6.0,(2023.770803815175+0j),0.0,11160622061015020100301504000051000600007000086000
3517,EHDL,52.0606,5.87306,2024-04-10 00:25:00,,,,,9.0,1019.0,(1701.3805769880698+0j),6.0,10.0,240.0,10000.0,99999,4.0,(685.0805769880699+0j),0.0,1116042410100902060301904000051000600007000084000
3520,EHGR,51.5674,4.93183,2024-04-10 00:25:00,,,,,9.0,1020.0,(1217.113480334654+0j),5.0,7.0,240.0,10000.0,99999,5.0,(199.41348033465397+0j),0.0,1116052407100902050302004000051000600007000085000
3521,EHLE,52.4603,5.52722,2024-04-10 00:25:00,,,,,9.0,1018.0,(968.2904020961214+0j),6.0,12.0,250.0,10000.0,99999,5.0,(-46.40959790387865+0j),0.0,1116052512100902060301804000051000600007000085000
3524,EHVK,51.6564,5.70861,2024-04-10 00:25:00,,,,,8.0,1020.0,(1353.3703955568342+0j),5.0,11.0,240.0,10000.0,99999,1.0,(335.8703955568342+0j),0.0,1116012411100802050302004000051000600007000081000
3525,EHWO,51.4491,4.34203,2024-04-10 00:25:00,,,,,9.0,1021.0,(1277.275706627252+0j),6.0,11.0,270.0,10000.0,99999,6.0,(259.275706627252+0j),0.0,1116062711100902060302104000051000600007000086000
3527,EGLL,51.4706,-0.46194,2024-04-10 00:20:00,,,,,7.0,1023.0,(1471.1802555430024+0j),4.0,7.0,270.0,10000.0,99999,,(450.68025554300243+0j),0.0,1116002707100702040302304000051000600007000080000
3541,EDLN,51.23028,6.50444,2024-04-10 00:20:00,,,,,9.0,1021.0,(1551.145297785316+0j),5.0,7.0,230.0,10000.0,99999,6.0,(532.0452977853159+0j),0.0,1116062307100902050302104000051000600007000086000
3542,EDQM,50.28861,11.85639,2024-04-10 00:20:00,,,,,6.0,1021.0,(15.59917417469234+0j),5.0,9.0,220.0,10000.0,99999,3.0,(-1004.3008258253076+0j),0.7,1116032209100602050302104000051000600707000083000
3546,ENVD,70.0653,29.8447,2024-04-10 00:20:00,,,,,-0.0,1012.0,(38.699551386181774+0j),-3.0,13.0,100.0,10000.0,99999,4.0,0j,0.0,1116041013110002130301204000051000600007000084000
3564,ETAD,49.9727,6.6925,2024-04-10 00:25:00,,,,,6.0,30.19,(10.836915552187945+0j),3.0,6.0,260.0,10000.0,99999,6.0,(-1010.8630844478121+0j),0.0,111606260610060203033014000051000600007000086000
3565,EFKI,64.2855,27.6924,2024-04-10 00:20:00,,,,,2.0,1012.0,(12.407566360313888+0j),2.0,3.0,160.0,10000.0,99999,,(-1001.2924336396861+0j),0.0,1116001603100202020301204000051000600007000080000
3566,EFKU,63.0071,27.7978,2024-04-10 00:20:00,,,,,1.0,1014.0,(15.37858181762185+0j),1.0,1.0,,10000.0,99999,,(-998.6214181823782+0j),0.0,1116003601100102010301404000051000600007000080000
3573,ETHF,51.1146,9.286,2024-04-10 00:20:00,,,,,9.0,1020.0,(8380.045519926649+0j),4.0,6.0,240.0,10000.0,99999,3.0,(7361.445519926649+0j),0.0,1116032406100902040302004000051000600007000083000
3574,ETHL,48.2203,9.91002,2024-04-10 00:20:00,,,,,6.0,1024.0,(14.551757161761113+0j),3.0,6.0,220.0,10000.0,99999,4.0,(-1009.5482428382388+0j),0.1,1116042206100602030302404000051000600107000084000
3580,ETNW,52.4573,9.42717,2024-04-10 00:20:00,,,,,10.0,1017.0,(1746.8046861972791+0j),5.0,12.0,240.0,10000.0,99999,3.0,(730.7046861972791+0j),0.0,1116032412101002050301704000051000600007000083000
3608,ETHN,49.39194,9.95889,2024-04-10 00:20:00,,,,,7.0,1022.0,(10.38167778272878+0j),3.0,6.0,250.0,10000.0,99999,6.0,(-1011.7183222172713+0j),0.0,1116062506100702030302204000051000600007000086000
3609,ETMN,53.7677,8.6585,2024-04-10 00:20:00,,,,,9.0,1014.0,(1311.018167138884+0j),6.0,15.0,250.0,10000.0,99999,4.0,(298.9181671388841+0j),0.0,1116042515100902060301404000051000600007000084000
3650,EGGD,51.3827,-2.71909,2024-04-10 00:20:00,,,,,8.0,1023.0,(4685.49353811074+0j),7.0,7.0,230.0,10000.0,99999,6.0,(3664.1935381107396+0j),0.0,1116062307100802070302304000051000600007000086000
3653,EGPL,57.4811,-7.36278,2024-04-10 00:20:00,,,,,8.0,1013.0,(1096.6241351017504+0j),3.0,6.0,240.0,10000.0,99999,6.0,(84.42413510175038+0j),0.0,1116062406100802030301304000051000600007000086000
3655,EYSA,55.8939,23.395,2024-04-10 00:20:00,,,,,14.0,1012.0,(2316.2746331746+0j),11.0,5.0,150.0,10000.0,99999,,0j,0.0,11160015051014020110301204000051000600007000080000
3656,EGCC,53.3537,-2.27495,2024-04-10 00:20:00,,,,,5.0,1020.0,(3302.529049599126+0j),3.0,4.0,190.0,10000.0,99999,,(2284.529049599126+0j),0.0,1116001904100502030302004000051000600007000080000
3657,EGPD,57.2019,-2.19778,2024-04-10 00:20:00,,,,,5.0,1012.0,(2859.3333722371804+0j),1.0,12.0,260.0,10000.0,99999,,(1850.7333722371804+0j),0.0,1116002612100502010301204000051000600007000080000
3673,EHKD,52.9234,4.78062,2024-04-10 00:25:00,,,,,9.0,1017.0,(1028.612150563511+0j),6.0,10.0,260.0,10000.0,99999,4.0,(15.312150563511068+0j),0.2,1116042610100902060301704000051000600207000084000
3675,LIRN,40.886,14.2908,2024-04-10 00:20:00,,,,,16.0,1017.0,(1732.9092299729307+0j),14.0,2.0,,10000.0,99999,6.0,(715.7092299729306+0j),0.0,11160636021016020140301704000051000600007000086000
3698,LTCS,37.44566,38.89559,2024-04-10 00:20:00,,,,,9.0,1010.0,(14.579622945508351+0j),9.0,5.0,80.0,10000.0,99999,3.0,(-995.1203770544917+0j),0.8,1116030805100902090301004000051000600807000083000
3702,LTFM,41.27533,28.752,2024-04-10 00:20:00,10.0,36.0,+,yellow,12.0,1017.0,(2117.366892261562+0j),11.0,7.0,350.0,7000.0,99999,3.0,0j,0.0,11140335071012020110301704000051000600007100083000
3719,EHEH,51.4501,5.37453,2024-04-10 00:25:00,,,,,8.0,1021.0,(1364.4987815172228+0j),4.0,9.0,230.0,10000.0,99999,,(346.2987815172228+0j),0.0,1116002309100802040302104000051000600007000080000
3723,LTAZ,38.7719,34.5345,2024-04-10 00:20:00,80.0,36.0,q,green,10.0,1012.0,(14.91825103552627+0j),9.0,6.0,230.0,10000.0,99999,6.0,0j,0.0,1116062306101002090301204000051000600007800086000
3724,LTBR,40.2552,29.5626,2024-04-10 00:20:00,,,,,6.0,1015.0,(7232.245741212858+0j),5.0,0.0,0.0,10000.0,99999,,(6215.845741212858+0j),0.0,1116000000100602050301504000051000600007000080000
3726,LTFC,37.8554,30.3684,2024-04-10 00:20:00,,,,,12.0,1013.0,(12.209016887316226+0j),5.0,4.0,40.0,10000.0,99999,1.0,(-1000.2909831126838+0j),0.0,1116010404101202050301304000051000600007000081000
3727,LTFJ,40.8986,29.3092,2024-04-10 00:20:00,,,,,11.0,1016.0,(2173.71706931801+0j),9.0,9.0,50.0,8000.0,99999,3.0,(1157.71706931801+0j),0.0,1114030509101102090301604000051000600007000083000
3731,EHAM,52.3086,4.76389,2024-04-10 00:25:00,58.0,36.0,[,green,9.0,1019.0,(976.826337188991+0j),7.0,10.0,270.0,10000.0,99999,3.0,(-38.97366281100892+0j),0.0,1116032710100902070301904000051000600007580083000
3732,EHBK,50.9117,5.77014,2024-04-10 00:25:00,,,,,8.0,1021.0,(3077.573827934846+0j),4.0,11.0,230.0,10000.0,99999,,(2057.673827934846+0j),0.0,1116002311100802040302104000051000600007000080000
3734,EHRD,51.9569,4.43722,2024-04-10 00:25:00,53.0,36.0,V,green,10.0,1020.0,(968.2987231596617+0j),6.0,10.0,270.0,10000.0,99999,5.0,(-48.40127684033837+0j),0.0,1116052710101002060302004000051000600007530085000
3735,ETHB,52.2785,9.08217,2024-04-10 00:20:00,,,,,10.0,1018.0,(1935.9640719384631+0j),5.0,13.0,250.0,10000.0,99999,2.0,(919.4640719384631+0j),0.0,1116022513101002050301804000051000600007000082000
3736,ETHS,52.9194,10.1975,2024-04-10 00:20:00,,,,,9.0,1016.0,(2121.601115864231+0j),4.0,15.0,250.0,10000.0,99999,6.0,(1107.101115864231+0j),0.0,1116062515100902040301604000051000600007000086000
3737,ETNL,53.9182,12.2783,2024-04-10 00:20:00,,,,,11.0,1014.0,(1485.9243777966735+0j),6.0,7.0,220.0,10000.0,99999,6.0,(472.2243777966735+0j),0.0,1116062207101102060301404000051000600007000086000
3738,ETNN,50.8312,6.65817,2024-04-10 00:20:00,,,,,9.0,1021.0,(2857.3367175771596+0j),4.0,14.0,240.0,10000.0,99999,6.0,(1837.9367175771595+0j),0.0,1116062414100902040302104000051000600007000086000
3739,ETSH,51.7678,13.1677,2024-04-10 00:20:00,61.0,36.0,^,green,9.0,1019.0,(2229.9664234829393+0j),8.0,6.0,200.0,10000.0,99999,4.0,(1212.1664234829393+0j),0.1,1116042006100902080301904000051000600107610084000
3740,ETSL,48.1855,10.8612,2024-04-10 00:20:00,61.0,36.0,^,green,5.0,1024.0,(16.82644295185714+0j),3.0,9.0,230.0,10000.0,99999,6.0,(-1006.9735570481428+0j),0.2,1116062309100502030302404000051000600207610086000
3741,ETSN,48.711,11.2115,2024-04-10 00:20:00,,,,,7.0,1023.0,(9.799718364099812+0j),4.0,5.0,210.0,10000.0,99999,3.0,(-1013.1002816359002+0j),0.1,1116032105100702040302304000051000600107000083000
3759,EPBY,53.0968,17.9777,2024-04-10 00:30:00,,,,,13.0,1014.0,(1715.1236052411489+0j),10.0,10.0,310.0,10000.0,99999,,0j,0.0,11160031101013020100301404000051000600007000080000
3763,EPRA,51.38883,21.21167,2024-04-10 00:30:00,,,,,14.0,1012.0,(2933.0069398348733+0j),10.0,4.0,160.0,10000.0,99999,,(1922.0069398348733+0j),0.0,11160016041014020100301204000051000600007000080000
3765,EPSY,53.48194,20.93778,2024-04-10 00:30:00,,,,,12.0,1011.0,(2646.2509191156523+0j),10.0,0.0,0.0,10000.0,99999,,(1635.2509191156523+0j),0.0,11160000001012020100301104000051000600007000080000
3807,LFCK,43.5563,2.28918,2024-04-10 00:30:00,,,,,8.0,1031.0,(5829.694084860181+0j),7.0,11.0,290.0,10000.0,99999,8.0,0j,0.0,1116082911100802070303104000051000600007000088000
3808,LFLP,45.9292,6.09876,2024-04-10 00:30:00,,,,,6.0,1026.0,(13.05700976112353+0j),4.0,2.0,,10000.0,99999,7.0,(-1013.5429902388764+0j),1.0,1116073602100602040302604000051000601007000087000
3813,LFQA,49.2087,4.15658,2024-04-10 00:30:00,,,,,4.0,1025.0,(4721.155853022638+0j),2.0,4.0,320.0,10000.0,99999,,(3698.1558530226384+0j),0.0,1116003204100402020302504000051000600007000080000
3828,LFOV,48.0314,-0.74299,2024-04-10 00:30:00,,,,,6.0,1028.0,(3513.2568835201187+0j),4.0,5.0,240.0,10000.0,99999,,(2486.2568835201187+0j),0.0,1116002405100602040302804000051000600007000080000
3837,LFAQ,49.9715,2.69766,2024-04-10 00:30:00,,,,,5.0,1024.0,(4428.3871994471565+0j),4.0,7.0,230.0,10000.0,99999,,(3406.2871994471566+0j),0.0,1116002307100502040302404000051000600007000080000
3839,LFJR,47.5603,-0.31222,2024-04-10 00:30:00,,,,,6.0,1029.0,(2387.9014998391417+0j),5.0,0.0,0.0,10000.0,99999,6.0,(1360.4014998391417+0j),0.0,1116060000100602050302904000051000600007000086000
3843,LFPT,49.0966,2.04083,2024-04-10 00:30:00,,,,,5.0,1026.0,(4026.229222027818+0j),4.0,6.0,260.0,10000.0,99999,,(3002.229222027818+0j),0.0,1116002606100502040302604000051000600007000080000
3846,LHKE,46.9175,19.7492,2024-04-10 00:15:00,,,,,13.0,1014.0,(2195.0646101013554+0j),9.0,0.0,0.0,10000.0,99999,,(1182.1646101013553+0j),0.0,1116000000101302090301404000051000600007000080000
3847,LHPA,47.3636,17.5008,2024-04-10 00:15:00,,,,,15.0,1016.0,(2298.5661901885637+0j),8.0,15.0,340.0,10000.0,99999,,(1286.6661901885636+0j),0.0,1116003415101502080301604000051000600007000080000
3849,LHPR,47.6244,17.8136,2024-04-10 00:15:00,,,,,15.0,1015.0,(2167.140115803155+0j),8.0,19.0,300.0,10000.0,99999,,(1155.140115803155+0j),0.0,1116003019101502080301504000051000600007000080000
3850,LHSM,46.6864,17.1591,2024-04-10 00:15:00,,,,,13.0,1014.0,(2308.825406199328+0j),10.0,6.0,330.0,10000.0,99999,,0j,0.0,11160033061013020100301404000051000600007000080000
3851,LHSN,47.1229,20.2355,2024-04-10 00:15:00,,,,,16.0,1013.0,(1801.0562131361303+0j),7.0,3.0,190.0,10000.0,99999,,(787.7562131361303+0j),0.0,1116001903101602070301304000051000600007000080000
3856,LTAF,36.9822,35.2804,2024-04-10 00:20:00,,,,,15.0,1009.0,(1163.0421011297367+0j),13.0,1.0,,10000.0,99999,4.0,(154.0421011297367+0j),0.0,11160436011015020130300904000051000600007000084000
3864,LTBJ,38.2924,27.157,2024-04-10 00:20:00,,,,,15.0,1013.0,(2126.4336472090395+0j),8.0,8.0,20.0,10000.0,99999,,(1112.7336472090394+0j),0.0,1116000208101502080301304000051000600007000080000
3872,EGOS,52.7982,-2.66804,2024-04-10 00:20:00,,,,,2.0,1021.0,(7129.578042770556+0j),-0.0,6.0,230.0,10000.0,99999,,(6110.278042770556+0j),0.0,1116002306100202100302104000051000600007000080000
3873,EGVN,51.75,-1.58362,2024-04-10 00:20:00,,,,,6.0,1022.0,(3137.0884279385727+0j),4.0,5.0,250.0,10000.0,99999,,(2116.6884279385727+0j),0.0,1116002505100602040302204000051000600007000080000
3875,EHGG,53.1197,6.57944,2024-04-10 00:25:00,,,,,9.0,1016.0,(1082.4766710875597+0j),5.0,10.0,250.0,10000.0,99999,5.0,(69.67667108755973+0j),0.2,1116052510100902050301604000051000600207000085000
3877,LBGO,43.1514,25.7129,2024-04-10 00:30:00,,,,,5.0,1017.0,(3577.920483789596+0j),4.0,0.0,0.0,10000.0,99999,,(2560.720483789596+0j),0.0,1116000000100502040301704000051000600007000080000
3887,LYBT,44.9353,20.2575,2024-04-10 00:30:00,,,,,14.0,1013.0,(1749.6907461868307+0j),6.0,6.0,110.0,10000.0,99999,,(735.2907461868307+0j),0.0,1116001106101402060301304000051000600007000080000
3888,LYKV,43.8183,20.5872,2024-04-10 00:30:00,,,,,10.0,1015.0,(4170.195547397496+0j),7.0,2.0,,10000.0,99999,,(3155.195547397496+0j),0.0,1116003602101002070301504000051000600007000080000
3892,LYVR,45.1469,21.3099,2024-04-10 00:30:00,,,,,20.0,1013.0,(1535.3611776390946+0j),3.0,21.0,140.0,10000.0,99999,,(521.3611776390946+0j),0.0,1116001421102002030301304000051000600007000080000
3910,EGXV,53.8758,-0.435,2024-04-10 00:20:00,,,,,6.0,1018.0,(1235.5981254574585+0j),2.0,8.0,260.0,10000.0,99999,,(222.09812545745854+0j),0.0,1116002608100602020301804000051000600007000080000
3948,LTAC,40.1281,32.9951,2024-04-10 00:20:00,,,,,8.0,1013.0,(17.393593321127486+0j),3.0,2.0,,10000.0,99999,,(-993.8064066788726+0j),0.0,1116003602100802030301304000051000600007000080000
3949,LTAG,37.0021,35.4259,2024-04-10 00:20:00,80.0,36.0,q,green,15.0,1009.0,(1614.1529430880912+0j),13.0,2.0,70.0,10000.0,99999,4.0,(604.5529430880912+0j),1.0,11160407021015020130300904000051000601007800084000
3950,LTAI,36.8987,30.8005,2024-04-10 00:20:00,,,,,14.0,1010.0,(1483.9806791526796+0j),12.0,3.0,350.0,10000.0,99999,4.0,(471.58067915267964+0j),0.0,11160435031014020120301004000051000600007000084000
3951,LTAJ,36.9472,37.4787,2024-04-10 00:20:00,10.0,36.0,+,yellow,9.0,1010.0,(12.996472658824555+0j),9.0,0.0,0.0,4000.0,99999,4.0,(-996.2035273411755+0j),3.8,1112040000100902090301004000051000603707100084000
3952,LTAP,40.8294,35.522,2024-04-10 00:20:00,,,,,8.0,1012.0,(11.517258730623594+0j),5.0,0.0,0.0,10000.0,99999,,(-1002.7827412693764+0j),0.0,1116000000100802050301204000051000600007000080000
3953,LTAT,38.4353,38.091,2024-04-10 00:20:00,,,,,8.0,1011.0,(16.28837792194117+0j),8.0,3.0,270.0,10000.0,99999,4.0,(-993.8116220780588+0j),0.0,1116042703100802080301104000051000600007000084000
3954,LTAU,38.7704,35.4954,2024-04-10 00:20:00,80.0,36.0,q,green,10.0,1011.0,(16.069280482536158+0j),8.0,5.0,80.0,8000.0,99999,6.0,(-993.8307195174639+0j),0.0,1114060805101002080301104000051000600007800086000
3955,LTBA,40.9769,28.8146,2024-04-10 00:20:00,,,,,12.0,1016.0,(1531.0463798199692+0j),10.0,6.0,360.0,10000.0,99999,,(513.5463798199692+0j),0.0,11160036061012020100301604000051000600007000080000
3956,LTBS,36.7131,28.7925,2024-04-10 00:20:00,,,,,12.0,1011.0,(1069.275195058404+0j),11.0,5.0,10.0,10000.0,99999,,(56.9751950584041+0j),0.0,11160001051012020110301104000051000600007000080000
3957,LTBU,41.1382,27.9191,2024-04-10 00:20:00,,,,,9.0,1016.0,(3923.5974473457654+0j),3.0,5.0,290.0,10000.0,99999,,(2905.9974473457655+0j),0.0,1116002905100902030301604000051000600007000080000
3958,LTCC,37.8939,40.201,2024-04-10 00:20:00,95.0,36.0,2,red,11.0,1010.0,(10.849128663205933+0j),10.0,3.0,90.0,10000.0,99999,4.0,(-999.150871336794+0j),0.0,11160409031011020100301004000051000600007950084000
3959,LTCE,39.9565,41.1702,2024-04-10 00:20:00,,,,,7.0,1014.0,(25.197689125781526+0j),3.0,11.0,60.0,10000.0,99999,4.0,(-987.0023108742186+0j),0.0,1116040611100702030301404000051000600007000084000
3960,LTCG,40.9951,39.7897,2024-04-10 00:20:00,,,,,12.0,1014.0,(1332.4723231841863+0j),10.0,3.0,350.0,10000.0,99999,6.0,(316.77232318418623+0j),0.0,11160635031012020100301404000051000600007000086000
3961,LTCJ,37.929,41.1166,2024-04-10 00:20:00,,,,,11.0,1010.0,(9.077229539964613+0j),11.0,2.0,,10000.0,99999,4.0,(-1000.7227704600353+0j),0.0,11160436021011020110301004000051000600007000084000
3962,LTFE,37.2506,27.6643,2024-04-10 00:20:00,,,,,10.0,1012.0,(1085.7254480958609+0j),9.0,3.0,100.0,10000.0,99999,,0j,0.0,1116001003101002090301204000051000600007000080000
4026,LFBY,43.6892,-1.06889,2024-04-10 00:30:00,,,,,8.0,1032.0,(1551.7003068708273+0j),7.0,2.0,,9000.0,99999,,(518.8003068708272+0j),0.0,1115003602100802070303204000051000600007000080000
4029,LFKS,41.9244,9.406,2024-04-10 00:30:00,,,,,17.0,1015.0,(1072.8093891234475+0j),2.0,11.0,260.0,10000.0,99999,,(57.809389123447545+0j),0.0,1116002611101702020301504000051000600007000080000
4065,LFYR,47.3208,1.68889,2024-04-10 00:30:00,,,,,3.0,1028.0,(5697.618693938633+0j),2.0,0.0,0.0,10000.0,99999,,(4670.418693938634+0j),0.0,1116000000100302020302804000051000600007000080000
4091,LTAR,39.8138,36.9035,2024-04-10 00:25:00,80.0,36.0,q,green,5.0,1013.0,(27.35375752525414+0j),5.0,4.0,70.0,6000.0,99999,6.0,(-983.6462424747458+0j),0.0,1113060704100502050301304000051000600007800086000
4117,EPLL,51.7219,19.3981,2024-04-10 00:30:00,,,,,15.0,1012.0,(2726.149895326969+0j),10.0,9.0,270.0,10000.0,99999,,(1715.549895326969+0j),0.0,11160027091015020100301204000051000600007000080000
4118,EPWR,51.1027,16.8858,2024-04-10 00:30:00,,,,,15.0,1016.0,(2108.469678693328+0j),7.0,20.0,290.0,10000.0,99999,6.0,(1096.0696786933281+0j),0.0,1116062920101502070301604000051000600007000086000
4119,LFBE,44.8253,0.51861,2024-04-10 00:30:00,,,,,7.0,1031.0,(2025.1117347461552+0j),6.0,3.0,300.0,10000.0,99999,,(994.4117347461552+0j),0.0,1116003003100702060303104000051000600007000080000
4121,LFCR,44.4079,2.48267,2024-04-10 00:30:00,,,,,5.0,1028.0,(17.406797273948783+0j),5.0,13.0,300.0,10000.0,99999,8.0,(-1012.4932027260513+0j),0.2,1116083013100502050302804000051000600207000088000
4124,LFMO,44.1405,4.86672,2024-04-10 00:30:00,,,,,10.0,1023.0,(1800.3521618079446+0j),3.0,16.0,350.0,10000.0,99999,,(776.1521618079446+0j),0.0,1116003516101002030302304000051000600007000080000
4125,LFMU,43.3235,3.3539,2024-04-10 00:30:00,,,,,10.0,1027.0,(1231.3472939523313+0j),4.0,6.0,300.0,10000.0,99999,,(203.94729395233117+0j),0.0,1116003006101002040302704000051000600007000080000
4127,LFOK,48.7761,4.18449,2024-04-10 00:30:00,,,,,4.0,1026.0,(8295.234185900468+0j),2.0,7.0,250.0,10000.0,99999,,0j,0.0,1116002507100402020302604000051000600007000080000
4128,LHDC,47.4889,21.6153,2024-04-10 00:15:00,,,,,13.0,1015.0,(2137.405001683941+0j),8.0,2.0,,10000.0,99999,,(1123.905001683941+0j),0.0,1116003602101302080301504000051000600007000080000
4129,LHPP,45.9909,18.241,2024-04-10 00:15:00,,,,,14.0,1014.0,(4313.516656380243+0j),9.0,5.0,340.0,10000.0,99999,,(3300.116656380243+0j),0.0,1116003405101402090301404000051000600007000080000
4130,LKCV,49.9397,15.3818,2024-04-10 00:30:00,,,,,11.0,1019.0,(4374.309052021281+0j),7.0,20.0,290.0,10000.0,99999,8.0,(3360.309052021281+0j),0.0,1116082920101102070301904000051000600007000088000
4131,LKNA,49.1658,16.1249,2024-04-10 00:30:00,,,,,12.0,1017.0,(7331.434051767458+0j),6.0,17.0,310.0,10000.0,99999,8.0,(6318.634051767458+0j),0.0,1116083117101202060301704000051000600007000088000
4132,LKPD,50.0134,15.7386,2024-04-10 00:30:00,,,,,13.0,1018.0,(3581.4385963596937+0j),4.0,18.0,290.0,10000.0,99999,8.0,(2567.2385963596935+0j),0.0,1116082918101302040301804000051000600007000088000
4136,LZPP,48.6252,17.8284,2024-04-10 00:30:00,,,,,15.0,1015.0,(2544.6503213736128+0j),10.0,9.0,310.0,10000.0,99999,,0j,0.0,11160031091015020100301504000051000600007000080000
4137,LZZI,49.2315,18.6135,2024-04-10 00:30:00,,,,,10.0,1014.0,(5916.703997473663+0j),9.0,1.0,,10000.0,99999,,0j,0.0,1116003601101002090301404000051000600007000080000
4143,LFJL,48.9821,6.25132,2024-04-10 00:30:00,,,,,5.0,1025.0,(9.610642485024139+0j),3.0,7.0,240.0,10000.0,99999,3.0,(-1013.2893575149758+0j),0.0,1116032407100502030302504000051000600007000083000
4145,LFLN,46.4125,4.01326,2024-04-10 00:30:00,,,,,5.0,1028.0,(8926.674533793783+0j),3.0,3.0,290.0,10000.0,99999,,(7899.674533793783+0j),0.0,1116002903100502030302804000051000600007000080000
4151,LFOJ,47.9878,1.76056,2024-04-10 00:30:00,,,,,4.0,1027.0,(6045.47893452275+0j),3.0,7.0,240.0,10000.0,99999,,(5019.47893452275+0j),0.0,1116002407100402030302704000051000600007000080000
4154,LFPM,48.6047,2.67112,2024-04-10 00:30:00,,,,,4.0,1026.0,(4579.947493921318+0j),3.0,6.0,240.0,10000.0,99999,,(3555.1474939213176+0j),0.0,1116002406100402030302604000051000600007000080000
4158,LFRL,48.2817,-4.44502,2024-04-10 00:30:00,,,,,9.0,1028.0,(2364.5280360591923+0j),7.0,6.0,230.0,10000.0,99999,4.0,(1337.5280360591923+0j),0.0,1116042306100902070302804000051000600007000084000
4170,LJCE,45.9,15.5302,2024-04-10 00:30:00,,,,,13.0,1014.0,(2681.3441795450763+0j),8.0,1.0,,10000.0,99999,,0j,0.0,1116003601101302080301404000051000600007000080000
4180,LFRV,47.7233,-2.71856,2024-04-10 00:30:00,,,,,6.0,1029.0,(4531.372161688204+0j),5.0,2.0,230.0,10000.0,99999,,(3503.072161688204+0j),0.0,1116002302100602050302904000051000600007000080000
4185,LFBU,45.7292,0.22146,2024-04-10 00:30:00,,,,,7.0,1030.0,(3899.3723379431867+0j),6.0,5.0,240.0,10000.0,99999,,(2869.4723379431866+0j),0.0,1116002405100702060303004000051000600007000080000
4188,LFOZ,47.8969,2.16333,2024-04-10 00:30:00,,,,,4.0,1027.0,(5833.597072643594+0j),2.0,4.0,270.0,10000.0,99999,,(4807.697072643594+0j),0.0,1116002704100402020302704000051000600007000080000
4215,LEMI,37.803,-1.125,2024-04-10 00:30:00,,,,,11.0,1029.0,(3648.4327346356276+0j),7.0,3.0,340.0,10000.0,99999,,0j,0.0,1116003403101102070302904000051000600007000080000
4217,LECH,40.21417,0.07333,2024-04-10 00:30:00,,,,,12.0,1029.0,(5818.385269952595+0j),-1.0,8.0,310.0,9000.0,99999,,(4789.385269952595+0j),0.0,1115003108101202110302904000051000600007000080000
4234,UUBC,54.55,36.36667,2024-04-10 00:30:00,,,,,13.0,1016.0,(3242.2389024071454+0j),7.0,1.0,,10000.0,99999,,0j,0.0,1116003601101302070301604000051000600007000080000
4235,UUOB,50.6438,36.5901,2024-04-10 00:30:00,,,,,12.0,1019.0,(3804.073522261204+0j),5.0,1.0,230.0,10000.0,99999,,(2784.1735222612037+0j),0.0,1116002301101202050301904000051000600007000080000
4236,UUOK,51.7506,36.2956,2024-04-10 00:30:00,,,,,11.0,1019.0,(3861.7690252271227+0j),5.0,2.0,160.0,10000.0,99999,,(2842.7690252271227+0j),0.0,1116001602101102050301904000051000600007000080000
4239,UWPS,54.12513,45.21226,2024-04-10 00:30:00,80.0,36.0,q,green,10.0,1017.0,(4126.244892258382+0j),9.0,1.0,200.0,9000.0,99999,6.0,(3108.2448922583817+0j),0.0,1115062001101002090301704000051000600007800086000
4242,UWKS,56.0903,47.3473,2024-04-10 00:30:00,,,,,11.0,1016.0,(3255.631013903601+0j),4.0,1.0,310.0,10000.0,99999,3.0,(2239.631013903601+0j),0.0,1116033101101102040301604000051000600007000083000
4247,UUDL,57.5607,40.1574,2024-04-10 00:30:00,,,,,8.0,1017.0,(2527.748134495744+0j),7.0,0.0,0.0,10000.0,99999,,(1511.7481344957441+0j),0.0,1116000000100802070301704000051000600007000080000
4256,URMG,43.3883,45.6986,2024-04-10 00:30:00,45.0,36.0,N,yellow,7.0,1017.0,(1017+0j),6.0,2.0,100.0,400.0,99999,6.0,(-2.5+0j),0.0,1110061002100702060301704000051000600007450086000
4259,URMO,43.2051,44.6066,2024-04-10 00:30:00,,,,,5.0,1016.0,(15.782557856737379+0j),4.0,1.0,210.0,10000.0,99999,,(-1001.2174421432626+0j),0.0,1116002101100502040301604000051000600007000080000
4261,URRP,47.50083,39.93361,2024-04-10 00:30:00,,,,,8.0,1019.0,(2502.851771250076+0j),4.0,1.0,,10000.0,99999,,0j,0.0,1116003601100802040301904000051000600007000080000
4271,UUBW,55.5533,38.15,2024-04-10 00:30:00,45.0,36.0,N,yellow,11.0,1015.0,(2446.690194009126+0j),11.0,1.0,260.0,150.0,99999,1.0,(1432.8901940091262+0j),0.0,11100126011011020110301504000051000600007450081000
4272,UUOL,52.7028,39.5378,2024-04-10 00:30:00,,,,,10.0,1018.0,(3653.348784202302+0j),4.0,4.0,250.0,10000.0,99999,,0j,0.0,1116002504101002040301804000051000600007000080000
4273,EBBE,50.7586,4.76833,2024-04-10 00:25:00,,,,,7.0,1022.0,(3383.178574237816+0j),5.0,8.0,240.0,10000.0,99999,1.0,(2363.178574237816+0j),0.0,1116012408100702050302204000051000600007000081000
4274,EBBL,51.1683,5.47,2024-04-10 00:25:00,,,,,8.0,1021.0,(2031.1679765370607+0j),4.0,9.0,240.0,10000.0,99999,1.0,(1012.4679765370606+0j),0.0,1116012409100802040302104000051000600007000081000
4275,EBCV,50.5758,3.831,2024-04-10 00:25:00,,,,,7.0,1023.0,(2158.7948110014468+0j),5.0,7.0,240.0,10000.0,99999,4.0,(1137.7948110014468+0j),0.0,1116042407100702050302304000051000600007000084000
4276,EBDT,50.9992,5.06556,2024-04-10 00:25:00,,,,,8.0,1022.0,(1495.7988710723323+0j),4.0,6.0,250.0,10000.0,99999,,(476.59887107233226+0j),0.0,1116002506100802040302204000051000600007000080000
4277,EBFN,51.0903,2.65278,2024-04-10 00:25:00,,,,,10.0,1022.0,(1092.8584499002827+0j),4.0,12.0,270.0,10000.0,99999,,(73.55844990028277+0j),0.0,1116002712101002040302204000051000600007000080000
4278,EBFS,50.2433,4.64583,2024-04-10 00:25:00,,,,,5.0,1023.0,(10.196335263769328+0j),3.0,9.0,240.0,10000.0,99999,4.0,(-1011.3036647362306+0j),0.0,1116042409100502030302304000051000600007000084000
4279,EBLB,50.4817,6.18194,2024-04-10 00:25:00,,,,,99999.0,99999.0,(99999+0j),99999.0,8.0,260.0,10000.0,99999,,(98978.1+0j),0.0,11160026081099999020999990399904000051000600007000080000
4296,LUKK,46.9277,28.931,2024-04-10 00:30:00,,,,,8.0,1018.0,(3219.0388946914295+0j),5.0,1.0,,10000.0,99999,,(2200.0388946914295+0j),0.0,1116003601100802050301804000051000600007000080000
4308,LEHC,42.0761,-0.31667,2024-04-10 00:30:00,,,,,5.0,1029.0,(16.581448350317476+0j),2.0,11.0,260.0,10000.0,99999,,(-1014.2185516496825+0j),0.0,1116002611100502020302904000051000600007000080000
4311,LESB,39.5989,2.70278,2024-04-10 00:30:00,,,,,14.0,1027.0,(1450.9194373199864+0j),8.0,8.0,320.0,10000.0,99999,,(422.9194373199864+0j),0.0,1116003208101402080302704000051000600007000080000
4314,LEBG,42.3576,-3.62076,2024-04-10 00:30:00,,,,,1.0,1032.0,(34.57929262646522+0j),-0.0,3.0,40.0,10000.0,99999,,(-997.4207073735348+0j),0.0,1116000403100102100303204000051000600007000080000
4333,LRBC,46.5219,26.9103,2024-04-10 00:30:00,,,,,11.0,1017.0,(3484.9408545322335+0j),5.0,11.0,180.0,10000.0,99999,,(2466.7408545322332+0j),0.0,1116001811101102050301704000051000600007000080000
4334,LRCV,44.3181,23.8886,2024-04-10 00:30:00,,,,,10.0,1016.0,(3862.6228522017495+0j),5.0,5.0,50.0,10000.0,99999,,(2845.0228522017496+0j),0.0,1116000505101002050301604000051000600007000080000
4335,LRIA,47.1785,27.6206,2024-04-10 00:30:00,,,,,11.0,1017.0,(2538.066418961468+0j),5.0,7.0,100.0,10000.0,99999,,(1519.7664189614682+0j),0.0,1116001007101102050301704000051000600007000080000
4336,LRSV,47.6875,26.3541,2024-04-10 00:30:00,,,,,12.0,1016.0,(6584.019571540707+0j),5.0,5.0,190.0,10000.0,99999,,(5568.019571540707+0j),0.0,1116001905101202050301604000051000600007000080000
4344,LFBX,45.1981,0.81556,2024-04-10 00:30:00,,,,,7.0,1031.0,(3106.8134778206045+0j),7.0,3.0,250.0,10000.0,99999,4.0,(2076.7134778206046+0j),0.0,1116042503100702070303104000051000600007000084000
4345,LFLW,44.8914,2.42194,2024-04-10 00:30:00,,,,,5.0,1028.0,(18.42583548336095+0j),4.0,9.0,310.0,10000.0,99999,7.0,(-1009.574164516639+0j),0.0,1116073109100502040302804000051000600007000087000
4358,LQMO,43.2829,17.8459,2024-04-10 00:30:00,,,,,10.0,1015.0,(1612.645716575976+0j),7.0,3.0,170.0,10000.0,99999,,(596.6457165759759+0j),0.0,1116001703101002070301504000051000600007000080000
4389,LRCL,46.7852,23.6862,2024-04-10 00:30:00,,,,,9.0,1016.0,(6611.347192334077+0j),6.0,0.0,0.0,10000.0,99999,,(5595.147192334077+0j),0.0,1116000000100902060301604000051000600007000080000
4390,LROD,47.0253,21.9025,2024-04-10 00:30:00,,,,,13.0,1015.0,(2517.736235598804+0j),8.0,8.0,100.0,10000.0,99999,,(1502.736235598804+0j),0.0,1116001008101302080301504000051000600007000080000
4392,LRSB,45.7856,24.0913,2024-04-10 00:30:00,,,,,11.0,1016.0,(7678.325058981005+0j),7.0,2.0,330.0,10000.0,99999,,(6662.725058981005+0j),0.0,1116003302101102070301604000051000600007000080000
4395,GEML,35.2798,-2.95626,2024-04-10 00:30:00,,,,,13.0,1028.0,(1484.180441459171+0j),8.0,4.0,350.0,10000.0,99999,,(457.1804414591711+0j),0.0,1116003504101302080302804000051000600007000080000
4396,EPGD,54.3776,18.4662,2024-04-10 00:30:00,,,,,12.0,1012.0,(2749.596358553917+0j),9.0,17.0,280.0,10000.0,99999,,(1739.096358553917+0j),0.0,1116002817101202090301204000051000600007000080000
4397,EPKK,50.0777,19.7848,2024-04-10 00:30:00,,,,,12.0,1013.0,(4022.688240293683+0j),8.0,2.0,230.0,10000.0,99999,,(3010.488240293683+0j),0.0,1116002302101202080301304000051000600007000080000
4398,EPKT,50.4743,19.08,2024-04-10 00:30:00,,,,,15.0,1014.0,(4048.27889110754+0j),10.0,4.0,260.0,10000.0,99999,,(3036.17889110754+0j),0.0,11160026041015020100301404000051000600007000080000
4399,EPLB,51.24028,22.71361,2024-04-10 00:30:00,,,,,13.0,1012.0,(3140.9190377206496+0j),9.0,2.0,180.0,10000.0,99999,,0j,0.0,1116001802101302090301204000051000600007000080000
4400,EPMO,52.4511,20.6518,2024-04-10 00:30:00,,,,,14.0,1011.0,(1982.6534900220063+0j),10.0,2.0,,10000.0,99999,,(971.6534900220063+0j),0.0,11160036021014020100301104000051000600007000080000
4401,EPPO,52.421,16.8263,2024-04-10 00:30:00,,,,,14.0,1015.0,(1886.247190348235+0j),9.0,14.0,290.0,10000.0,99999,6.0,(874.4471903482352+0j),0.0,1116062914101402090301504000051000600007000086000
4402,EPRZ,50.11,22.019,2024-04-10 00:30:00,,,,,15.0,1013.0,(2960.574862293793+0j),8.0,3.0,220.0,10000.0,99999,,(1947.674862293793+0j),0.0,1116002203101502080301304000051000600007000080000
4403,EPSC,53.5847,14.9022,2024-04-10 00:30:00,,,,,12.0,1016.0,(1500.5146963698394+0j),7.0,4.0,240.0,10000.0,99999,,(485.91469636983936+0j),0.0,1116002404101202070301604000051000600007000080000
4404,EPWA,52.1657,20.9671,2024-04-10 00:30:00,,,,,15.0,1011.0,(1972.71900172345+0j),9.0,4.0,120.0,10000.0,99999,,(961.71900172345+0j),0.0,1116001204101502090301104000051000600007000080000
4406,LBBG,42.5696,27.5152,2024-04-10 00:30:00,,,,,8.0,1017.0,(1669.2680473612736+0j),7.0,1.0,270.0,9000.0,99999,,(651.4680473612736+0j),0.0,1115002701100802070301704000051000600007000080000
4407,LBPD,42.0678,24.8508,2024-04-10 00:30:00,,,,,10.0,1017.0,(3716.6468801329215+0j),4.0,2.0,,10000.0,99999,,(2698.346880132922+0j),0.0,1116003602101002040301704000051000600007000080000
4408,LBSF,42.69669,23.41144,2024-04-10 00:30:00,,,,,9.0,1017.0,(10.43306493996964+0j),3.0,2.0,170.0,10000.0,99999,,(-1006.5669350600303+0j),0.0,1116001702100902030301704000051000600007000080000
4409,LBWN,43.2321,27.8251,2024-04-10 00:30:00,,,,,5.0,1017.0,(3021.9269298255304+0j),4.0,2.0,,10000.0,99999,,(2003.9269298255304+0j),0.0,1116003602100502040301704000051000600007000080000
4410,LHBP,47.4369,19.2556,2024-04-10 00:30:00,,,,,11.0,1014.0,(2963.4974435991176+0j),9.0,2.0,,10000.0,99999,,(1950.4974435991176+0j),0.0,1116003602101102090301404000051000600007000080000
4411,LRBS,44.5032,26.1021,2024-04-10 00:30:00,,,,,9.0,1018.0,(2393.739931329835+0j),5.0,0.0,0.0,10000.0,99999,,(1375.7399313298351+0j),0.0,1116000000100902050301804000051000600007000080000
4412,LRCK,44.3622,28.4883,2024-04-10 00:30:00,,,,,9.0,1017.0,(2688.8626973546166+0j),4.0,7.0,10.0,10000.0,99999,,(1670.8626973546166+0j),0.0,1116000107100902040301704000051000600007000080000
4413,LROP,44.5722,26.1022,2024-04-10 00:30:00,,,,,9.0,1017.0,(2480.757696156304+0j),7.0,2.0,,10000.0,99999,,(1461.357696156304+0j),0.0,1116003602100902070301704000051000600007000080000
4414,LRTC,45.0625,28.7143,2024-04-10 00:30:00,,,,,6.0,1017.0,(2407.0968950354454+0j),4.0,0.0,0.0,6000.0,99999,,(1387.5968950354454+0j),0.0,1113000000100602040301704000051000600007000080000
4415,LRTM,46.4677,24.4125,2024-04-10 00:30:00,,,,,10.0,1016.0,(5629.358339576987+0j),7.0,5.0,100.0,10000.0,99999,,(4612.958339576988+0j),0.0,1116001005101002070301604000051000600007000080000
4416,LRTR,45.8099,21.3379,2024-04-10 00:30:00,,,,,11.0,1014.0,(2320.5496259884144+0j),7.0,6.0,100.0,10000.0,99999,,(1306.8496259884143+0j),0.0,1116001006101102070301404000051000600007000080000
4417,LDDU,42.5614,18.2682,2024-04-10 00:30:00,,,,,16.0,1016.0,(2386.097718679126+0j),6.0,10.0,80.0,10000.0,99999,,(1368.897718679126+0j),0.0,1116000810101602060301604000051000600007000080000
4418,LDOS,45.4627,18.8102,2024-04-10 00:30:00,,,,,15.0,1013.0,(1767.0126818083336+0j),9.0,5.0,300.0,10000.0,99999,,(754.8126818083335+0j),0.0,1116003005101502090301304000051000600007000080000
4419,LDPL,44.8935,13.9222,2024-04-10 00:30:00,,,,,14.0,1014.0,(1778.9830688471516+0j),11.0,8.0,90.0,10000.0,99999,,(763.7830688471515+0j),0.0,11160009081014020110301404000051000600007000080000
4420,LDRI,45.2169,14.5703,2024-04-10 00:30:00,,,,,15.0,1015.0,(1736.2529420846233+0j),9.0,0.0,0.0,10000.0,99999,,(720.6529420846233+0j),0.0,1116000000101502090301504000051000600007000080000
4421,LDSP,43.5389,16.298,2024-04-10 00:30:00,,,,,18.0,1014.0,(1170.8491278833517+0j),6.0,6.0,10.0,10000.0,99999,,(155.04912788335173+0j),0.0,1116000106101802060301404000051000600007000080000
4422,LDZA,45.7429,16.0688,2024-04-10 00:30:00,,,,,15.0,1013.0,(1950.0127254705135+0j),8.0,5.0,240.0,10000.0,99999,,(937.0127254705135+0j),0.0,1116002405101502080301304000051000600007000080000
4423,LDZD,44.1083,15.3467,2024-04-10 00:30:00,,,,,11.0,1014.0,(2074.4413759187346+0j),10.0,1.0,,10000.0,99999,,(1058.7413759187345+0j),0.0,11160036011011020100301404000051000600007000080000
4424,LJLJ,46.2237,14.4576,2024-04-10 00:30:00,,,,,11.0,1015.0,(6636.692587922896+0j),9.0,1.0,,10000.0,99999,,(5621.592587922895+0j),0.0,1116003601101102090301504000051000600007000080000
4425,LJMB,46.4799,15.6861,2024-04-10 00:30:00,,,,,15.0,1013.0,(3635.4050278948253+0j),9.0,2.0,,10000.0,99999,,(2622.7050278948254+0j),0.0,1116003602101502090301304000051000600007000080000
4426,LJPZ,45.4734,13.615,2024-04-10 00:30:00,,,,,12.0,1013.0,(1033.2781810172883+0j),10.0,1.0,,10000.0,99999,,(18.478181017288307+0j),0.0,11160036011012020100301304000051000600007000080000
4427,LKMT,49.6963,18.1111,2024-04-10 00:30:00,,,,,12.0,1014.0,(4256.380932591746+0j),10.0,2.0,,10000.0,99999,,(3244.4809325917463+0j),0.0,11160036021012020100301404000051000600007000080000
4428,LKPR,50.1008,14.26,2024-04-10 00:30:00,61.0,36.0,^,green,7.0,1021.0,(9.767236911598197+0j),6.0,11.0,270.0,10000.0,99999,3.0,(-1007.9327630884019+0j),0.2,1116032711100702060302104000051000600207610083000
4429,LKTB,49.1513,16.6944,2024-04-10 00:30:00,,,,,16.0,1015.0,(3146.860214078638+0j),9.0,14.0,290.0,10000.0,99999,1.0,(2134.5602140786377+0j),0.0,1116012914101602090301504000051000600007000081000
4430,LQSA,43.8246,18.3315,2024-04-10 00:30:00,,,,,9.0,1017.0,(10.262715993115922+0j),5.0,3.0,300.0,10000.0,99999,,(-1005.8372840068841+0j),0.0,1116003003100902050301704000051000600007000080000
4431,LYBE,44.8184,20.3091,2024-04-10 00:30:00,,,,,19.0,1013.0,(1694.5746222572423+0j),4.0,6.0,120.0,10000.0,99999,,(680.7746222572423+0j),0.0,1116001206101902040301304000051000600007000080000
4432,LYNI,43.3373,21.8537,2024-04-10 00:30:00,,,,,11.0,1016.0,(3672.319086831528+0j),7.0,1.0,,10000.0,99999,,(2657.0190868315276+0j),0.0,1116003601101102070301604000051000600007000080000
4433,LYPG,42.3594,19.2519,2024-04-10 00:30:00,,,,,13.0,1017.0,(1422.1173675577254+0j),9.0,3.0,300.0,10000.0,99999,,0j,0.0,1116003003101302090301704000051000600007000080000
4434,LYTV,42.4047,18.7233,2024-04-10 00:30:00,,,,,8.0,1017.0,(1105.4505219723192+0j),8.0,0.0,0.0,10000.0,99999,,(88.45052197231917+0j),0.0,1116000000100802080301704000051000600007000080000
4435,LZIB,48.1702,17.2127,2024-04-10 00:30:00,,,,,14.0,1015.0,(2299.847631389867+0j),6.0,22.0,290.0,10000.0,99999,1.0,(1287.747631389867+0j),0.0,1116012922101402060301504000051000600007000081000
4436,LZKZ,48.6631,21.2411,2024-04-10 00:30:00,,,,,13.0,1014.0,(3622.446231356696+0j),9.0,3.0,350.0,10000.0,99999,,0j,0.0,1116003503101302090301404000051000600007000080000
4437,LZTT,49.0736,20.2411,2024-04-10 00:30:00,,,,,9.0,1015.0,(13.234994651975729+0j),6.0,3.0,220.0,10000.0,99999,,(-1001.2650053480243+0j),0.0,1116002203100902060301504000051000600007000080000
4442,LFAT,50.5174,1.62059,2024-04-10 00:30:00,,,,,10.0,1024.0,(1153.227836331068+0j),5.0,9.0,300.0,10000.0,99999,,(132.32783633106794+0j),0.0,1116003009101002050302404000051000600007000080000
4443,LFBD,44.8283,-0.71556,2024-04-10 00:30:00,,,,,8.0,1031.0,(1838.549966364828+0j),6.0,5.0,230.0,10000.0,99999,1.0,(806.949966364828+0j),0.0,1116012305100802060303104000051000600007000081000
4444,LFBH,46.1792,-1.19528,2024-04-10 00:30:00,,,,,11.0,1030.0,(1278.0241326742732+0j),7.0,12.0,290.0,10000.0,99999,1.0,(248.12413267427314+0j),0.0,1116012912101102070303004000051000600007000081000
4445,LFBI,46.5877,0.30667,2024-04-10 00:30:00,,,,,7.0,1029.0,(3798.501696045143+0j),5.0,3.0,270.0,10000.0,99999,,(2769.301696045143+0j),0.0,1116002703100702050302904000051000600007000080000
4447,LFBO,43.6291,1.36382,2024-04-10 00:30:00,,,,,9.0,1031.0,(3546.506234068114+0j),7.0,13.0,270.0,10000.0,99999,,(2515.1062340681137+0j),0.6,1116002713100902070303104000051000600607000080000
4448,LFBP,43.38,-0.41861,2024-04-10 00:30:00,,,,,7.0,1033.0,(5279.621489300235+0j),6.0,5.0,230.0,10000.0,99999,4.0,(4246.621489300235+0j),0.0,1116042305100702060303304000051000600007000084000
4450,LFBZ,43.4684,-1.52332,2024-04-10 00:30:00,,,,,9.0,1033.0,(2157.1003471336126+0j),7.0,3.0,210.0,10000.0,99999,2.0,(1124.1003471336126+0j),0.4,1116022103100902070303304000051000600407000082000
4452,LFKB,42.5527,9.48373,2024-04-10 00:30:00,,,,,15.0,1014.0,(1074.8148669817417+0j),6.0,4.0,280.0,10000.0,99999,,(59.61486698174167+0j),0.0,1116002804101502060301404000051000600007000080000
4453,LFKC,42.5308,8.79319,2024-04-10 00:30:00,,,,,13.0,1016.0,(1634.1351811305453+0j),6.0,19.0,200.0,10000.0,99999,1.0,(617.1351811305453+0j),0.0,1116012019101302060301604000051000600007000081000
4454,LFKJ,41.9236,8.80292,2024-04-10 00:30:00,,,,,15.0,1019.0,(1061.1493617470016+0j),6.0,14.0,300.0,10000.0,99999,,(42.14936174700165+0j),0.0,1116003014101502060301904000051000600007000080000
4455,LFLB,45.6381,5.88023,2024-04-10 00:30:00,,,,,6.0,1026.0,(7439.08142617241+0j),6.0,2.0,,10000.0,99999,4.0,(6412.78142617241+0j),0.5,1116043602100602060302604000051000600507000084000
4456,LFLC,45.7867,3.16917,2024-04-10 00:30:00,,,,,7.0,1028.0,(8755.86800928444+0j),2.0,6.0,300.0,10000.0,99999,,(7727.968009284441+0j),0.0,1116003006100702020302804000051000600007000080000
4457,LFLL,45.7264,5.09083,2024-04-10 00:30:00,,,,,7.0,1026.0,(6789.955134859895+0j),6.0,3.0,350.0,10000.0,99999,3.0,(5763.255134859895+0j),0.0,1116033503100702060302604000051000600007000083000
4458,LFLS,45.3629,5.32937,2024-04-10 00:30:00,,,,,5.0,1025.0,(13.312399739183514+0j),4.0,5.0,40.0,10000.0,99999,1.0,(-1013.1876002608165+0j),0.2,1116010405100502040302504000051000600207000081000
4459,LFLY,45.7272,4.94427,2024-04-10 00:30:00,,,,,6.0,1027.0,(6406.00937287571+0j),5.0,3.0,340.0,10000.0,99999,,(5379.20937287571+0j),0.0,1116003403100602050302704000051000600007000080000
4460,LFMD,43.542,6.95348,2024-04-10 00:30:00,,,,,11.0,1013.0,(1054.2609296595326+0j),8.0,0.0,0.0,10000.0,99999,6.0,(39.1609296595326+0j),0.0,1116060000101102080301304000051000600007000086000
4461,LFML,43.43927,5.22142,2024-04-10 00:30:00,,,,,11.0,1022.0,(1268.0977316437934+0j),4.0,25.0,300.0,10000.0,99999,,(245.69773164379342+0j),0.0,1116003025101102040302204000051000600007000080000
4464,LFMP,42.7404,2.87067,2024-04-10 00:30:00,,,,,11.0,1028.0,(1528.8212268590619+0j),5.0,15.0,300.0,10000.0,99999,6.0,(500.62122685906184+0j),0.0,1116063015101102050302804000051000600007000086000
4465,LFMT,43.5762,3.96301,2024-04-10 00:30:00,,,,,11.0,1025.0,(1079.7380029900005+0j),2.0,12.0,300.0,10000.0,99999,,(53.93800299000054+0j),0.0,1116003012101102020302504000051000600007000080000
4466,LFOB,49.4544,2.11278,2024-04-10 00:30:00,,,,,6.0,1025.0,(3752.806583430476+0j),4.0,5.0,270.0,10000.0,99999,,(2728.806583430476+0j),0.0,1116002705100602040302504000051000600007000080000
4468,LFOT,47.4322,0.72761,2024-04-10 00:30:00,,,,,6.0,1028.0,(3746.4341190460273+0j),5.0,4.0,250.0,10000.0,99999,,(2718.8341190460274+0j),0.0,1116002504100602050302804000051000600007000080000
4471,LFPN,48.7519,2.10619,2024-04-10 00:30:00,,,,,5.0,1026.0,(6282.280506179631+0j),4.0,7.0,260.0,10000.0,99999,,(5258.280506179631+0j),0.0,1116002607100502040302604000051000600007000080000
4472,LFPO,48.7253,2.35944,2024-04-10 00:30:00,,,,,6.0,1026.0,(3174.639832574091+0j),3.0,7.0,260.0,10000.0,99999,,(2149.239832574091+0j),0.0,1116002607100602030302604000051000600007000080000
4477,LFRG,49.3653,0.15431,2024-04-10 00:30:00,,,,,6.0,1026.0,(4809.806485815953+0j),4.0,6.0,210.0,10000.0,99999,,(3785.8064858159532+0j),0.0,1116002106100602040302604000051000600007000080000
4479,LFRN,48.0695,-1.73479,2024-04-10 00:30:00,,,,,6.0,1028.0,(1851.4883264814105+0j),4.0,4.0,230.0,10000.0,99999,,(823.9883264814105+0j),0.0,1116002304100602040302804000051000600007000080000
4481,LFRS,47.1532,-1.61073,2024-04-10 00:30:00,,,,,7.0,1029.0,(1520.6923639699658+0j),6.0,1.0,260.0,10000.0,99999,,(492.3923639699658+0j),0.0,1116002601100702060302904000051000600007000080000
4483,LFRZ,47.3122,-2.14918,2024-04-10 00:30:00,,,,,8.0,1029.0,(1086.8127680912569+0j),7.0,3.0,240.0,10000.0,99999,,(58.312768091256885+0j),0.0,1116002403100802070302904000051000600007000080000
4484,LFSB,47.5896,7.52991,2024-04-10 00:30:00,,,,,6.0,1025.0,(8324.506495322792+0j),5.0,1.0,,10000.0,99999,6.0,(7299.606495322792+0j),0.0,1116063601100602050302504000051000600007000086000
4485,LFSN,48.6921,6.23046,2024-04-10 00:30:00,,,,,7.0,1025.0,(6259.620998737811+0j),3.0,3.0,,10000.0,99999,3.0,(5235.32099873781+0j),0.0,1116033603100702030302504000051000600007000083000
4486,LFST,48.5383,7.62823,2024-04-10 00:30:00,,,,,5.0,1025.0,(5928.037386191355+0j),3.0,5.0,230.0,10000.0,99999,,(4904.137386191355+0j),0.0,1116002305100502030302504000051000600007000080000
4487,LFTW,43.7574,4.41635,2024-04-10 00:30:00,,,,,10.0,1024.0,(2308.849620797371+0j),1.0,12.0,310.0,10000.0,99999,,(1284.8496207973708+0j),0.0,1116003112101002010302404000051000600007000080000
4488,LFBA,44.1747,0.59056,2024-04-10 00:30:00,,,,,9.0,1031.0,(1945.7483872736782+0j),7.0,4.0,270.0,10000.0,99999,4.0,(914.1483872736783+0j),0.0,1116042704100902070303104000051000600007000084000
4489,LFBC,44.5333,-1.125,2024-04-10 00:30:00,,,,,8.0,1032.0,(1429.1432398774693+0j),6.0,2.0,250.0,10000.0,99999,3.0,(397.24323987746925+0j),0.2,1116032502100802060303204000051000600207000083000
4490,LFBL,45.8628,1.17944,2024-04-10 00:30:00,,,,,6.0,1029.0,(11.578501641595413+0j),5.0,5.0,260.0,10000.0,99999,4.0,(-1018.1214983584047+0j),0.0,1116042605100602050302904000051000600007000084000
4491,LFBM,43.9117,-0.5075,2024-04-10 00:30:00,,,,,8.0,1032.0,(2070.152478239353+0j),7.0,3.0,230.0,10000.0,99999,,(1037.452478239353+0j),0.0,1116002303100802070303204000051000600007000080000
4492,LFKF,41.5006,9.09778,2024-04-10 00:30:00,,,,,15.0,1017.0,(1226.861741977463+0j),7.0,24.0,280.0,10000.0,99999,3.0,(208.96174197746302+0j),0.0,1116032824101502070301704000051000600007000083000
4493,LFOE,49.0287,1.21986,2024-04-10 00:30:00,,,,,6.0,1026.0,(4677.132536857108+0j),4.0,6.0,260.0,10000.0,99999,,(3652.132536857108+0j),0.0,1116002606100602040302604000051000600007000080000
4494,LFOP,49.3842,1.1748,2024-04-10 00:30:00,,,,,5.0,1025.0,(6002.020146144336+0j),4.0,7.0,240.0,10000.0,99999,1.0,(4977.920146144335+0j),0.0,1116012407100502040302504000051000600007000081000
4495,LFPB,48.9694,2.44139,2024-04-10 00:30:00,,,,,7.0,1026.0,(2324.772088478821+0j),4.0,8.0,240.0,10000.0,99999,,(1300.772088478821+0j),0.0,1116002408100702040302604000051000600007000080000
4496,LFPG,49.0128,2.55,2024-04-10 00:30:00,,,,,7.0,1026.0,(3557.9456482049636+0j),3.0,8.0,250.0,10000.0,99999,,(2533.9456482049636+0j),0.0,1116002508100702030302604000051000600007000080000
4497,LFPV,48.7744,2.20154,2024-04-10 00:30:00,,,,,5.0,1026.0,(6764.620332468556+0j),3.0,7.0,270.0,10000.0,99999,,(5739.920332468556+0j),0.0,1116002707100502030302604000051000600007000080000
4499,LFQQ,50.5619,3.08944,2024-04-10 00:30:00,,,,,7.0,1023.0,(1920.0851113735587+0j),4.0,8.0,250.0,10000.0,99999,,(899.3851113735586+0j),0.0,1116002508100702040302304000051000600007000080000
4501,LFSD,47.2689,5.09,2024-04-10 00:30:00,,,,,3.0,1027.0,(12.611684321522677+0j),2.0,3.0,300.0,10000.0,99999,,(-1013.0883156784773+0j),0.0,1116003003100302020302704000051000600007000080000
4502,LFSI,48.636,4.89942,2024-04-10 00:30:00,,,,,7.0,1026.0,(4048.702010986424+0j),4.0,4.0,250.0,10000.0,99999,3.0,(3024.702010986424+0j),0.0,1116032504100702040302604000051000600007000083000
4503,LFSL,45.03967,1.4855,2024-04-10 00:30:00,,,,,7.0,1030.0,(8246.963551340594+0j),6.0,4.0,280.0,10000.0,99999,8.0,(7223.463551340594+0j),0.0,1116082804100702060303004000051000600007000088000
4504,LFSO,48.5831,5.955,2024-04-10 00:30:00,,,,,5.0,1025.0,(11.726813546197496+0j),2.0,3.0,230.0,10000.0,99999,6.0,(-1012.2731864538025+0j),0.0,1116062303100502020302504000051000600007000086000
4505,LFSX,47.7831,6.36406,2024-04-10 00:30:00,,,,,3.0,1026.0,(14.930149120431578+0j),2.0,2.0,,10000.0,99999,,(-1009.8698508795684+0j),0.0,1116003602100302020302604000051000600007000080000
4506,LFTH,43.0973,6.14603,2024-04-10 00:30:00,,,,,13.0,1017.0,(1035.7861118542116+0j),1.0,18.0,290.0,10000.0,99999,,(17.78611185421164+0j),0.0,1116002918101302010301704000051000600007000080000
4511,LPMA,32.6979,-16.7745,2024-04-10 00:30:00,,,,,18.0,1024.0,(1424.7225603355967+0j),3.0,18.0,360.0,10000.0,99999,1.0,(399.72256033559665+0j),0.0,1116013618101802030302404000051000600007000081000
4512,LPPR,41.2481,-8.68139,2024-04-10 00:30:00,,,,,8.0,1031.0,(2212.152411678539+0j),7.0,2.0,,10000.0,99999,,(1180.152411678539+0j),0.0,1116003602100802070303104000051000600007000080000
4513,LPPS,33.0734,-16.35,2024-04-10 00:30:00,,,,,16.0,1025.0,(1874.4656961274245+0j),11.0,2.0,,10000.0,99999,1.0,(848.6656961274246+0j),0.0,11160136021016020110302504000051000600007000081000
4517,ULLI,59.8003,30.2625,2024-04-10 00:30:00,45.0,36.0,N,yellow,4.0,1016.0,(1779.4159796980439+0j),3.0,3.0,110.0,200.0,99999,1.0,(762.6159796980439+0j),0.0,1110011103100402030301604000051000600007450081000
4518,ULMM,68.7817,32.7508,2024-04-10 00:30:00,85.0,36.0,v,magenta,-1.0,1012.0,(602.7394927028323+0j),-2.0,1.0,130.0,9000.0,99999,6.0,(-410.3605072971677+0j),0.0,1115061301110102120301204000051000600007850086000
4519,UUDD,55.4088,37.9063,2024-04-10 00:30:00,44.0,36.0,M,yellow,10.0,1016.0,(3666.7138003378013+0j),8.0,2.0,330.0,600.0,99999,,(2651.7138003378013+0j),0.3,1110003302101002080301604000051000600307440080000
4523,URKK,45.0347,39.1705,2024-04-10 00:30:00,,,,,11.0,1014.0,(1413.2095673529825+0j),6.0,5.0,40.0,10000.0,99999,,(397.3095673529825+0j),0.0,1116000405101102060301404000051000600007000080000
4524,URMM,44.2251,43.0819,2024-04-10 00:30:00,,,,,7.0,1017.0,(8410.80494459937+0j),5.0,3.0,100.0,10000.0,99999,3.0,(7392.104944599369+0j),0.0,1116031003100702050301704000051000600007000083000
4525,URMT,45.1092,42.1128,2024-04-10 00:30:00,,,,,7.0,1017.0,(11.256127942952762+0j),5.0,5.0,100.0,10000.0,99999,,(-1007.2438720570473+0j),0.0,1116001005100702050301704000051000600007000080000
4526,URSS,43.4499,39.9566,2024-04-10 00:30:00,,,,,13.0,1013.0,(1261.4323467950744+0j),12.0,5.0,120.0,10000.0,99999,8.0,(248.3323467950744+0j),0.0,11160812051013020120301304000051000600007000088000
4527,URWA,46.2833,48.0063,2024-04-10 00:30:00,,,,,8.0,1021.0,(755.1614788494641+0j),7.0,2.0,80.0,7000.0,99999,,(-266.83852115053594+0j),0.0,1114000802100802070302104000051000600007000080000
4528,URWI,46.3739,44.3309,2024-04-10 00:30:00,,,,,8.0,1020.0,(3879.1282213855625+0j),5.0,2.0,110.0,10000.0,99999,,(2859.1282213855625+0j),0.0,1116001102100802050302004000051000600007000080000
4529,URWW,48.7825,44.3455,2024-04-10 00:30:00,,,,,9.0,1021.0,(3415.4832900248034+0j),5.0,3.0,260.0,10000.0,99999,,(2393.783290024803+0j),0.0,1116002603100902050302104000051000600007000080000
4530,UUEE,55.9726,37.4146,2024-04-10 00:30:00,45.0,36.0,N,yellow,9.0,1016.0,(4200.9643307985225+0j),9.0,2.0,360.0,100.0,99999,,(3187.1643307985223+0j),0.8,1110003602100902090301604000051000600807450080000
4531,UUOO,51.8142,39.2296,2024-04-10 00:30:00,,,,,10.0,1018.0,(3296.0535024430496+0j),3.0,2.0,280.0,10000.0,99999,,(2278.0535024430496+0j),0.0,1116002802101002030301804000051000600007000080000
4535,UWKD,55.6062,49.2787,2024-04-10 00:30:00,,,,,5.0,1017.0,(4892.227874050573+0j),3.0,2.0,20.0,10000.0,99999,,(3876.2278740505726+0j),0.0,1116000202100502030301704000051000600007000080000
4536,UWKE,55.5647,52.0925,2024-04-10 00:30:00,,,,,7.0,1016.0,(5395.754102990196+0j),5.0,4.0,210.0,10000.0,99999,,(4379.254102990196+0j),0.0,1116002104100702050301604000051000600007000080000
4537,UWWW,53.5049,50.1643,2024-04-10 00:30:00,,,,,7.0,1017.0,(4154.55703088746+0j),4.0,1.0,,10000.0,99999,,(3136.8570308874605+0j),0.0,1116003601100702040301704000051000600007000080000
4538,LEAL,38.2822,-0.55816,2024-04-10 00:30:00,,,,,12.0,1029.0,(1478.840480821443+0j),7.0,2.0,330.0,10000.0,99999,,(449.84048082144295+0j),0.0,1116003302101202070302904000051000600007000080000
4539,LEAM,36.8439,-2.3701,2024-04-10 00:30:00,,,,,14.0,1029.0,(1211.0796188368495+0j),5.0,5.0,50.0,10000.0,99999,,(183.07961883684948+0j),0.0,1116000505101402050302904000051000600007000080000
4540,LEAS,43.5636,-6.03462,2024-04-10 00:30:00,,,,,10.0,1033.0,(2848.8548286930763+0j),7.0,4.0,240.0,10000.0,99999,6.0,(1815.2548286930764+0j),0.0,1116062404101002070303304000051000600007000086000
4541,LEBB,43.3011,-2.91061,2024-04-10 00:30:00,,,,,9.0,1033.0,(1629.969000082637+0j),7.0,3.0,80.0,10000.0,99999,8.0,(595.969000082637+0j),0.0,1116080803100902070303304000051000600007000088000
4542,LEBL,41.2971,2.07846,2024-04-10 00:30:00,,,,,10.0,1027.0,(1069.4802693956533+0j),7.0,6.0,320.0,10000.0,99999,,(41.480269395653295+0j),0.0,1116003206101002070302704000051000600007000080000
4543,LECO,43.3021,-8.37726,2024-04-10 00:30:00,,,,,8.0,1032.0,(2803.9362075371964+0j),7.0,5.0,160.0,10000.0,99999,,(1770.5362075371963+0j),0.0,1116001605100802070303204000051000600007000080000
4544,LEDA,41.72819,0.53502,2024-04-10 00:30:00,,,,,6.0,1028.0,(10.611359457555217+0j),3.0,11.0,270.0,10000.0,99999,,(-1018.2886405424449+0j),0.0,1116002711100602030302804000051000600007000080000
4545,LEGE,41.901,2.76055,2024-04-10 00:30:00,41.0,36.0,J,yellow,6.0,1027.0,(4717.090187391874+0j),6.0,1.0,,400.0,99999,6.0,(3690.7901873918736+0j),0.0,1110063601100602060302704000051000600007410086000
4546,LEGR,37.1887,-3.77736,2024-04-10 00:30:00,,,,,9.0,1029.0,(11.142918369451795+0j),4.0,2.0,,10000.0,99999,,(-1016.8570816305482+0j),0.0,1116003602100902040302904000051000600007000080000
4547,LEIB,38.8729,1.37312,2024-04-10 00:30:00,,,,,10.0,1029.0,(1114.8541786485225+0j),2.0,3.0,20.0,10000.0,99999,,(86.95417864852243+0j),0.0,1116000203101002020302904000051000600007000080000
4548,LELC,37.775,-0.81239,2024-04-10 00:30:00,,,,,12.0,1029.0,(1061.4471860725366+0j),9.0,5.0,300.0,9000.0,99999,,(32.74718607253658+0j),0.0,1115003005101202090302904000051000600007000080000
4549,LELL,41.5209,2.10508,2024-04-10 00:30:00,,,,,7.0,1027.0,(4255.656802882901+0j),6.0,1.0,,10000.0,99999,,(3228.0568028829007+0j),0.0,1116003601100702060302704000051000600007000080000
4550,LEMD,40.4936,-3.56676,2024-04-10 00:30:00,,,,,8.0,1031.0,(12.98703999818254+0j),1.0,2.0,,10000.0,99999,,(-1017.3129600018174+0j),0.0,1116003602100802010303104000051000600007000080000
4551,LEMG,36.6749,-4.49911,2024-04-10 00:30:00,,,,,12.0,1028.0,(1188.0512024412844+0j),10.0,5.0,290.0,10000.0,99999,,(160.35120244128439+0j),0.0,11160029051012020100302804000051000600007000080000
4552,LEMH,39.8626,4.21865,2024-04-10 00:30:00,,,,,10.0,1028.0,(2284.9956806560494+0j),6.0,3.0,320.0,10000.0,99999,,(1257.8956806560495+0j),0.0,1116003203101002060302804000051000600007000080000
4553,LEPA,39.5517,2.73881,2024-04-10 00:30:00,,,,,9.0,1027.0,(1134.5587817814758+0j),8.0,1.0,60.0,10000.0,99999,1.0,(106.55878178147577+0j),0.0,1116010601100902080302704000051000600007000081000
4554,LEPP,42.77,-1.64633,2024-04-10 00:30:00,,,,,5.0,1032.0,(14.894081698260738+0j),3.0,3.0,110.0,10000.0,99999,,(-1019.1059183017393+0j),0.0,1116001103100502030303204000051000600007000080000
4555,LERS,41.1474,1.16717,2024-04-10 00:30:00,,,,,9.0,1028.0,(2085.5423190221745+0j),2.0,2.0,,10000.0,99999,,(1058.2423190221746+0j),0.0,1116003602100902020302804000051000600007000080000
4556,LESO,43.3565,-1.79061,2024-04-10 00:30:00,,,,,11.0,1033.0,(1084.8865365996971+0j),9.0,3.0,160.0,10000.0,99999,3.0,(51.08653659969718+0j),0.0,1116031603101102090303304000051000600007000083000
4557,LEST,42.8963,-8.41514,2024-04-10 00:30:00,,,,,8.0,1032.0,(8587.314073103116+0j),5.0,3.0,100.0,10000.0,99999,,(7554.114073103116+0j),0.0,1116001003100802050303204000051000600007000080000
4559,LEVC,39.4893,-0.48162,2024-04-10 00:30:00,,,,,10.0,1029.0,(2001.8252896935683+0j),2.0,4.0,280.0,10000.0,99999,,(973.0252896935683+0j),0.0,1116002804101002020302904000051000600007000080000
4560,LEVD,41.7061,-4.85194,2024-04-10 00:30:00,,,,,4.0,1031.0,(23.913157562340384+0j),2.0,7.0,80.0,10000.0,99999,,(-1007.6868424376595+0j),0.0,1116000807100402020303104000051000600007000080000
4561,LEVT,42.8828,-2.72447,2024-04-10 00:30:00,,,,,6.0,1032.0,(14.157631279932218+0j),5.0,2.0,290.0,10000.0,99999,6.0,(-1020.2423687200678+0j),0.0,1116062902100602050303204000051000600007000086000
4562,LEVX,42.2318,-8.62677,2024-04-10 00:30:00,,,,,8.0,1032.0,(6287.229981523396+0j),5.0,2.0,,10000.0,99999,,(5254.629981523396+0j),0.0,1116003602100802050303204000051000600007000080000
4563,LEXJ,43.4271,-3.82001,2024-04-10 00:30:00,,,,,11.0,1033.0,(1084.8865365996971+0j),8.0,3.0,210.0,7000.0,99999,8.0,(50.98653659969705+0j),0.0,1114082103101102080303304000051000600007000088000
4564,LEZG,41.6662,-1.04155,2024-04-10 00:30:00,,,,,8.0,1032.0,(6333.583480165724+0j),4.0,7.0,270.0,10000.0,99999,,(5301.783480165724+0j),0.0,1116002707100802040303204000051000600007000080000
4565,LEZL,37.418,-5.89311,2024-04-10 00:30:00,,,,,12.0,1027.0,(1375.8098277555437+0j),5.0,6.0,60.0,10000.0,99999,,(349.0098277555437+0j),0.0,1116000606101202050302704000051000600007000080000
4571,LELN,42.589,-5.65556,2024-04-10 00:30:00,,,,,4.0,1031.0,(24.72064454971986+0j),1.0,5.0,360.0,10000.0,99999,,(-1006.2793554502801+0j),0.0,1116003605100402010303104000051000600007000080000
4572,LESA,40.9521,-5.50199,2024-04-10 00:30:00,,,,,4.0,1031.0,(23.2143697654896+0j),3.0,0.0,0.0,10000.0,99999,,(-1008.2856302345104+0j),0.0,1116000000100402030303104000051000600007000080000
4574,LFBG,45.6583,-0.3175,2024-04-10 00:30:00,,,,,8.0,1030.0,(1517.7659790993794+0j),7.0,4.0,250.0,10000.0,99999,,(487.66597909937946+0j),0.0,1116002504100802070303004000051000600007000080000
4575,LFLX,46.8622,1.73067,2024-04-10 00:30:00,,,,,5.0,1028.0,(6199.481678601779+0j),5.0,7.0,250.0,10000.0,99999,,(5171.681678601779+0j),0.0,1116002507100502050302804000051000600007000080000
4576,LFMI,43.5227,4.92384,2024-04-10 00:30:00,,,,,9.0,1022.0,(1360.3812198368196+0j),3.0,13.0,300.0,10000.0,99999,,(337.3812198368196+0j),0.0,1116003013100902030302204000051000600007000080000
4578,LFMV,43.9073,4.90183,2024-04-10 00:30:00,,,,,9.0,1023.0,(1549.601735735899+0j),4.0,11.0,320.0,10000.0,99999,,(526.301735735899+0j),0.0,1116003211100902040302304000051000600007000080000
4580,UMKK,54.89,20.5926,2024-04-10 00:30:00,,,,,12.0,1011.0,(1134.9579209910048+0j),10.0,7.0,310.0,8000.0,99999,1.0,(124.95792099100481+0j),0.0,11140131071012020100301104000051000600007000081000
4581,URML,42.8168,47.6523,2024-04-10 00:30:00,,,,,10.0,1017.0,(1059.0666348348386+0j),10.0,2.0,130.0,9000.0,99999,8.0,(41.066634834838624+0j),0.0,11150813021010020100301704000051000600007000088000
4582,UWLL,54.2683,48.2267,2024-04-10 00:30:00,,,,,7.0,1017.0,(4050.3420944206528+0j),7.0,2.0,170.0,10000.0,99999,,(3033.3420944206528+0j),0.0,1116001702100702070301704000051000600007000080000
4583,EGDM,51.1522,-1.74741,2024-04-10 00:20:00,,,,,6.0,1023.0,(4162.82733065815+0j),5.0,10.0,250.0,10000.0,99999,,(3141.6273306581497+0j),0.0,1116002510100602050302304000051000600007000080000
4584,EGDR,50.0861,-5.25571,2024-04-10 00:20:00,,,,,10.0,1025.0,(2116.4647500215424+0j),8.0,10.0,230.0,10000.0,99999,3.0,(1092.1647500215424+0j),0.0,1116032310101002080302504000051000600007000083000
4585,EGDY,51.0094,-2.63882,2024-04-10 00:20:00,,,,,7.0,1024.0,(1426.626989413634+0j),5.0,4.0,250.0,10000.0,99999,,(404.326989413634+0j),0.0,1116002504100702050302404000051000600007000080000
4586,EGOM,55.05,-2.55,2024-04-10 00:20:00,,,,,1.0,1016.0,(27.587210509251644+0j),0.0,8.0,270.0,10000.0,99999,,(-986.2127894907483+0j),0.0,1116002708100102000301604000051000600007000080000
4587,EGOV,53.2481,-4.53534,2024-04-10 00:20:00,,,,,8.0,1020.0,(1186.5306027914476+0j),5.0,9.0,250.0,10000.0,99999,,(167.2306027914476+0j),0.0,1116002509100802050302004000051000600007000080000
4588,EGQK,57.6494,-3.56064,2024-04-10 00:20:00,,,,,5.0,1012.0,(1168.947866159598+0j),2.0,17.0,250.0,10000.0,99999,3.0,(159.04786615959813+0j),0.0,1116032517100502020301204000051000600007000083000
4589,EGUB,51.6164,-1.09583,2024-04-10 00:20:00,,,,,5.0,1023.0,(2999.7780462963697+0j),3.0,5.0,200.0,10000.0,99999,,(1979.4780462963697+0j),0.0,1116002005100502030302304000051000600007000080000
4590,EGUW,52.1273,0.95626,2024-04-10 00:20:00,,,,,4.0,1021.0,(4320.775409961414+0j),2.0,8.0,250.0,10000.0,99999,,(3303.275409961414+0j),0.0,1116002508100402020302104000051000600007000080000
4591,EGVO,51.2341,-0.94283,2024-04-10 00:20:00,,,,,6.0,1023.0,(4145.344361703702+0j),4.0,11.0,230.0,10000.0,99999,,(3124.144361703702+0j),0.0,1116002311100602040302304000051000600007000080000
4592,EGVP,51.1394,-1.56861,2024-04-10 00:20:00,,,,,6.0,1023.0,(3215.8693272665487+0j),4.0,7.0,260.0,10000.0,99999,,(2194.4693272665486+0j),0.0,1116002607100602040302304000051000600007000080000
4593,EGWC,52.64,-2.30558,2024-04-10 00:20:00,,,,,99999.0,99999.0,(99999+0j),99999.0,2.0,180.0,10000.0,99999,,(98979.9+0j),0.0,11160018021099999020999990399904000051000600007000080000
4594,EGWU,51.553,-0.41817,2024-04-10 00:20:00,,,,,6.0,1023.0,(1842.483033064672+0j),4.0,4.0,240.0,10000.0,99999,,(822.0830330646721+0j),0.0,1116002404100602040302304000051000600007000080000
4595,EGXE,54.2924,-1.5354,2024-04-10 00:20:00,,,,,5.0,1017.0,(2086.3421343593977+0j),1.0,9.0,280.0,10000.0,99999,,(1072.0421343593978+0j),0.0,1116002809100502010301704000051000600007000080000
4596,EGXT,52.6126,-0.47645,2024-04-10 00:20:00,,,,,5.0,1020.0,(3465.4601352842433+0j),2.0,11.0,250.0,10000.0,99999,,(2447.4601352842433+0j),0.0,1116002511100502020302004000051000600007000080000
4597,EGXW,53.1662,-0.52381,2024-04-10 00:20:00,,,,,6.0,1019.0,(2659.115181156857+0j),3.0,9.0,240.0,10000.0,99999,,(1642.815181156857+0j),0.0,1116002409100602030301904000051000600007000080000
4598,EGXZ,54.2055,-1.38209,2024-04-10 00:20:00,,,,,6.0,1018.0,(1606.3005247668193+0j),1.0,5.0,280.0,10000.0,99999,,(592.3005247668193+0j),0.0,1116002805100602010301804000051000600007000080000
4599,EGYD,53.0303,-0.48324,2024-04-10 00:20:00,,,,,5.0,1020.0,(2911.5908301619575+0j),3.0,13.0,250.0,10000.0,99999,,(1894.0908301619575+0j),0.0,1116002513100502030302004000051000600007000080000
4600,EGYE,52.9622,-0.56163,2024-04-10 00:20:00,,,,,5.0,1020.0,(4442.636194653623+0j),2.0,10.0,250.0,10000.0,99999,,(3426.0361946536227+0j),0.0,1116002510100502020302004000051000600007000080000
4603,EINN,52.702,-8.92482,2024-04-10 00:30:00,,,,,8.0,1017.0,(1224.9839615979724+0j),6.0,8.0,140.0,10000.0,99999,3.0,(205.7839615979724+0j),0.0,1116031408100802060301704000051000600007000083000
4607,LFRB,48.4479,-4.41854,2024-04-10 00:30:00,,,,,8.0,1028.0,(2786.9041556087095+0j),7.0,6.0,230.0,10000.0,99999,3.0,(1759.1041556087096+0j),0.0,1116032306100802070302804000051000600007000083000
4608,LPPT,38.7813,-9.13592,2024-04-10 00:30:00,,,,,11.0,1030.0,(2469.7666884565547+0j),7.0,4.0,350.0,10000.0,99999,,(1439.9666884565547+0j),0.0,1116003504101102070303004000051000600007000080000
4609,LXGB,36.1512,-5.34966,2024-04-10 00:20:00,,,,,16.0,1027.0,(1060.1251002077322+0j),14.0,15.0,70.0,10000.0,99999,,(33.1251002077322+0j),0.0,11160007151016020140302704000051000600007000080000
4610,LFBT,43.1787,-0.00644,2024-04-10 00:30:00,,,,,4.0,1032.0,(15.383407549567705+0j),4.0,7.0,200.0,10000.0,99999,1.0,(-1018.6165924504323+0j),0.0,1116012007100402040303204000051000600007000081000
4611,LFGJ,47.039,5.42725,2024-04-10 00:30:00,,,,,4.0,1027.0,(9.017806102549125+0j),4.0,3.0,210.0,10000.0,99999,,(-1016.6821938974509+0j),0.0,1116002103100402040302704000051000600007000080000
4612,LFMC,43.3847,6.38714,2024-04-10 00:30:00,,,,,12.0,1015.0,(1889.9024578586113+0j),1.0,25.0,290.0,10000.0,99999,,(872.9024578586113+0j),0.0,1116002925101202010301504000051000600007000080000
4613,LFMK,43.216,2.30632,2024-04-10 00:30:00,,,,,9.0,1029.0,(3164.2046728319583+0j),7.0,12.0,270.0,10000.0,99999,5.0,(2133.904672831958+0j),0.2,1116052712100902070302904000051000600207000085000
4614,LFMY,43.6064,5.10925,2024-04-10 00:30:00,,,,,10.0,1022.0,(1789.924341782875+0j),3.0,14.0,310.0,10000.0,99999,,(767.324341782875+0j),0.0,1116003114101002030302204000051000600007000080000
4616,LFOH,49.5339,0.08806,2024-04-10 00:30:00,,,,,9.0,1025.0,(2494.949919254825+0j),7.0,13.0,260.0,10000.0,99999,,(1469.749919254825+0j),0.1,1116002613100902070302504000051000600107000080000
4617,LFQB,48.3221,4.0167,2024-04-10 00:30:00,,,,,5.0,1026.0,(4701.886480211553+0j),4.0,7.0,260.0,10000.0,99999,,(3676.586480211553+0j),0.0,1116002607100502040302604000051000600007000080000
4618,LFRC,49.6501,-1.47028,2024-04-10 00:30:00,,,,,7.0,1026.0,(4056.195889463823+0j),5.0,9.0,260.0,10000.0,99999,,(3031.095889463823+0j),0.0,1116002609100702050302604000051000600007000080000
4619,LFRD,48.5877,-2.07996,2024-04-10 00:30:00,,,,,6.0,1028.0,(2585.309501807073+0j),4.0,7.0,230.0,10000.0,99999,,(1558.2095018070731+0j),0.0,1116002307100602040302804000051000600007000080000
4620,LFRH,47.7606,-3.44,2024-04-10 00:30:00,,,,,7.0,1029.0,(1950.4890449260631+0j),6.0,5.0,270.0,10000.0,99999,,(922.4890449260631+0j),0.0,1116002705100702060302904000051000600007000080000
4622,LFRJ,48.5303,-4.15164,2024-04-10 00:30:00,,,,,7.0,1028.0,(3242.483463129214+0j),6.0,8.0,210.0,10000.0,99999,1.0,(2215.483463129214+0j),0.0,1116012108100702060302804000051000600007000081000
4623,LFRK,49.1733,-0.45,2024-04-10 00:30:00,,,,,6.0,1027.0,(2885.155890149607+0j),5.0,8.0,250.0,10000.0,99999,,(1859.7558901496068+0j),0.0,1116002508100602050302704000051000600007000080000
4625,LFRQ,47.975,-4.16779,2024-04-10 00:30:00,,,,,7.0,1029.0,(2878.936375000338+0j),6.0,3.0,200.0,10000.0,99999,1.0,(1850.436375000338+0j),0.0,1116012003100702060302904000051000600007000081000
4626,LFRT,48.5378,-2.85444,2024-04-10 00:30:00,,,,,7.0,1028.0,(4019.0740649602203+0j),5.0,6.0,210.0,10000.0,99999,1.0,(2991.67406496022+0j),0.0,1116012106100702050302804000051000600007000081000
4627,EICK,51.8413,-8.49111,2024-04-10 00:30:00,,,,,9.0,1019.0,(3522.289577721494+0j),8.0,12.0,180.0,10000.0,99999,6.0,(2501.389577721494+0j),0.0,1116061812100902080301904000051000600007000086000
4628,EIDW,53.4213,-6.27007,2024-04-10 00:30:00,,,,,7.0,1019.0,(2470.5270086656433+0j),3.0,6.0,220.0,10000.0,99999,3.0,(1451.4270086656434+0j),0.0,1116032206100702030301904000051000600007000083000
4630,LQBK,44.9414,17.2975,2024-04-10 00:30:00,,,,,13.0,1014.0,(2280.2350370374993+0j),11.0,2.0,180.0,10000.0,99999,,(1266.4350370374993+0j),0.0,11160018021013020110301404000051000600007000080000
4631,LQTZ,44.4587,18.7248,2024-04-10 00:30:00,,,,,10.0,1014.0,(4678.3563042708565+0j),9.0,1.0,,10000.0,99999,,(3664.6563042708567+0j),0.0,1116003601101002090301404000051000600007000080000
4632,UUYY,61.647,50.8451,2024-04-10 00:30:00,,,,,-1.0,1017.0,(235.72329130983258+0j),-2.0,2.0,200.0,10000.0,99999,6.0,(-781.4767086901675+0j),0.0,1116062002110102120301704000051000600007000086000
4634,LEAB,38.9485,-1.86352,2024-04-10 00:30:00,,,,,3.0,1030.0,(24.90458287377097+0j),-1.0,2.0,160.0,10000.0,99999,,(-1004.595417126229+0j),0.0,1116001602100302110303004000051000600007000080000
4635,LEBA,37.842,-4.84888,2024-04-10 00:30:00,,,,,7.0,1028.0,(2876.13857483027+0j),4.0,1.0,160.0,10000.0,99999,,(1848.83857483027+0j),0.0,1116001601100702040302804000051000600007000080000
4636,LEGT,40.2941,-3.72383,2024-04-10 00:30:00,,,,,8.0,1031.0,(13.135416117167532+0j),2.0,6.0,40.0,10000.0,99999,,(-1017.8645838828324+0j),0.0,1116000406100802020303104000051000600007000080000
4637,LELO,42.46095,-2.32224,2024-04-10 00:30:00,,,,,8.0,1033.0,(8270.084260635818+0j),4.0,3.0,290.0,10000.0,99999,7.0,(7236.284260635818+0j),0.0,1116072903100802040303304000051000600007000087000
4640,LETO,40.4967,-3.44587,2024-04-10 00:30:00,,,,,5.0,1031.0,(18.10550345063063+0j),2.0,7.0,20.0,10000.0,99999,,(-1012.4944965493693+0j),0.0,1116000207100502020303104000051000600007000080000
4641,LFOA,47.0533,2.6325,2024-04-10 00:30:00,,,,,3.0,1028.0,(10.535822079955668+0j),2.0,6.0,260.0,10000.0,99999,1.0,(-1016.6641779200444+0j),0.0,1116012606100302020302804000051000600007000081000
4642,LFRI,46.7019,-1.37863,2024-04-10 00:30:00,,,,,7.0,1030.0,(2895.955004978537+0j),7.0,3.0,270.0,10000.0,99999,,(1866.8550049785372+0j),0.0,1116002703100702070303004000051000600007000080000
4643,LFRM,47.9486,0.20167,2024-04-10 00:30:00,,,,,5.0,1028.0,(2697.2693388892003+0j),3.0,1.0,,10000.0,99999,,(1670.2693388892003+0j),0.0,1116003601100502030302804000051000600007000080000
4644,LPFR,37.0144,-7.96591,2024-04-10 00:30:00,,,,,17.0,1027.0,(1077.0526483323704+0j),4.0,7.0,40.0,10000.0,99999,,(50.65264833237029+0j),0.0,1116000407101702040302704000051000600007000080000
4646,LRBM,47.6584,23.47,2024-04-10 00:30:00,,,,,11.0,1016.0,(3472.2461027786385+0j),9.0,3.0,110.0,10000.0,99999,,(2457.2461027786385+0j),0.0,1116001103101102090301604000051000600007000080000
4647,LRSM,47.7033,22.8857,2024-04-10 00:30:00,,,,,11.0,1014.0,(2565.310181987687+0j),9.0,2.0,100.0,10000.0,99999,,(1550.310181987687+0j),0.0,1116001002101102090301404000051000600007000080000
4648,UMMS,53.8825,28.0307,2024-04-10 00:30:00,,,,,7.0,1015.0,(5593.0729713730625+0j),6.0,0.0,0.0,10000.0,99999,,(4577.5729713730625+0j),0.0,1116000000100702060301504000051000600007000080000
4649,URKA,45.0021,37.3473,2024-04-10 00:30:00,,,,,10.0,1014.0,(1686.4600994234058+0j),5.0,6.0,50.0,10000.0,99999,,(671.4600994234058+0j),0.0,1116000506101002050301404000051000600007000080000
4650,UUWW,55.5915,37.2615,2024-04-10 00:30:00,,,,,10.0,1016.0,(4169.089761754398+0j),10.0,2.0,70.0,9000.0,99999,,(3154.6897617543978+0j),0.3,11150007021010020100301604000051000600307000080000
4651,UWGG,56.2301,43.784,2024-04-10 00:30:00,61.0,36.0,^,green,10.0,1017.0,(2050.195016623528+0j),8.0,1.0,20.0,10000.0,99999,,(1033.4950166235278+0j),0.0,1116000201101002080301704000051000600007610080000
4654,LEMO,37.1749,-5.61594,2024-04-10 00:30:00,,,,,9.0,1027.0,(2351.730711450851+0j),6.0,5.0,50.0,10000.0,99999,,(1324.6307114508509+0j),0.0,1116000505100902060302704000051000600007000080000
4655,LERT,36.6452,-6.34946,2024-04-10 00:30:00,,,,,11.0,1026.0,(1315.142340585938+0j),6.0,3.0,70.0,10000.0,99999,,(288.342340585938+0j),0.0,1116000703101102060302604000051000600007000080000
4656,LRAR,46.1766,21.262,2024-04-10 00:30:00,,,,,13.0,1014.0,(2110.830163257181+0j),7.0,2.0,,10000.0,99999,,(1096.830163257181+0j),0.0,1116003602101302070301404000051000600007000080000
4657,LFMN,43.6584,7.21587,2024-04-10 00:40:00,17.0,36.0,2,red,15.0,1013.0,(1040.8537561222913+0j),5.0,5.0,10.0,10000.0,99999,3.0,(25.15375612229127+0j),0.0,1116030105101502050301304000051000600007170083000
4663,EKKA,56.2975,9.12463,2024-04-10 00:42:00,61.0,36.0,^,green,8.0,1005.0,(1835.1918140433527+0j),6.0,14.0,210.0,10000.0,99999,8.0,(828.7918140433527+0j),0.0,1116082114100802060300504000051000600007610088000
4664,ETIC,49.6987,11.9402,2024-04-10 00:30:00,,,,,7.0,30.16,(10.620699619572147+0j),5.0,0.0,0.0,10000.0,99999,3.0,(-1010.5793003804279+0j),0.9,111603000010070205033014000051000600907000083000
4665,EHLW,53.2286,5.76056,2024-04-10 00:44:00,,,,,9.0,1016.0,(1027.6007325196924+0j),6.0,16.0,260.0,10000.0,99999,4.0,(15.000732519692406+0j),0.1,1116042616100902060301604000051000600107000084000
4671,ETHC,52.5912,10.0221,2024-04-10 00:20:00,,,,,10.0,1017.0,(1504.6990858240856+0j),5.0,12.0,230.0,10000.0,99999,3.0,(489.6990858240856+0j),0.0,1116032312101002050301704000051000600007000083000
4675,LIPI,45.9787,13.0493,2024-04-09 23:55:00,,,,,14.0,1014.0,(1495.6337891773474+0j),12.0,2.0,30.0,10000.0,99999,,(481.2337891773474+0j),0.0,11160003021014020120301404000051000600007000080000
