,station,lat,lon,time,weather,weatherfont,weathersymbol,weathercolour,temperature,pressure,sl_pressure,dewpoint,windspeed,winddir,visibility,visual_range,cloudcover,pressure3h_change,rain,wwletter
639,ETNG,50.9608,6.04242,2024-04-23 11:50:00,,,,,9.0,1019.0,(2390.851013580977+0j),-2.0,3.0,,10000.0,99999,3.0,0j,0,1116033603100902120301904000051000600007000083000
769,LIPK,44.1948,12.0701,2024-04-23 11:50:00,63.0,36.0,',green,9.0,1007.0,(1405.441299901669+0j),4.0,1.0,,7000.0,99999,6.0,0j,0,1114063601100902040300704000051000600007630086000
776,LGLR,39.65628,22.34,2024-04-23 11:50:00,,,,,17.0,1008.0,(1543.1029668458957+0j),15.0,13.0,70.0,10000.0,99999,5.0,0j,0,11160507131017020150300804000051000600007000085000
780,LGSY,38.9676,24.4872,2024-04-23 11:50:00,,,,,21.0,1006.0,(1079.1196959016847+0j),11.0,17.0,120.0,10000.0,99999,1.0,0j,0,11160112171021020110300604000051000600007000081000
781,LGTG,38.3398,23.565,2024-04-23 11:50:00,,,,,20.0,1007.0,(1970.070189103048+0j),11.0,5.0,60.0,10000.0,99999,1.0,0j,0,11160106051020020110300704000051000600007000081000
805,LGPZ,38.9255,20.7653,2024-04-23 11:50:00,,,,,23.0,1001.0,(1017.4161071649261+0j),14.0,4.0,230.0,7000.0,99999,1.0,0j,0,11140123041023020140300104000051000600007000081000
874,LTAY,37.7856,29.7013,2024-04-23 11:50:00,,,,,30.0,1017.0,(5470.022614744898+0j),4.0,9.0,140.0,10000.0,99999,,0j,0,1116001409103002040301704000051000600007000080000
876,LTBH,40.1377,26.4268,2024-04-23 11:50:00,,,,,17.0,1011.0,(1058.1999614917238+0j),14.0,14.0,20.0,9000.0,99999,,0j,0,11150002141017020140301104000051000600007000080000
878,LTBY,39.8099,30.5194,2024-04-23 11:50:00,,,,,28.0,1016.0,(5425.818178308634+0j),7.0,9.0,110.0,10000.0,99999,,0j,0,1116001109102802070301604000051000600007000080000
880,LTCB,40.96667,38.08,2024-04-23 11:50:00,,,,,17.0,1020.0,(1057.1893646864016+0j),13.0,8.0,30.0,10000.0,99999,3.0,0j,0,11160303081017020130302004000051000600007000083000
884,LTCN,37.53883,36.95352,2024-04-23 11:50:00,,,,,30.0,1018.0,(3603.6744317528046+0j),5.0,3.0,230.0,10000.0,99999,,0j,0,1116002303103002050301804000051000600007000080000
885,LTCT,39.97663,43.87665,2024-04-23 11:50:00,,,,,25.0,1019.0,(7091.996125511856+0j),-5.0,5.0,210.0,10000.0,99999,3.0,0j,0,1116032105102502150301904000051000600007000083000
886,LTDA,36.36278,36.28222,2024-04-23 11:50:00,,,,,30.0,1016.0,(1346.7646302872677+0j),12.0,2.0,,10000.0,99999,,0j,0,11160036021030020120301604000051000600007000080000
887,LTFD,39.5546,27.0138,2024-04-23 11:50:00,,,,,23.0,1011.0,(1087.2846897631405+0j),16.0,6.0,290.0,10000.0,99999,,0j,0,11160029061023020160301104000051000600007000080000
888,LTFG,36.29922,32.3006,2024-04-23 11:50:00,,,,,22.0,1018.0,(1157.7965454346886+0j),16.0,10.0,240.0,10000.0,99999,,0j,0,11160024101022020160301804000051000600007000080000
890,LTAL,41.3142,33.7958,2024-04-23 11:50:00,,,,,19.0,1020.0,(10.086904245445496+0j),7.0,5.0,30.0,10000.0,99999,4.0,0j,0,1116040305101902070302004000051000600007000084000
891,LTAS,41.5064,32.0886,2024-04-23 11:50:00,,,,,20.0,1016.0,(1084.6570968919004+0j),14.0,7.0,320.0,10000.0,99999,4.0,0j,0,11160432071020020140301604000051000600007000084000
893,LTBO,38.6815,29.4717,2024-04-23 11:50:00,,,,,27.0,1017.0,(6211.317928378624+0j),0.0,8.0,220.0,10000.0,99999,3.0,0j,0,1116032208102702000301704000051000600007000083000
895,LTCL,37.9789,41.8404,2024-04-23 11:50:00,,,,,26.0,1017.0,(4616.560845194052+0j),14.0,5.0,230.0,10000.0,99999,,0j,0,11160023051026020140301704000051000600007000080000
896,LTCO,39.65454,43.02598,2024-04-23 11:50:00,,,,,19.0,1023.0,(14.2930985720924+0j),-3.0,3.0,,10000.0,99999,,0j,0,1116003603101902130302304000051000600007000080000
897,LTCP,37.7314,38.4689,2024-04-23 11:50:00,,,,,27.0,1019.0,(4895.203150583073+0j),3.0,8.0,,10000.0,99999,4.0,0j,0,1116043608102702030301904000051000600007000084000
898,LTCR,37.2233,40.6317,2024-04-23 11:50:00,,,,,29.0,1016.0,(3708.9110123277096+0j),8.0,7.0,30.0,10000.0,99999,,0j,0,1116000307102902080301604000051000600007000080000
899,LTFB,37.9507,27.329,2024-04-23 11:50:00,,,,,29.0,1011.0,(1022.9426996240976+0j),3.0,10.0,160.0,10000.0,99999,3.0,0j,0,1116031610102902030301104000051000600007000083000
900,LTFK,40.2045,25.8833,2024-04-23 11:50:00,,,,,21.0,1011.0,(1134.094498946382+0j),16.0,4.0,,10000.0,99999,3.0,0j,0,11160336041021020160301104000051000600007000083000
1063,LBPG,42.2904,24.714,2024-04-23 12:00:00,63.0,36.0,',green,12.0,1013.0,(1619.1650181176649+0j),11.0,8.0,90.0,4000.0,99999,8.0,0j,0,11120809081012020110301304000051000600007630088000
1065,LBPL,43.4514,24.5028,2024-04-23 12:00:00,61.0,36.0,^,green,12.0,1013.0,(2127.948209635554+0j),11.0,4.0,100.0,7000.0,99999,5.0,0j,0,11140510041012020110301304000051000600007610085000
1066,LBWB,43.4238,28.1813,2024-04-23 12:00:00,63.0,36.0,',green,11.0,1018.0,(3735.775365161666+0j),11.0,12.0,110.0,7000.0,99999,8.0,0j,0,11140811121011020110301804000051000600007630088000
1068,LTBD,37.815,27.8953,2024-04-23 11:50:00,,,,,29.0,1012.0,(1136.7065544726993+0j),5.0,10.0,120.0,10000.0,99999,,0j,0,1116001210102902050301204000051000600007000080000
1109,EKVD,55.4363,9.33092,2024-04-23 11:50:00,61.0,36.0,^,green,6.0,1014.0,(1965.2411860047225+0j),2.0,14.0,240.0,10000.0,99999,6.0,0j,0,1116062414100602020301404000051000600007610086000
1702,LTAB,39.935,32.7408,2024-04-23 11:50:00,,,,,26.0,1019.0,(6016.553807208441+0j),6.0,7.0,180.0,10000.0,99999,,0j,0,1116001807102602060301904000051000600007000080000
1705,LTAW,40.30743,36.36741,2024-04-23 11:50:00,,,,,26.0,1019.0,(4282.071485306223+0j),4.0,5.0,220.0,10000.0,99999,,0j,0,1116002205102602040301904000051000600007000080000
1706,LTBF,39.6193,27.926,2024-04-23 11:50:00,,,,,25.0,1012.0,(1525.6969746191842+0j),15.0,1.0,,10000.0,99999,,0j,0,11160036011025020150301204000051000600007000080000
1707,LTBG,40.318,27.9777,2024-04-23 11:50:00,,,,,18.0,1013.0,(1361.3895920776927+0j),12.0,14.0,10.0,10000.0,99999,,0j,0,11160001141018020120301304000051000600007000080000
1708,LTBI,39.7841,30.5821,2024-04-23 11:50:00,,,,,27.0,1016.0,(5592.1883653008335+0j),6.0,12.0,150.0,10000.0,99999,,0j,0,1116001512102702060301604000051000600007000080000
1709,LTBL,38.513,27.0101,2024-04-23 11:50:00,,,,,30.0,1011.0,(1029.4967304935287+0j),4.0,12.0,140.0,10000.0,99999,,0j,0,1116001412103002040301104000051000600007000080000
1710,LTBQ,40.735,30.0833,2024-04-23 11:50:00,,,,,23.0,1015.0,(1304.6874612691554+0j),14.0,10.0,20.0,10000.0,99999,,0j,0,11160002101023020140301504000051000600007000080000
1712,LTCI,38.4682,43.3323,2024-04-23 11:50:00,,,,,15.0,1023.0,(16.837719686129255+0j),8.0,6.0,250.0,10000.0,99999,3.0,0j,0,1116032506101502080302304000051000600007000083000
1713,LTCK,38.7478,41.6612,2024-04-23 11:50:00,,,,,20.0,1021.0,(11.107964635783341+0j),5.0,6.0,280.0,10000.0,99999,3.0,0j,0,1116032806102002050302104000051000600007000083000
1819,URMO,43.2051,44.6066,2024-04-23 12:00:00,,,,,24.0,1020.0,(4248.79689988232+0j),6.0,2.0,350.0,10000.0,99999,4.0,0j,0,1116043502102402060302004000051000600007000084000
1885,LTAE,40.0789,32.5656,2024-04-23 11:50:00,,,,,26.0,1019.0,(6177.834109989968+0j),6.0,6.0,240.0,10000.0,99999,3.0,0j,0,1116032406102602060301904000051000600007000083000
2128,LPOV,40.9159,-8.64592,2024-04-23 12:00:00,,,,,21.0,1019.0,(1113.6430682280802+0j),4.0,8.0,340.0,10000.0,99999,,0j,0,1116003408102102040301904000051000600007000080000
2137,UMMG,53.602,24.0538,2024-04-23 12:00:00,,,,,5.0,1021.0,(5250.032926080686+0j),-3.0,4.0,220.0,10000.0,99999,8.0,0j,0,1116082204100502130302104000051000600007000088000
2161,UWLW,54.401,48.8027,2024-04-23 12:00:00,,,,,17.0,1013.0,(1577.347747101824+0j),12.0,8.0,270.0,10000.0,99999,1.0,0j,0,11160127081017020120301304000051000600007000081000
2293,LGHI,38.3432,26.1406,2024-04-23 11:50:00,,,,,24.0,1011.0,(1032.690282668186+0j),9.0,10.0,200.0,10000.0,99999,1.0,0j,0,1116012010102402090301104000051000600007000081000
2294,LGNX,37.0811,25.3681,2024-04-23 11:50:00,,,,,25.0,1010.0,(1023.845393074135+0j),13.0,11.0,150.0,10000.0,99999,1.0,0j,0,11160115111025020130301004000051000600007000081000
2296,LGSO,37.4228,24.9509,2024-04-23 11:50:00,,,,,20.0,1009.0,(1448.7682067802405+0j),14.0,22.0,120.0,10000.0,99999,1.0,0j,0,11160112221020020140300904000051000600007000081000
2298,LKKB,50.1214,14.5436,2024-04-23 12:00:00,,,,,7.0,1016.0,(7584.750619091179+0j),-5.0,2.0,,10000.0,99999,,0j,0,1116003602100702150301604000051000600007000080000
2300,LKLN,49.6752,13.2746,2024-04-23 12:00:00,,,,,6.0,1016.0,(10.621157571858955+0j),-2.0,6.0,50.0,10000.0,99999,8.0,0j,0,1116080506100602120301604000051000600007000088000
2314,LTCD,39.7102,39.527,2024-04-23 11:50:00,,,,,23.0,1022.0,(9.129503657302187+0j),1.0,2.0,,10000.0,99999,,0j,0,1116003602102302010302204000051000600007000080000
2318,LTFH,41.2545,36.5671,2024-04-23 11:50:00,,,,,22.0,1019.0,(1047.6592893791787+0j),11.0,6.0,90.0,10000.0,99999,,0j,0,11160009061022020110301904000051000600007000080000
2325,UMOO,53.9549,30.0951,2024-04-23 12:00:00,,,,,7.0,1022.0,(5382.248617575063+0j),-1.0,6.0,250.0,10000.0,99999,6.0,0j,0,1116062506100702110302204000051000600007000086000
2345,LIBF,41.4329,15.535,2024-04-23 11:50:00,,,,,20.0,1005.0,(1501.0200376579423+0j),7.0,15.0,260.0,10000.0,99999,3.0,0j,0,1116032615102002070300504000051000600007000083000
2349,LIMA,45.0864,7.60337,2024-04-23 11:50:00,,,,,10.0,1007.0,(5475.308064881176+0j),2.0,7.0,190.0,10000.0,99999,,0j,0,1116001907101002020300704000051000600007000080000
2355,LIRI,40.6204,14.9113,2024-04-23 11:50:00,,,,,18.0,1007.0,(1245.1190736711933+0j),10.0,13.0,250.0,10000.0,99999,3.0,0j,0,11160325131018020100300704000051000600007000083000
2368,LIPB,46.4602,11.3264,2024-04-23 11:50:00,,,,,11.0,1008.0,(4303.493297650688+0j),1.0,6.0,310.0,10000.0,99999,3.0,0j,0,1116033106101102010300804000051000600007000083000
2411,LTAD,39.9498,32.6886,2024-04-23 11:50:00,,,,,26.0,1019.0,(5947.899243836404+0j),5.0,10.0,140.0,10000.0,99999,,0j,0,1116001410102602050301904000051000600007000080000
2412,LTAR,39.8138,36.9035,2024-04-23 11:50:00,,,,,19.0,1024.0,(13.872723442497513+0j),1.0,8.0,250.0,10000.0,99999,3.0,0j,0,1116032508101902010302404000051000600007000083000
2413,LTCA,38.6069,39.2914,2024-04-23 11:50:00,,,,,25.0,1020.0,(6739.582228810467+0j),1.0,5.0,190.0,10000.0,99999,3.0,0j,0,1116031905102502010302004000051000600007000083000
2414,LTCF,40.5622,43.115,2024-04-23 11:50:00,,,,,17.0,1024.0,(16.27938295879806+0j),-3.0,8.0,190.0,10000.0,99999,2.0,0j,0,1116021908101702130302404000051000600007000082000
2420,EGQL,56.3729,-2.86844,2024-04-23 11:50:00,,,,,10.0,1025.0,(1161.7276970227638+0j),0.0,8.0,350.0,10000.0,99999,3.0,0j,0,1116033508101002000302504000051000600007000083000
2429,EGYE,52.9622,-0.56163,2024-04-23 11:50:00,61.0,36.0,^,green,7.0,1023.0,(3364.6225107867886+0j),6.0,15.0,350.0,10000.0,99999,4.0,0j,0,1116043515100702060302304000051000600007610084000
2455,EIWF,52.1872,-7.08696,2024-04-23 12:00:00,,,,,14.0,1027.0,(1343.0221854941078+0j),6.0,10.0,350.0,10000.0,99999,1.0,0j,0,1116013510101402060302704000051000600007000081000
2528,LIBC,38.9972,17.0802,2024-04-23 11:50:00,,,,,16.0,1005.0,(2345.7405282520194+0j),9.0,7.0,40.0,10000.0,99999,3.0,0j,0,1116030407101602090300504000051000600007000083000
2529,LICG,36.8165,11.9689,2024-04-23 11:50:00,,,,,14.0,1013.0,(2953.5220018583755+0j),6.0,15.0,310.0,10000.0,99999,1.0,0j,0,1116013115101402060301304000051000600007000081000
2531,LIMG,44.0506,8.12743,2024-04-23 11:50:00,,,,,11.0,1007.0,(1512.271836665402+0j),1.0,10.0,10.0,10000.0,99999,5.0,0j,0,1116050110101102010300704000051000600007000085000
2534,LIBG,40.5175,17.4032,2024-04-23 11:50:00,,,,,14.0,1005.0,(1586.7662011185464+0j),12.0,2.0,,10000.0,99999,3.0,0j,0,11160336021014020120300504000051000600007000083000
2548,LIQN,42.4272,12.8517,2024-04-23 11:50:00,16.0,36.0,1,,10.0,1007.0,(7198.811662358628+0j),4.0,12.0,200.0,10000.0,99999,,0j,0,1116002012101002040300704000051000600007160080000
2562,LIMP,44.8245,10.2964,2024-04-23 11:50:00,,,,,6.0,1008.0,(2087.3634279487396+0j),6.0,8.0,270.0,2000.0,99999,6.0,0j,0,1111062708100602060300804000051000600007000086000
2579,ETEK,49.6503,7.30007,2024-04-23 11:55:00,,,,,7.5,30.03,(1030.03+0j),-3.7,4.0,20.0,10000.0,99999,3.0,0j,0,111603020410075213533004000051000600007000083000
2580,ETIC,49.6987,11.9402,2024-04-23 11:55:00,,,,,7.1,29.96,(10.493872633420025+0j),-3.7,0.0,0.0,10000.0,99999,8.0,0j,0,111608000010070213032994000051000600007000088000
2588,LKVO,50.2166,14.3958,2024-04-23 12:00:00,,,,,8.0,1017.0,(6605.618818918206+0j),-5.0,4.0,20.0,10000.0,99999,,0j,0,1116000204100802150301704000051000600007000080000
2612,EGVA,51.6822,-1.79003,2024-04-23 11:54:00,,,,,11.1,30.19,(2084.356303190377+0j),1.6,11.0,30.0,10000.0,99999,4.0,0j,0,111604031110110201033014000051000600007000084000
2614,EGWC,52.64,-2.30558,2024-04-23 11:50:00,,,,,10.0,1024.0,(2137.287711366342+0j),1.0,8.0,10.0,10000.0,99999,4.0,0j,0,1116040108101002010302404000051000600007000084000
2617,LOAV,47.965,16.26,2024-04-23 12:00:00,,,,,5.0,99999.0,(99999+0j),4.0,7.0,330.0,8000.0,99999,3.0,0j,0,1114033307100502040399904000051000600007000083000
2618,LKKU,49.0294,17.4397,2024-04-23 12:00:00,,,,,9.0,1014.0,(3956.1204011036407+0j),2.0,14.0,350.0,10000.0,99999,4.0,0j,0,1116043514100902020301404000051000600007000084000
2619,LOAN,47.8433,16.2601,2024-04-23 12:00:00,61.0,36.0,^,green,99999.0,99999.0,(99999+0j),99999.0,4.0,330.0,8000.0,99999,4.0,0j,0,11140433041099999020999990399904000051000600007610084000
2665,ETIH,49.2181,11.8361,2024-04-23 11:55:00,,,,,5.1,29.98,(14.311535126881086+0j),-3.2,4.0,60.0,10000.0,99999,4.0,0j,0,111604060410050213032994000051000600007000084000
2666,ETIK,49.4739,10.3881,2024-04-23 11:55:00,,,,,8.8,29.98,(7094.304234968218+0j),-3.1,7.0,50.0,10000.0,99999,1.0,0j,0,111601050710088213832994000051000600007000081000
2673,ETAD,49.9727,6.6925,2024-04-23 11:55:00,,,,,7.3,30.03,(9.176738474183901+0j),-5.8,4.0,350.0,10000.0,99999,6.0,0j,0,111606350410072215233004000051000600007000086000
2674,ETAR,49.4369,7.60028,2024-04-23 11:55:00,,,,,9.6,30.02,(4881.967741446259+0j),-4.8,10.0,10.0,10000.0,99999,,0j,0,111600011010095214533004000051000600007000080000
2675,ETOU,50.0498,8.3254,2024-04-23 11:55:00,,,,,10.0,30.04,(3065.7133067284253+0j),-4.4,3.0,20.0,10000.0,99999,3.0,0j,0,111603020310100214033004000051000600007000083000
2690,LPAR,38.8833,-9.0301,2024-04-23 12:00:00,,,,,22.0,1018.0,(1035.4565201284665+0j),-1.0,10.0,50.0,10000.0,99999,,0j,0,1116000510102202110301804000051000600007000080000
2691,LPBJ,38.0789,-7.9324,2024-04-23 12:00:00,,,,,21.0,1018.0,(2266.7472235000987+0j),1.0,10.0,60.0,10000.0,99999,,0j,0,1116000610102102010301804000051000600007000080000
2692,LPMR,39.8312,-8.88726,2024-04-23 12:00:00,,,,,21.0,1019.0,(1348.3240887564846+0j),-1.0,8.0,10.0,10000.0,99999,,0j,0,1116000108102102110301904000051000600007000080000
2693,LPMT,38.7039,-9.03592,2024-04-23 12:00:00,,,,,22.0,1018.0,(1091.8367664914786+0j),1.0,9.0,360.0,10000.0,99999,,0j,0,1116003609102202010301804000051000600007000080000
2694,LPST,38.8311,-9.33955,2024-04-23 12:00:00,,,,,21.0,1018.0,(1845.9301729650854+0j),1.0,9.0,90.0,10000.0,99999,,0j,0,1116000909102102010301804000051000600007000080000
2722,LIBA,41.5414,15.7181,2024-04-23 11:55:00,,,,,20.0,1004.0,(1337.9208647901316+0j),6.0,5.0,260.0,10000.0,99999,3.0,0j,0,1116032605102002060300404000051000600007000083000
2723,LIBN,40.2392,18.1333,2024-04-23 11:55:00,,,,,15.0,1004.0,(1386.4568283900292+0j),14.0,10.0,320.0,4000.0,99999,3.0,0j,0,11120332101015020140300404000051000600007000083000
2724,LIBV,40.7678,16.9333,2024-04-23 11:55:00,,,,,16.0,1004.0,(4413.72630530205+0j),12.0,9.0,30.0,10000.0,99999,1.0,0j,0,11160103091016020120300404000051000600007000081000
2725,LIED,39.3542,8.97248,2024-04-23 11:55:00,,,,,15.0,1011.0,(1252.160866258132+0j),2.0,20.0,320.0,10000.0,99999,3.0,0j,0,1116033220101502020301104000051000600007000083000
2726,LIMN,45.5296,8.66922,2024-04-23 11:55:00,,,,,11.0,1007.0,(3354.4177898069875+0j),1.0,8.0,10.0,10000.0,99999,2.0,0j,0,1116020108101102010300704000051000600007000082000
2727,LIMS,44.9131,9.72333,2024-04-23 11:55:00,,,,,8.0,1007.0,(3542.7393580886164+0j),8.0,3.0,260.0,4000.0,99999,4.0,0j,0,1112042603100802080300704000051000600007000084000
2729,LIPF,44.816,11.6134,2024-04-23 11:55:00,,,,,11.0,1007.0,(1070.3896235665347+0j),8.0,4.0,350.0,10000.0,99999,4.0,0j,0,1116043504101102080300704000051000600007000084000
2731,LIPS,45.6849,12.0829,2024-04-23 11:55:00,61.0,36.0,^,green,11.0,1008.0,(1473.4858532073529+0j),7.0,11.0,80.0,9000.0,99999,4.0,0j,0,1115040811101102070300804000051000600007610084000
2732,LIQW,44.088,9.98795,2024-04-23 11:55:00,61.0,36.0,^,green,11.0,1005.0,(1149.609591063301+0j),8.0,5.0,220.0,10000.0,99999,3.0,0j,0,1116032205101102080300504000051000600007610083000
2733,LIRE,41.6545,12.4452,2024-04-23 11:55:00,,,,,15.0,1008.0,(1104.0066187060463+0j),11.0,15.0,240.0,10000.0,99999,4.0,0j,0,11160424151015020110300804000051000600007000084000
2734,LIRG,41.9903,12.7408,2024-04-23 11:55:00,,,,,12.0,1008.0,(1964.6545216726824+0j),4.0,12.0,150.0,10000.0,99999,2.0,0j,0,1116021512101202040300804000051000600007000082000
2735,LIRH,41.6464,13.2998,2024-04-23 11:55:00,,,,,17.0,1006.0,(1006+0j),3.0,10.0,200.0,10000.0,99999,3.0,0j,0,1116032010101702030300604000051000600007000083000
2736,LIRL,41.5424,12.909,2024-04-23 11:55:00,,,,,14.0,1008.0,(1250.2375464135696+0j),8.0,5.0,240.0,10000.0,99999,3.0,0j,0,1116032405101402080300804000051000600007000083000
2737,LIRS,42.7597,11.0719,2024-04-23 11:55:00,,,,,15.0,1006.0,(1045.2810701486824+0j),9.0,12.0,240.0,10000.0,99999,2.0,0j,0,1116022412101502090300604000051000600007000082000
2738,LIRV,42.4302,12.0642,2024-04-23 11:55:00,,,,,11.0,1006.0,(5255.349224015316+0j),8.0,9.0,230.0,10000.0,99999,2.0,0j,0,1116022309101102080300604000051000600007000082000
2742,LIRM,41.0608,14.0819,2024-04-23 11:55:00,,,,,16.0,1007.0,(1070.1889832494037+0j),4.0,17.0,220.0,10000.0,99999,3.0,0j,0,1116032217101602040300704000051000600007000083000
2776,LICT,37.9114,12.488,2024-04-23 11:55:00,,,,,16.0,1011.0,(1065.5924784393412+0j),6.0,17.0,320.0,10000.0,99999,3.0,0j,0,1116033217101602060301104000051000600007000083000
2778,LIPA,46.0319,12.5965,2024-04-23 11:55:00,,,,,11.0,1008.0,(2571.768111052555+0j),3.0,9.0,60.0,10000.0,99999,3.0,0j,0,1116030609101102030300804000051000600007000083000
2779,LIPI,45.9787,13.0493,2024-04-23 11:55:00,,,,,12.0,1008.0,(1573.3839545595526+0j),5.0,14.0,40.0,10000.0,99999,4.0,0j,0,1116040414101202050300804000051000600007000084000
2780,LICZ,37.4017,14.9224,2024-04-23 11:55:00,,,,,24.0,1005.0,(1120.7212964554972+0j),-5.0,21.0,290.0,10000.0,99999,1.0,0j,0,1116012921102402150300504000051000600007000081000
2785,EVGA,56.7783,24.8539,2024-04-23 12:20:00,,,,,2.0,1017.0,(5829.297685214696+0j),-0.0,7.0,240.0,10000.0,99999,4.0,0j,0,1116042407100202100301704000051000600007000084000
2818,EYSA,55.8939,23.395,2024-04-23 12:20:00,16.0,36.0,1,,3.0,1018.0,(8275.894373780708+0j),-1.0,13.0,200.0,10000.0,99999,4.0,0j,0,1116042013100302110301804000051000600007160084000
2821,EVVA,57.3578,21.5442,2024-04-23 12:20:00,,,,,3.0,1015.0,(1244.5106410045878+0j),-1.0,11.0,240.0,10000.0,99999,3.0,0j,0,1116032411100302110301504000051000600007000083000
2835,LSZC,46.97444,8.39694,2024-04-23 12:20:00,51.0,36.0,T,green,4.0,1014.0,(16.78960029865529+0j),0.0,10.0,340.0,10000.0,99999,7.0,0j,0,1116073410100402000301404000051000600007510087000
2840,LWOH,41.18,20.7423,2024-04-23 12:20:00,61.0,36.0,^,green,12.0,1007.0,(10.29463184477022+0j),11.0,4.0,240.0,10000.0,99999,3.0,0j,0,11160324041012020110300704000051000600007610083000
2841,LWSK,41.9616,21.6214,2024-04-23 12:20:00,,,,,12.0,1008.0,(3959.8856385786457+0j),12.0,9.0,130.0,10000.0,99999,5.0,0j,0,11160513091012020120300804000051000600007000085000
2846,EKRS,55.4258,11.8067,2024-04-23 12:20:00,,,,,7.0,1014.0,(1633.6709119251784+0j),-0.0,10.0,230.0,10000.0,99999,5.0,0j,0,1116052310100702100301404000051000600007000085000
2872,LSMA,46.9439,8.28417,2024-04-23 12:20:00,61.0,36.0,^,green,5.0,1014.0,(14.327696859080442+0j),1.0,11.0,60.0,10000.0,99999,4.0,0j,0,1116040611100502010301404000051000600007610084000
2873,LSMD,47.3986,8.64823,2024-04-23 12:20:00,80.0,36.0,q,green,6.0,1014.0,(12.57126167127917+0j),1.0,6.0,120.0,10000.0,99999,3.0,0j,0,1116031206100602010301404000051000600007800083000
2874,LSME,47.0924,8.30512,2024-04-23 12:20:00,61.0,36.0,^,green,4.0,1015.0,(16.246379503327894+0j),2.0,2.0,,7000.0,99999,4.0,0j,0,1114043602100402020301504000051000600007610084000
2875,LSMM,46.7433,8.11,2024-04-23 12:20:00,51.0,36.0,T,green,4.0,1013.0,(19.480790633571065+0j),0.0,10.0,,10000.0,99999,4.0,0j,0,1116043610100402000301304000051000600007510084000
2876,LSMP,46.8432,6.91506,2024-04-23 12:20:00,,,,,8.0,1014.0,(9.929821131374167+0j),1.0,12.0,60.0,10000.0,99999,3.0,0j,0,1116030612100802010301404000051000600007000083000
2917,EGHC,50.1028,-5.67056,2024-04-23 12:20:00,,,,,13.0,1025.0,(2308.578440107292+0j),8.0,13.0,10.0,10000.0,99999,1.0,0j,0,1116010113101302080302504000051000600007000081000
2919,EGHQ,50.4406,-4.99541,2024-04-23 12:20:00,,,,,12.0,1025.0,(2386.5037983236207+0j),8.0,10.0,340.0,10000.0,99999,3.0,0j,0,1116033410101202080302504000051000600007000083000
2923,EGCK,53.1042,-4.34028,2024-04-23 12:20:00,,,,,12.0,1026.0,(1028.923382665401+0j),5.0,12.0,30.0,10000.0,99999,3.0,0j,0,1116030312101202050302604000051000600007000083000
2926,EGTK,51.8369,-1.32,2024-04-23 12:20:00,16.0,36.0,1,,9.0,1023.0,(2264.5593159099144+0j),4.0,12.0,350.0,10000.0,99999,2.0,0j,0,1116023512100902040302304000051000600007160082000
2929,EGNO,53.7451,-2.88306,2024-04-23 12:20:00,,,,,10.0,1025.0,(1225.1747190754418+0j),0.0,7.0,10.0,10000.0,99999,3.0,0j,0,1116030107101002000302504000051000600007000083000
2932,EGEO,56.4635,-5.39967,2024-04-23 12:20:00,,,,,11.0,1026.0,(1090.5856541998658+0j),3.0,11.0,280.0,10000.0,99999,,0j,0,1116002811101102030302604000051000600007000080000
2989,ESNZ,63.1944,14.5003,2024-04-23 12:20:00,,,,,5.0,1008.0,(12.55972551481631+0j),-4.0,12.0,320.0,10000.0,99999,3.0,0j,0,1116033212100502140300804000051000600007000083000
3000,ESOH,60.0201,13.5789,2024-04-23 12:20:00,,,,,7.0,1011.0,(4107.825046972567+0j),-1.0,3.0,350.0,10000.0,99999,4.0,0j,0,1116043503100702110301104000051000600007000084000
3001,ESCF,58.4023,15.5257,2024-04-23 12:20:00,,,,,7.0,1012.0,(2908.4048569116903+0j),-5.0,9.0,260.0,10000.0,99999,,0j,0,1116002609100702150301204000051000600007000080000
3003,ESIB,58.4264,12.7144,2024-04-23 12:20:00,,,,,8.0,1012.0,(1908.0603885702021+0j),1.0,5.0,100.0,10000.0,99999,3.0,0j,0,1116031005100802010301204000051000600007000083000
3005,ESPE,65.8753,20.1499,2024-04-23 12:20:00,75.0,36.0,l,magenta,-2.0,1009.0,(363.07044063835224+0j),-5.0,8.0,20.0,1800.0,99999,,0j,0,1111000208110202150300904000051000600007750080000
3007,ESIA,58.5138,14.5071,2024-04-23 12:20:00,,,,,7.0,1012.0,(2908.4048569116903+0j),0.0,9.0,190.0,10000.0,99999,,0j,0,1116001909100702000301204000051000600007000080000
3008,ESCM,59.8973,17.5886,2024-04-23 12:20:00,,,,,6.0,1011.0,(1433.0444618488884+0j),-7.0,6.0,,10000.0,99999,,0j,0,1116003606100602170301104000051000600007000080000
3053,ESNV,64.5791,16.8336,2024-04-23 12:20:00,,,,,-0.0,1008.0,(38.54658873248145+0j),-9.0,5.0,340.0,10000.0,99999,8.0,0j,0,1116083405110002190300804000051000600007000088000
3055,ESST,60.1576,12.9913,2024-04-23 12:20:00,,,,,7.0,1012.0,(3516.6660890704165+0j),-3.0,4.0,20.0,10000.0,99999,7.0,0j,0,1116070204100702130301204000051000600007000087000
3056,ESUP,67.2456,23.0689,2024-04-23 12:20:00,79.0,36.0,p,,-2.0,1010.0,(548.6308194344042+0j),-4.0,8.0,50.0,7000.0,99999,4.0,0j,0,1114040508110202140301004000051000600007790084000
3057,ESND,62.0478,14.4229,2024-04-23 12:20:00,,,,,5.0,1009.0,(12.13462194057505+0j),-5.0,9.0,340.0,10000.0,99999,8.0,0j,0,1116083409100502150300904000051000600007000088000
3075,LIMW,45.7385,7.36872,2024-04-23 12:20:00,,,,,13.0,1005.0,(7683.11890924642+0j),-7.0,15.0,300.0,10000.0,99999,,0j,0,1116003015101302170300504000051000600007000080000
3076,LIMZ,44.547,7.62322,2024-04-23 12:20:00,,,,,8.0,1008.0,(8713.46605468642+0j),4.0,4.0,,10000.0,99999,4.0,0j,0,1116043604100802040300804000051000600007000084000
3092,LICB,36.9946,14.60718,2024-04-23 12:20:00,,,,,21.0,1007.0,(2213.8699682386277+0j),8.0,19.0,260.0,10000.0,99999,,0j,0,1116002619102102080300704000051000600007000080000
3094,LIPO,45.4289,10.3306,2024-04-23 12:20:00,61.0,36.0,^,green,8.0,1007.0,(2912.391602530256+0j),7.0,8.0,300.0,10000.0,99999,8.0,0j,0,1116083008100802070300704000051000600007610088000
3136,EFET,68.3626,23.4243,2024-04-23 12:20:00,,,,,-4.0,1011.0,(824.5063159012684+0j),-7.0,9.0,60.0,10000.0,99999,7.0,0j,0,1116070609110402170301104000051000600007000087000
3137,EFHA,61.856,24.7866,2024-04-23 12:20:00,,,,,-0.0,1005.0,(38.4318667422062+0j),-3.0,1.0,,8000.0,99999,8.0,0j,0,1114083601110002130300504000051000600007000088000
3138,EFJO,62.6629,29.6075,2024-04-23 12:20:00,,,,,3.0,1008.0,(7451.042067191097+0j),1.0,13.0,170.0,10000.0,99999,8.0,0j,0,1116081713100302010300804000051000600007000088000
3143,EFKS,65.9876,29.2394,2024-04-23 12:20:00,71.0,36.0,h,magenta,-1.0,1008.0,(66.09419657209003+0j),-3.0,11.0,100.0,4400.0,99999,8.0,0j,0,1112081011110102130300804000051000600007710088000
3144,EFKT,67.701,24.8468,2024-04-23 12:20:00,71.0,36.0,h,magenta,-3.0,1010.0,(2839.2688843558594+0j),-5.0,9.0,50.0,4000.0,99999,8.0,0j,0,1112080509110302150301004000051000600007710088000
3146,EFLP,61.0446,28.1444,2024-04-23 12:20:00,85.0,36.0,v,magenta,1.0,1008.0,(16.103966355158967+0j),-1.0,12.0,180.0,4600.0,99999,6.0,0j,0,1112061812100102110300804000051000600007850086000
3147,EFMI,61.6866,27.2018,2024-04-23 12:20:00,85.0,36.0,v,magenta,1.0,1006.0,(15.449937469304897+0j),-0.0,9.0,150.0,9000.0,99999,7.0,0j,0,1115071509100102100300604000051000600007850087000
3149,EFSA,61.9431,28.9451,2024-04-23 12:20:00,,,,,3.0,1008.0,(5968.241679714056+0j),-0.0,13.0,180.0,10000.0,99999,8.0,0j,0,1116081813100302100300804000051000600007000088000
3150,EFSI,62.6921,22.8323,2024-04-23 12:20:00,85.0,36.0,v,magenta,-1.0,1005.0,(346.30916489147114+0j),-3.0,9.0,300.0,2100.0,99999,8.0,0j,0,1111083009110102130300504000051000600007850088000
3151,EFUT,60.8964,26.9384,2024-04-23 12:20:00,,,,,-0.0,1007.0,(38.50834806905637+0j),-1.0,10.0,190.0,2300.0,99999,6.0,0j,0,1111061910110002110300704000051000600007000086000
3205,LMML,35.8575,14.4775,2024-04-23 12:15:00,,,,,19.0,1009.0,(1610.9543845045648+0j),11.0,25.0,310.0,10000.0,99999,1.0,0j,0,11160131251019020110300904000051000600007000081000
3286,EEKA,58.9908,22.8307,2024-04-23 12:20:00,,,,,-0.0,1012.0,(38.699551386181774+0j),-2.0,5.0,250.0,10000.0,99999,7.0,0j,0,1116072505110002120301204000051000600007000087000
3287,EEKE,58.2299,22.5095,2024-04-23 12:20:00,,,,,2.0,1014.0,(1268.518674358505+0j),-1.0,6.0,260.0,10000.0,99999,4.0,0j,0,1116042606100202110301404000051000600007000084000
3289,EEPU,58.419,24.4728,2024-04-23 12:20:00,,,,,2.0,1013.0,(1948.537761923769+0j),-1.0,12.0,240.0,10000.0,99999,6.0,0j,0,1116062412100202110301304000051000600007000086000
3338,EDJA,47.9888,10.2395,2024-04-23 12:20:00,,,,,2.0,1014.0,(27.30896684124212+0j),-0.0,9.0,50.0,10000.0,99999,8.0,0j,0,1116080509100202100301404000051000600007000088000
3345,EDTY,49.11833,9.78389,2024-04-23 12:20:00,,,,,9.0,1015.0,(8086.764292400356+0j),-2.0,8.0,80.0,10000.0,99999,2.0,0j,0,1116020808100902120301504000051000600007000082000
3370,EFJY,62.3995,25.6783,2024-04-23 12:20:00,68.0,36.0,e,magenta,0.0,1004.0,(38.393626078781125+0j),-1.0,5.0,150.0,3300.0,99999,6.0,0j,0,1112061505100002110300404000051000600007680086000
3371,EFKE,65.7787,24.5821,2024-04-23 12:20:00,71.0,36.0,h,magenta,-1.0,1007.0,(3.6311867028894533+0j),-2.0,7.0,30.0,4200.0,99999,8.0,0j,0,1112080307110102120300704000051000600007710088000
3372,EFKK,63.7212,23.1431,2024-04-23 12:20:00,85.0,36.0,v,magenta,-1.0,1005.0,(-0.15750766698910265-0.16462905919392976j),-2.0,6.0,340.0,10000.0,99999,8.0,0j,0,1116083406110102120300504000051000600007850088000
3376,EFPO,61.4617,21.8,2024-04-23 12:20:00,71.0,36.0,h,magenta,-1.0,1007.0,(68.33291414782472+0j),-3.0,8.0,310.0,2100.0,99999,4.0,0j,0,1111043108110102130300704000051000600007710084000
3394,LGAV,37.9364,23.9445,2024-04-23 12:20:00,,,,,20.0,1007.0,(1591.6890265844527+0j),14.0,6.0,80.0,10000.0,99999,2.0,0j,0,11160208061020020140300704000051000600007000082000
3398,LGKR,39.6019,19.9117,2024-04-23 12:20:00,,,,,23.0,1001.0,(1009.940068595523+0j),15.0,0.0,0.0,10000.0,99999,2.0,0j,0,11160200001023020150300104000051000600007000082000
3402,LGRP,36.4054,28.0862,2024-04-23 12:20:00,,,,,24.0,1012.0,(1036.6214993857297+0j),13.0,9.0,,10000.0,99999,1.0,0j,0,11160136091024020130301204000051000600007000081000
3471,ESDF,56.2667,15.265,2024-04-23 12:20:00,,,,,6.0,1014.0,(2329.734034142189+0j),-3.0,10.0,210.0,10000.0,99999,3.0,0j,0,1116032110100602130301404000051000600007000083000
3472,ESGG,57.6628,12.2798,2024-04-23 12:20:00,,,,,7.0,1011.0,(4345.377717967457+0j),-1.0,11.0,210.0,10000.0,99999,3.0,0j,0,1116032111100702110301104000051000600007000083000
3473,ESGJ,57.7576,14.0687,2024-04-23 12:20:00,81.0,36.0,r,green,5.0,1011.0,(8245.151817896356+0j),0.0,13.0,220.0,10000.0,99999,3.0,0j,0,1116032213100502000301104000051000600007810083000
3474,ESGP,57.7747,11.8704,2024-04-23 12:20:00,,,,,9.0,1011.0,(1247.9703846351977+0j),1.0,8.0,210.0,10000.0,99999,1.0,0j,0,1116012108100902010301104000051000600007000081000
3475,ESKN,58.7886,16.9122,2024-04-23 12:20:00,,,,,8.0,1011.0,(1685.6820501320908+0j),-9.0,8.0,270.0,10000.0,99999,,0j,0,1116002708100802190301104000051000600007000080000
3476,ESMK,55.9217,14.0855,2024-04-23 12:20:00,,,,,5.0,1015.0,(1596.0375112655147+0j),-2.0,9.0,250.0,10000.0,99999,5.0,0j,0,1116052509100502120301504000051000600007000085000
3477,ESMS,55.53631,13.3762,2024-04-23 12:20:00,51.0,36.0,T,green,4.0,1015.0,(3673.371975485397+0j),1.0,10.0,200.0,10000.0,99999,6.0,0j,0,1116062010100402010301504000051000600007510086000
3478,ESMX,56.9291,14.728,2024-04-23 12:20:00,,,,,7.0,1012.0,(5127.342169648379+0j),-7.0,4.0,210.0,10000.0,99999,3.0,0j,0,1116032104100702170301204000051000600007000083000
3479,ESNN,62.5281,17.4439,2024-04-23 12:20:00,,,,,4.0,1009.0,(1150.8709352677627+0j),-10.0,9.0,340.0,10000.0,99999,8.0,0j,0,11160834091004021100300904000051000600007000088000
3480,ESNO,63.4083,18.99,2024-04-23 12:20:00,71.0,36.0,h,magenta,-2.0,1008.0,(84711.09435057927+0j),-7.0,9.0,330.0,9000.0,99999,,0j,0,1115003309110202170300804000051000600007710080000
3481,ESNQ,67.822,20.3368,2024-04-23 12:20:00,71.0,36.0,h,magenta,-4.0,1010.0,(183.25251242440325+0j),-7.0,11.0,20.0,3300.0,99999,7.0,0j,0,1112070211110402170301004000051000600007710087000
3482,ESNS,64.6248,21.0769,2024-04-23 12:20:00,71.0,36.0,h,magenta,-2.0,1008.0,(-3.960738359379256e-05-4.139815173968826e-05j),-4.0,8.0,330.0,10000.0,99999,6.0,0j,0,1116063308110202140300804000051000600007710086000
3483,ESNU,63.7918,20.2828,2024-04-23 12:20:00,71.0,36.0,h,magenta,-2.0,1008.0,(633.3604691056988+0j),-4.0,8.0,330.0,3000.0,99999,,0j,0,1111003308110202140300804000051000600007710080000
3484,ESOK,59.4447,13.3374,2024-04-23 12:20:00,,,,,7.0,1011.0,(3217.471092758732+0j),-4.0,7.0,310.0,10000.0,99999,3.0,0j,0,1116033107100702140301104000051000600007000083000
3485,ESOW,59.5894,16.6336,2024-04-23 12:20:00,,,,,8.0,1011.0,(1103.4059399885396+0j),-10.0,4.0,,10000.0,99999,,0j,0,11160036041008021100301104000051000600007000080000
3488,ESSB,59.3544,17.9417,2024-04-23 12:20:00,,,,,6.0,1011.0,(1296.4947542440204+0j),-8.0,9.0,250.0,10000.0,99999,,0j,0,1116002509100602180301104000051000600007000080000
3489,ESSD,60.422,15.5152,2024-04-23 12:20:00,,,,,7.0,1010.0,(4318.7859619599585+0j),-5.0,11.0,310.0,10000.0,99999,,0j,0,1116003111100702150301004000051000600007000080000
3490,ESSP,58.5863,16.2506,2024-04-23 12:20:00,,,,,8.0,1011.0,(1153.1521462395522+0j),-8.0,6.0,290.0,10000.0,99999,,0j,0,1116002906100802180301104000051000600007000080000
3491,ESSV,57.6628,18.3462,2024-04-23 12:20:00,,,,,5.0,1013.0,(2372.607991956922+0j),-2.0,14.0,250.0,10000.0,99999,,0j,0,1116002514100502120301304000051000600007000080000
3492,LSGC,47.0839,6.79284,2024-04-23 12:20:00,,,,,1.0,1013.0,(34.49176462558232+0j),-3.0,8.0,30.0,10000.0,99999,6.0,0j,0,1116060308100102130301304000051000600007000086000
3494,LSGS,46.2196,7.32676,2024-04-23 12:20:00,,,,,10.0,1009.0,(8728.110978460958+0j),-1.0,11.0,250.0,10000.0,99999,4.0,0j,0,1116042511101002110300904000051000600007000084000
3497,LSZG,47.1816,7.41719,2024-04-23 12:20:00,,,,,6.0,1014.0,(12.177187038957658+0j),-1.0,10.0,10.0,10000.0,99999,3.0,0j,0,1116030110100602110301404000051000600007000083000
3499,LSZL,46.1608,8.87861,2024-04-23 12:20:00,,,,,13.0,1006.0,(3187.3194975293873+0j),-1.0,3.0,250.0,10000.0,99999,1.0,0j,0,1116012503101302110300604000051000600007000081000
3500,LSZR,47.485,9.56077,2024-04-23 12:20:00,,,,,5.0,1014.0,(13.199994398435535+0j),1.0,9.0,10.0,10000.0,99999,4.0,0j,0,1116040109100502010301404000051000600007000084000
3501,LSZS,46.5341,9.88411,2024-04-23 12:20:00,71.0,36.0,h,magenta,1.0,1006.0,(35.84221037530635+0j),-8.0,3.0,,9000.0,99999,5.0,0j,0,1115053603100102180300604000051000600007710085000
3503,EGBB,52.4539,-1.74803,2024-04-23 12:20:00,,,,,9.0,1024.0,(2567.213723238009+0j),4.0,12.0,340.0,10000.0,99999,3.0,0j,0,1116033412100902040302404000051000600007000083000
3507,EGGD,51.3827,-2.71909,2024-04-23 12:20:00,,,,,10.0,1023.0,(3868.4103813258444+0j),6.0,9.0,340.0,10000.0,99999,5.0,0j,0,1116053409101002060302304000051000600007000085000
3512,EGJB,49.435,-2.60197,2024-04-23 12:20:00,,,,,11.0,1023.0,(2290.009714837209+0j),6.0,11.0,340.0,10000.0,99999,2.0,0j,0,1116023411101102060302304000051000600007000082000
3514,EGKA,50.8356,-0.29722,2024-04-23 12:20:00,,,,,10.0,1022.0,(1046.5707850038723+0j),5.0,7.0,30.0,10000.0,99999,3.0,0j,0,1116030307101002050302204000051000600007000083000
3515,EGKB,51.3308,0.0325,2024-04-23 12:20:00,,,,,7.0,1022.0,(5087.220688313826+0j),5.0,8.0,340.0,10000.0,99999,6.0,0j,0,1116063408100702050302204000051000600007000086000
3516,EGKK,51.1481,-0.19028,2024-04-23 12:20:00,80.0,36.0,q,green,9.0,1022.0,(1918.9112886587488+0j),5.0,9.0,350.0,9000.0,99999,4.0,0j,0,1115043509100902050302204000051000600007800084000
3520,EGMC,51.5714,0.69556,2024-04-23 12:20:00,16.0,36.0,1,,8.0,1021.0,(1243.96888316237+0j),6.0,7.0,330.0,10000.0,99999,4.0,0j,0,1116043307100802060302104000051000600007160084000
3521,EGMD,50.9561,0.93917,2024-04-23 12:20:00,,,,,9.0,1022.0,(1072.9738532303397+0j),5.0,7.0,310.0,10000.0,99999,6.0,0j,0,1116063107100902050302204000051000600007000086000
3522,EGNH,53.7717,-3.02861,2024-04-23 12:20:00,,,,,11.0,1025.0,(1135.6721103356977+0j),1.0,8.0,20.0,10000.0,99999,3.0,0j,0,1116030208101102010302504000051000600007000083000
3523,EGNJ,53.5744,-0.35083,2024-04-23 12:20:00,,,,,9.0,1023.0,(1535.884979092328+0j),4.0,14.0,350.0,10000.0,99999,3.0,0j,0,1116033514100902040302304000051000600007000083000
3524,EGNM,53.8659,-1.66057,2024-04-23 12:20:00,,,,,7.0,1024.0,(5725.865607962325+0j),4.0,10.0,360.0,10000.0,99999,3.0,0j,0,1116033610100702040302404000051000600007000083000
3527,EGNV,54.5092,-1.42941,2024-04-23 12:20:00,,,,,10.0,1024.0,(1478.4054202861782+0j),3.0,14.0,20.0,10000.0,99999,3.0,0j,0,1116030214101002030302404000051000600007000083000
3537,EGTE,50.7344,-3.41389,2024-04-23 12:20:00,,,,,13.0,1023.0,(1312.379782919569+0j),8.0,8.0,310.0,10000.0,99999,3.0,0j,0,1116033108101302080302304000051000600007000083000
3538,EGPB,59.8789,-1.29556,2024-04-23 12:20:00,,,,,7.0,1025.0,(1127.1359496946054+0j),-2.0,14.0,360.0,10000.0,99999,6.0,0j,0,1116063614100702120302504000051000600007000086000
3544,EGGP,53.3336,-2.84972,2024-04-23 12:20:00,,,,,11.0,1025.0,(1292.7731040095985+0j),3.0,8.0,20.0,10000.0,99999,2.0,0j,0,1116020208101102030302504000051000600007000082000
3547,EGJA,49.7061,-2.21472,2024-04-23 12:20:00,,,,,11.0,1023.0,(2096.994059618394+0j),7.0,8.0,350.0,10000.0,99999,1.0,0j,0,1116013508101102070302304000051000600007000081000
3548,EGLC,51.5053,0.05528,2024-04-23 12:20:00,,,,,9.0,1022.0,(1096.85376708789+0j),4.0,10.0,330.0,10000.0,99999,5.0,0j,0,1116053310100902040302204000051000600007000085000
3549,EGNT,55.0375,-1.69167,2024-04-23 12:20:00,,,,,8.0,1024.0,(2419.708218612829+0j),3.0,12.0,30.0,10000.0,99999,6.0,0j,0,1116060312100802030302404000051000600007000086000
3552,EGPF,55.8719,-4.43306,2024-04-23 12:20:00,,,,,12.0,1026.0,(1103.154513302295+0j),3.0,5.0,250.0,10000.0,99999,3.0,0j,0,1116032505101202030302604000051000600007000083000
3558,EGSS,51.885,0.235,2024-04-23 12:20:00,,,,,10.0,1022.0,(2488.708697837858+0j),5.0,8.0,340.0,10000.0,99999,4.0,0j,0,1116043408101002050302204000051000600007000084000
3559,EGTC,52.0722,-0.61667,2024-04-23 12:20:00,16.0,36.0,1,,9.0,1022.0,(2729.1854225569173+0j),6.0,11.0,340.0,10000.0,99999,2.0,0j,0,1116023411100902060302204000051000600007160082000
3566,EDGS,50.7077,8.08297,2024-04-23 12:20:00,,,,,5.0,1016.0,(17.516244484578067+0j),-7.0,4.0,350.0,10000.0,99999,,0j,0,1116003504100502170301604000051000600007000080000
3567,EDLV,51.6024,6.14217,2024-04-23 12:20:00,,,,,9.0,1019.0,(1462.2321227507211+0j),-1.0,4.0,310.0,10000.0,99999,6.0,0j,0,1116063104100902110301904000051000600007000086000
3571,EGNR,53.1781,-2.97778,2024-04-23 12:20:00,,,,,13.0,1025.0,(1149.2605136862965+0j),4.0,8.0,360.0,10000.0,99999,6.0,0j,0,1116063608101302040302504000051000600007000086000
3572,EGPI,55.6819,-6.25667,2024-04-23 12:20:00,,,,,10.0,1027.0,(1231.3472939523313+0j),3.0,12.0,350.0,10000.0,99999,1.0,0j,0,1116013512101002030302704000051000600007000081000
3576,ESGT,58.3181,12.345,2024-04-23 12:20:00,,,,,8.0,1012.0,(1671.559426564845+0j),1.0,8.0,360.0,10000.0,99999,3.0,0j,0,1116033608100802010301204000051000600007000083000
3578,ESMQ,56.6855,16.2876,2024-04-23 12:20:00,,,,,6.0,1014.0,(1114.181246745325+0j),-1.0,12.0,170.0,10000.0,99999,2.0,0j,0,1116021712100602110301404000051000600007000082000
3579,ESMT,56.6911,12.8202,2024-04-23 12:20:00,,,,,7.0,1014.0,(1562.6390127353995+0j),2.0,11.0,220.0,10000.0,99999,3.0,0j,0,1116032211100702020301404000051000600007000083000
3580,ESNG,67.1324,20.8146,2024-04-23 12:20:00,71.0,36.0,h,magenta,-3.0,1009.0,(233.23876579624795+0j),-5.0,7.0,10.0,3200.0,99999,,0j,0,1111000107110302150300904000051000600007710080000
3581,ESNK,63.0486,17.7689,2024-04-23 12:20:00,,,,,2.0,1009.0,(1661.3678237022325+0j),-7.0,9.0,10.0,10000.0,99999,8.0,0j,0,1116080109100202170300904000051000600007000088000
3582,ESNL,64.5483,18.7162,2024-04-23 12:20:00,71.0,36.0,h,magenta,-3.0,1008.0,(1282.9503876871074+0j),-6.0,11.0,320.0,4000.0,99999,3.0,0j,0,1112033211110302160300804000051000600007710083000
3583,ESNX,65.5903,19.2819,2024-04-23 12:20:00,75.0,36.0,l,magenta,-4.0,1008.0,(312.2034655613829+0j),-7.0,11.0,340.0,1900.0,99999,,0j,0,1111003411110402170300804000051000600007750080000
3584,ESOE,59.2237,15.038,2024-04-23 12:20:00,,,,,10.0,1011.0,(1740.7568339182117+0j),-6.0,7.0,350.0,10000.0,99999,,0j,0,1116003507101002160301104000051000600007000080000
3585,ESSL,58.4062,15.6805,2024-04-23 12:20:00,,,,,8.0,1012.0,(1858.852958579955+0j),-6.0,7.0,240.0,10000.0,99999,,0j,0,1116002407100802160301204000051000600007000080000
3586,ESTA,56.2961,12.8471,2024-04-23 12:20:00,,,,,8.0,1014.0,(1326.0219046650684+0j),0.0,7.0,190.0,10000.0,99999,4.0,0j,0,1116041907100802000301404000051000600007000084000
3587,ESTL,56.0828,13.2125,2024-04-23 12:20:00,,,,,6.0,1014.0,(1943.0844492277945+0j),1.0,8.0,180.0,10000.0,99999,3.0,0j,0,1116031808100602010301404000051000600007000083000
3588,ESUT,65.8061,15.0828,2024-04-23 12:20:00,,,,,0.0,1009.0,(38.58482939590653+0j),-9.0,14.0,310.0,10000.0,99999,,0j,0,1116003114100002190300904000051000600007000080000
3589,LGPA,37.0103,25.1281,2024-04-23 12:20:00,,,,,21.0,1008.0,(1232.3606129330904+0j),15.0,27.0,110.0,10000.0,99999,2.0,0j,0,11160211271021020150300804000051000600007000082000
3592,LOXZ,47.2028,14.7442,2024-04-23 12:20:00,61.0,36.0,^,green,4.0,1012.0,(21.15651527959413+0j),1.0,6.0,90.0,7000.0,99999,5.0,0j,0,1114050906100402010301204000051000600007610085000
3615,EGAA,54.6575,-6.21583,2024-04-23 12:20:00,,,,,12.0,1026.0,(1921.4825193768256+0j),6.0,11.0,330.0,10000.0,99999,6.0,0j,0,1116063311101202060302604000051000600007000086000
3616,EGAC,54.6181,-5.8725,2024-04-23 12:20:00,,,,,12.0,1026.0,(1070.2230517077498+0j),5.0,9.0,40.0,10000.0,99999,6.0,0j,0,1116060409101202050302604000051000600007000086000
3617,EGAE,55.0428,-7.16111,2024-04-23 12:20:00,,,,,11.0,1028.0,(1099.2744486276817+0j),5.0,11.0,340.0,10000.0,99999,6.0,0j,0,1116063411101102050302804000051000600007000086000
3619,EGEC,55.4372,-5.68639,2024-04-23 12:20:00,,,,,11.0,1026.0,(1163.5330339753175+0j),4.0,9.0,290.0,10000.0,99999,1.0,0j,0,1116012909101102040302604000051000600007000081000
3621,EGGW,51.8747,-0.36833,2024-04-23 12:20:00,,,,,9.0,1022.0,(3669.9989689316726+0j),4.0,12.0,340.0,10000.0,99999,7.0,0j,0,1116073412100902040302204000051000600007000087000
3622,EGHE,49.9133,-6.29167,2024-04-23 12:20:00,,,,,13.0,1026.0,(1358.3062622881066+0j),10.0,11.0,10.0,10000.0,99999,6.0,0j,0,11160601111013020100302604000051000600007000086000
3623,EGHI,50.9503,-1.3568,2024-04-23 12:20:00,,,,,11.0,1023.0,(1166.8394120702887+0j),2.0,11.0,360.0,10000.0,99999,6.0,0j,0,1116063611101102020302304000051000600007000086000
3625,EGLF,51.2758,-0.77633,2024-04-23 12:20:00,,,,,9.0,1022.0,(2098.623094069069+0j),2.0,6.0,,10000.0,99999,3.0,0j,0,1116033606100902020302204000051000600007000083000
3626,EGLL,51.4706,-0.46194,2024-04-23 12:20:00,,,,,10.0,1022.0,(1328.698185788455+0j),4.0,8.0,360.0,10000.0,99999,3.0,0j,0,1116033608101002040302204000051000600007000083000
3627,EGNS,54.0833,-4.62389,2024-04-23 12:20:00,,,,,9.0,1026.0,(1236.8768273413953+0j),3.0,10.0,90.0,10000.0,99999,3.0,0j,0,1116030910100902030302604000051000600007000083000
3628,EGNX,52.8311,-1.32806,2024-04-23 12:20:00,,,,,8.0,1023.0,(2657.4036856584685+0j),3.0,14.0,350.0,10000.0,99999,4.0,0j,0,1116043514100802030302304000051000600007000084000
3629,EGPA,58.9578,-2.905,2024-04-23 12:20:00,,,,,8.0,1026.0,(1254.8206858293722+0j),2.0,17.0,360.0,10000.0,99999,3.0,0j,0,1116033617100802020302604000051000600007000083000
3630,EGPC,58.4589,-3.09306,2024-04-23 12:20:00,,,,,9.0,1026.0,(1563.3418769101952+0j),2.0,13.0,350.0,10000.0,99999,6.0,0j,0,1116063513100902020302604000051000600007000086000
3632,EGPE,57.5425,-4.0475,2024-04-23 12:20:00,16.0,36.0,1,,9.0,1027.0,(1150.8735613554854+0j),4.0,5.0,350.0,10000.0,99999,2.0,0j,0,1116023505100902040302704000051000600007160082000
3634,EGPL,57.4811,-7.36278,2024-04-23 12:20:00,,,,,11.0,1029.0,(1090.496061335339+0j),2.0,12.0,10.0,10000.0,99999,6.0,0j,0,1116060112101102020302904000051000600007000086000
3635,EGPN,56.4525,-3.02583,2024-04-23 12:20:00,,,,,11.0,1025.0,(1079.7380029900005+0j),-1.0,8.0,360.0,10000.0,99999,3.0,0j,0,1116033608101102110302504000051000600007000083000
3660,ESMV,57.2922,14.1372,2024-04-23 12:20:00,,,,,6.0,1012.0,(5416.932734368709+0j),-4.0,10.0,230.0,10000.0,99999,8.0,0j,0,1116082310100602140301204000051000600007000088000
3663,EGJJ,49.2079,-2.19551,2024-04-23 12:20:00,,,,,11.0,1023.0,(2043.3605886880462+0j),6.0,9.0,340.0,10000.0,99999,2.0,0j,0,1116023409101102060302304000051000600007000082000
3671,EKBI,55.7403,9.15178,2024-04-23 12:20:00,61.0,36.0,^,green,5.0,1012.0,(3176.2865698033647+0j),4.0,11.0,210.0,10000.0,99999,8.0,0j,0,1116082111100502040301204000051000600007610088000
3672,EKCH,55.6179,12.656,2024-04-23 12:20:00,,,,,7.0,1015.0,(1100.7114486485866+0j),1.0,10.0,210.0,10000.0,99999,6.0,0j,0,1116062110100702010301504000051000600007000086000
3673,EKEB,55.5259,8.5534,2024-04-23 12:20:00,63.0,36.0,',green,6.0,1013.0,(1633.0531846890967+0j),5.0,16.0,210.0,6000.0,99999,6.0,0j,0,1113062116100602050301304000051000600007630086000
3674,EKOD,55.4767,10.3309,2024-04-23 12:20:00,80.0,36.0,q,green,6.0,1014.0,(1358.3945134801572+0j),2.0,11.0,220.0,10000.0,99999,4.0,0j,0,1116042211100602020301404000051000600007800084000
3675,EKRK,55.5856,12.1314,2024-04-23 12:20:00,,,,,8.0,1014.0,(1722.4787321979975+0j),-1.0,13.0,230.0,10000.0,99999,4.0,0j,0,1116042313100802110301404000051000600007000084000
3676,EKRN,55.0633,14.7596,2024-04-23 12:20:00,,,,,6.0,1016.0,(1335.1004737230112+0j),-2.0,8.0,250.0,10000.0,99999,1.0,0j,0,1116012508100602120301604000051000600007000081000
3677,EKSB,54.9644,9.79173,2024-04-23 12:21:00,,,,,8.0,1014.0,(1120.1972782146215+0j),0.0,9.0,240.0,10000.0,99999,4.0,0j,0,1116042409100802000301404000051000600007000084000
3683,ENBN,65.4611,12.2175,2024-04-23 12:20:00,,,,,6.0,1013.0,(1161.5364976322494+0j),0.0,8.0,350.0,10000.0,99999,3.0,0j,0,1116033508100602000301304000051000600007000083000
3684,ENFL,61.5836,5.02472,2024-04-23 12:20:00,16.0,36.0,1,,6.0,1018.0,(1241.8871974291562+0j),-0.0,17.0,360.0,10000.0,99999,2.0,0j,0,1116023617100602100301804000051000600007160082000
3685,ENHK,70.4867,22.1397,2024-04-23 12:20:00,16.0,36.0,1,,1.0,1015.0,(1842.5622526028812+0j),-3.0,12.0,110.0,10000.0,99999,1.0,0j,0,1116011112100102130301504000051000600007160081000
3686,ENHV,71.0097,25.9836,2024-04-23 12:20:00,71.0,36.0,h,magenta,0.0,1018.0,(38.92899536673225+0j),-2.0,12.0,70.0,3000.0,99999,,0j,0,1111000712100002120301804000051000600007710080000
3687,ENLK,68.1525,13.6094,2024-04-23 12:20:00,,,,,6.0,1014.0,(1504.3130533115109+0j),-4.0,12.0,290.0,10000.0,99999,,0j,0,1116002912100602140301404000051000600007000080000
3688,ENMH,71.0297,27.8267,2024-04-23 12:20:00,,,,,0.0,1019.0,(38.967236030157345+0j),-2.0,12.0,110.0,10000.0,99999,3.0,0j,0,1116031112100002120301904000051000600007000083000
3689,ENMS,65.784,13.2149,2024-04-23 12:20:00,,,,,6.0,1012.0,(2689.0542563873114+0j),-3.0,7.0,10.0,10000.0,99999,3.0,0j,0,1116030107100602130301204000051000600007000083000
3690,ENNM,64.4722,11.5786,2024-04-23 12:20:00,80.0,36.0,q,green,5.0,1013.0,(1061.9547964914134+0j),1.0,11.0,300.0,10000.0,99999,4.0,0j,0,1116043011100502010301304000051000600007800084000
3691,ENNO,59.5657,9.21222,2024-04-23 12:20:00,,,,,8.0,1014.0,(1301.941185533582+0j),-3.0,5.0,20.0,10000.0,99999,3.0,0j,0,1116030205100802130301404000051000600007000083000
3692,ENRM,64.8383,11.1461,2024-04-23 12:20:00,,,,,5.0,1013.0,(1111.8820414584336+0j),0.0,10.0,10.0,10000.0,99999,2.0,0j,0,1116020110100502000301304000051000600007000082000
3693,ENRS,67.5278,12.1033,2024-04-23 12:20:00,,,,,5.0,1014.0,(1063.0031230427376+0j),-2.0,11.0,340.0,10000.0,99999,,0j,0,1116003411100502120301404000051000600007000080000
3694,ENSK,68.57883,15.03342,2024-04-23 12:20:00,,,,,5.0,1014.0,(1091.4434238907013+0j),-8.0,6.0,130.0,10000.0,99999,,0j,0,1116001306100502180301404000051000600007000080000
3695,ENSO,59.7919,5.34085,2024-04-23 12:20:00,,,,,8.0,1014.0,(1797.4392423040858+0j),-2.0,21.0,320.0,10000.0,99999,1.0,0j,0,1116013221100802120301404000051000600007000081000
3696,ENST,65.9568,12.4689,2024-04-23 12:20:00,,,,,6.0,1013.0,(1357.054873920512+0j),-2.0,5.0,340.0,10000.0,99999,3.0,0j,0,1116033405100602120301304000051000600007000083000
3697,ENVD,70.0653,29.8447,2024-04-23 12:20:00,16.0,36.0,1,,0.0,1018.0,(38.92899536673225+0j),-2.0,22.0,90.0,10000.0,99999,6.0,0j,0,1116060922100002120301804000051000600007160086000
3698,LGLM,39.9171,25.2363,2024-04-23 12:20:00,,,,,19.0,1009.0,(1034.5418021531184+0j),12.0,9.0,110.0,10000.0,99999,3.0,0j,0,11160311091019020120300904000051000600007000083000
3700,LIPE,44.5354,11.2887,2024-04-23 12:20:00,,,,,8.0,1008.0,(1592.2389135573403+0j),6.0,7.0,250.0,10000.0,99999,6.0,0j,0,1116062507100802060300804000051000600007000086000
3707,EGFF,51.3967,-3.34333,2024-04-23 12:20:00,,,,,10.0,1024.0,(1902.9725348931947+0j),8.0,5.0,130.0,10000.0,99999,6.0,0j,0,1116061305101002080302404000051000600007000086000
3719,ESKM,60.9579,14.5114,2024-04-23 12:20:00,,,,,6.0,1010.0,(6084.007866111328+0j),-3.0,2.0,,10000.0,99999,8.0,0j,0,1116083602100602130301004000051000600007000088000
3720,ENOV,62.18,6.0741,2024-04-23 12:20:00,61.0,36.0,^,green,4.0,1018.0,(3774.4972149557702+0j),-0.0,2.0,,10000.0,99999,4.0,0j,0,1116043602100402100301804000051000600007610084000
3721,LGAL,40.8559,25.9563,2024-04-23 12:20:00,,,,,17.0,1011.0,(1060.272860237611+0j),13.0,13.0,60.0,10000.0,99999,2.0,0j,0,11160206131017020130301104000051000600007000082000
3722,LGBL,39.2196,22.7943,2024-04-23 12:20:00,61.0,36.0,^,green,19.0,1008.0,(1163.1723763514874+0j),15.0,11.0,90.0,9000.0,99999,5.0,0j,0,11150509111019020150300804000051000600007610085000
3723,LGKF,38.1201,20.5005,2024-04-23 12:20:00,,,,,25.0,1001.0,(1083.102975828546+0j),13.0,14.0,130.0,5000.0,99999,4.0,0j,0,11130413141025020130300104000051000600007000084000
3724,LGKV,40.9133,24.6192,2024-04-23 12:20:00,,,,,17.0,1010.0,(1046.8247630718292+0j),14.0,7.0,90.0,10000.0,99999,3.0,0j,0,11160309071017020140301004000051000600007000083000
3725,LGMK,37.4351,25.3481,2024-04-23 12:20:00,,,,,21.0,1009.0,(1758.002559273406+0j),11.0,15.0,110.0,10000.0,99999,1.0,0j,0,11160111151021020110300904000051000600007000081000
3726,LGRX,38.1511,21.4256,2024-04-23 12:20:00,,,,,20.0,1001.0,(1080.9818709130882+0j),13.0,15.0,30.0,8000.0,99999,2.0,0j,0,11140203151020020130300104000051000600007000082000
3727,LGSR,36.3992,25.4793,2024-04-23 12:20:00,,,,,20.0,1010.0,(1239.0059674751376+0j),17.0,21.0,140.0,10000.0,99999,1.0,0j,0,11160114211020020170301004000051000600007000081000
3728,LGZA,37.7509,20.8843,2024-04-23 12:20:00,10.0,36.0,+,yellow,22.0,1001.0,(1024.437730459147+0j),14.0,7.0,170.0,5000.0,99999,4.0,0j,0,11130417071022020140300104000051000600007100084000
3730,LIEE,39.2515,9.05428,2024-04-23 12:20:00,,,,,18.0,1011.0,(1036.0819893792457+0j),0.0,16.0,310.0,10000.0,99999,,0j,0,1116003116101802000301104000051000600007000080000
3731,LIMC,45.6306,8.72811,2024-04-23 12:20:00,,,,,12.0,1007.0,(3900.256124902686+0j),2.0,9.0,10.0,10000.0,99999,3.0,0j,0,1116030109101202020300704000051000600007000083000
3732,LIME,45.6739,9.70417,2024-04-23 12:20:00,61.0,36.0,^,green,9.0,1007.0,(5088.756783906737+0j),5.0,3.0,120.0,8000.0,99999,4.0,0j,0,1114041203100902050300704000051000600007610084000
3733,LIMF,45.2008,7.64963,2024-04-23 12:20:00,,,,,11.0,1007.0,(5246.345356604425+0j),2.0,7.0,140.0,10000.0,99999,3.0,0j,0,1116031407101102020300704000051000600007000083000
3734,LIMJ,44.4133,8.8375,2024-04-23 12:20:00,51.0,36.0,T,green,11.0,1007.0,(1048.0165411324276+0j),4.0,9.0,30.0,10000.0,99999,4.0,0j,0,1116040309101102040300704000051000600007510084000
3735,LIML,45.4451,9.27674,2024-04-23 12:20:00,,,,,11.0,1007.0,(2325.593285089056+0j),4.0,4.0,100.0,10000.0,99999,3.0,0j,0,1116031004101102040300704000051000600007000083000
3737,LIRA,41.7994,12.5949,2024-04-23 12:20:00,,,,,13.0,1008.0,(2363.0490739147554+0j),5.0,13.0,230.0,10000.0,99999,6.0,0j,0,1116062313101302050300804000051000600007000086000
3738,LIRF,41.8045,12.2508,2024-04-23 12:20:00,,,,,14.0,1007.0,(1044.1558396921719+0j),6.0,16.0,230.0,10000.0,99999,3.0,0j,0,1116032316101402060300704000051000600007000083000
3739,LIRQ,43.81,11.2051,2024-04-23 12:20:00,,,,,11.0,1006.0,(1488.789419603266+0j),6.0,4.0,70.0,10000.0,99999,3.0,0j,0,1116030704101102060300604000051000600007000083000
3741,EBLG,50.6374,5.44322,2024-04-23 12:20:00,,,,,9.0,1019.0,(4428.940878203382+0j),-3.0,6.0,320.0,10000.0,99999,3.0,0j,0,1116033206100902130301904000051000600007000083000
3744,ENBV,70.8714,29.0342,2024-04-23 12:20:00,71.0,36.0,h,magenta,0.0,1019.0,(38.967236030157345+0j),-1.0,25.0,120.0,10000.0,99999,4.0,0j,0,1116041225100002110301904000051000600007710084000
3745,ENEV,68.4913,16.6781,2024-04-23 12:20:00,,,,,4.0,1013.0,(1838.9315880657327+0j),-9.0,5.0,,10000.0,99999,,0j,0,1116003605100402190301304000051000600007000080000
3746,ENHF,70.6797,23.6686,2024-04-23 12:20:00,71.0,36.0,h,magenta,-1.0,1016.0,(605.1218622392072+0j),-3.0,10.0,70.0,3500.0,99999,,0j,0,1112000710110102130301604000051000600007710080000
3747,ENKB,63.1118,7.82452,2024-04-23 12:20:00,80.0,36.0,q,green,4.0,1017.0,(3272.6036775852026+0j),2.0,2.0,,10000.0,99999,5.0,0j,0,1116053602100402020301704000051000600007800085000
3748,ENKR,69.7258,29.8913,2024-04-23 12:20:00,16.0,36.0,1,,-1.0,1017.0,(453.53901287548825+0j),-5.0,14.0,110.0,10000.0,99999,4.0,0j,0,1116041114110102150301704000051000600007160084000
3749,ENNA,70.0688,24.9735,2024-04-23 12:20:00,75.0,36.0,l,magenta,-1.0,1017.0,(327.21738608543075+0j),-4.0,0.0,0.0,3300.0,99999,,0j,0,1112000000110102140301704000051000600007750080000
3750,ENRA,66.3639,14.3014,2024-04-23 12:20:00,,,,,7.0,1012.0,(2366.2550177642856+0j),-5.0,5.0,320.0,10000.0,99999,,0j,0,1116003205100702150301204000051000600007000080000
3752,LGAD,37.9207,21.2926,2024-04-23 12:20:00,,,,,21.0,1001.0,(1092.2806708546786+0j),15.0,3.0,,6000.0,99999,3.0,0j,0,11130336031021020150300104000051000600007000083000
3753,LGKL,37.0683,22.0255,2024-04-23 12:20:00,,,,,28.0,1001.0,(1032.9769406844832+0j),8.0,14.0,170.0,2000.0,99999,3.0,0j,0,1111031714102802080300104000051000600007000083000
3754,LGTS,40.5197,22.9709,2024-04-23 12:20:00,,,,,15.0,1010.0,(1061.1584593938571+0j),15.0,5.0,270.0,8000.0,99999,5.0,0j,0,11140527051015020150301004000051000600007000085000
3755,LIBD,41.1389,16.7606,2024-04-23 12:20:00,,,,,18.0,1004.0,(1364.3722398799466+0j),8.0,7.0,350.0,10000.0,99999,,0j,0,1116003507101802080300404000051000600007000080000
3756,LIBR,40.6576,17.947,2024-04-23 12:20:00,81.0,36.0,r,green,13.0,1005.0,(1132.3855194211933+0j),12.0,10.0,320.0,1800.0,99999,5.0,0j,0,11110532101013020120300504000051000600007810085000
3757,LICC,37.4668,15.0664,2024-04-23 12:20:00,,,,,20.0,1006.0,(1073.9813380642242+0j),11.0,15.0,50.0,10000.0,99999,1.0,0j,0,11160105151020020110300604000051000600007000081000
3758,LICJ,38.176,13.091,2024-04-23 12:20:00,,,,,15.0,1011.0,(1165.3474373064062+0j),8.0,15.0,300.0,10000.0,99999,3.0,0j,0,1116033015101502080301104000051000600007000083000
3759,LIPH,45.6484,12.1944,2024-04-23 12:20:00,,,,,13.0,1008.0,(1169.3978871011932+0j),6.0,13.0,70.0,10000.0,99999,1.0,0j,0,1116010713101302060300804000051000600007000081000
3760,LIPQ,45.8275,13.4722,2024-04-23 12:20:00,61.0,36.0,^,green,9.0,1008.0,(1161.889433041402+0j),4.0,15.0,100.0,10000.0,99999,8.0,0j,0,1116081015100902040300804000051000600007610088000
3761,LIPR,44.0203,12.6117,2024-04-23 12:20:00,61.0,36.0,^,green,10.0,1006.0,(1147.4491188100785+0j),7.0,6.0,30.0,10000.0,99999,6.0,0j,0,1116060306101002070300604000051000600007610086000
3762,LIPZ,45.5053,12.3519,2024-04-23 12:20:00,,,,,13.0,1007.0,(1025.6013909903552+0j),7.0,15.0,70.0,10000.0,99999,3.0,0j,0,1116030715101302070300704000051000600007000083000
3763,LOWG,46.9911,15.4396,2024-04-23 12:20:00,61.0,36.0,^,green,6.0,1012.0,(10.03372830776127+0j),3.0,5.0,30.0,10000.0,99999,3.0,0j,0,1116030305100602030301204000051000600007610083000
3766,ENAT,69.9761,23.3717,2024-04-23 12:20:00,,,,,-2.0,1017.0,(865.9051581251392+0j),-5.0,0.0,0.0,1900.0,99999,,0j,0,1111000000110202150301704000051000600007000080000
3767,ENBL,61.3911,5.75694,2024-04-23 12:20:00,,,,,4.0,1016.0,(13.237459074172962+0j),-5.0,12.0,350.0,10000.0,99999,4.0,0j,0,1116043512100402150301604000051000600007000084000
3768,ENML,62.7447,7.2625,2024-04-23 12:20:00,63.0,36.0,',green,4.0,1018.0,(1106.5374939703254+0j),1.0,4.0,220.0,7000.0,99999,3.0,0j,0,1114032204100402010301804000051000600007630083000
3769,LGEL,38.0638,23.556,2024-04-23 12:20:00,,,,,22.0,1006.0,(1239.7156261950365+0j),13.0,10.0,100.0,10000.0,99999,1.0,0j,0,11160110101022020130300604000051000600007000081000
3770,LGKP,35.4214,27.146,2024-04-23 12:20:00,,,,,19.0,1014.0,(1137.3686240977997+0j),16.0,18.0,70.0,10000.0,99999,1.0,0j,0,11160107181019020160301404000051000600007000081000
3771,LGMT,39.0567,26.5983,2024-04-23 12:20:00,,,,,21.0,1012.0,(1112.8405669179908+0j),12.0,4.0,120.0,10000.0,99999,1.0,0j,0,11160112041021020120301204000051000600007000081000
3772,LGSA,35.5317,24.1497,2024-04-23 12:20:00,,,,,27.0,1007.0,(1706.2881225015042+0j),9.0,24.0,130.0,8000.0,99999,3.0,0j,0,1114031324102702090300704000051000600007000083000
3773,LGSK,39.1771,23.5037,2024-04-23 12:20:00,,,,,19.0,1007.0,(1106.8037746949594+0j),16.0,6.0,340.0,8000.0,99999,3.0,0j,0,11140334061019020160300704000051000600007000083000
3774,LGSM,37.69,26.9117,2024-04-23 12:20:00,,,,,24.0,1013.0,(1040.5619522643908+0j),12.0,11.0,190.0,10000.0,99999,,0j,0,11160019111024020120301304000051000600007000080000
3777,LIEA,40.6321,8.29077,2024-04-23 12:20:00,,,,,14.0,1010.0,(1233.9128475757734+0j),2.0,14.0,280.0,10000.0,99999,6.0,0j,0,1116062814101402020301004000051000600007000086000
3778,LIEO,40.8987,9.51763,2024-04-23 12:20:00,,,,,15.0,1009.0,(1095.564453730703+0j),1.0,21.0,260.0,10000.0,99999,3.0,0j,0,1116032621101502010300904000051000600007000083000
3779,LIPX,45.3957,10.8885,2024-04-23 12:20:00,61.0,36.0,^,green,9.0,1007.0,(2072.8087028856335+0j),5.0,10.0,70.0,10000.0,99999,4.0,0j,0,1116040710100902050300704000051000600007610084000
3781,LIRP,43.6839,10.3927,2024-04-23 12:15:00,,,,,10.0,1005.0,(1025.6953413180975+0j),8.0,5.0,320.0,10000.0,99999,3.0,0j,0,1116033205101002080300504000051000600007000083000
3783,LOWI,47.2602,11.344,2024-04-23 12:20:00,,,,,7.0,1011.0,(13.575609601732905+0j),2.0,6.0,70.0,10000.0,99999,3.0,0j,0,1116030706100702020301104000051000600007000083000
3784,LOWK,46.6425,14.3377,2024-04-23 12:20:00,61.0,36.0,^,green,3.0,1012.0,(19.824982463047952+0j),1.0,3.0,160.0,10000.0,99999,3.0,0j,0,1116031603100302010301204000051000600007610083000
3785,LOWL,48.2332,14.1875,2024-04-23 12:20:00,,,,,8.0,1013.0,(6958.7454097785585+0j),3.0,11.0,110.0,10000.0,99999,3.0,0j,0,1116031111100802030301304000051000600007000083000
3786,LOWS,47.7933,13.0043,2024-04-23 12:20:00,,,,,6.0,1013.0,(12.165177978761447+0j),1.0,4.0,280.0,10000.0,99999,4.0,0j,0,1116042804100602010301304000051000600007000084000
3787,LOWW,48.1103,16.5697,2024-04-23 12:20:00,51.0,36.0,T,green,7.0,1014.0,(5062.41131726432+0j),4.0,8.0,320.0,10000.0,99999,3.0,0j,0,1116033208100702040301404000051000600007510083000
3793,EGBJ,51.8942,-2.16722,2024-04-23 12:20:00,,,,,11.0,1023.0,(1364.4905652328912+0j),4.0,8.0,360.0,10000.0,99999,3.0,0j,0,1116033608101102040302304000051000600007000083000
3794,EGSC,52.205,0.175,2024-04-23 12:20:00,,,,,10.0,1022.0,(1191.6485943351363+0j),5.0,12.0,350.0,10000.0,99999,3.0,0j,0,1116033512101002050302204000051000600007000083000
3795,EGSH,52.6758,1.28278,2024-04-23 12:20:00,,,,,10.0,1021.0,(1461.9666258225618+0j),5.0,12.0,330.0,10000.0,99999,4.0,0j,0,1116043312101002050302104000051000600007000084000
3805,LIBP,42.4317,14.1811,2024-04-23 12:20:00,61.0,36.0,^,green,14.0,1006.0,(1126.7682277839915+0j),11.0,10.0,10.0,10000.0,99999,7.0,0j,0,11160701101014020110300604000051000600007610087000
3806,LICA,38.9054,16.2423,2024-04-23 12:20:00,,,,,18.0,1008.0,(1083.8009253496232+0j),9.0,17.0,260.0,10000.0,99999,1.0,0j,0,1116012617101802090300804000051000600007000081000
3807,LICR,38.0712,15.6516,2024-04-23 12:20:00,,,,,18.0,1008.0,(1198.6782571747417+0j),10.0,16.0,10.0,10000.0,99999,1.0,0j,0,11160101161018020100300804000051000600007000081000
3808,LIPY,43.6163,13.3623,2024-04-23 12:20:00,,,,,13.0,1006.0,(1139.078618660603+0j),9.0,6.0,20.0,10000.0,99999,6.0,0j,0,1116060206101302090300604000051000600007000086000
3810,LICD,35.4979,12.6181,2024-04-23 12:20:00,,,,,17.0,1012.0,(1158.5952340909107+0j),9.0,17.0,330.0,10000.0,99999,,0j,0,1116003317101702090301204000051000600007000080000
3811,LIRZ,43.0959,12.5132,2024-04-23 12:20:00,,,,,13.0,1005.0,(3364.9655103320547+0j),7.0,5.0,170.0,10000.0,99999,1.0,0j,0,1116011705101302070300504000051000600007000081000
3814,EHDL,52.0606,5.87306,2024-04-23 12:25:00,,,,,9.0,1019.0,(1701.3805769880698+0j),-3.0,7.0,310.0,10000.0,99999,4.0,0j,0,1116043107100902130301904000051000600007000084000
3817,EHGR,51.5674,4.93183,2024-04-23 12:25:00,,,,,10.0,1019.0,(1195.585595923034+0j),-1.0,8.0,280.0,10000.0,99999,4.0,0j,0,1116042808101002110301904000051000600007000084000
3819,EHLE,52.4603,5.52722,2024-04-23 12:25:00,,,,,10.0,1019.0,(974.168737946917+0j),-3.0,5.0,,10000.0,99999,,0j,0,1116003605101002130301904000051000600007000080000
3820,EHLW,53.2286,5.76056,2024-04-23 12:25:00,,,,,8.0,1018.0,(1031.0804862577604+0j),-0.0,12.0,250.0,10000.0,99999,5.0,0j,0,1116052512100802100301804000051000600007000085000
3822,EHVK,51.6564,5.70861,2024-04-23 12:25:00,,,,,9.0,1019.0,(1313.1870931199066+0j),-1.0,5.0,310.0,10000.0,99999,5.0,0j,0,1116053105100902110301904000051000600007000085000
3823,EHWO,51.4491,4.34203,2024-04-23 12:25:00,,,,,10.0,1020.0,(1249.3773807541597+0j),-3.0,8.0,260.0,10000.0,99999,8.0,0j,0,1116082608101002130302004000051000600007000088000
3845,EETN,59.4133,24.8328,2024-04-23 12:20:00,,,,,1.0,1010.0,(7381.926498420819+0j),-1.0,13.0,250.0,7000.0,99999,7.0,0j,0,1114072513100102110301004000051000600007000087000
3846,EETU,58.3075,26.6904,2024-04-23 12:20:00,75.0,36.0,l,magenta,1.0,1013.0,(11.49706415980139+0j),0.0,11.0,230.0,3900.0,99999,5.0,0j,0,1112052311100102000301304000051000600007750085000
3848,EVLA,56.5175,21.0969,2024-04-23 12:20:00,,,,,3.0,1017.0,(1209.3807416138018+0j),-2.0,13.0,240.0,10000.0,99999,1.0,0j,0,1116012413100302120301704000051000600007000081000
3849,EVRA,56.9236,23.9711,2024-04-23 12:20:00,,,,,3.0,1016.0,(1466.8553779401925+0j),-1.0,6.0,240.0,10000.0,99999,5.0,0j,0,1116052406100302110301604000051000600007000085000
3850,EYKA,54.9639,24.0848,2024-04-23 12:20:00,,,,,4.0,1019.0,(3946.733854295767+0j),-3.0,8.0,220.0,10000.0,99999,8.0,0j,0,1116082208100402130301904000051000600007000088000
3851,EFKI,64.2855,27.6924,2024-04-23 12:20:00,81.0,36.0,r,green,3.0,1004.0,(8803.970564700357+0j),2.0,7.0,100.0,10000.0,99999,8.0,0j,0,1116081007100302020300404000051000600007810088000
3852,EFKU,63.0071,27.7978,2024-04-23 12:20:00,80.0,36.0,q,green,2.0,1005.0,(8836.514884150247+0j),1.0,13.0,150.0,10000.0,99999,8.0,0j,0,1116081513100202010300504000051000600007800088000
3858,EGOW,53.5816,-3.05552,2024-04-23 12:20:00,,,,,12.0,1025.0,(1135.3950570941026+0j),3.0,12.0,320.0,10000.0,99999,3.0,0j,0,1116033212101202030302504000051000600007000083000
3939,LIPU,45.3958,11.8479,2024-04-23 12:27:00,,,,,10.0,1007.0,(1163.1724320382561+0j),7.0,11.0,70.0,5000.0,99999,6.0,0j,0,1113060711101002070300704000051000600007000086000
3963,EDDS,48.6899,9.22196,2024-04-23 12:20:00,,,,,9.0,1014.0,(7951.968758553673+0j),-3.0,8.0,10.0,10000.0,99999,,0j,0,1116000108100902130301404000051000600007000080000
3966,EGPD,57.2019,-2.19778,2024-04-23 12:20:00,,,,,9.0,1025.0,(1989.0538263097228+0j),3.0,15.0,330.0,10000.0,99999,7.0,0j,0,1116073315100902030302504000051000600007000087000
3967,EGPH,55.95,-3.3725,2024-04-23 12:20:00,,,,,11.0,1025.0,(1490.9312994221816+0j),2.0,3.0,290.0,10000.0,99999,3.0,0j,0,1116032903101102020302504000051000600007000083000
3968,EGPK,55.5094,-4.58667,2024-04-23 12:20:00,,,,,12.0,1026.0,(1223.2249929299721+0j),3.0,9.0,280.0,10000.0,99999,1.0,0j,0,1116012809101202030302604000051000600007000081000
3969,EGPO,58.2156,-6.33111,2024-04-23 12:20:00,,,,,9.0,1028.0,(1131.5959364231053+0j),4.0,6.0,50.0,10000.0,99999,3.0,0j,0,1116030506100902040302804000051000600007000083000
3970,EGPU,56.4992,-6.86917,2024-04-23 12:20:00,,,,,10.0,1028.0,(1165.1278756481963+0j),3.0,15.0,20.0,10000.0,99999,3.0,0j,0,1116030215101002030302804000051000600007000083000
3971,EKAH,56.3,10.619,2024-04-23 12:20:00,61.0,36.0,^,green,5.0,1013.0,(1642.7995456456413+0j),3.0,6.0,190.0,10000.0,99999,4.0,0j,0,1116041906100502030301304000051000600007610084000
3972,EKYT,57.09276,9.84924,2024-04-23 12:20:00,,,,,8.0,1010.0,(1053.5334134744905+0j),5.0,10.0,200.0,10000.0,99999,6.0,0j,0,1116062010100802050301004000051000600007000086000
3973,ENSH,68.2433,14.6692,2024-04-23 12:20:00,,,,,4.0,1014.0,(1259.032328482934+0j),-6.0,4.0,170.0,10000.0,99999,,0j,0,1116001704100402160301404000051000600007000080000
3974,ESSA,59.6519,17.9186,2024-04-23 12:20:00,,,,,5.0,1011.0,(2119.213161345742+0j),-10.0,8.0,290.0,10000.0,99999,,0j,0,11160029081005021100301104000051000600007000080000
3976,EHEH,51.4501,5.37453,2024-04-23 12:25:00,,,,,11.0,1019.0,(1264.3753312573635+0j),-1.0,5.0,260.0,10000.0,99999,4.0,0j,0,1116042605101102110301904000051000600007000084000
3983,ENAL,62.5625,6.1197,2024-04-23 12:20:00,16.0,36.0,1,,5.0,1019.0,(1544.4551234099088+0j),2.0,10.0,350.0,10000.0,99999,3.0,0j,0,1116033510100502020301904000051000600007160083000
3985,ENBR,60.2934,5.21814,2024-04-23 12:20:00,,,,,8.0,1015.0,(1853.4524291084608+0j),-1.0,16.0,330.0,10000.0,99999,3.0,0j,0,1116033316100802110301504000051000600007000083000
3986,ENCN,58.2042,8.08537,2024-04-23 12:20:00,16.0,36.0,1,,9.0,1011.0,(1239.6061655720573+0j),-1.0,14.0,50.0,10000.0,99999,3.0,0j,0,1116030514100902110301104000051000600007160083000
3988,ENHD,59.3453,5.20836,2024-04-23 12:20:00,,,,,8.0,1014.0,(1414.1100806828247+0j),2.0,25.0,340.0,10000.0,99999,1.0,0j,0,1116013425100802020301404000051000600007000081000
3990,ENRO,62.5784,11.3423,2024-04-23 12:20:00,16.0,36.0,1,,2.0,1010.0,(27.105336575355064+0j),-3.0,16.0,330.0,10000.0,99999,4.0,0j,0,1116043316100202130301004000051000600007160084000
3991,ENRY,59.3789,10.7856,2024-04-23 12:20:00,,,,,8.0,1013.0,(1871.5998573340366+0j),-4.0,8.0,50.0,10000.0,99999,,0j,0,1116000508100802140301304000051000600007000080000
3992,ENSD,61.83,6.10583,2024-04-23 12:20:00,16.0,36.0,1,,6.0,1018.0,(2378.0435466421904+0j),-0.0,10.0,290.0,10000.0,99999,3.0,0j,0,1116032910100602100301804000051000600007160083000
3993,ENSG,61.1561,7.13778,2024-04-23 12:20:00,16.0,36.0,1,,5.0,1014.0,(1014+0j),-7.0,5.0,350.0,10000.0,99999,2.0,0j,0,1116023505100502170301404000051000600007160082000
3994,ENSR,69.7868,20.9594,2024-04-23 12:20:00,16.0,36.0,1,,2.0,1015.0,(1308.0322860811632+0j),-4.0,7.0,140.0,10000.0,99999,3.0,0j,0,1116031407100202140301504000051000600007160083000
3996,ENTO,59.1867,10.2586,2024-04-23 12:20:00,,,,,8.0,1012.0,(2509.381103173923+0j),-1.0,9.0,20.0,10000.0,99999,,0j,0,1116000209100802110301204000051000600007000080000
3997,ENVA,63.4578,10.924,2024-04-23 12:20:00,16.0,36.0,1,,6.0,1014.0,(1358.3945134801572+0j),2.0,16.0,270.0,10000.0,99999,4.0,0j,0,1116042716100602020301404000051000600007160084000
3998,ENZV,58.8767,5.63778,2024-04-23 12:20:00,,,,,9.0,1013.0,(1127.1268632271947+0j),-0.0,21.0,330.0,10000.0,99999,1.0,0j,0,1116013321100902100301304000051000600007000081000
3999,LATI,41.4147,19.7206,2024-04-23 12:20:00,,,,,14.0,1003.0,(1330.8142222975537+0j),13.0,8.0,320.0,10000.0,99999,4.0,0j,0,11160432081014020130300304000051000600007000084000
4015,EFTP,61.4141,23.6044,2024-04-23 12:20:00,71.0,36.0,h,magenta,-1.0,1006.0,(169.38663225551505+0j),-3.0,8.0,250.0,10000.0,99999,6.0,0j,0,1116062508110102130300604000051000600007710086000
4016,EFTU,60.5141,22.2628,2024-04-23 12:20:00,71.0,36.0,h,magenta,-0.0,1008.0,(38.54658873248145+0j),-3.0,10.0,280.0,10000.0,99999,8.0,0j,0,1116082810110002130300804000051000600007710088000
4017,EFVA,63.0507,21.7622,2024-04-23 12:20:00,85.0,36.0,v,magenta,-2.0,1007.0,(704.0386857819062+0j),-4.0,15.0,350.0,10000.0,99999,8.0,0j,0,1116083515110202140300704000051000600007850088000
4025,LIRN,40.886,14.2908,2024-04-23 12:20:00,,,,,17.0,1008.0,(1672.0389979007725+0j),4.0,16.0,280.0,10000.0,99999,3.0,0j,0,1116032816101702040300804000051000600007000083000
4026,EGHH,50.78,-1.8425,2024-04-23 12:20:00,,,,,12.0,1023.0,(1136.2228269710845+0j),5.0,11.0,340.0,10000.0,99999,6.0,0j,0,1116063411101202050302304000051000600007000086000
4027,EBAW,51.1894,4.46028,2024-04-23 12:20:00,,,,,9.0,1020.0,(1175.7214501014187+0j),-3.0,7.0,320.0,10000.0,99999,3.0,0j,0,1116033207100902130302004000051000600007000083000
4028,EBBR,50.9014,4.48444,2024-04-23 12:20:00,,,,,10.0,1020.0,(1739.0917552261387+0j),-1.0,7.0,300.0,10000.0,99999,,0j,0,1116003007101002110302004000051000600007000080000
4029,EBCI,50.4592,4.45382,2024-04-23 12:20:00,,,,,8.0,1019.0,(4614.499567056468+0j),-2.0,5.0,360.0,10000.0,99999,1.0,0j,0,1116013605100802120301904000051000600007000081000
4030,EBOS,51.1989,2.86222,2024-04-23 12:20:00,,,,,9.0,1021.0,(1071.9239766616213+0j),1.0,6.0,290.0,10000.0,99999,1.0,0j,0,1116012906100902010302104000051000600007000081000
4047,ELLX,49.6266,6.21152,2024-04-23 12:20:00,,,,,7.0,1017.0,(9.64251423384236+0j),-5.0,10.0,30.0,10000.0,99999,,0j,0,1116000310100702150301704000051000600007000080000
4083,LTCS,37.44566,38.89559,2024-04-23 12:20:00,,,,,26.0,1019.0,(6058.926388299586+0j),3.0,7.0,20.0,10000.0,99999,,0j,0,1116000207102602030301904000051000600007000080000
4087,LTFM,41.27533,28.752,2024-04-23 12:20:00,,,,,15.0,1016.0,(1873.4928445257444+0j),11.0,15.0,90.0,10000.0,99999,3.0,0j,0,11160309151015020110301604000051000600007000083000
4104,ESPA,65.5438,22.122,2024-04-23 12:20:00,,,,,-2.0,1008.0,(195.7601232929922+0j),-3.0,6.0,10.0,3000.0,99999,4.0,0j,0,1111040106110202130300804000051000600007000084000
4105,EGCC,53.3537,-2.27495,2024-04-23 12:20:00,,,,,9.0,1024.0,(2199.701109179504+0j),1.0,11.0,20.0,10000.0,99999,6.0,0j,0,1116060211100902010302404000051000600007000086000
4111,LTAZ,38.7719,34.5345,2024-04-23 12:20:00,,,,,28.0,1020.0,(6408.354362958819+0j),1.0,4.0,,10000.0,99999,3.0,0j,0,1116033604102802010302004000051000600007000083000
4112,LTBR,40.2552,29.5626,2024-04-23 12:20:00,,,,,27.0,1012.0,(2162.086383236746+0j),12.0,9.0,50.0,10000.0,99999,3.0,0j,0,11160305091027020120301204000051000600007000083000
4114,LTFC,37.8554,30.3684,2024-04-23 12:20:00,,,,,27.0,1018.0,(6097.29995884327+0j),5.0,5.0,170.0,10000.0,99999,3.0,0j,0,1116031705102702050301804000051000600007000083000
4115,LTFJ,40.8986,29.3092,2024-04-23 12:20:00,,,,,23.0,1014.0,(1527.293853769386+0j),11.0,19.0,60.0,10000.0,99999,,0j,0,11160006191023020110301404000051000600007000080000
4174,LFCK,43.5563,2.28918,2024-04-23 12:30:00,,,,,10.0,1017.0,(4713.239697780712+0j),-3.0,14.0,300.0,10000.0,99999,2.0,0j,0,1116023014101002130301704000051000600007000082000
4175,LFLP,45.9292,6.09876,2024-04-23 12:30:00,,,,,8.0,1012.0,(10.227900627378256+0j),-0.0,16.0,30.0,10000.0,99999,4.0,0j,0,1116040316100802100301204000051000600007000084000
4176,LFLU,44.9216,4.9699,2024-04-23 12:30:00,,,,,9.0,1012.0,(3628.4075684704644+0j),1.0,12.0,30.0,10000.0,99999,6.0,0j,0,1116060312100902010301204000051000600007000086000
4182,LFQA,49.2087,4.15658,2024-04-23 12:30:00,,,,,9.0,1019.0,(2480.345334361626+0j),0.0,7.0,340.0,10000.0,99999,3.0,0j,0,1116033407100902000301904000051000600007000083000
4191,LFAC,50.9621,1.95476,2024-04-23 12:30:00,,,,,9.0,1021.0,(1067.9694096130622+0j),3.0,8.0,300.0,10000.0,99999,8.0,0j,0,1116083008100902030302104000051000600007000088000
4193,LFGA,48.1099,7.35901,2024-04-23 12:30:00,,,,,11.0,1016.0,(3579.0563976357157+0j),-2.0,12.0,360.0,10000.0,99999,,0j,0,1116003612101102120301604000051000600007000080000
4194,LFJR,47.5603,-0.31222,2024-04-23 12:30:00,,,,,11.0,1021.0,(1708.1610649948302+0j),-1.0,10.0,360.0,10000.0,99999,,0j,0,1116003610101102110302104000051000600007000080000
4196,LFRU,48.6032,-3.81578,2024-04-23 12:30:00,,,,,13.0,1024.0,(1855.5239458520402+0j),7.0,9.0,10.0,10000.0,99999,1.0,0j,0,1116010109101302070302404000051000600007000081000
4197,LFLH,46.8261,4.81763,2024-04-23 12:30:00,,,,,11.0,1016.0,(3555.7952331183965+0j),-2.0,10.0,30.0,10000.0,99999,,0j,0,1116000310101102120301604000051000600007000080000
4200,LFPT,49.0966,2.04083,2024-04-23 12:30:00,,,,,10.0,1020.0,(2374.8623163805782+0j),-2.0,9.0,20.0,10000.0,99999,,0j,0,1116000209101002120302004000051000600007000080000
4212,EPBY,53.0968,17.9777,2024-04-23 12:30:00,,,,,6.0,1018.0,(2688.810386180215+0j),-3.0,6.0,240.0,10000.0,99999,3.0,0j,0,1116032406100602130301804000051000600007000083000
4216,EPRA,51.38883,21.21167,2024-04-23 12:30:00,,,,,9.0,1018.0,(4215.043035818455+0j),-1.0,7.0,110.0,10000.0,99999,,0j,0,1116001107100902110301804000051000600007000080000
4218,EPSY,53.48194,20.93778,2024-04-23 12:30:00,,,,,6.0,1019.0,(4645.222275884398+0j),-5.0,8.0,260.0,10000.0,99999,8.0,0j,0,1116082608100602150301904000051000600007000088000
4220,EPZG,52.1385,15.7986,2024-04-23 12:30:00,,,,,8.0,1018.0,(1991.5903202650475+0j),-3.0,4.0,200.0,10000.0,99999,,0j,0,1116002004100802130301804000051000600007000080000
4223,LHKE,46.9175,19.7492,2024-04-23 12:15:00,,,,,14.0,1012.0,(2096.723020931764+0j),6.0,11.0,80.0,10000.0,99999,,0j,0,1116000811101402060301204000051000600007000080000
4224,LHPA,47.3636,17.5008,2024-04-23 12:15:00,,,,,10.0,1012.0,(3036.799722249543+0j),3.0,11.0,30.0,10000.0,99999,5.0,0j,0,1116050311101002030301204000051000600007000085000
4226,LHPR,47.6244,17.8136,2024-04-23 12:15:00,,,,,10.0,1013.0,(2832.773790588331+0j),3.0,10.0,30.0,10000.0,99999,,0j,0,1116000310101002030301304000051000600007000080000
4227,LHSM,46.6864,17.1591,2024-04-23 12:15:00,,,,,10.0,1011.0,(2749.3050793058596+0j),5.0,8.0,50.0,10000.0,99999,8.0,0j,0,1116080508101002050301104000051000600007000088000
4228,LHSN,47.1229,20.2355,2024-04-23 12:15:00,,,,,15.0,1011.0,(1855.565893555298+0j),7.0,12.0,70.0,10000.0,99999,,0j,0,1116000712101502070301104000051000600007000080000
4229,LTAN,37.979,32.5619,2024-04-23 12:15:00,,,,,28.0,1019.0,(6922.674558741934+0j),-6.0,16.0,230.0,10000.0,99999,3.0,0j,0,1116032316102802160301904000051000600007000083000
4237,LYBT,44.9353,20.2575,2024-04-23 12:30:00,,,,,13.0,1009.0,(1805.110939690203+0j),8.0,20.0,120.0,10000.0,99999,3.0,0j,0,1116031220101302080300904000051000600007000083000
4238,LYKV,43.8183,20.5872,2024-04-23 12:30:00,63.0,36.0,',green,11.0,1008.0,(3820.081626524965+0j),8.0,3.0,160.0,6000.0,99999,6.0,0j,0,1113061603101102080300804000051000600007630086000
4242,LYVR,45.1469,21.3099,2024-04-23 12:30:00,,,,,12.0,1009.0,(1918.8484760175927+0j),9.0,12.0,120.0,10000.0,99999,3.0,0j,0,1116031212101202090300904000051000600007000083000
4246,EGXV,53.8758,-0.435,2024-04-23 12:20:00,61.0,36.0,^,green,8.0,1023.0,(1185.3693336677977+0j),3.0,12.0,10.0,10000.0,99999,8.0,0j,0,1116080112100802030302304000051000600007610088000
4267,EKSP,55.2256,9.26393,2024-04-23 12:20:00,61.0,36.0,^,green,6.0,1014.0,(1950.46129377167+0j),2.0,18.0,240.0,10000.0,99999,4.0,0j,0,1116042418100602020301404000051000600007610084000
4269,ENDU,69.0558,18.5404,2024-04-23 12:20:00,,,,,3.0,1013.0,(4967.439584126582+0j),-8.0,2.0,,10000.0,99999,3.0,0j,0,1116033602100302180301304000051000600007000083000
4270,LSGG,46.2381,6.10895,2024-04-23 12:20:00,,,,,9.0,1013.0,(8679.58029205019+0j),-1.0,19.0,50.0,10000.0,99999,6.0,0j,0,1116060519100902110301304000051000600007000086000
4271,LSZA,46.0043,8.91058,2024-04-23 12:20:00,16.0,36.0,1,,13.0,1006.0,(4225.452817846121+0j),-0.0,6.0,200.0,10000.0,99999,3.0,0j,0,1116032006101302100300604000051000600007160083000
4272,LSZB,46.9141,7.49715,2024-04-23 12:20:00,,,,,5.0,1014.0,(15.75782606402772+0j),0.0,5.0,40.0,10000.0,99999,3.0,0j,0,1116030405100502000301404000051000600007000083000
4273,LSZH,47.4647,8.54917,2024-04-23 12:20:00,16.0,36.0,1,,7.0,1014.0,(10.789234913926421+0j),-1.0,6.0,50.0,10000.0,99999,3.0,0j,0,1116030506100702110301404000051000600007160083000
4289,EFIV,68.6073,27.4053,2024-04-23 12:20:00,75.0,36.0,l,magenta,-4.0,1014.0,(-102086.76801795635-106702.41580118053j),-5.0,9.0,50.0,1200.0,99999,8.0,0j,0,1110080509110402150301404000051000600007750088000
4290,EFMA,60.1222,19.8982,2024-04-23 12:20:00,,,,,0.0,1011.0,(38.661310722756696+0j),-5.0,9.0,320.0,10000.0,99999,8.0,0j,0,1116083209100002150301104000051000600007000088000
4292,EFRO,66.5648,25.8304,2024-04-23 12:20:00,85.0,36.0,v,magenta,-3.0,1008.0,(2927.066422453035+0j),-4.0,13.0,60.0,8000.0,99999,8.0,0j,0,1114080613110302140300804000051000600007850088000
4296,EDDB,52.36217,13.50067,2024-04-23 12:20:00,,,,,10.0,1018.0,(1617.41215711758+0j),-3.0,5.0,,10000.0,99999,,0j,0,1116003605101002130301804000051000600007000080000
4297,EDDC,51.1328,13.7672,2024-04-23 12:20:00,,,,,9.0,1016.0,(4976.302032697761+0j),-4.0,5.0,20.0,10000.0,99999,,0j,0,1116000205100902140301604000051000600007000080000
4298,EDDE,50.9798,10.9581,2024-04-23 12:20:00,,,,,8.0,1017.0,(7356.875599194787+0j),-4.0,7.0,60.0,10000.0,99999,3.0,0j,0,1116030607100802140301704000051000600007000083000
4299,EDDF,50.0264,8.54313,2024-04-23 12:20:00,,,,,11.0,1017.0,(2395.669912101347+0j),-4.0,6.0,,10000.0,99999,,0j,0,1116003606101102140301704000051000600007000080000
4301,EDDH,53.6304,9.98823,2024-04-23 12:20:00,,,,,8.0,1017.0,(1258.0106746532438+0j),-2.0,10.0,250.0,10000.0,99999,1.0,0j,0,1116012510100802120301704000051000600007000081000
4304,EDDM,48.3538,11.7861,2024-04-23 12:20:00,,,,,3.0,1014.0,(19.988092698041964+0j),1.0,7.0,20.0,10000.0,99999,6.0,0j,0,1116060207100302010301404000051000600007000086000
4305,EDDN,49.4987,11.0669,2024-04-23 12:20:00,,,,,9.0,1015.0,(6662.263315323006+0j),-3.0,7.0,60.0,10000.0,99999,,0j,0,1116000607100902130301504000051000600007000080000
4306,EDDP,51.4324,12.2416,2024-04-23 12:20:00,,,,,8.0,1017.0,(3635.632567834427+0j),-3.0,5.0,20.0,10000.0,99999,,0j,0,1116000205100802130301704000051000600007000080000
4307,EDDR,49.2146,7.10951,2024-04-23 12:20:00,,,,,9.0,1016.0,(6737.7078596958+0j),-7.0,6.0,40.0,10000.0,99999,,0j,0,1116000406100902170301604000051000600007000080000
4308,EDDV,52.4611,9.68508,2024-04-23 12:20:00,,,,,8.0,1018.0,(1930.4286951263443+0j),-1.0,5.0,280.0,10000.0,99999,,0j,0,1116002805100802110301804000051000600007000080000
4309,EDDW,53.0475,8.78667,2024-04-23 12:20:00,,,,,9.0,1018.0,(1072.7234452902853+0j),-2.0,8.0,260.0,10000.0,99999,1.0,0j,0,1116012608100902120301804000051000600007000081000
4311,EDFM,49.47306,8.51417,2024-04-23 12:20:00,,,,,11.0,1017.0,(2159.1968633338697+0j),-3.0,8.0,320.0,10000.0,99999,,0j,0,1116003208101102130301704000051000600007000080000
4325,EDHI,53.53528,9.83556,2024-04-23 12:20:00,,,,,8.0,1017.0,(1118.984834381916+0j),-2.0,11.0,240.0,10000.0,99999,6.0,0j,0,1116062411100802120301704000051000600007000086000
4334,EDSB,48.7794,8.0805,2024-04-23 12:20:00,,,,,10.0,1017.0,(2765.6214299248854+0j),-0.0,7.0,360.0,10000.0,99999,,0j,0,1116003607101002100301704000051000600007000080000
4336,EDVE,52.3192,10.5561,2024-04-23 12:20:00,,,,,8.0,1018.0,(2578.158751457011+0j),-1.0,8.0,280.0,10000.0,99999,1.0,0j,0,1116012808100802110301804000051000600007000081000
4344,EDAC,50.98195,12.50639,2024-04-23 12:20:00,,,,,8.0,1017.0,(4776.387537319936+0j),-4.0,5.0,70.0,10000.0,99999,,0j,0,1116000705100802140301704000051000600007000080000
4346,EDFH,49.9487,7.26389,2024-04-23 12:20:00,,,,,7.0,1016.0,(12.217646669366072+0j),-4.0,3.0,,10000.0,99999,,0j,0,1116003603100702140301604000051000600007000080000
4348,EDHL,53.8054,10.7192,2024-04-23 12:20:00,80.0,36.0,q,green,6.0,1018.0,(1344.2166266106165+0j),1.0,8.0,250.0,10000.0,99999,7.0,0j,0,1116072508100602010301804000051000600007800087000
4351,EDLW,51.5183,7.61224,2024-04-23 12:20:00,,,,,9.0,1018.0,(3085.879822161522+0j),-3.0,4.0,,10000.0,99999,,0j,0,1116003604100902130301804000051000600007000080000
4352,EDMA,48.42528,10.93167,2024-04-23 12:20:00,,,,,3.0,1015.0,(20.21589315839561+0j),-0.0,8.0,40.0,10000.0,99999,5.0,0j,0,1116050408100302100301504000051000600007000085000
4353,EDMO,48.0814,11.2831,2024-04-23 12:20:00,,,,,2.0,1014.0,(26.742930971994507+0j),0.0,10.0,20.0,10000.0,99999,8.0,0j,0,1116080210100202000301404000051000600007000088000
4355,EDTL,48.3693,7.82772,2024-04-23 12:20:00,,,,,10.0,1016.0,(3274.4317671567305+0j),-1.0,9.0,10.0,10000.0,99999,,0j,0,1116000109101002110301604000051000600007000080000
4357,EDXW,54.9132,8.34047,2024-04-23 12:20:00,,,,,8.0,1014.0,(1244.855758179497+0j),3.0,22.0,250.0,10000.0,99999,4.0,0j,0,1116042522100802030301404000051000600007000084000
4358,ETHL,48.2203,9.91002,2024-04-23 12:20:00,68.0,36.0,e,magenta,4.0,1014.0,(18.73670388553874+0j),-1.0,10.0,60.0,10000.0,99999,3.0,0j,0,1116030610100402110301404000051000600007680083000
4363,EDAH,53.8787,14.1523,2024-04-23 12:20:00,,,,,6.0,1017.0,(1611.657411205848+0j),-3.0,7.0,270.0,10000.0,99999,6.0,0j,0,1116062707100602130301704000051000600007000086000
4366,EDLP,51.6141,8.61632,2024-04-23 12:20:00,,,,,7.0,1018.0,(5827.523591079026+0j),-6.0,6.0,280.0,10000.0,99999,,0j,0,1116002806100702160301804000051000600007000080000
4368,EDQM,50.28861,11.85639,2024-04-23 12:20:00,,,,,6.0,1015.0,(15.507504199130976+0j),-4.0,8.0,50.0,10000.0,99999,3.0,0j,0,1116030508100602140301504000051000600007000083000
4369,EDVK,51.40833,9.3775,2024-04-23 12:20:00,,,,,8.0,1017.0,(6540.790116703549+0j),-6.0,5.0,,10000.0,99999,,0j,0,1116003605100802160301704000051000600007000080000
4411,LGKO,36.7933,27.0917,2024-04-23 12:20:00,,,,,24.0,1013.0,(1674.964814280753+0j),9.0,19.0,140.0,10000.0,99999,,0j,0,1116001419102402090301304000051000600007000080000
4413,EDHK,54.37944,10.14528,2024-04-23 12:20:00,80.0,36.0,q,green,7.0,1016.0,(1571.609176201902+0j),1.0,6.0,240.0,10000.0,99999,3.0,0j,0,1116032406100702010301604000051000600007800083000
4414,EDLN,51.23028,6.50444,2024-04-23 12:20:00,,,,,10.0,1019.0,(1491.4080720378734+0j),-3.0,4.0,240.0,10000.0,99999,,0j,0,1116002404101002130301904000051000600007000080000
4421,ETMN,53.7677,8.6585,2024-04-23 12:20:00,,,,,8.0,1017.0,(1354.2680903444466+0j),-1.0,13.0,290.0,10000.0,99999,3.0,0j,0,1116032913100802110301704000051000600007000083000
4427,ETNW,52.4573,9.42717,2024-04-23 12:20:00,,,,,8.0,1018.0,(1952.6001376394856+0j),-2.0,4.0,260.0,10000.0,99999,3.0,0j,0,1116032604100802120301804000051000600007000083000
4430,ETSI,48.7157,11.534,2024-04-23 12:20:00,61.0,36.0,^,green,4.0,1015.0,(14.638381215794379+0j),-0.0,4.0,20.0,10000.0,99999,4.0,0j,0,1116040204100402100301504000051000600007610084000
4434,EDNY,47.6713,9.51149,2024-04-23 12:20:00,,,,,5.0,1015.0,(13.670534390464471+0j),0.0,10.0,40.0,10000.0,99999,8.0,0j,0,1116080410100502000301504000051000600007000088000
4435,EHKD,52.9234,4.78062,2024-04-23 12:25:00,,,,,8.0,1019.0,(1032.0933354584065+0j),1.0,13.0,240.0,10000.0,99999,8.0,0j,0,1116082413100802010301904000051000600007000088000
4436,ETHB,52.2785,9.08217,2024-04-23 12:20:00,,,,,8.0,1018.0,(2195.754888704177+0j),-3.0,5.0,330.0,10000.0,99999,3.0,0j,0,1116033305100802130301804000051000600007000083000
4438,ETHF,51.1146,9.286,2024-04-23 12:20:00,,,,,9.0,1017.0,(8355.398327220983+0j),-5.0,4.0,100.0,10000.0,99999,3.0,0j,0,1116031004100902150301704000051000600007000083000
4439,ETHN,49.39194,9.95889,2024-04-23 12:20:00,,,,,9.0,1015.0,(8306.201940312616+0j),-2.0,7.0,50.0,10000.0,99999,1.0,0j,0,1116010507100902120301504000051000600007000081000
4440,ETND,52.58556,8.34222,2024-04-23 12:20:00,,,,,8.0,1018.0,(1634.1300881510208+0j),-1.0,8.0,250.0,10000.0,99999,3.0,0j,0,1116032508100802110301804000051000600007000083000
4441,ETNH,54.3122,9.53817,2024-04-23 12:20:00,,,,,6.0,1016.0,(1252.0388431552258+0j),1.0,11.0,210.0,10000.0,99999,4.0,0j,0,1116042111100602010301604000051000600007000084000
4443,ETNN,50.8312,6.65817,2024-04-23 12:20:00,,,,,10.0,1018.0,(2641.998936096634+0j),-3.0,3.0,320.0,10000.0,99999,3.0,0j,0,1116033203101002130301804000051000600007000083000
4445,ETSB,50.1738,7.06333,2024-04-23 12:20:00,,,,,6.0,1017.0,(13.244133326350532+0j),-7.0,3.0,320.0,10000.0,99999,3.0,0j,0,1116033203100602170301704000051000600007000083000
4446,ETSH,51.7678,13.1677,2024-04-23 12:20:00,,,,,8.0,1018.0,(2399.6331634276185+0j),-4.0,4.0,270.0,10000.0,99999,3.0,0j,0,1116032704100802140301804000051000600007000083000
4448,ETSN,48.711,11.2115,2024-04-23 12:20:00,,,,,5.0,1015.0,(12.772771616258796+0j),0.0,4.0,60.0,10000.0,99999,3.0,0j,0,1116030604100502000301504000051000600007000083000
4449,ETWM,52.7232,7.32633,2024-04-23 12:20:00,,,,,9.0,1018.0,(1018+0j),-3.0,8.0,270.0,10000.0,99999,2.0,0j,0,1116022708100902130301804000051000600007000082000
4506,LFBY,43.6892,-1.06889,2024-04-23 12:30:00,,,,,11.0,1020.0,(1385.5171958581384+0j),4.0,3.0,,10000.0,99999,,0j,0,1116003603101102040302004000051000600007000080000
4515,LFPM,48.6047,2.67112,2024-04-23 12:30:00,,,,,10.0,1020.0,(2267.213613102306+0j),-3.0,6.0,20.0,10000.0,99999,,0j,0,1116000206101002130302004000051000600007000080000
4524,LFYR,47.3208,1.68889,2024-04-23 12:30:00,,,,,11.0,1020.0,(2086.716176959674+0j),-3.0,8.0,360.0,10000.0,99999,,0j,0,1116003608101102130302004000051000600007000080000
4552,LFLN,46.4125,4.01326,2024-04-23 12:30:00,,,,,12.0,1016.0,(4056.2636620959174+0j),-3.0,15.0,10.0,10000.0,99999,,0j,0,1116000115101202130301604000051000600007000080000
4562,LFRL,48.2817,-4.44502,2024-04-23 12:30:00,,,,,13.0,1024.0,(1906.3764648784124+0j),7.0,6.0,10.0,10000.0,99999,6.0,0j,0,1116060106101302070302404000051000600007000086000
4578,EPLL,51.7219,19.3981,2024-04-23 12:30:00,,,,,7.0,1018.0,(5112.5251190414+0j),-4.0,7.0,,10000.0,99999,1.0,0j,0,1116013607100702140301804000051000600007000081000
4579,EPWR,51.1027,16.8858,2024-04-23 12:30:00,,,,,9.0,1018.0,(2969.674832164812+0j),-5.0,5.0,130.0,10000.0,99999,,0j,0,1116001305100902150301804000051000600007000080000
4580,LFBE,44.8253,0.51861,2024-04-23 12:30:00,,,,,12.0,1018.0,(1561.439893264023+0j),-2.0,10.0,340.0,10000.0,99999,,0j,0,1116003410101202120301804000051000600007000080000
4581,LFBG,45.6583,-0.3175,2024-04-23 12:30:00,,,,,13.0,1020.0,(1308.5311618552885+0j),-3.0,10.0,30.0,10000.0,99999,,0j,0,1116000310101302130302004000051000600007000080000
4582,LFCR,44.4079,2.48267,2024-04-23 12:30:00,,,,,8.0,1015.0,(12.334044600072477+0j),-4.0,12.0,320.0,10000.0,99999,,0j,0,1116003212100802140301504000051000600007000080000
4583,LFJL,48.9821,6.25132,2024-04-23 12:30:00,,,,,10.0,1017.0,(5145.146238612709+0j),-0.0,8.0,360.0,10000.0,99999,4.0,0j,0,1116043608101002100301704000051000600007000084000
4585,LFMO,44.1405,4.86672,2024-04-23 12:30:00,,,,,13.0,1010.0,(1586.2722611681972+0j),1.0,26.0,320.0,10000.0,99999,3.0,0j,0,1116033226101302010301004000051000600007000083000
4586,LFMU,43.3235,3.3539,2024-04-23 12:30:00,,,,,15.0,1013.0,(1145.6957518127658+0j),-2.0,18.0,320.0,10000.0,99999,,0j,0,1116003218101502120301304000051000600007000080000
4587,LFOK,48.7761,4.18449,2024-04-23 12:30:00,,,,,9.0,1019.0,(4010.331222221791+0j),1.0,8.0,20.0,10000.0,99999,4.0,0j,0,1116040208100902010301904000051000600007000084000
4590,LKCV,49.9397,15.3818,2024-04-23 12:30:00,,,,,8.0,1016.0,(5784.230133677999+0j),-4.0,2.0,,10000.0,99999,,0j,0,1116003602100802140301604000051000600007000080000
4592,LKNA,49.1658,16.1249,2024-04-23 12:30:00,61.0,36.0,^,green,6.0,1014.0,(13.077792625493187+0j),0.0,7.0,10.0,10000.0,99999,4.0,0j,0,1116040107100602000301404000051000600007610084000
4593,LKPD,50.0134,15.7386,2024-04-23 12:30:00,,,,,9.0,1016.0,(4894.433473847845+0j),-2.0,4.0,220.0,10000.0,99999,,0j,0,1116002204100902120301604000051000600007000080000
4597,LZPP,48.6252,17.8284,2024-04-23 12:30:00,,,,,11.0,1013.0,(3186.7107088759367+0j),3.0,11.0,10.0,10000.0,99999,1.0,0j,0,1116010111101102030301304000051000600007000081000
4598,LZZI,49.2315,18.6135,2024-04-23 12:30:00,,,,,12.0,1013.0,(5019.925611614503+0j),2.0,10.0,60.0,10000.0,99999,,0j,0,1116000610101202020301304000051000600007000080000
4615,LECH,40.21417,0.07333,2024-04-23 12:30:00,,,,,17.0,1014.0,(4214.481895060082+0j),-2.0,13.0,340.0,10000.0,99999,,0j,0,1116003413101702120301404000051000600007000080000
4621,LEMI,37.803,-1.125,2024-04-23 12:30:00,,,,,18.0,1015.0,(2489.0671367694486+0j),-4.0,11.0,350.0,10000.0,99999,1.0,0j,0,1116013511101802140301504000051000600007000081000
4633,URMG,43.3883,45.6986,2024-04-23 12:30:00,,,,,26.0,1020.0,(1020+0j),8.0,2.0,40.0,10000.0,99999,,0j,0,1116000402102602080302004000051000600007000080000
4638,URRP,47.50083,39.93361,2024-04-23 12:30:00,,,,,21.0,1019.0,(1529.2300371915364+0j),10.0,5.0,280.0,10000.0,99999,,0j,0,11160028051021020100301904000051000600007000080000
4646,LFOV,48.0314,-0.74299,2024-04-23 12:30:00,,,,,11.0,1021.0,(2260.132024969719+0j),2.0,11.0,10.0,10000.0,99999,4.0,0j,0,1116040111101102020302104000051000600007000084000
4649,LFRV,47.7233,-2.71856,2024-04-23 12:30:00,,,,,12.0,1022.0,(2602.3642178288433+0j),4.0,9.0,350.0,10000.0,99999,7.0,0j,0,1116073509101202040302204000051000600007000087000
4650,LFSG,48.325,6.06998,2024-04-23 12:30:00,,,,,9.0,1016.0,(6886.578493617429+0j),-1.0,10.0,20.0,10000.0,99999,3.0,0j,0,1116030210100902110301604000051000600007000083000
4657,LFAQ,49.9715,2.69766,2024-04-23 12:30:00,,,,,9.0,1020.0,(2756.387256073984+0j),-1.0,12.0,350.0,10000.0,99999,,0j,0,1116003512100902110302004000051000600007000080000
4658,LFBU,45.7292,0.22146,2024-04-23 12:30:00,,,,,12.0,1020.0,(2557.185544631611+0j),-0.0,10.0,330.0,10000.0,99999,,0j,0,1116003310101202100302004000051000600007000080000
4663,LFOZ,47.8969,2.16333,2024-04-23 12:30:00,,,,,10.0,1020.0,(2715.181651570656+0j),-3.0,7.0,330.0,10000.0,99999,,0j,0,1116003307101002130302004000051000600007000080000
4667,LFSM,47.487,6.79054,2024-04-23 12:30:00,,,,,10.0,1015.0,(6032.3296016091135+0j),-1.0,13.0,60.0,10000.0,99999,4.0,0j,0,1116040613101002110301504000051000600007000084000
4684,LJCE,45.9,15.5302,2024-04-23 12:30:00,,,,,7.0,1011.0,(4375.144786978905+0j),4.0,5.0,40.0,10000.0,99999,8.0,0j,0,1116080405100702040301104000051000600007000088000
4695,UWKS,56.0903,47.3473,2024-04-23 12:30:00,95.0,36.0,2,red,14.0,1015.0,(2714.342842384422+0j),12.0,5.0,270.0,6000.0,99999,4.0,0j,0,11130427051014020120301504000051000600007950084000
4697,ULWC,59.27667,38.02833,2024-04-23 12:30:00,,,,,13.0,1015.0,(2200.7632442948984+0j),1.0,3.0,240.0,10000.0,99999,1.0,0j,0,1116012403101302010301504000051000600007000081000
4698,UUBC,54.55,36.36667,2024-04-23 12:30:00,,,,,12.0,1020.0,(3468.8681805489673+0j),3.0,4.0,270.0,10000.0,99999,3.0,0j,0,1116032704101202030302004000051000600007000083000
4699,UUOB,50.6438,36.5901,2024-04-23 12:30:00,,,,,14.0,1022.0,(3364.972710978908+0j),4.0,3.0,310.0,10000.0,99999,3.0,0j,0,1116033103101402040302204000051000600007000083000
4700,UUOK,51.7506,36.2956,2024-04-23 12:30:00,,,,,15.0,1022.0,(3023.459278203026+0j),0.0,3.0,330.0,10000.0,99999,,0j,0,1116003303101502000302204000051000600007000080000
4703,UWPS,54.12513,45.21226,2024-04-23 12:30:00,,,,,19.0,1015.0,(2508.6738390402793+0j),5.0,3.0,270.0,10000.0,99999,3.0,0j,0,1116032703101902050301504000051000600007000083000
4706,UUDL,57.5607,40.1574,2024-04-23 12:30:00,,,,,15.0,1016.0,(1763.6541092247796+0j),2.0,3.0,280.0,10000.0,99999,,0j,0,1116002803101502020301604000051000600007000080000
4709,UUMO,55.5117,37.5072,2024-04-23 12:30:00,,,,,12.0,1019.0,(3094.4722657219636+0j),2.0,5.0,240.0,10000.0,99999,,0j,0,1116002405101202020301904000051000600007000080000
4710,UUBW,55.5533,38.15,2024-04-23 12:30:00,,,,,13.0,1019.0,(2209.4362028931046+0j),1.0,4.0,230.0,10000.0,99999,,0j,0,1116002304101302010301904000051000600007000080000
4711,UUOL,52.7028,39.5378,2024-04-23 12:30:00,,,,,12.0,1021.0,(3167.560690983363+0j),3.0,3.0,320.0,10000.0,99999,,0j,0,1116003203101202030302104000051000600007000080000
4715,ULPB,61.8852,34.1547,2024-04-23 12:30:00,,,,,8.0,1013.0,(1747.4024255221043+0j),2.0,6.0,210.0,10000.0,99999,3.0,0j,0,1116032106100802020301304000051000600007000083000
4723,LPCS,38.725,-9.35523,2024-04-23 12:30:00,,,,,22.0,1018.0,(1583.0294198289425+0j),-0.0,7.0,70.0,10000.0,99999,,0j,0,1116000707102202100301804000051000600007000080000
4750,LIPC,44.2242,12.3072,2024-04-23 12:25:00,95.0,36.0,2,red,11.0,1007.0,(1063.976983548824+0j),7.0,3.0,240.0,10000.0,99999,3.0,0j,0,1116032403101102070300704000051000600007950083000
4752,EKKA,56.2975,9.12463,2024-04-23 12:20:00,61.0,36.0,^,green,5.0,1011.0,(2424.207885465609+0j),5.0,6.0,190.0,4000.0,99999,4.0,0j,0,1112041906100502050301104000051000600007610084000
4753,ENAN,69.2925,16.1442,2024-04-23 12:20:00,,,,,3.0,1015.0,(1560.2629754418415+0j),-6.0,5.0,60.0,10000.0,99999,,0j,0,1116000605100302160301504000051000600007000080000
4754,ENBO,67.2692,14.3653,2024-04-23 12:20:00,,,,,5.0,1014.0,(1322.1574733516575+0j),-9.0,6.0,10.0,10000.0,99999,,0j,0,1116000106100502190301404000051000600007000080000
4755,ENGM,60.1939,11.1004,2024-04-23 12:20:00,,,,,8.0,1012.0,(5021.524786299799+0j),-7.0,6.0,50.0,10000.0,99999,,0j,0,1116000506100802170301204000051000600007000080000
4756,ENOL,63.6989,9.604,2024-04-23 12:20:00,,,,,5.0,1015.0,(1216.9595943151082+0j),2.0,13.0,330.0,10000.0,99999,4.0,0j,0,1116043313100502020301504000051000600007000084000
4757,ENTC,69.6833,18.9189,2024-04-23 12:20:00,,,,,2.0,1015.0,(1608.487976768865+0j),-11.0,5.0,50.0,10000.0,99999,4.0,0j,0,11160405051002021110301504000051000600007000084000
4758,ETNT,53.5478,7.66733,2024-04-23 12:20:00,,,,,9.0,1017.0,(1119.4874195936752+0j),-3.0,9.0,250.0,10000.0,99999,3.0,0j,0,1116032509100902130301704000051000600007000083000
4760,LXGB,36.1512,-5.34966,2024-04-23 12:20:00,,,,,19.0,1015.0,(1042.5394324520942+0j),13.0,6.0,110.0,10000.0,99999,1.0,0j,0,11160111061019020130301504000051000600007000081000
4761,EFHK,60.3172,24.9633,2024-04-23 12:20:00,71.0,36.0,h,magenta,-1.0,1008.0,(60808.255041798446+0j),-1.0,9.0,220.0,2500.0,99999,6.0,0j,0,1111062209110102110300804000051000600007710086000
4762,EYPA,55.9732,21.0939,2024-04-23 12:20:00,,,,,4.0,1018.0,(1321.5618097188142+0j),-2.0,6.0,240.0,10000.0,99999,4.0,0j,0,1116042406100402120301804000051000600007000084000
4763,EYVI,54.6341,25.2858,2024-04-23 12:20:00,,,,,4.0,1020.0,(8968.403166003236+0j),-2.0,6.0,220.0,10000.0,99999,8.0,0j,0,1116082206100402120302004000051000600007000088000
4764,LUKK,46.9277,28.931,2024-04-23 12:30:00,,,,,14.0,1020.0,(2188.5503975869156+0j),7.0,7.0,160.0,10000.0,99999,5.0,0j,0,1116051607101402070302004000051000600007000085000
4765,EFOU,64.9301,25.3546,2024-04-23 12:20:00,80.0,36.0,q,green,1.0,1005.0,(3035.509071162123+0j),-0.0,6.0,60.0,3200.0,99999,8.0,0j,0,1111080606100102100300504000051000600007800088000
4766,LKKV,50.203,12.915,2024-04-23 12:30:00,,,,,4.0,1015.0,(20.04219090114539+0j),-6.0,7.0,60.0,10000.0,99999,1.0,0j,0,1116010607100402160301504000051000600007000081000
4767,LQBK,44.9414,17.2975,2024-04-23 12:30:00,,,,,16.0,1007.0,(2003.3165057520275+0j),7.0,8.0,40.0,10000.0,99999,1.0,0j,0,1116010408101602070300704000051000600007000081000
4772,LEBG,42.3576,-3.62076,2024-04-23 12:30:00,,,,,9.0,1018.0,(15.576759307928022+0j),0.0,14.0,350.0,10000.0,99999,8.0,0j,0,1116083514100902000301804000051000600007000088000
4791,LQMO,43.2829,17.8459,2024-04-23 12:30:00,,,,,17.0,1003.0,(1337.6082216119266+0j),6.0,4.0,110.0,10000.0,99999,3.0,0j,0,1116031104101702060300304000051000600007000083000
4793,LQTZ,44.4587,18.7248,2024-04-23 12:30:00,,,,,13.0,1007.0,(3711.116419348339+0j),7.0,4.0,290.0,10000.0,99999,1.0,0j,0,1116012904101302070300704000051000600007000081000
4815,LRCL,46.7852,23.6862,2024-04-23 12:30:00,,,,,15.0,1013.0,(4186.247880439938+0j),6.0,7.0,130.0,10000.0,99999,1.0,0j,0,1116011307101502060301304000051000600007000081000
4818,LFBF,43.5456,1.3675,2024-04-23 12:30:00,,,,,12.0,1017.0,(2951.6229326673733+0j),-5.0,15.0,330.0,10000.0,99999,,0j,0,1116003315101202150301704000051000600007000080000
4820,LFBX,45.1981,0.81556,2024-04-23 12:30:00,,,,,12.0,1018.0,(2130.844402566008+0j),-2.0,8.0,30.0,10000.0,99999,,0j,0,1116000308101202120301804000051000600007000080000
4824,LFLW,44.8914,2.42194,2024-04-23 12:30:00,,,,,7.0,1015.0,(14.601345686434701+0j),-3.0,10.0,350.0,10000.0,99999,6.0,0j,0,1116063510100702130301504000051000600007000086000
4826,LFMC,43.3847,6.38714,2024-04-23 12:30:00,,,,,14.0,1006.0,(1737.6000895004458+0j),1.0,9.0,320.0,10000.0,99999,,0j,0,1116003209101402010300604000051000600007000080000
4847,LEHC,42.0761,-0.31667,2024-04-23 12:30:00,,,,,11.0,1014.0,(8878.564944245798+0j),3.0,17.0,250.0,10000.0,99999,4.0,0j,0,1116042517101102030301404000051000600007000084000
4848,LESU,42.3386,1.40917,2024-04-23 12:30:00,,,,,9.0,1013.0,(14.301831957394914+0j),-12.0,10.0,320.0,10000.0,99999,3.0,0j,0,11160332101009021120301304000051000600007000083000
4851,LESB,39.5989,2.70278,2024-04-23 12:30:00,,,,,10.0,1015.0,(1616.8072350472348+0j),7.0,5.0,50.0,10000.0,99999,4.0,0j,0,1116040505101002070301504000051000600007000084000
4853,GEML,35.2798,-2.95626,2024-04-23 12:30:00,,,,,20.0,1015.0,(1300.3441871418956+0j),13.0,7.0,90.0,10000.0,99999,1.0,0j,0,11160109071020020130301504000051000600007000081000
4855,LDDU,42.5614,18.2682,2024-04-23 12:30:00,,,,,15.0,1005.0,(2462.9764000842256+0j),13.0,6.0,280.0,10000.0,99999,4.0,0j,0,11160428061015020130300504000051000600007000084000
4856,LDOS,45.4627,18.8102,2024-04-23 12:30:00,,,,,17.0,1007.0,(1660.5333170460315+0j),8.0,12.0,90.0,10000.0,99999,6.0,0j,0,1116060912101702080300704000051000600007000086000
4857,LDPL,44.8935,13.9222,2024-04-23 12:30:00,61.0,36.0,^,green,9.0,1007.0,(2249.548115051634+0j),7.0,6.0,30.0,10000.0,99999,8.0,0j,0,1116080306100902070300704000051000600007610088000
4858,LDRI,45.2169,14.5703,2024-04-23 12:30:00,63.0,36.0,',green,9.0,1008.0,(2272.261207690314+0j),4.0,9.0,60.0,10000.0,99999,3.0,0j,0,1116030609100902040300804000051000600007630083000
4859,LDSP,43.5389,16.298,2024-04-23 12:30:00,,,,,20.0,1004.0,(1143.3557771653936+0j),7.0,7.0,200.0,10000.0,99999,,0j,0,1116002007102002070300404000051000600007000080000
4860,LDZA,45.7429,16.0688,2024-04-23 12:30:00,,,,,10.0,1009.0,(2480.6525879105434+0j),5.0,11.0,30.0,10000.0,99999,5.0,0j,0,1116050311101002050300904000051000600007000085000
4861,LDZD,44.1083,15.3467,2024-04-23 12:30:00,,,,,17.0,1004.0,(1653.13507928349+0j),10.0,10.0,240.0,10000.0,99999,2.0,0j,0,11160224101017020100300404000051000600007000082000
4862,LJLJ,46.2237,14.4576,2024-04-23 12:30:00,63.0,36.0,',green,4.0,1010.0,(15.162715607374457+0j),3.0,3.0,160.0,10000.0,99999,5.0,0j,0,1116051603100402030301004000051000600007630085000
4863,LJMB,46.4799,15.6861,2024-04-23 12:30:00,,,,,5.0,1012.0,(9.544652974542727+0j),3.0,12.0,350.0,10000.0,99999,7.0,0j,0,1116073512100502030301204000051000600007000087000
4864,LJPZ,45.4734,13.615,2024-04-23 12:30:00,61.0,36.0,^,green,8.0,1008.0,(1038.3311045064706+0j),5.0,11.0,70.0,10000.0,99999,4.0,0j,0,1116040711100802050300804000051000600007610084000
4865,LKMT,49.6963,18.1111,2024-04-23 12:30:00,,,,,10.0,1015.0,(4998.282059452856+0j),1.0,10.0,20.0,10000.0,99999,3.0,0j,0,1116030210101002010301504000051000600007000083000
4866,LKPR,50.1008,14.26,2024-04-23 12:30:00,,,,,6.0,1016.0,(11.052843866272807+0j),-5.0,4.0,70.0,10000.0,99999,,0j,0,1116000704100602150301604000051000600007000080000
4867,LKTB,49.1513,16.6944,2024-04-23 12:30:00,,,,,8.0,1015.0,(5673.667009879328+0j),-1.0,6.0,40.0,10000.0,99999,,0j,0,1116000406100802110301504000051000600007000080000
4868,LQSA,43.8246,18.3315,2024-04-23 12:30:00,61.0,36.0,^,green,9.0,1006.0,(10.151713165265111+0j),8.0,4.0,130.0,8000.0,99999,3.0,0j,0,1114031304100902080300604000051000600007610083000
4873,LZIB,48.1702,17.2127,2024-04-23 12:30:00,,,,,10.0,1013.0,(2891.6093244647673+0j),3.0,6.0,40.0,10000.0,99999,1.0,0j,0,1116010406101002030301304000051000600007000081000
4874,LZKZ,48.6631,21.2411,2024-04-23 12:30:00,,,,,14.0,1013.0,(3407.619040347587+0j),5.0,9.0,20.0,10000.0,99999,,0j,0,1116000209101402050301304000051000600007000080000
4875,LZTT,49.0736,20.2411,2024-04-23 12:30:00,,,,,10.0,1013.0,(12.182727478496062+0j),-0.0,5.0,360.0,10000.0,99999,1.0,0j,0,1116013605101002100301304000051000600007000081000
4876,LFAT,50.5174,1.62059,2024-04-23 12:30:00,,,,,10.0,1021.0,(1149.8492391543168+0j),1.0,10.0,290.0,10000.0,99999,,0j,0,1116002910101002010302104000051000600007000080000
4877,LFBD,44.8283,-0.71556,2024-04-23 12:30:00,,,,,14.0,1019.0,(1453.9353878112183+0j),-1.0,10.0,10.0,10000.0,99999,,0j,0,1116000110101402110301904000051000600007000080000
4878,LFBH,46.1792,-1.19528,2024-04-23 12:30:00,,,,,13.0,1021.0,(1227.6282382157506+0j),-0.0,14.0,20.0,10000.0,99999,,0j,0,1116000214101302100302104000051000600007000080000
4879,LFBI,46.5877,0.30667,2024-04-23 12:30:00,,,,,11.0,1020.0,(2659.5211855589214+0j),-2.0,13.0,360.0,10000.0,99999,,0j,0,1116003613101102120302004000051000600007000080000
4881,LFBP,43.38,-0.41861,2024-04-23 12:30:00,,,,,11.0,1019.0,(3533.671165225008+0j),2.0,4.0,60.0,10000.0,99999,2.0,0j,0,1116020604101102020301904000051000600007000082000
4882,LFBT,43.1787,-0.00644,2024-04-23 12:30:00,,,,,11.0,1018.0,(6595.014463330957+0j),1.0,4.0,,10000.0,99999,3.0,0j,0,1116033604101102010301804000051000600007000083000
4883,LFBZ,43.4684,-1.52332,2024-04-23 12:30:00,,,,,9.0,1020.0,(2129.9538761629087+0j),5.0,5.0,120.0,10000.0,99999,7.0,0j,0,1116071205100902050302004000051000600007000087000
4888,LFLB,45.6381,5.88023,2024-04-23 12:30:00,,,,,9.0,1012.0,(5096.543193380644+0j),0.0,15.0,350.0,10000.0,99999,5.0,0j,0,1116053515100902000301204000051000600007000085000
4889,LFLC,45.7867,3.16917,2024-04-23 12:30:00,,,,,9.0,1016.0,(6920.858626005549+0j),-0.0,13.0,360.0,10000.0,99999,3.0,0j,0,1116033613100902100301604000051000600007000083000
4890,LFLL,45.7264,5.09083,2024-04-23 12:30:00,,,,,10.0,1013.0,(4867.739723008068+0j),-1.0,22.0,350.0,10000.0,99999,3.0,0j,0,1116033522101002110301304000051000600007000083000
4891,LFLS,45.3629,5.32937,2024-04-23 12:30:00,,,,,7.0,1012.0,(10.041303709965463+0j),-0.0,14.0,340.0,10000.0,99999,5.0,0j,0,1116053414100702100301204000051000600007000085000
4892,LFLY,45.7272,4.94427,2024-04-23 12:30:00,,,,,10.0,1014.0,(4025.794768654724+0j),-1.0,18.0,340.0,10000.0,99999,6.0,0j,0,1116063418101002110301404000051000600007000086000
4894,LFMH,45.5406,4.29639,2024-04-23 12:30:00,,,,,8.0,1014.0,(9.112638552442565+0j),-3.0,14.0,360.0,10000.0,99999,6.0,0j,0,1116063614100802130301404000051000600007000086000
4895,LFBA,44.1747,0.59056,2024-04-23 12:30:00,,,,,12.0,1018.0,(1676.186763655969+0j),-2.0,10.0,320.0,10000.0,99999,,0j,0,1116003210101202120301804000051000600007000080000
4896,LFBC,44.5333,-1.125,2024-04-23 12:30:00,,,,,12.0,1020.0,(1276.024702017431+0j),5.0,9.0,330.0,10000.0,99999,3.0,0j,0,1116033309101202050302004000051000600007000083000
4897,LFBL,45.8628,1.17944,2024-04-23 12:30:00,,,,,7.0,1018.0,(10.087772007129336+0j),-1.0,11.0,20.0,10000.0,99999,4.0,0j,0,1116040211100702110301804000051000600007000084000
4898,LFBM,43.9117,-0.5075,2024-04-23 12:30:00,,,,,12.0,1019.0,(1674.3109825122413+0j),2.0,6.0,290.0,10000.0,99999,6.0,0j,0,1116062906101202020301904000051000600007000086000
4899,LFKF,41.5006,9.09778,2024-04-23 12:30:00,,,,,16.0,1008.0,(1202.5370667259465+0j),4.0,23.0,260.0,10000.0,99999,4.0,0j,0,1116042623101602040300804000051000600007000084000
4900,LFLV,46.1697,3.40374,2024-04-23 12:30:00,,,,,10.0,1016.0,(4861.1093379207705+0j),-3.0,12.0,350.0,10000.0,99999,,0j,0,1116003512101002130301604000051000600007000080000
4901,LFOE,49.0287,1.21986,2024-04-23 12:30:00,,,,,11.0,1021.0,(2844.3919324368935+0j),-3.0,8.0,10.0,10000.0,99999,,0j,0,1116000108101102130302104000051000600007000080000
4902,LFOP,49.3842,1.1748,2024-04-23 12:30:00,,,,,11.0,1021.0,(3061.077648051651+0j),-0.0,6.0,,10000.0,99999,,0j,0,1116003606101102100302104000051000600007000080000
4905,LFPV,48.7744,2.20154,2024-04-23 12:30:00,,,,,10.0,1020.0,(3660.5262867252927+0j),-5.0,9.0,350.0,10000.0,99999,,0j,0,1116003509101002150302004000051000600007000080000
4906,LFQB,48.3221,4.0167,2024-04-23 12:30:00,,,,,11.0,1019.0,(2508.2755068678866+0j),1.0,8.0,350.0,10000.0,99999,3.0,0j,0,1116033508101102010301904000051000600007000083000
4908,LFRH,47.7606,-3.44,2024-04-23 12:30:00,,,,,12.0,1023.0,(1531.3225573726415+0j),5.0,10.0,30.0,10000.0,99999,6.0,0j,0,1116060310101202050302304000051000600007000086000
4909,LFSD,47.2689,5.09,2024-04-23 12:30:00,,,,,11.0,1016.0,(4038.9329276069143+0j),-2.0,10.0,10.0,10000.0,99999,,0j,0,1116000110101102120301604000051000600007000080000
4910,LFSI,48.636,4.89942,2024-04-23 12:30:00,,,,,10.0,1018.0,(3014.942810433705+0j),-3.0,10.0,350.0,10000.0,99999,,0j,0,1116003510101002130301804000051000600007000080000
4911,LFSL,45.03967,1.4855,2024-04-23 12:30:00,,,,,11.0,1017.0,(5427.739040795869+0j),-4.0,14.0,350.0,10000.0,99999,,0j,0,1116003514101102140301704000051000600007000080000
4912,LFSO,48.5831,5.955,2024-04-23 12:30:00,,,,,9.0,1017.0,(7019.032318155304+0j),-4.0,11.0,350.0,10000.0,99999,,0j,0,1116003511100902140301704000051000600007000080000
4913,LFSX,47.7831,6.36406,2024-04-23 12:30:00,,,,,10.0,1015.0,(5361.155672372868+0j),-3.0,10.0,360.0,10000.0,99999,,0j,0,1116003610101002130301504000051000600007000080000
4914,LFTH,43.0973,6.14603,2024-04-23 12:30:00,,,,,15.0,1006.0,(1022.0967943211383+0j),2.0,15.0,230.0,10000.0,99999,,0j,0,1116002315101502020300604000051000600007000080000
4923,EPGD,54.3776,18.4662,2024-04-23 12:30:00,,,,,5.0,1017.0,(5713.7534486357235+0j),-4.0,6.0,200.0,10000.0,99999,3.0,0j,0,1116032006100502140301704000051000600007000083000
4924,EPKK,50.0777,19.7848,2024-04-23 12:30:00,,,,,9.0,1016.0,(5186.885493676612+0j),-0.0,9.0,80.0,10000.0,99999,3.0,0j,0,1116030809100902100301604000051000600007000083000
4925,EPKT,50.4743,19.08,2024-04-23 12:30:00,,,,,9.0,1016.0,(6374.969152399993+0j),-2.0,5.0,,10000.0,99999,1.0,0j,0,1116013605100902120301604000051000600007000081000
4926,EPLB,51.24028,22.71361,2024-04-23 12:30:00,,,,,9.0,1019.0,(4277.369004251469+0j),-1.0,4.0,100.0,10000.0,99999,6.0,0j,0,1116061004100902110301904000051000600007000086000
4927,EPMO,52.4511,20.6518,2024-04-23 12:30:00,,,,,7.0,1019.0,(3163.7496052256115+0j),-3.0,3.0,,10000.0,99999,3.0,0j,0,1116033603100702130301904000051000600007000083000
4928,EPPO,52.421,16.8263,2024-04-23 12:30:00,,,,,7.0,1018.0,(2925.6483639684793+0j),-2.0,4.0,250.0,10000.0,99999,1.0,0j,0,1116012504100702120301804000051000600007000081000
4929,EPRZ,50.11,22.019,2024-04-23 12:30:00,,,,,8.0,1017.0,(5006.813574476764+0j),3.0,13.0,90.0,10000.0,99999,6.0,0j,0,1116060913100802030301704000051000600007000086000
4930,EPSC,53.5847,14.9022,2024-04-23 12:30:00,,,,,6.0,1018.0,(2055.218878280991+0j),-2.0,9.0,270.0,10000.0,99999,3.0,0j,0,1116032709100602120301804000051000600007000083000
4931,EPWA,52.1657,20.9671,2024-04-23 12:30:00,,,,,9.0,1019.0,(2742.838085022677+0j),-2.0,4.0,,10000.0,99999,3.0,0j,0,1116033604100902120301904000051000600007000083000
4939,LHBP,47.4369,19.2556,2024-04-23 12:30:00,61.0,36.0,^,green,13.0,1012.0,(2620.5163293523797+0j),5.0,9.0,70.0,10000.0,99999,3.0,0j,0,1116030709101302050301204000051000600007610083000
4944,LFML,43.43927,5.22142,2024-04-23 12:30:00,,,,,14.0,1008.0,(1196.9158944244432+0j),0.0,20.0,330.0,10000.0,99999,,0j,0,1116003320101402000300804000051000600007000080000
4945,LFMN,43.6584,7.21587,2024-04-23 12:30:00,,,,,13.0,1007.0,(1038.976996613585+0j),6.0,11.0,190.0,10000.0,99999,2.0,0j,0,1116021911101302060300704000051000600007000082000
4946,LFMP,42.7404,2.87067,2024-04-23 12:30:00,,,,,14.0,1013.0,(1394.380352153266+0j),-4.0,23.0,310.0,10000.0,99999,1.0,0j,0,1116013123101402140301304000051000600007000081000
4947,LFMT,43.5762,3.96301,2024-04-23 12:30:00,,,,,15.0,1011.0,(1050.4763040957434+0j),-3.0,16.0,340.0,10000.0,99999,,0j,0,1116003416101502130301104000051000600007000080000
4948,LFOB,49.4544,2.11278,2024-04-23 12:30:00,,,,,10.0,1020.0,(2536.4023488051084+0j),-2.0,11.0,20.0,10000.0,99999,,0j,0,1116000211101002120302004000051000600007000080000
4949,LFOH,49.5339,0.08806,2024-04-23 12:30:00,,,,,10.0,1022.0,(2323.072943495694+0j),4.0,6.0,290.0,10000.0,99999,6.0,0j,0,1116062906101002040302204000051000600007000086000
4950,LFOT,47.4322,0.72761,2024-04-23 12:30:00,,,,,11.0,1020.0,(2372.721736862167+0j),0.0,7.0,10.0,10000.0,99999,,0j,0,1116000107101102000302004000051000600007000080000
4951,LFPB,48.9694,2.44139,2024-04-23 12:30:00,,,,,11.0,1020.0,(1800.1909995747378+0j),-6.0,8.0,320.0,10000.0,99999,,0j,0,1116003208101102160302004000051000600007000080000
4952,LFPG,49.0128,2.55,2024-04-23 12:30:00,,,,,10.0,1020.0,(2695.713759452875+0j),-5.0,8.0,30.0,10000.0,99999,,0j,0,1116000308101002150302004000051000600007000080000
4953,LFPN,48.7519,2.10619,2024-04-23 12:30:00,,,,,11.0,1020.0,(3176.660075187011+0j),-3.0,10.0,350.0,10000.0,99999,,0j,0,1116003510101102130302004000051000600007000080000
4954,LFPO,48.7253,2.35944,2024-04-23 12:30:00,,,,,10.0,1020.0,(2216.223550394577+0j),-4.0,7.0,40.0,10000.0,99999,,0j,0,1116000407101002140302004000051000600007000080000
4955,LFQQ,50.5619,3.08944,2024-04-23 12:30:00,,,,,10.0,1020.0,(1624.7718027075662+0j),-1.0,5.0,,10000.0,99999,,0j,0,1116003605101002110302004000051000600007000080000
4956,LFRB,48.4479,-4.41854,2024-04-23 12:30:00,,,,,13.0,1024.0,(2037.136148848139+0j),6.0,9.0,10.0,10000.0,99999,3.0,0j,0,1116030109101302060302404000051000600007000083000
4959,LFRG,49.3653,0.15431,2024-04-23 12:30:00,,,,,9.0,1022.0,(3401.806029547558+0j),2.0,9.0,290.0,10000.0,99999,6.0,0j,0,1116062909100902020302204000051000600007000086000
4961,LFRO,48.7544,-3.47166,2024-04-23 12:30:00,,,,,12.0,1024.0,(1999.582957612186+0j),6.0,10.0,10.0,10000.0,99999,3.0,0j,0,1116030110101202060302404000051000600007000083000
4964,LFRT,48.5378,-2.85444,2024-04-23 12:30:00,,,,,11.0,1023.0,(2800.6974702761786+0j),5.0,9.0,360.0,10000.0,99999,8.0,0j,0,1116083609101102050302304000051000600007000088000
4965,LFRZ,47.3122,-2.14918,2024-04-23 12:30:00,,,,,12.0,1022.0,(1060.1315601761537+0j),2.0,10.0,20.0,10000.0,99999,,0j,0,1116000210101202020302204000051000600007000080000
4966,LFSB,47.5896,7.52991,2024-04-23 12:30:00,,,,,9.0,1015.0,(5730.485101963178+0j),1.0,11.0,10.0,10000.0,99999,3.0,0j,0,1116030111100902010301504000051000600007000083000
4967,LFSN,48.6921,6.23046,2024-04-23 12:30:00,,,,,9.0,1017.0,(4957.783469601043+0j),-2.0,10.0,20.0,10000.0,99999,,0j,0,1116000210100902120301704000051000600007000080000
4968,LFST,48.5383,7.62823,2024-04-23 12:30:00,,,,,12.0,1016.0,(2825.6352955274547+0j),-1.0,10.0,40.0,10000.0,99999,1.0,0j,0,1116010410101202110301604000051000600007000081000
4969,LFTW,43.7574,4.41635,2024-04-23 12:30:00,,,,,12.0,1011.0,(2044.8226522484447+0j),-3.0,20.0,350.0,10000.0,99999,,0j,0,1116003520101202130301104000051000600007000080000
4971,LPMA,32.6979,-16.7745,2024-04-23 12:30:00,,,,,22.0,1018.0,(1340.0864954650426+0j),13.0,14.0,20.0,10000.0,99999,1.0,0j,0,11160102141022020130301804000051000600007000081000
4975,ULAA,64.6003,40.7167,2024-04-23 12:30:00,,,,,3.0,1019.0,(1835.2787983312815+0j),0.0,6.0,120.0,10000.0,99999,8.0,0j,0,1116081206100302000301904000051000600007000088000
4976,UMBB,52.1083,23.8981,2024-04-23 12:30:00,,,,,8.0,1020.0,(3665.6806176239174+0j),-3.0,2.0,240.0,10000.0,99999,6.0,0j,0,1116062402100802130302004000051000600007000086000
4982,ULMM,68.7817,32.7508,2024-04-23 12:30:00,,,,,-3.0,1017.0,(-3.2858835638740973-3.434448176918372j),-6.0,5.0,110.0,10000.0,99999,6.0,0j,0,1116061105110302160301704000051000600007000086000
4987,URKK,45.0347,39.1705,2024-04-23 12:30:00,,,,,23.0,1021.0,(1206.5387214103666+0j),7.0,4.0,270.0,10000.0,99999,,0j,0,1116002704102302070302104000051000600007000080000
4989,URMN,43.5129,43.6366,2024-04-23 12:30:00,,,,,25.0,1019.0,(3658.997124550447+0j),5.0,3.0,20.0,10000.0,99999,3.0,0j,0,1116030203102502050301904000051000600007000083000
4990,URMT,45.1092,42.1128,2024-04-23 12:30:00,,,,,20.0,1021.0,(4494.386849930178+0j),3.0,6.0,330.0,10000.0,99999,,0j,0,1116003306102002030302104000051000600007000080000
4992,URWA,46.2833,48.0063,2024-04-23 12:30:00,,,,,27.0,1017.0,(934.8353491540507+0j),4.0,7.0,320.0,10000.0,99999,,0j,0,1116003207102702040301704000051000600007000080000
4993,URWI,46.3739,44.3309,2024-04-23 12:30:00,,,,,22.0,1019.0,(1927.795329620233+0j),7.0,8.0,280.0,10000.0,99999,,0j,0,1116002808102202070301904000051000600007000080000
4994,URWW,48.7825,44.3455,2024-04-23 12:30:00,,,,,22.0,1017.0,(1885.9711048174365+0j),4.0,4.0,250.0,10000.0,99999,,0j,0,1116002504102202040301704000051000600007000080000
4996,UUOO,51.8142,39.2296,2024-04-23 12:30:00,,,,,11.0,1021.0,(3070.1768147706716+0j),4.0,3.0,350.0,10000.0,99999,6.0,0j,0,1116063503101102040302104000051000600007000086000
5000,UWKD,55.6062,49.2787,2024-04-23 12:30:00,,,,,24.0,1011.0,(1669.9076880010457+0j),8.0,4.0,140.0,10000.0,99999,3.0,0j,0,1116031404102402080301104000051000600007000083000
5001,UWKE,55.5647,52.0925,2024-04-23 12:30:00,80.0,36.0,q,green,25.0,1012.0,(2045.4987243912294+0j),7.0,3.0,210.0,10000.0,99999,6.0,0j,0,1116062103102502070301204000051000600007800086000
5002,UWWW,53.5049,50.1643,2024-04-23 12:30:00,,,,,24.0,1013.0,(1790.2823662089488+0j),7.0,5.0,240.0,10000.0,99999,1.0,0j,0,1116012405102402070301304000051000600007000081000
5003,LEAL,38.2822,-0.55816,2024-04-23 12:30:00,,,,,17.0,1015.0,(1321.6425417026708+0j),5.0,13.0,100.0,10000.0,99999,1.0,0j,0,1116011013101702050301504000051000600007000081000
5004,LEAM,36.8439,-2.3701,2024-04-23 12:30:00,,,,,19.0,1015.0,(1146.164125237049+0j),12.0,9.0,160.0,10000.0,99999,1.0,0j,0,11160116091019020120301504000051000600007000081000
5005,LEAS,43.5636,-6.03462,2024-04-23 12:30:00,61.0,36.0,^,green,11.0,1023.0,(2636.4494031100608+0j),5.0,7.0,280.0,10000.0,99999,4.0,0j,0,1116042807101102050302304000051000600007610084000
5006,LEBB,43.3011,-2.91061,2024-04-23 12:30:00,63.0,36.0,',green,10.0,1021.0,(1547.4864386668467+0j),9.0,2.0,,6000.0,99999,5.0,0j,0,1113053602101002090302104000051000600007630085000
5007,LEBL,41.2971,2.07846,2024-04-23 12:30:00,,,,,13.0,1013.0,(1045.1675248952945+0j),2.0,9.0,170.0,10000.0,99999,1.0,0j,0,1116011709101302020301304000051000600007000081000
5008,LECO,43.3021,-8.37726,2024-04-23 12:30:00,,,,,14.0,1024.0,(1960.1201894791445+0j),7.0,11.0,350.0,10000.0,99999,,0j,0,1116003511101402070302404000051000600007000080000
5009,LEDA,41.72819,0.53502,2024-04-23 12:30:00,,,,,13.0,1013.0,(5282.375564709879+0j),1.0,10.0,250.0,10000.0,99999,3.0,0j,0,1116032510101302010301304000051000600007000083000
5010,LEGE,41.901,2.76055,2024-04-23 12:30:00,,,,,15.0,1012.0,(2295.701037829657+0j),-11.0,10.0,20.0,10000.0,99999,3.0,0j,0,11160302101015021110301204000051000600007000083000
5011,LEGR,37.1887,-3.77736,2024-04-23 12:30:00,,,,,20.0,1015.0,(5450.507666680736+0j),4.0,7.0,290.0,10000.0,99999,1.0,0j,0,1116012907102002040301504000051000600007000081000
5012,LEIB,38.8729,1.37312,2024-04-23 12:30:00,,,,,16.0,1015.0,(1067.5926816228155+0j),5.0,12.0,350.0,10000.0,99999,3.0,0j,0,1116033512101602050301504000051000600007000083000
5013,LEJR,36.7446,-6.06011,2024-04-23 12:30:00,,,,,23.0,1015.0,(1159.3085640998597+0j),10.0,4.0,,10000.0,99999,1.0,0j,0,11160136041023020100301504000051000600007000081000
5014,LELC,37.775,-0.81239,2024-04-23 12:30:00,,,,,19.0,1015.0,(1035.1648064415624+0j),10.0,10.0,130.0,10000.0,99999,1.0,0j,0,11160113101019020100301504000051000600007000081000
5015,LELL,41.5209,2.10508,2024-04-23 12:30:00,,,,,14.0,1013.0,(2459.357744867608+0j),2.0,3.0,120.0,10000.0,99999,1.0,0j,0,1116011203101402020301304000051000600007000081000
5016,LEMD,40.4936,-3.56676,2024-04-23 12:30:00,,,,,15.0,1017.0,(7554.673025494716+0j),-0.0,5.0,20.0,10000.0,99999,1.0,0j,0,1116010205101502100301704000051000600007000081000
5017,LEMG,36.6749,-4.49911,2024-04-23 12:30:00,,,,,20.0,1015.0,(1108.6714482927332+0j),13.0,10.0,130.0,10000.0,99999,1.0,0j,0,11160113101020020130301504000051000600007000081000
5018,LEMH,39.8626,4.21865,2024-04-23 12:30:00,80.0,36.0,q,green,8.0,1015.0,(2612.552950222547+0j),5.0,9.0,20.0,10000.0,99999,3.0,0j,0,1116030209100802050301504000051000600007800083000
5020,LEPP,42.77,-1.64633,2024-04-23 12:30:00,61.0,36.0,^,green,6.0,1018.0,(12.84453084011887+0j),5.0,5.0,30.0,5000.0,99999,5.0,0j,0,1113050305100602050301804000051000600007610085000
5021,LERS,41.1474,1.16717,2024-04-23 12:30:00,,,,,17.0,1013.0,(1531.5208220696466+0j),0.0,15.0,280.0,10000.0,99999,,0j,0,1116002815101702000301304000051000600007000080000
5022,LESO,43.3565,-1.79061,2024-04-23 12:30:00,,,,,9.0,1020.0,(1082.7631136315729+0j),5.0,5.0,80.0,9000.0,99999,4.0,0j,0,1115040805100902050302004000051000600007000084000
5023,LEST,42.8963,-8.41514,2024-04-23 12:30:00,,,,,16.0,1023.0,(4583.065475602866+0j),6.0,12.0,30.0,10000.0,99999,1.0,0j,0,1116010312101602060302304000051000600007000081000
5025,LEVC,39.4893,-0.48162,2024-04-23 12:30:00,,,,,18.0,1015.0,(1519.347405408828+0j),-3.0,10.0,140.0,10000.0,99999,1.0,0j,0,1116011410101802130301504000051000600007000081000
5026,LEVT,42.8828,-2.72447,2024-04-23 12:30:00,61.0,36.0,^,green,7.0,1019.0,(12.444584410292498+0j),5.0,10.0,310.0,10000.0,99999,4.0,0j,0,1116043110100702050301904000051000600007610084000
5027,LEVX,42.2318,-8.62677,2024-04-23 12:30:00,,,,,20.0,1021.0,(2874.8824680926523+0j),4.0,6.0,,10000.0,99999,,0j,0,1116003606102002040302104000051000600007000080000
5028,LEXJ,43.4271,-3.82001,2024-04-23 12:30:00,61.0,36.0,^,green,11.0,1021.0,(1072.2837888366803+0j),7.0,15.0,290.0,10000.0,99999,6.0,0j,0,1116062915101102070302104000051000600007610086000
5029,LEZG,41.6662,-1.04155,2024-04-23 12:30:00,,,,,13.0,1017.0,(4062.925608920485+0j),2.0,19.0,320.0,10000.0,99999,3.0,0j,0,1116033219101302020301704000051000600007000083000
5030,LEZL,37.418,-5.89311,2024-04-23 12:30:00,,,,,23.0,1015.0,(1189.764245063958+0j),-0.0,6.0,40.0,10000.0,99999,,0j,0,1116000406102302100301504000051000600007000080000
5036,LEGA,37.1332,-3.63569,2024-04-23 12:30:00,,,,,20.0,1015.0,(6591.335247014835+0j),4.0,8.0,340.0,10000.0,99999,1.0,0j,0,1116013408102002040301504000051000600007000081000
5038,LELN,42.589,-5.65556,2024-04-23 12:30:00,,,,,12.0,1020.0,(12.863218651645361+0j),0.0,8.0,350.0,10000.0,99999,3.0,0j,0,1116033508101202000302004000051000600007000083000
5040,LESA,40.9521,-5.50199,2024-04-23 12:30:00,,,,,12.0,1020.0,(11.459445248848493+0j),0.0,4.0,,10000.0,99999,,0j,0,1116003604101202000302004000051000600007000080000
5042,LFLX,46.8622,1.73067,2024-04-23 12:30:00,,,,,10.0,1019.0,(3375.4269200760627+0j),-2.0,10.0,10.0,10000.0,99999,,0j,0,1116000110101002120301904000051000600007000080000
5043,LFMI,43.5227,4.92384,2024-04-23 12:30:00,,,,,14.0,1009.0,(1219.3414652656309+0j),-1.0,26.0,350.0,10000.0,99999,,0j,0,1116003526101402110300904000051000600007000080000
5044,LFMV,43.9073,4.90183,2024-04-23 12:30:00,,,,,13.0,1009.0,(1359.671386821536+0j),1.0,26.0,350.0,10000.0,99999,1.0,0j,0,1116013526101302010300904000051000600007000081000
5047,ULOO,57.7839,28.3956,2024-04-23 12:30:00,71.0,36.0,h,magenta,1.0,1016.0,(8570.221155186882+0j),1.0,4.0,180.0,3900.0,99999,8.0,0j,0,1112081804100102010301604000051000600007710088000
5049,URML,42.8168,47.6523,2024-04-23 12:30:00,,,,,23.0,1020.0,(1038.2541697585434+0j),8.0,4.0,140.0,10000.0,99999,,0j,0,1116001404102302080302004000051000600007000080000
5050,UWLL,54.2683,48.2267,2024-04-23 12:30:00,,,,,14.0,1014.0,(2387.6881328039904+0j),12.0,4.0,300.0,10000.0,99999,6.0,0j,0,11160630041014020120301404000051000600007000086000
5064,LOXT,48.3167,16.1167,2024-04-23 12:20:00,,,,,7.0,1015.0,(4872.093689143554+0j),3.0,4.0,250.0,6000.0,99999,4.0,0j,0,1113042504100702030301504000051000600007000084000
5066,LRBC,46.5219,26.9103,2024-04-23 12:30:00,,,,,12.0,1019.0,(3257.9673866264607+0j),6.0,10.0,170.0,10000.0,99999,6.0,0j,0,1116061710101202060301904000051000600007000086000
5067,LRBM,47.6584,23.47,2024-04-23 12:30:00,,,,,18.0,1012.0,(2408.309206405671+0j),7.0,10.0,110.0,10000.0,99999,3.0,0j,0,1116031110101802070301204000051000600007000083000
5068,LRBS,44.5032,26.1021,2024-04-23 12:30:00,61.0,36.0,^,green,10.0,1016.0,(2235.195699442066+0j),10.0,13.0,60.0,7000.0,99999,8.0,0j,0,11140806131010020100301604000051000600007610088000
5069,LRCK,44.3622,28.4883,2024-04-23 12:30:00,,,,,11.0,1018.0,(2350.996985323395+0j),9.0,14.0,90.0,10000.0,99999,6.0,0j,0,1116060914101102090301804000051000600007000086000
5070,LRCV,44.3181,23.8886,2024-04-23 12:30:00,61.0,36.0,^,green,10.0,1012.0,(3847.415675618278+0j),9.0,17.0,100.0,10000.0,99999,6.0,0j,0,1116061017101002090301204000051000600007610086000
5071,LRIA,47.1785,27.6206,2024-04-23 12:30:00,,,,,14.0,1019.0,(2179.837119973002+0j),6.0,11.0,140.0,10000.0,99999,6.0,0j,0,1116061411101402060301904000051000600007000086000
5072,LROD,47.0253,21.9025,2024-04-23 12:30:00,,,,,18.0,1011.0,(2048.560641959259+0j),6.0,6.0,60.0,10000.0,99999,,0j,0,1116000606101802060301104000051000600007000080000
5073,LROP,44.5722,26.1022,2024-04-23 12:30:00,61.0,36.0,^,green,10.0,1016.0,(2314.0967284141543+0j),10.0,16.0,60.0,8000.0,99999,6.0,0j,0,11140606161010020100301604000051000600007610086000
5074,LRSB,45.7856,24.0913,2024-04-23 12:30:00,80.0,36.0,q,green,12.0,1013.0,(7082.217131041957+0j),4.0,17.0,160.0,10000.0,99999,2.0,0j,0,1116021617101202040301304000051000600007800082000
5075,LRSM,47.7033,22.8857,2024-04-23 12:30:00,,,,,18.0,1012.0,(1902.5726361182267+0j),6.0,9.0,150.0,10000.0,99999,,0j,0,1116001509101802060301204000051000600007000080000
5076,LRSV,47.6875,26.3541,2024-04-23 12:30:00,,,,,10.0,1018.0,(7768.965933873644+0j),6.0,10.0,160.0,10000.0,99999,7.0,0j,0,1116071610101002060301804000051000600007000087000
5079,LRTR,45.8099,21.3379,2024-04-23 12:30:00,61.0,36.0,^,green,14.0,1010.0,(2002.919974217733+0j),10.0,5.0,150.0,10000.0,99999,,0j,0,11160015051014020100301004000051000600007610080000
5084,EICK,51.8413,-8.49111,2024-04-23 12:30:00,,,,,13.0,1027.0,(2685.625385821115+0j),6.0,11.0,330.0,10000.0,99999,3.0,0j,0,1116033311101302060302704000051000600007000083000
5085,EIDW,53.4213,-6.27007,2024-04-23 12:30:00,,,,,11.0,1027.0,(1908.5476497415145+0j),5.0,7.0,340.0,10000.0,99999,3.0,0j,0,1116033407101102050302704000051000600007000083000
5086,EIKN,53.9103,-8.81849,2024-04-23 12:30:00,,,,,11.0,1028.0,(3796.16460037063+0j),6.0,10.0,360.0,10000.0,99999,6.0,0j,0,1116063610101102060302804000051000600007000086000
5087,EINN,52.702,-8.92482,2024-04-23 12:30:00,,,,,14.0,1028.0,(1146.1507368974405+0j),7.0,12.0,320.0,10000.0,99999,3.0,0j,0,1116033212101402070302804000051000600007000083000
5088,LTAC,40.1281,32.9951,2024-04-23 12:20:00,,,,,25.0,1019.0,(7141.265218582662+0j),4.0,12.0,220.0,10000.0,99999,3.0,0j,0,1116032212102502040301904000051000600007000083000
5090,LTAG,37.0021,35.4259,2024-04-23 12:20:00,,,,,31.0,1015.0,(1295.6408812697825+0j),10.0,3.0,,10000.0,99999,,0j,0,11160036031031020100301504000051000600007000080000
5105,EIDL,55.0442,-8.341,2024-04-23 12:30:00,,,,,11.0,1029.0,(1126.7853111238114+0j),6.0,13.0,30.0,10000.0,99999,1.0,0j,0,1116010313101102060302904000051000600007000081000
5106,EIKY,52.1809,-9.52378,2024-04-23 12:30:00,,,,,12.0,1028.0,(1377.149467315189+0j),8.0,6.0,350.0,10000.0,99999,6.0,0j,0,1116063506101202080302804000051000600007000086000
5107,EIME,53.3017,-6.45133,2024-04-23 12:30:00,,,,,11.0,1026.0,(2224.613880439966+0j),3.0,7.0,330.0,10000.0,99999,3.0,0j,0,1116033307101102030302604000051000600007000083000
5108,EISG,54.2802,-8.59921,2024-04-23 12:30:00,,,,,11.0,1029.0,(1064.418198896229+0j),11.0,12.0,320.0,10000.0,99999,3.0,0j,0,11160332121011020110302904000051000600007000083000
5146,LRAR,46.1766,21.262,2024-04-23 12:30:00,80.0,36.0,q,green,15.0,1011.0,(1943.2189955629856+0j),8.0,6.0,90.0,10000.0,99999,1.0,0j,0,1116010906101502080301104000051000600007800081000
5147,LRTC,45.0625,28.7143,2024-04-23 12:30:00,,,,,13.0,1019.0,(1610.0152722065368+0j),9.0,9.0,90.0,10000.0,99999,3.0,0j,0,1116030909101302090301904000051000600007000083000
5148,LRTM,46.4677,24.4125,2024-04-23 12:30:00,,,,,18.0,1012.0,(3382.5659030010033+0j),9.0,10.0,120.0,10000.0,99999,2.0,0j,0,1116021210101802090301204000051000600007000082000
5149,ETHC,52.5912,10.0221,2024-04-23 12:20:00,,,,,8.0,1017.0,(1637.7564140453994+0j),-3.0,9.0,190.0,10000.0,99999,3.0,0j,0,1116031909100802130301704000051000600007000083000
5151,ETNS,54.4593,9.51633,2024-04-23 12:20:00,,,,,7.0,1016.0,(1387.238439841749+0j),1.0,15.0,220.0,10000.0,99999,4.0,0j,0,1116042215100702010301604000051000600007000084000
5152,ETSL,48.1855,10.8612,2024-04-23 12:20:00,,,,,2.0,1014.0,(26.144157449748082+0j),-1.0,10.0,360.0,10000.0,99999,4.0,0j,0,1116043610100202110301404000051000600007000084000
5153,EGDM,51.1522,-1.74741,2024-04-23 12:20:00,,,,,12.0,1022.0,(2446.621528851833+0j),4.0,15.0,340.0,10000.0,99999,6.0,0j,0,1116063415101202040302204000051000600007000086000
5154,EGDR,50.0861,-5.25571,2024-04-23 12:20:00,,,,,13.0,1025.0,(1840.468121373661+0j),8.0,10.0,340.0,10000.0,99999,2.0,0j,0,1116023410101302080302504000051000600007000082000
5155,EGOS,52.7982,-2.66804,2024-04-23 12:20:00,,,,,10.0,1024.0,(2032.6184415720454+0j),4.0,9.0,350.0,10000.0,99999,6.0,0j,0,1116063509101002040302404000051000600007000086000
5157,EGQS,57.7052,-3.33917,2024-04-23 12:20:00,,,,,10.0,1026.0,(1177.6805819378392+0j),3.0,10.0,360.0,10000.0,99999,3.0,0j,0,1116033610101002030302604000051000600007000083000
5158,EGUB,51.6164,-1.09583,2024-04-23 12:20:00,,,,,9.0,1022.0,(2038.17082512108+0j),4.0,10.0,340.0,10000.0,99999,3.0,0j,0,1116033410100902040302204000051000600007000083000
5159,EGUW,52.1273,0.95626,2024-04-23 12:20:00,,,,,8.0,1021.0,(2519.7237255630816+0j),6.0,10.0,330.0,10000.0,99999,4.0,0j,0,1116043310100802060302104000051000600007000084000
5160,EGVN,51.75,-1.58362,2024-04-23 12:20:00,,,,,11.0,1023.0,(2088.715546406145+0j),3.0,11.0,360.0,10000.0,99999,3.0,0j,0,1116033611101102030302304000051000600007000083000
5161,EGVO,51.2341,-0.94283,2024-04-23 12:20:00,,,,,10.0,1022.0,(2764.5131674616855+0j),2.0,11.0,340.0,10000.0,99999,,0j,0,1116003411101002020302204000051000600007000080000
5162,EGVP,51.1394,-1.56861,2024-04-23 12:20:00,,,,,11.0,1022.0,(2123.967346848689+0j),2.0,12.0,360.0,10000.0,99999,6.0,0j,0,1116063612101102020302204000051000600007000086000
5163,EGWU,51.553,-0.41817,2024-04-23 12:20:00,,,,,9.0,1022.0,(1548.0869735308784+0j),3.0,10.0,10.0,10000.0,99999,3.0,0j,0,1116030110100902030302204000051000600007000083000
5164,EGXC,53.093,-0.16601,2024-04-23 12:20:00,,,,,9.0,1022.0,(1120.95347926363+0j),3.0,16.0,360.0,10000.0,99999,6.0,0j,0,1116063616100902030302204000051000600007000086000
5165,EGXE,54.2924,-1.5354,2024-04-23 12:20:00,,,,,9.0,1024.0,(1587.9447370892829+0j),1.0,13.0,360.0,10000.0,99999,4.0,0j,0,1116043613100902010302404000051000600007000084000
5166,EGXT,52.6126,-0.47645,2024-04-23 12:20:00,58.0,36.0,[,green,99999.0,99999.0,(99999+0j),99999.0,15.0,350.0,7000.0,99999,6.0,0j,0,11140635151099999020999990399904000051000600007580086000
5167,EGXW,53.1662,-0.52381,2024-04-23 12:20:00,,,,,8.0,1023.0,(2212.3221834229107+0j),3.0,11.0,350.0,10000.0,99999,3.0,0j,0,1116033511100802030302304000051000600007000083000
5169,EGYD,53.0303,-0.48324,2024-04-23 12:20:00,,,,,7.0,1023.0,(2317.9745092727426+0j),3.0,15.0,350.0,10000.0,99999,3.0,0j,0,1116033515100702030302304000051000600007000083000
5179,EGOV,53.2481,-4.53534,2024-04-23 12:20:00,,,,,11.0,1026.0,(1146.7823597313618+0j),4.0,12.0,360.0,10000.0,99999,3.0,0j,0,1116033612101102040302604000051000600007000083000
5184,LTAF,36.9822,35.2804,2024-04-23 12:20:00,,,,,31.0,1015.0,(1088.8287352738687+0j),15.0,4.0,,10000.0,99999,,0j,0,11160036041031020150301504000051000600007000080000
5185,LTAI,36.8987,30.8005,2024-04-23 12:20:00,,,,,25.0,1017.0,(1275.3222554495467+0j),14.0,5.0,180.0,10000.0,99999,3.0,0j,0,11160318051025020140301704000051000600007000083000
5186,LTAJ,36.9472,37.4787,2024-04-23 12:20:00,,,,,29.0,1019.0,(4776.687962588031+0j),5.0,4.0,170.0,10000.0,99999,,0j,0,1116001704102902050301904000051000600007000080000
5187,LTAT,38.4353,38.091,2024-04-23 12:20:00,,,,,25.0,1020.0,(6533.791993414361+0j),5.0,6.0,150.0,10000.0,99999,3.0,0j,0,1116031506102502050302004000051000600007000083000
5188,EBBE,50.7586,4.76833,2024-04-23 12:25:00,,,,,9.0,1019.0,(2786.2839741793223+0j),-1.0,2.0,,10000.0,99999,3.0,0j,0,1116033602100902110301904000051000600007000083000
5192,EBFN,51.0903,2.65278,2024-04-23 12:25:00,,,,,10.0,1021.0,(1091.7891167790497+0j),1.0,9.0,310.0,10000.0,99999,4.0,0j,0,1116043109101002010302104000051000600007000084000
5193,EBFS,50.2433,4.64583,2024-04-23 12:25:00,,,,,7.0,1019.0,(7578.214431317197+0j),-2.0,5.0,340.0,10000.0,99999,3.0,0j,0,1116033405100702120301904000051000600007000083000
5196,EHBK,50.9117,5.77014,2024-04-23 12:25:00,,,,,9.0,1019.0,(2813.5159585165093+0j),-2.0,6.0,290.0,10000.0,99999,,0j,0,1116002906100902120301904000051000600007000080000
5197,EHGG,53.1197,6.57944,2024-04-23 12:25:00,,,,,11.0,1018.0,(1072.364182481776+0j),-2.0,8.0,240.0,10000.0,99999,,0j,0,1116002408101102120301804000051000600007000080000
5198,EHRD,51.9569,4.43722,2024-04-23 12:25:00,,,,,10.0,1020.0,(968.2987231596617+0j),-4.0,5.0,340.0,10000.0,99999,,0j,0,1116003405101002140302004000051000600007000080000
5199,ETHS,52.9194,10.1975,2024-04-23 12:20:00,,,,,8.0,1017.0,(2280.2749060665737+0j),-4.0,6.0,310.0,10000.0,99999,6.0,0j,0,1116063106100802140301704000051000600007000086000
5200,LFGJ,47.039,5.42725,2024-04-23 12:30:00,,,,,11.0,1015.0,(3654.7074006571456+0j),-1.0,14.0,20.0,10000.0,99999,,0j,0,1116000214101102110301504000051000600007000080000
5202,LFMY,43.6064,5.10925,2024-04-23 12:30:00,,,,,13.0,1008.0,(1576.8062014896598+0j),-0.0,23.0,340.0,7000.0,99999,,0j,0,1114003423101302100300804000051000600007000080000
5203,LFOA,47.0533,2.6325,2024-04-23 12:30:00,,,,,11.0,1018.0,(3363.340858230581+0j),-3.0,9.0,20.0,10000.0,99999,,0j,0,1116000209101102130301804000051000600007000080000
5204,LFOJ,47.9878,1.76056,2024-04-23 12:30:00,,,,,10.0,1020.0,(2793.375689060215+0j),-1.0,11.0,10.0,10000.0,99999,,0j,0,1116000111101002110302004000051000600007000080000
5205,LFRC,49.6501,-1.47028,2024-04-23 12:30:00,,,,,10.0,1023.0,(3034.752358272508+0j),6.0,8.0,320.0,10000.0,99999,6.0,0j,0,1116063208101002060302304000051000600007000086000
5206,LFRD,48.5877,-2.07996,2024-04-23 12:30:00,,,,,11.0,1023.0,(1809.4378329023777+0j),5.0,10.0,340.0,10000.0,99999,6.0,0j,0,1116063410101102050302304000051000600007000086000
5207,LFRJ,48.5303,-4.15164,2024-04-23 12:30:00,,,,,12.0,1024.0,(2220.277401140863+0j),6.0,10.0,10.0,10000.0,99999,3.0,0j,0,1116030110101202060302404000051000600007000083000
5208,LFRN,48.0695,-1.73479,2024-04-23 12:30:00,,,,,12.0,1022.0,(1408.661760017363+0j),4.0,9.0,360.0,10000.0,99999,5.0,0j,0,1116053609101202040302204000051000600007000085000
5209,LFRQ,47.975,-4.16779,2024-04-23 12:30:00,,,,,13.0,1024.0,(1940.5222596363778+0j),7.0,8.0,360.0,10000.0,99999,4.0,0j,0,1116043608101302070302404000051000600007000084000
5210,LFRS,47.1532,-1.61073,2024-04-23 12:30:00,,,,,12.0,1022.0,(1297.733874990337+0j),2.0,7.0,10.0,10000.0,99999,,0j,0,1116000107101202020302204000051000600007000080000
5211,URKA,45.0021,37.3473,2024-04-23 12:30:00,,,,,18.0,1022.0,(1382.247311409004+0j),9.0,4.0,240.0,10000.0,99999,,0j,0,1116002404101802090302204000051000600007000080000
5212,URMM,44.2251,43.0819,2024-04-23 12:30:00,,,,,26.0,1019.0,(2758.2769153171093+0j),0.0,4.0,340.0,10000.0,99999,1.0,0j,0,1116013404102602000301904000051000600007000081000
5213,URSS,43.4499,39.9566,2024-04-23 12:30:00,,,,,17.0,1020.0,(1209.2778006669764+0j),12.0,5.0,260.0,10000.0,99999,1.0,0j,0,11160126051017020120302004000051000600007000081000
5214,UWGG,56.2301,43.784,2024-04-23 12:30:00,,,,,13.0,1016.0,(1787.7013556060363+0j),4.0,4.0,260.0,10000.0,99999,,0j,0,1116002604101302040301604000051000600007000080000
5215,LEPA,39.5517,2.73881,2024-04-23 12:26:00,,,,,11.0,1015.0,(1101.6439347475166+0j),7.0,11.0,340.0,10000.0,99999,3.0,0j,0,1116033411101102070301504000051000600007000083000
5216,LIRU,41.9519,12.4989,2024-04-23 12:31:00,81.0,36.0,r,green,14.0,1007.0,(1145.9935919406496+0j),6.0,12.0,210.0,8000.0,99999,3.0,0j,0,1114032112101402060300704000051000600007810083000
5224,EGXZ,54.2055,-1.38209,2024-04-23 12:20:00,,,,,10.0,1024.0,(1366.5398349269008+0j),4.0,14.0,10.0,10000.0,99999,8.0,0j,0,1116080114101002040302404000051000600007000088000
5227,LBBG,42.5696,27.5152,2024-04-23 12:30:00,61.0,36.0,^,green,12.0,1016.0,(1436.8041431699664+0j),11.0,11.0,90.0,10000.0,99999,4.0,0j,0,11160409111012020110301604000051000600007610084000
5228,LBGO,43.1514,25.7129,2024-04-23 12:30:00,61.0,36.0,^,green,12.0,1014.0,(1961.5429486029298+0j),11.0,7.0,90.0,10000.0,99999,4.0,0j,0,11160409071012020110301404000051000600007610084000
5229,LBPD,42.0678,24.8508,2024-04-23 12:30:00,80.0,36.0,q,green,13.0,1013.0,(3006.230252266587+0j),12.0,7.0,250.0,10000.0,99999,8.0,0j,0,11160825071013020120301304000051000600007800088000
5230,LBSF,42.69669,23.41144,2024-04-23 12:30:00,,,,,11.0,1010.0,(8730.208554407265+0j),9.0,14.0,120.0,10000.0,99999,5.0,0j,0,1116051214101102090301004000051000600007000085000
5231,LBWN,43.2321,27.8251,2024-04-23 12:30:00,61.0,36.0,^,green,12.0,1016.0,(1765.085069953587+0j),11.0,12.0,100.0,10000.0,99999,5.0,0j,0,11160510121012020110301604000051000600007610085000
5232,LHDC,47.4889,21.6153,2024-04-23 12:15:00,,,,,17.0,1012.0,(1842.2233081534732+0j),6.0,7.0,50.0,10000.0,99999,,0j,0,1116000507101702060301204000051000600007000080000
5233,LHPP,45.9909,18.241,2024-04-23 12:15:00,,,,,12.0,1009.0,(4912.9763907701035+0j),6.0,13.0,50.0,10000.0,99999,3.0,0j,0,1116030513101202060300904000051000600007000083000
5234,LPPS,33.0734,-16.35,2024-04-23 12:30:00,,,,,21.0,1018.0,(1644.1098109768368+0j),14.0,16.0,10.0,10000.0,99999,1.0,0j,0,11160101161021020140301804000051000600007000081000
5236,LYBE,44.8184,20.3091,2024-04-23 12:30:00,,,,,13.0,1009.0,(2041.6382276037427+0j),7.0,19.0,110.0,10000.0,99999,6.0,0j,0,1116061119101302070300904000051000600007000086000
5237,LYNI,43.3373,21.8537,2024-04-23 12:30:00,61.0,36.0,^,green,13.0,1008.0,(3185.978366181993+0j),10.0,11.0,100.0,10000.0,99999,3.0,0j,0,11160310111013020100300804000051000600007610083000
5238,LYPG,42.3594,19.2519,2024-04-23 12:30:00,61.0,36.0,^,green,12.0,1005.0,(1441.0400436175703+0j),10.0,6.0,340.0,10000.0,99999,4.0,0j,0,11160434061012020100300504000051000600007610084000
5239,LYTV,42.4047,18.7233,2024-04-23 12:30:00,,,,,15.0,1005.0,(1051.2333561813198+0j),14.0,1.0,,10000.0,99999,2.0,0j,0,11160236011015020140300504000051000600007000082000
5242,EHAM,52.3086,4.76389,2024-04-23 12:25:00,,,,,10.0,1019.0,(981.0089308099884+0j),-2.0,8.0,310.0,10000.0,99999,1.0,0j,0,1116013108101002120301904000051000600007000081000
5243,LPPT,38.7813,-9.13592,2024-04-23 12:30:00,,,,,21.0,1018.0,(1710.5022223490496+0j),-2.0,9.0,50.0,10000.0,99999,,0j,0,1116000509102102120301804000051000600007000080000
5244,ENSS,70.3554,31.0449,2024-04-23 12:20:00,,,,,1.0,1020.0,(2832.6606426054627+0j),-2.0,23.0,120.0,10000.0,99999,6.0,0j,0,1116061223100102120302004000051000600007000086000
5245,ENBS,70.6005,29.6914,2024-04-23 12:20:00,85.0,36.0,v,magenta,-1.0,1019.0,(115.12421928806901+0j),-2.0,21.0,110.0,10000.0,99999,4.0,0j,0,1116041121110102120301904000051000600007850084000
5247,EBBL,51.1683,5.47,2024-04-23 12:25:00,,,,,10.0,1019.0,(1806.3023549387212+0j),-1.0,5.0,280.0,10000.0,99999,2.0,0j,0,1116022805101002110301904000051000600007000082000
5248,EBCV,50.5758,3.831,2024-04-23 12:25:00,,,,,9.0,1020.0,(1875.9868754118263+0j),-3.0,3.0,360.0,10000.0,99999,1.0,0j,0,1116013603100902130302004000051000600007000081000
5249,EBDT,50.9992,5.06556,2024-04-23 12:25:00,,,,,9.0,1019.0,(1435.4907462488939+0j),-4.0,3.0,310.0,10000.0,99999,6.0,0j,0,1116063103100902140301904000051000600007000086000
5250,EBLB,50.4817,6.18194,2024-04-23 12:25:00,,,,,5.0,1017.0,(16.75860250014975+0j),-5.0,5.0,350.0,10000.0,99999,8.0,0j,0,1116083505100502150301704000051000600007000088000
5251,EDDK,50.8659,7.14274,2024-04-23 12:20:00,,,,,9.0,1018.0,(2419.961423364788+0j),-4.0,2.0,,10000.0,99999,,0j,0,1116003602100902140301804000051000600007000080000
5252,EDDL,51.2895,6.76678,2024-04-23 12:20:00,,,,,11.0,1018.0,(1525.0758161346375+0j),-1.0,7.0,270.0,10000.0,99999,,0j,0,1116002707101102110301804000051000600007000080000
5253,EDDG,52.1346,7.68483,2024-04-23 12:20:00,,,,,9.0,1018.0,(1709.1520335309963+0j),-2.0,5.0,270.0,10000.0,99999,6.0,0j,0,1116062705100902120301804000051000600007000086000
5254,LEAB,38.9485,-1.86352,2024-04-23 12:30:00,,,,,13.0,1016.0,(9.669872707721574+0j),-4.0,10.0,320.0,10000.0,99999,,0j,0,1116003210101302140301604000051000600007000080000
5255,LEBA,37.842,-4.84888,2024-04-23 12:30:00,,,,,21.0,1016.0,(1553.9688420947366+0j),3.0,6.0,80.0,10000.0,99999,,0j,0,1116000806102102030301604000051000600007000080000
5256,LEGT,40.2941,-3.72383,2024-04-23 12:30:00,,,,,15.0,1018.0,(7663.178660328793+0j),-0.0,4.0,,10000.0,99999,,0j,0,1116003604101502100301804000051000600007000080000
5257,LELO,42.46095,-2.32224,2024-04-23 12:30:00,,,,,10.0,1018.0,(6675.622990688792+0j),5.0,15.0,290.0,10000.0,99999,4.0,0j,0,1116042915101002050301804000051000600007000084000
5259,LERI,37.9511,-1.23032,2024-04-23 12:30:00,,,,,20.0,1015.0,(1485.5536733252616+0j),-5.0,10.0,340.0,10000.0,99999,,0j,0,1116003410102002150301504000051000600007000080000
5261,LETO,40.4967,-3.44587,2024-04-23 12:30:00,,,,,15.0,1017.0,(7638.843289716991+0j),-2.0,3.0,340.0,10000.0,99999,1.0,0j,0,1116013403101502120301704000051000600007000081000
5270,LGIR,35.3397,25.1803,2024-04-23 12:20:00,,,,,29.0,1008.0,(1148.475479099283+0j),9.0,10.0,180.0,10000.0,99999,1.0,0j,0,1116011810102902090300804000051000600007000081000
5271,LPFR,37.0144,-7.96591,2024-04-23 12:30:00,,,,,22.0,1015.0,(1053.137290597409+0j),6.0,14.0,120.0,10000.0,99999,,0j,0,1116001214102202060301504000051000600007000080000
5272,LPPR,41.2481,-8.68139,2024-04-23 12:30:00,,,,,17.0,1020.0,(1530.0424539464232+0j),5.0,11.0,310.0,10000.0,99999,,0j,0,1116003111101702050302004000051000600007000080000
5280,LTAP,40.8294,35.522,2024-04-23 12:20:00,,,,,26.0,1017.0,(4127.047009553735+0j),3.0,5.0,70.0,10000.0,99999,,0j,0,1116000705102602030301704000051000600007000080000
5281,LTAU,38.7704,35.4954,2024-04-23 12:20:00,,,,,25.0,1021.0,(7843.26477087316+0j),3.0,3.0,,10000.0,99999,3.0,0j,0,1116033603102502030302104000051000600007000083000
5282,LTBA,40.9769,28.8146,2024-04-23 12:20:00,,,,,22.0,1014.0,(1284.102305056748+0j),10.0,16.0,60.0,10000.0,99999,3.0,0j,0,11160306161022020100301404000051000600007000083000
5283,LTBJ,38.2924,27.157,2024-04-23 12:20:00,,,,,27.0,1012.0,(1593.7695374957868+0j),7.0,8.0,190.0,10000.0,99999,4.0,0j,0,1116041908102702070301204000051000600007000084000
5284,LTBS,36.7131,28.7925,2024-04-23 12:20:00,,,,,22.0,1015.0,(1046.7394829163602+0j),17.0,12.0,210.0,10000.0,99999,3.0,0j,0,11160321121022020170301504000051000600007000083000
5285,LTBU,41.1382,27.9191,2024-04-23 12:20:00,,,,,18.0,1014.0,(2332.3262923774523+0j),11.0,14.0,70.0,10000.0,99999,3.0,0j,0,11160307141018020110301404000051000600007000083000
5286,LTCC,37.8939,40.201,2024-04-23 12:20:00,,,,,27.0,1018.0,(4958.751964706473+0j),7.0,7.0,330.0,10000.0,99999,,0j,0,1116003307102702070301804000051000600007000080000
5287,LTCE,39.9565,41.1702,2024-04-23 12:20:00,,,,,17.0,1024.0,(16.046876064892913+0j),-1.0,4.0,210.0,10000.0,99999,3.0,0j,0,1116032104101702110302404000051000600007000083000
5288,LTCG,40.9951,39.7897,2024-04-23 12:20:00,,,,,17.0,1020.0,(1242.4723676807555+0j),14.0,10.0,90.0,10000.0,99999,3.0,0j,0,11160309101017020140302004000051000600007000083000
5289,LTCJ,37.929,41.1166,2024-04-23 12:20:00,,,,,27.0,1016.0,(4116.014920176837+0j),10.0,5.0,310.0,10000.0,99999,,0j,0,11160031051027020100301604000051000600007000080000
5290,LTFE,37.2506,27.6643,2024-04-23 12:20:00,,,,,27.0,1013.0,(1040.0756898550687+0j),5.0,16.0,140.0,10000.0,99999,,0j,0,1116001416102702050301304000051000600007000080000
5291,EGDY,51.0094,-2.63882,2024-04-23 12:20:00,,,,,9.0,1023.0,(1331.2958965541723+0j),7.0,8.0,340.0,10000.0,99999,3.0,0j,0,1116033408100902070302304000051000600007000083000
5292,EGOM,55.05,-2.55,2024-04-23 12:20:00,,,,,9.0,1024.0,(6836.9830861925875+0j),1.0,11.0,30.0,10000.0,99999,6.0,0j,0,1116060311100902010302404000051000600007000086000
5293,EGQK,57.6494,-3.56064,2024-04-23 12:20:00,,,,,9.0,1026.0,(1113.2163299788117+0j),3.0,9.0,300.0,10000.0,99999,8.0,0j,0,1116083009100902030302604000051000600007000088000
5294,EGYM,52.6484,0.55069,2024-04-23 12:20:00,,,,,9.0,1021.0,(1328.693167528651+0j),6.0,15.0,360.0,10000.0,99999,4.0,0j,0,1116043615100902060302104000051000600007000084000
5296,UUYY,61.647,50.8451,2024-04-23 12:30:00,61.0,36.0,^,green,3.0,1024.0,(6605.401933152597+0j),1.0,6.0,70.0,10000.0,99999,6.0,0j,0,1116060706100302010302404000051000600007610086000
5297,LIPL,45.4322,10.2677,2024-04-23 12:30:00,,,,,8.0,1007.0,(2778.362906285364+0j),8.0,6.0,320.0,5000.0,99999,3.0,0j,0,1113033206100802080300704000051000600007000083000
5298,ULLI,59.8003,30.2625,2024-04-23 12:30:00,,,,,6.0,1012.0,(1501.34596642135+0j),3.0,8.0,200.0,10000.0,99999,4.0,0j,0,1116042008100602030301204000051000600007000084000
5299,UMGG,52.527,31.0167,2024-04-23 12:30:00,,,,,12.0,1022.0,(2707.4978348874665+0j),3.0,2.0,260.0,10000.0,99999,6.0,0j,0,1116062602101202030302204000051000600007000086000
5300,UMII,55.1265,30.3496,2024-04-23 12:30:00,,,,,4.0,1020.0,(9.398608018790743+0j),-2.0,5.0,250.0,10000.0,99999,8.0,0j,0,1116082505100402120302004000051000600007000088000
5301,UMKK,54.89,20.5926,2024-04-23 12:30:00,,,,,5.0,1018.0,(1327.373084686378+0j),-1.0,4.0,230.0,10000.0,99999,6.0,0j,0,1116062304100502110301804000051000600007000086000
5302,UMMS,53.8825,28.0307,2024-04-23 12:30:00,,,,,5.0,1021.0,(7614.83233617368+0j),-3.0,4.0,240.0,10000.0,99999,6.0,0j,0,1116062404100502130302104000051000600007000086000
5303,UUDD,55.4088,37.9063,2024-04-23 12:30:00,,,,,12.0,1019.0,(3178.119157952197+0j),-0.0,6.0,270.0,10000.0,99999,,0j,0,1116002706101202100301904000051000600007000080000
5304,UUEE,55.9726,37.4146,2024-04-23 12:30:00,,,,,12.0,1018.0,(3317.9959804994846+0j),0.0,5.0,230.0,10000.0,99999,3.0,0j,0,1116032305101202000301804000051000600007000083000
5305,UUWW,55.5915,37.2615,2024-04-23 12:30:00,,,,,12.0,1019.0,(3589.235462702081+0j),1.0,6.0,270.0,10000.0,99999,1.0,0j,0,1116012706101202010301904000051000600007000081000
5307,LEBZ,38.8913,-6.82133,2024-04-23 12:30:00,,,,,20.0,1018.0,(2274.379341029738+0j),1.0,6.0,,10000.0,99999,,0j,0,1116003606102002010301804000051000600007000080000
5308,LFBO,43.6291,1.36382,2024-04-23 12:30:00,,,,,12.0,1017.0,(2803.9132885597232+0j),-3.0,16.0,330.0,10000.0,99999,3.0,0j,0,1116033316101202130301704000051000600007000083000
5309,LFKB,42.5527,9.48373,2024-04-23 12:30:00,,,,,13.0,1007.0,(1076.8184530817855+0j),6.0,5.0,,10000.0,99999,3.0,0j,0,1116033605101302060300704000051000600007000083000
5310,LFKC,42.5308,8.79319,2024-04-23 12:30:00,,,,,12.0,1007.0,(1675.516755743094+0j),4.0,8.0,140.0,10000.0,99999,3.0,0j,0,1116031408101202040300704000051000600007000083000
5311,LFKJ,41.9236,8.80292,2024-04-23 12:30:00,,,,,13.0,1008.0,(1056.1725540737748+0j),6.0,3.0,,10000.0,99999,5.0,0j,0,1116053603101302060300804000051000600007000085000
5312,LFMD,43.542,6.95348,2024-04-23 12:30:00,,,,,13.0,1007.0,(1041.6609584922278+0j),6.0,9.0,160.0,10000.0,99999,,0j,0,1116001609101302060300704000051000600007000080000
5313,LFMK,43.216,2.30632,2024-04-23 12:30:00,,,,,13.0,1016.0,(2403.5219196268476+0j),1.0,16.0,280.0,10000.0,99999,3.0,0j,0,1116032816101302010301604000051000600007000083000
5314,LFRI,46.7019,-1.37863,2024-04-23 12:30:00,,,,,12.0,1021.0,(2027.4140375041347+0j),0.0,14.0,20.0,10000.0,99999,,0j,0,1116000214101202000302104000051000600007000080000
5315,LFRM,47.9486,0.20167,2024-04-23 12:30:00,,,,,11.0,1021.0,(1708.1610649948302+0j),-3.0,10.0,360.0,10000.0,99999,,0j,0,1116003610101102130302104000051000600007000080000
5316,LEMO,37.1749,-5.61594,2024-04-23 12:30:00,,,,,22.0,1015.0,(1503.9521900806435+0j),3.0,9.0,30.0,10000.0,99999,,0j,0,1116000309102202030301504000051000600007000080000
5317,LERT,36.6452,-6.34946,2024-04-23 12:30:00,,,,,23.0,1015.0,(1148.1694820584073+0j),10.0,3.0,360.0,10000.0,99999,,0j,0,11160036031023020100301504000051000600007000080000
5318,LBIA,42.4549,26.3522,2024-04-23 12:40:00,10.0,36.0,+,yellow,12.0,1014.0,(2836.3863700596303+0j),12.0,12.0,60.0,4000.0,99999,5.0,0j,0,11120506121012020120301404000051000600007100085000
5319,EEEI,59.2603,24.2085,2024-04-23 12:36:00,61.0,36.0,^,green,0.0,1011.0,(38.661310722756696+0j),-1.0,14.0,250.0,9000.0,99999,5.0,0j,0,1115052514100002110301104000051000600007610085000
5321,ETNL,53.9182,12.2783,2024-04-23 12:37:00,80.0,36.0,q,green,7.0,1016.0,(1788.6490696423332+0j),-3.0,3.0,230.0,10000.0,99999,6.0,0j,0,1116062303100702130301604000051000600007800086000
5322,EGUL,52.4093,0.561,2024-04-23 12:42:00,61.0,36.0,^,green,9.0,30.15,(1158.5097723484992+0j),6.0,10.0,330.0,9000.0,99999,6.0,0j,0,111506331010090206033014000051000600007610086000
5323,LRCT,46.5023,23.8859,2024-04-23 12:00:00,,,,,16.0,1013.0,(4114.560102384165+0j),7.0,5.0,130.0,10000.0,99999,3.0,0j,0,1116031305101602070301304000051000600007000083000
5326,LFKS,41.9244,9.406,2024-04-23 12:30:00,,,,,15.0,1006.0,(1071.0377473512146+0j),3.0,10.0,90.0,10000.0,99999,6.0,0j,0,1116060910101502030300604000051000600007000086000
5328,LFRK,49.1733,-0.45,2024-04-23 12:40:00,,,,,9.0,1022.0,(2190.279391498825+0j),5.0,7.0,310.0,10000.0,99999,7.0,0j,0,1116073107100902050302204000051000600007000087000
5330,EGUN,52.3619,0.48641,2024-04-23 12:44:00,,,,,9.0,30.16,(1162.6333276076923+0j),6.0,10.0,340.0,8000.0,99999,4.0,0j,0,111404341010090206033014000051000600007000084000
5333,LEVD,41.7061,-4.85194,2024-04-23 12:30:00,,,,,12.0,1019.0,(12.080251260826268+0j),-1.0,6.0,320.0,10000.0,99999,,0j,0,1116003206101202110301904000051000600007000080000
