,station,lat,lon,time,weather,weatherfont,weathersymbol,weathercolour,temperature,pressure,sl_pressure,dewpoint,windspeed,winddir,visibility,visual_range,cloudcover,pressure3h_change,rain,wwletter
718,EGJB,49.435,-2.60197,2024-04-16 23:50:00,,,,,9.0,1019.0,(2602.752921106351+0j),3.0,11.0,340.0,10000.0,99999,,(1583.252921106351+0j),0.0,1116003411100902030301904000051000600007000080000
726,EGNS,54.0833,-4.62389,2024-04-16 23:50:00,,,,,7.0,1018.0,(1289.9146756589544+0j),3.0,10.0,290.0,10000.0,99999,1.0,(271.7146756589543+0j),0.0,1116012910100702030301804000051000600007000081000
868,ETNG,50.9608,6.04242,2024-04-16 23:50:00,,,,,4.0,1011.0,(4434.720220170898+0j),4.0,5.0,290.0,10000.0,99999,3.0,(3424.3202201708978+0j),0.5,1116032905100402040301104000051000600507000083000
996,LGLM,39.9171,25.2363,2024-04-16 23:50:00,,,,,18.0,1005.0,(1031.8618640714158+0j),15.0,14.0,180.0,10000.0,99999,1.0,(25.66186407141572+0j),0.0,11160118141018020150300504000051000600007000081000
997,LGLR,39.65628,22.34,2024-04-16 23:50:00,,,,,19.0,1003.0,(1475.3486813981183+0j),9.0,5.0,200.0,10000.0,99999,6.0,(469.54868139811833+0j),0.0,1116062005101902090300304000051000600007000086000
1001,LGSM,37.69,26.9117,2024-04-16 23:50:00,,,,,19.0,1010.0,(1044.764218547319+0j),12.0,5.0,240.0,10000.0,99999,1.0,(33.56421854731889+0j),0.0,11160124051019020120301004000051000600007000081000
1003,LGTG,38.3398,23.565,2024-04-16 23:50:00,,,,,20.0,1006.0,(1968.1138135428662+0j),7.0,8.0,180.0,10000.0,99999,1.0,(961.1138135428662+0j),0.0,1116011808102002070300604000051000600007000081000
1043,ETEK,49.6503,7.30007,2024-04-16 23:55:00,61.0,36.0,^,green,3.2,29.79,(1029.79+0j),2.2,5.0,360.0,10000.0,99999,5.0,(21.289999999999964+0j),0.6,111605360510032202232974000051000600607610085000
1049,LGSR,36.3992,25.4793,2024-04-16 23:50:00,,,,,19.0,1007.0,(1247.8662626704897+0j),16.0,10.0,130.0,10000.0,99999,,(237.6662626704897+0j),0.0,11160013101019020160300704000051000600007000080000
1050,LGPZ,38.9255,20.7653,2024-04-16 23:50:00,,,,,19.0,1005.0,(1024.9661383978032+0j),15.0,8.0,180.0,10000.0,99999,2.0,(16.76613839780316+0j),1.1,11160218081019020150300504000051000601107000082000
1051,LGRX,38.1511,21.4256,2024-04-16 23:50:00,,,,,17.0,1006.0,(1100.835672331934+0j),14.0,3.0,,10000.0,99999,1.0,(92.33567233193389+0j),0.0,11160136031017020140300604000051000600007000081000
1108,LTAY,37.7856,29.7013,2024-04-16 23:50:00,,,,,17.0,1013.0,(9.045940062775797+0j),-2.0,7.0,160.0,10000.0,99999,,(-1004.2540599372242+0j),0.0,1116001607101702120301304000051000600007000080000
1111,LTBH,40.1377,26.4268,2024-04-16 23:50:00,,,,,21.0,1006.0,(1043.9503052445812+0j),8.0,12.0,180.0,10000.0,99999,,(36.650305244581205+0j),0.0,1116001812102102080300604000051000600007000080000
1113,LTBY,39.8099,30.5194,2024-04-16 23:50:00,,,,,14.0,1012.0,(9.989301841572837+0j),3.0,1.0,,10000.0,99999,,0j,0.0,1116003601101402030301204000051000600007000080000
1115,LTCB,40.96667,38.08,2024-04-16 23:50:00,,,,,13.0,1008.0,(1056.1725540737748+0j),6.0,3.0,,10000.0,99999,,(36.972554073774745+0j),0.0,1116003603101302060300804000051000600007000080000
1119,LTCN,37.53883,36.95352,2024-04-16 23:50:00,,,,,11.0,1015.0,(8689.864800405996+0j),8.0,4.0,80.0,10000.0,99999,,(7674.664800405996+0j),0.0,1116000804101102080301504000051000600007000080000
1120,LTCT,39.97663,43.87665,2024-04-16 23:50:00,,,,,12.0,1018.0,(13.145411270992701+0j),5.0,9.0,220.0,10000.0,99999,,0j,0.0,1116002209101202050301804000051000600007000080000
1121,LTDA,36.36278,36.28222,2024-04-16 23:50:00,,,,,15.0,1013.0,(1707.3442643117048+0j),12.0,4.0,350.0,10000.0,99999,,(693.1442643117048+0j),0.0,11160035041015020120301304000051000600007000080000
1122,LTFD,39.5546,27.0138,2024-04-16 23:50:00,,,,,15.0,1009.0,(1126.6863849422473+0j),10.0,4.0,50.0,10000.0,99999,,(116.58638494224726+0j),0.0,11160005041015020100300904000051000600007000080000
1123,LTFG,36.29922,32.3006,2024-04-16 23:50:00,,,,,14.0,1013.0,(1234.8927525547972+0j),6.0,6.0,110.0,10000.0,99999,,(221.19275255479715+0j),0.0,1116001106101402060301304000051000600007000080000
1125,LTBD,37.815,27.8953,2024-04-16 23:50:00,,,,,17.0,1011.0,(1227.1018711566703+0j),10.0,4.0,250.0,10000.0,99999,,(215.1018711566703+0j),0.0,11160025041017020100301104000051000600007000080000
1215,LBIA,42.4549,26.3522,2024-04-17 00:00:00,,,,,17.0,1003.0,(2217.600086307773+0j),11.0,4.0,70.0,10000.0,99999,4.0,0j,0.0,11160407041017020110300304000051000600007000084000
1444,EGQL,56.3729,-2.86844,2024-04-16 23:50:00,,,,,4.0,1014.0,(1364.9049948145916+0j),-2.0,7.0,290.0,10000.0,99999,,(350.90499481459165+0j),0.0,1116002907100402120301404000051000600007000080000
1445,EGQS,57.7052,-3.33917,2024-04-16 23:50:00,,,,,5.0,1014.0,(1322.1574733516575+0j),2.0,22.0,300.0,10000.0,99999,6.0,(308.2574733516575+0j),0.0,1116063022100502020301404000051000600007000086000
1548,LTAB,39.935,32.7408,2024-04-16 23:50:00,,,,,16.0,1012.0,(9.204164163214715+0j),4.0,3.0,90.0,10000.0,99999,,(-1000.6958358367852+0j),0.0,1116000903101602040301204000051000600007000080000
1554,LTAN,37.979,32.5619,2024-04-16 23:50:00,,,,,10.0,1015.0,(15.877567278315826+0j),-0.0,1.0,,10000.0,99999,,(-995.1224327216842+0j),0.0,1116003601101002100301504000051000600007000080000
1558,LTBG,40.318,27.9777,2024-04-16 23:50:00,,,,,20.0,1007.0,(1316.8679072955858+0j),7.0,8.0,140.0,10000.0,99999,,(308.96790729558586+0j),0.0,1116001408102002070300704000051000600007000080000
1560,LTBL,38.513,27.0101,2024-04-16 23:50:00,,,,,22.0,1010.0,(1035.2333278543222+0j),7.0,10.0,100.0,10000.0,99999,,(25.533327854322124+0j),0.0,1116001010102202070301004000051000600007000080000
1565,LTCI,38.4682,43.3323,2024-04-16 23:50:00,,,,,5.0,1021.0,(27.959227977732102+0j),1.0,1.0,,10000.0,99999,1.0,(-988.3407720222679+0j),0.0,1116013601100502010302104000051000600007000081000
1691,ULPB,61.8852,34.1547,2024-04-17 00:00:00,,,,,-3.0,1000.0,(30.157994169927296+0j),-6.0,4.0,360.0,10000.0,99999,,(-970.6420058300727+0j),0.0,1116003604110302160300004000051000600007000080000
1757,LTAE,40.0789,32.5656,2024-04-16 23:50:00,,,,,10.0,1012.0,(13.751154912023612+0j),3.0,3.0,350.0,10000.0,99999,,(-996.1488450879764+0j),0.0,1116003503101002030301204000051000600007000080000
1797,LTAR,39.8138,36.9035,2024-04-16 23:50:00,,,,,7.0,1018.0,(24.362733213787294+0j),-2.0,6.0,140.0,10000.0,99999,,(-989.6372667862126+0j),0.0,1116001406100702120301804000051000600007000080000
1798,LTBF,39.6193,27.926,2024-04-16 23:50:00,,,,,16.0,1008.0,(1840.6699985628852+0j),9.0,0.0,0.0,10000.0,99999,,(831.7699985628852+0j),0.0,1116000000101602090300804000051000600007000080000
1799,LTBI,39.7841,30.5821,2024-04-16 23:50:00,,,,,17.0,1012.0,(8430.574982351534+0j),-0.0,1.0,,10000.0,99999,,(7420.574982351534+0j),0.0,1116003601101702100301204000051000600007000080000
1800,LTBQ,40.735,30.0833,2024-04-16 23:50:00,,,,,13.0,1007.0,(1534.3911014118582+0j),11.0,1.0,,10000.0,99999,,(526.3911014118582+0j),0.0,11160036011013020110300704000051000600007000080000
1801,LTCA,38.6069,39.2914,2024-04-16 23:50:00,,,,,8.0,1017.0,(16.754922836963885+0j),6.0,4.0,260.0,10000.0,99999,,(-998.8450771630362+0j),0.0,1116002604100802060301704000051000600007000080000
1843,LBPG,42.2904,24.714,2024-04-17 00:00:00,,,,,16.0,1001.0,(1440.2486557083898+0j),12.0,6.0,40.0,10000.0,99999,8.0,(438.84865570838986+0j),0.0,11160804061016020120300104000051000600007000088000
2050,LPBJ,38.0789,-7.9324,2024-04-17 00:00:00,,,,,14.0,1015.0,(2987.641210163322+0j),13.0,4.0,280.0,10000.0,99999,,(1973.3412101633219+0j),0.0,11160028041014020130301504000051000600007000080000
2057,UMGG,52.527,31.0167,2024-04-17 00:00:00,80.0,36.0,q,green,8.0,1000.0,(3619.085690133396+0j),7.0,5.0,290.0,6000.0,99999,8.0,(2618.085690133396+0j),0.0,1113082905100802070300004000051000600007800088000
2068,URMN,43.5129,43.6366,2024-04-17 00:00:00,,,,,13.0,1011.0,(6438.167040795772+0j),6.0,1.0,50.0,10000.0,99999,,(5426.467040795772+0j),0.0,1116000501101302060301104000051000600007000080000
2081,UWLW,54.401,48.8027,2024-04-17 00:00:00,,,,,5.0,1006.0,(3207.257695497067+0j),2.0,3.0,200.0,10000.0,99999,,(2200.457695497067+0j),0.0,1116002003100502020300604000051000600007000080000
2116,EGUL,52.4093,0.561,2024-04-16 23:55:00,,,,,1.9,29.98,(1689.1688107246605+0j),0.3,0.0,0.0,10000.0,99999,2.0,(673.9688107246604+0j),0.0,111602000010019200932994000051000600007000082000
2118,EGVA,51.6822,-1.79003,2024-04-16 23:55:00,,,,,3.8,30.03,(4585.340633768221+0j),0.7,5.0,290.0,10000.0,99999,,(3567.440633768221+0j),0.0,111600290510037200733004000051000600007000080000
2157,EGXC,53.093,-0.16601,2024-04-16 23:50:00,,,,,3.0,1015.0,(1320.884980452087+0j),1.0,6.0,250.0,10000.0,99999,,(305.3849804520869+0j),0.0,1116002506100302010301504000051000600007000080000
2207,LGHI,38.3432,26.1406,2024-04-16 23:50:00,,,,,17.0,1009.0,(1039.6179560888102+0j),12.0,5.0,190.0,10000.0,99999,1.0,(30.017956088810138+0j),0.0,11160119051017020120300904000051000600007000081000
2208,LGSO,37.4228,24.9509,2024-04-16 23:50:00,,,,,19.0,1008.0,(1472.143398525842+0j),14.0,6.0,120.0,10000.0,99999,3.0,0j,0.0,11160312061019020140300804000051000600007000083000
2212,LKKB,50.1214,14.5436,2024-04-17 00:00:00,61.0,36.0,^,green,5.0,1003.0,(10.032913225142714+0j),3.0,7.0,270.0,10000.0,99999,4.0,0j,0.0,1116042707100502030300304000051000600007610084000
2213,LKKV,50.203,12.915,2024-04-17 00:00:00,,,,,3.0,1004.0,(22.827062058559033+0j),2.0,5.0,270.0,10000.0,99999,7.0,(-982.372937941441+0j),0.0,1116072705100302020300404000051000600007000087000
2214,LKLN,49.6752,13.2746,2024-04-17 00:00:00,,,,,4.0,1005.0,(14.374006415096341+0j),3.0,4.0,260.0,10000.0,99999,3.0,(-991.0259935849036+0j),0.0,1116032604100402030300504000051000600007000083000
2219,LOXZ,47.2028,14.7442,2024-04-16 23:50:00,49.0,36.0,R,red,-0.0,1005.0,(38.4318667422062+0j),-0.0,2.0,210.0,400.0,99999,,(-971.1681332577938+0j),0.0,1110002102110002100300504000051000600007490080000
2229,LTCD,39.7102,39.527,2024-04-16 23:50:00,,,,,5.0,1019.0,(24.499799646928192+0j),2.0,1.0,,10000.0,99999,,(-992.1002003530718+0j),0.0,1116003601100502020301904000051000600007000080000
2230,LTCF,40.5622,43.115,2024-04-16 23:50:00,,,,,1.0,1022.0,(36.536484294505236+0j),-0.0,5.0,300.0,10000.0,99999,,(-982.5635157054948+0j),0.0,1116003005100102100302204000051000600007000080000
2233,LTFH,41.2545,36.5671,2024-04-16 23:50:00,,,,,11.0,1008.0,(1065.0335644659528+0j),8.0,1.0,,10000.0,99999,,0j,0.0,1116003601101102080300804000051000600007000080000
2238,ULOO,57.7839,28.3956,2024-04-17 00:00:00,,,,,3.0,996.0,(3221.5218801047727+0j),2.0,2.0,360.0,10000.0,99999,,(2227.221880104773+0j),0.3,1116003602100302020399604000051000600307000080000
2253,LIEA,40.6321,8.29077,2024-04-16 23:50:00,,,,,15.0,1009.0,(1217.2109121487317+0j),4.0,10.0,310.0,10000.0,99999,,(207.6109121487317+0j),0.0,1116003110101502040300904000051000600007000080000
2273,EIME,53.3017,-6.45133,2024-04-17 00:00:00,,,,,4.0,1022.0,(4786.647280071656+0j),2.0,9.0,270.0,10000.0,99999,1.0,(3765.4472800716558+0j),0.0,1116012709100402020302204000051000600007000081000
2368,ETIH,49.2181,11.8361,2024-04-16 23:55:00,,,,,4.5,29.71,(15.627877737367797+0j),2.2,4.0,300.0,10000.0,99999,8.0,(-990.8721222626322+0j),0.3,111608300410045202532974000051000600307000088000
2369,ETIK,49.4739,10.3881,2024-04-16 23:55:00,,,,,5.1,29.73,(11.365785415784314+0j),3.6,4.0,280.0,10000.0,99999,6.0,(-995.3342145842157+0j),0.0,111606280410050203032974000051000600007000086000
2372,LICT,37.9114,12.488,2024-04-16 23:55:00,,,,,16.0,1007.0,(1061.3764844593636+0j),13.0,19.0,300.0,10000.0,99999,,(53.27648445936359+0j),0.0,11160030191016020130300704000051000600007000080000
2374,LIBV,40.7678,16.9333,2024-04-16 23:55:00,10.0,36.0,+,yellow,15.0,1001.0,(4656.350454893819+0j),14.0,12.0,160.0,3500.0,99999,8.0,(3653.750454893819+0j),0.2,11120816121015020140300104000051000600207100088000
2375,LIED,39.3542,8.97248,2024-04-16 23:55:00,,,,,14.0,1008.0,(1266.4138835720987+0j),8.0,10.0,310.0,10000.0,99999,,(256.3138835720987+0j),0.0,1116003110101402080300804000051000600007000080000
2376,LIPI,45.9787,13.0493,2024-04-16 23:55:00,,,,,5.0,1006.0,(2496.8646642453537+0j),3.0,5.0,30.0,10000.0,99999,,(1492.2646642453537+0j),0.0,1116000305100502030300604000051000600007000080000
2377,LIRE,41.6545,12.4452,2024-04-16 23:55:00,,,,,15.0,1002.0,(1097.435150737558+0j),13.0,8.0,100.0,10000.0,99999,,(94.13515073755798+0j),0.0,11160010081015020130300204000051000600007000080000
2378,LIRS,42.7597,11.0719,2024-04-16 23:55:00,,,,,12.0,1003.0,(1052.0544175930283+0j),11.0,2.0,60.0,10000.0,99999,,(50.3544175930283+0j),0.0,11160006021012020110300304000051000600007000080000
2396,LIBN,40.2392,18.1333,2024-04-16 23:55:00,61.0,36.0,^,green,17.0,1003.0,(1337.6082216119266+0j),17.0,5.0,200.0,10000.0,99999,3.0,(333.0082216119266+0j),0.0,11160320051017020170300304000051000600007610083000
2402,LPMR,39.8312,-8.88726,2024-04-17 00:00:00,,,,,12.0,1016.0,(1613.540627852321+0j),11.0,2.0,,10000.0,99999,,(596.440627852321+0j),0.0,11160036021012020110301604000051000600007000080000
2403,LPMT,38.7039,-9.03592,2024-04-17 00:00:00,,,,,16.0,1015.0,(1116.7842742356388+0j),12.0,5.0,340.0,10000.0,99999,,(101.18427423563878+0j),0.0,11160034051016020120301504000051000600007000080000
2404,LIBA,41.5414,15.7181,2024-04-16 23:55:00,,,,,17.0,1000.0,(1395.1606319140433+0j),11.0,8.0,300.0,10000.0,99999,3.0,(394.06063191404326+0j),0.0,11160330081017020110300004000051000600007000083000
2406,LIPC,44.2242,12.3072,2024-04-16 23:55:00,,,,,12.0,1006.0,(1058.1263425739432+0j),7.0,10.0,80.0,10000.0,99999,3.0,(53.4263425739432+0j),0.0,1116030810101202070300604000051000600007000083000
2407,LIPL,45.4322,10.2677,2024-04-16 23:55:00,,,,,8.0,1006.0,(2775.6038567259943+0j),8.0,6.0,20.0,10000.0,99999,,(1772.9038567259943+0j),0.0,1116000206100802080300604000051000600007000080000
2408,LIPS,45.6849,12.0829,2024-04-16 23:55:00,,,,,5.0,1006.0,(2108.732384088839+0j),3.0,4.0,320.0,10000.0,99999,1.0,(1102.3323840888388+0j),0.0,1116013204100502030300604000051000600007000081000
2409,EGUN,52.3619,0.48641,2024-04-16 23:55:00,,,,,3.0,29.99,(1446.4858030956832+0j),1.0,3.0,220.0,10000.0,99999,1.0,(430.8858030956832+0j),0.0,111601220310030201032994000051000600007000081000
2410,LICZ,37.4017,14.9224,2024-04-16 23:55:00,,,,,16.0,1007.0,(1182.885791588195+0j),16.0,7.0,300.0,10000.0,99999,6.0,(176.6857915881949+0j),0.0,11160630071016020160300704000051000600007000086000
2411,LIRM,41.0608,14.0819,2024-04-16 23:55:00,,,,,14.0,1003.0,(1075.061100880107+0j),12.0,6.0,220.0,10000.0,99999,3.0,(71.061100880107+0j),0.0,11160322061014020120300304000051000600007000083000
2423,EVGA,56.7783,24.8539,2024-04-17 00:20:00,,,,,2.0,997.0,(5714.660562594937+0j),1.0,2.0,300.0,10000.0,99999,1.0,(4718.360562594937+0j),0.0,1116013002100202010399704000051000600007000081000
2437,LATI,41.4147,19.7206,2024-04-17 00:20:00,61.0,36.0,^,green,16.0,1002.0,(1286.5335975391017+0j),15.0,6.0,100.0,10000.0,99999,5.0,(280.8335975391017+0j),0.0,11160510061016020150300204000051000600007610085000
2440,LMML,35.8575,14.4775,2024-04-17 00:15:00,,,,,16.0,1008.0,(1733.4683730905267+0j),14.0,7.0,290.0,10000.0,99999,1.0,(725.6683730905268+0j),0.0,11160129071016020140300804000051000600007000081000
2441,LWSK,41.9616,21.6214,2024-04-17 00:20:00,,,,,13.0,1002.0,(3680.96651457663+0j),12.0,3.0,,10000.0,99999,,(2676.86651457663+0j),0.0,11160036031013020120300204000051000600007000080000
2472,EVVA,57.3578,21.5442,2024-04-17 00:20:00,,,,,4.0,999.0,(1166.651207568881+0j),3.0,3.0,30.0,10000.0,99999,4.0,0j,0.0,1116040303100402030399904000051000600007000084000
2487,LSZC,46.97444,8.39694,2024-04-17 00:20:00,51.0,36.0,T,green,4.0,1011.0,(16.73992692499063+0j),3.0,2.0,,10000.0,99999,6.0,(-995.4600730750094+0j),0.7,1116063602100402030301104000051000600707510086000
2495,EKRS,55.4258,11.8067,2024-04-17 00:20:00,,,,,3.0,1005.0,(2582.8466026701003+0j),3.0,3.0,310.0,10000.0,99999,,(1578.1466026701003+0j),0.0,1116003103100302030300504000051000600007000080000
2521,LSMA,46.9439,8.28417,2024-04-17 00:20:00,80.0,36.0,q,green,5.0,1011.0,(14.28530722340269+0j),4.0,0.0,0.0,10000.0,99999,5.0,(-998.6146927765973+0j),0.4,1116050000100502040301104000051000600407800085000
2522,LSMD,47.3986,8.64823,2024-04-17 00:20:00,51.0,36.0,T,green,5.0,1010.0,(14.341174997669619+0j),3.0,5.0,290.0,10000.0,99999,4.0,(-997.6588250023303+0j),2.2,1116042905100502030301004000051000602207510084000
2523,LSME,47.0924,8.30512,2024-04-17 00:20:00,,,,,6.0,1011.0,(12.066853067517314+0j),3.0,8.0,230.0,10000.0,99999,4.0,(-1000.6331469324828+0j),1.0,1116042308100602030301104000051000601007000084000
2524,LSMM,46.7433,8.11,2024-04-17 00:20:00,61.0,36.0,^,green,3.0,1012.0,(22.511754476148823+0j),2.0,4.0,290.0,10000.0,99999,5.0,(-991.4882455238512+0j),1.5,1116052904100302020301204000051000601507610085000
2525,LSMP,46.8432,6.91506,2024-04-17 00:20:00,80.0,36.0,q,green,4.0,1012.0,(16.68352997335646+0j),2.0,10.0,240.0,10000.0,99999,6.0,(-997.4164700266435+0j),1.5,1116062410100402020301204000051000601507800086000
2569,EGHQ,50.4406,-4.99541,2024-04-17 00:20:00,,,,,8.0,1021.0,(3171.7581724762344+0j),6.0,3.0,350.0,10000.0,99999,1.0,(2150.8581724762344+0j),0.0,1116013503100802060302104000051000600007000081000
2618,ESOH,60.0201,13.5789,2024-04-17 00:20:00,,,,,-2.0,1006.0,(1203.5612345608833+0j),-2.0,0.0,0.0,10000.0,99999,,(197.66123456088337+0j),0.0,1116000000110202120300604000051000600007000080000
2619,EGCK,53.1042,-4.34028,2024-04-17 00:20:00,,,,,7.0,1020.0,(1024.9843774125877+0j),3.0,9.0,340.0,10000.0,99999,6.0,(6.084377412587742+0j),0.3,1116063409100702030302004000051000600307000086000
2627,ESNZ,63.1944,14.5003,2024-04-17 00:20:00,,,,,-1.0,1004.0,(55.139421952769396+0j),-5.0,1.0,,10000.0,99999,6.0,(-952.4605780472307+0j),0.0,1116063601110102150300404000051000600007000086000
2658,EFHA,61.856,24.7866,2024-04-17 00:20:00,80.0,36.0,q,green,2.0,1000.0,(12.181478948401596+0j),0.0,5.0,50.0,10000.0,99999,7.0,(-989.1185210515983+0j),0.0,1116070505100202000300004000051000600007800087000
2659,EFJO,62.6629,29.6075,2024-04-17 00:20:00,85.0,36.0,v,magenta,-4.0,1002.0,(-261.50684054811546-273.33034610430633j),-8.0,9.0,50.0,10000.0,99999,8.0,(-1264.1068405481155-273.33034610430633j),0.0,1116080509110402180300204000051000600007850088000
2661,EFKT,67.701,24.8468,2024-04-17 00:20:00,71.0,36.0,h,magenta,-5.0,1010.0,(-1227343.6372155056-1282835.5099464713j),-8.0,8.0,60.0,10000.0,99999,2.0,(-1228354.3372155055-1282835.5099464713j),0.0,1116020608110502180301004000051000600007710082000
2663,EFMI,61.6866,27.2018,2024-04-17 00:20:00,71.0,36.0,h,magenta,1.0,1000.0,(15.357790724955166+0j),-1.0,4.0,30.0,10000.0,99999,8.0,(-985.3422092750449+0j),0.0,1116080304100102110300004000051000600007710088000
2665,EFSI,62.6921,22.8323,2024-04-17 00:20:00,,,,,0.0,1002.0,(38.31714475193097+0j),0.0,3.0,350.0,8000.0,99999,8.0,0j,0.0,1114083503100002000300204000051000600007000088000
2666,EFUT,60.8964,26.9384,2024-04-17 00:20:00,61.0,36.0,^,green,2.0,999.0,(9.158673946645992+0j),1.0,8.0,50.0,10000.0,99999,8.0,(-990.241326053354+0j),0.0,1116080508100202010399904000051000600007610088000
2724,EFET,68.3626,23.4243,2024-04-17 00:20:00,71.0,36.0,h,magenta,-5.0,1010.0,(6247.638964035359+0j),-7.0,6.0,60.0,4700.0,99999,8.0,0j,0.0,1112080606110502170301004000051000600007710088000
2729,EFLP,61.0446,28.1444,2024-04-17 00:20:00,51.0,36.0,T,green,1.0,999.0,(15.960180941273618+0j),0.0,7.0,30.0,10000.0,99999,8.0,(-983.7398190587264+0j),0.0,1116080307100102000399904000051000600007510088000
2733,EFSA,61.9431,28.9451,2024-04-17 00:20:00,,,,,-1.0,1001.0,(310.8874738074818+0j),-5.0,8.0,50.0,10000.0,99999,8.0,(-690.4125261925182+0j),0.0,1116080508110102150300104000051000600007000088000
2761,ESIB,58.4264,12.7144,2024-04-17 00:20:00,,,,,-1.0,1006.0,(44949.52330263137+0j),-1.0,1.0,80.0,10000.0,99999,,(43944.12330263137+0j),0.0,1116000801110102110300604000051000600007000080000
2762,ESMV,57.2922,14.1372,2024-04-17 00:20:00,,,,,-3.0,1005.0,(25549.734326999976+0j),-3.0,2.0,30.0,10000.0,99999,3.0,(24544.934326999977+0j),0.0,1116030302110302130300504000051000600007000083000
2763,ESPE,65.8753,20.1499,2024-04-17 00:20:00,71.0,36.0,h,magenta,-2.0,1007.0,(362.3507767322306+0j),-4.0,7.0,350.0,8000.0,99999,7.0,(-644.9492232677694+0j),0.2,1114073507110202140300704000051000600207710087000
2764,ESIA,58.5138,14.5071,2024-04-17 00:20:00,,,,,3.0,1005.0,(5898.716898001801+0j),1.0,4.0,350.0,10000.0,99999,8.0,(4893.116898001801+0j),0.0,1116083504100302010300504000051000600007000088000
2767,ESNV,64.5791,16.8336,2024-04-17 00:20:00,,,,,-1.0,1006.0,(57.09630392388179+0j),-4.0,3.0,10.0,10000.0,99999,8.0,(-950.8036960761182+0j),0.0,1116080103110102140300604000051000600007000088000
2769,ESST,60.1576,12.9913,2024-04-17 00:20:00,,,,,-1.0,1006.0,(166.6600374554389+0j),-2.0,3.0,310.0,10000.0,99999,4.0,0j,0.0,1116043103110102120300604000051000600007000084000
2770,ESUP,67.2456,23.0689,2024-04-17 00:20:00,,,,,-4.0,1009.0,(-11928537.233710455-12467862.040527716j),-4.0,6.0,40.0,9000.0,99999,5.0,(-11929546.933710454-12467862.040527716j),0.5,1115050406110402140300904000051000600507000085000
2771,ESND,62.0478,14.4229,2024-04-17 00:20:00,,,,,-5.0,1005.0,(1255.298658616957+0j),-6.0,2.0,,10000.0,99999,1.0,(248.698658616957+0j),0.0,1116013602110502160300504000051000600007000081000
2787,LIMZ,44.547,7.62322,2024-04-17 00:20:00,,,,,4.0,1007.0,(15.068432554140582+0j),0.0,6.0,240.0,10000.0,99999,,0j,0.0,1116002406100402000300704000051000600007000080000
2800,LICB,36.9946,14.60718,2024-04-17 00:20:00,,,,,15.0,1007.0,(2773.9192231501893+0j),14.0,5.0,250.0,10000.0,99999,8.0,(1765.9192231501893+0j),0.0,11160825051015020140300704000051000600007000088000
2802,LIPO,45.4289,10.3306,2024-04-17 00:20:00,,,,,8.0,1006.0,(2909.4994559537613+0j),5.0,4.0,20.0,10000.0,99999,,0j,0.0,1116000204100802050300604000051000600007000080000
2812,EFKS,65.9876,29.2394,2024-04-17 00:20:00,,,,,-8.0,1007.0,(-3700.610689322666-3867.9263547744663j),-12.0,5.0,70.0,10000.0,99999,,(-4710.810689322666-3867.9263547744663j),0.0,11160007051108021120300704000051000600007000080000
2933,EEKE,58.2299,22.5095,2024-04-17 00:20:00,,,,,3.0,999.0,(1163.6176213772762+0j),3.0,7.0,10.0,10000.0,99999,1.0,(166.0176213772762+0j),0.0,1116010107100302030399904000051000600007000081000
2935,EEPU,58.419,24.4728,2024-04-17 00:20:00,,,,,4.0,998.0,(1431.002948786403+0j),4.0,2.0,,10000.0,99999,4.0,0j,0.0,1116043602100402040399804000051000600007000084000
2947,EDBC,51.8564,11.4203,2024-04-17 00:20:00,,,,,4.0,1007.0,(8227.178266416026+0j),3.0,5.0,300.0,10000.0,99999,1.0,(7223.378266416025+0j),0.0,1116013005100402030300704000051000600007000081000
2989,EDJA,47.9888,10.2395,2024-04-17 00:20:00,,,,,4.0,1008.0,(20.366443813497252+0j),2.0,10.0,240.0,10000.0,99999,5.0,0j,0.0,1116052410100402020300804000051000600007000085000
2996,EDTY,49.11833,9.78389,2024-04-17 00:20:00,,,,,4.0,1007.0,(15.328970029845248+0j),3.0,7.0,290.0,7000.0,99999,5.0,(-993.0710299701548+0j),0.5,1114052907100402030300704000051000600507000085000
3000,EDWE,53.39111,7.2275,2024-04-17 00:20:00,,,,,3.0,1009.0,(1043.7297985289551+0j),2.0,3.0,290.0,10000.0,99999,6.0,(35.0297985289551+0j),0.0,1116062903100302020300904000051000600007000086000
3003,EKBI,55.7403,9.15178,2024-04-17 00:20:00,,,,,3.0,1007.0,(4851.077271815729+0j),2.0,6.0,290.0,10000.0,99999,3.0,(3845.2772718157285+0j),0.0,1116032906100302020300704000051000600007000083000
3004,EKCH,55.6179,12.656,2024-04-17 00:20:00,,,,,5.0,1005.0,(1124.6192243715939+0j),3.0,3.0,250.0,10000.0,99999,3.0,(120.01922437159385+0j),0.0,1116032503100502030300504000051000600007000083000
3005,EKEB,55.5259,8.5534,2024-04-17 00:20:00,,,,,4.0,1007.0,(1970.070189103048+0j),3.0,5.0,280.0,10000.0,99999,1.0,(963.070189103048+0j),0.0,1116012805100402030300704000051000600007000081000
3007,EKRK,55.5856,12.1314,2024-04-17 00:20:00,,,,,1.0,1005.0,(8088.771267191019+0j),0.0,0.0,0.0,10000.0,99999,1.0,(7084.07126719102+0j),0.0,1116010000100102000300504000051000600007000081000
3008,EKRN,55.0633,14.7596,2024-04-17 00:20:00,,,,,4.0,1004.0,(1489.477618860707+0j),2.0,7.0,320.0,10000.0,99999,2.0,(485.57761886070705+0j),0.0,1116023207100402020300404000051000600007000082000
3021,EFIV,68.6073,27.4053,2024-04-17 00:20:00,85.0,36.0,v,magenta,-5.0,1012.0,(-84.41758774113353-88.2343590944392j),-12.0,8.0,100.0,10000.0,99999,8.0,(-1097.8175877411336-88.2343590944392j),0.0,11160810081105021120301204000051000600007850088000
3022,EFJY,62.3995,25.6783,2024-04-17 00:20:00,85.0,36.0,v,magenta,0.0,1001.0,(38.27890408850588+0j),-2.0,5.0,30.0,10000.0,99999,8.0,(-963.6210959114941+0j),0.0,1116080305100002120300104000051000600007850088000
3023,EFKE,65.7787,24.5821,2024-04-17 00:20:00,,,,,-2.0,1007.0,(226.21044120879645+0j),-5.0,5.0,50.0,10000.0,99999,,(-780.6895587912036+0j),0.2,1116000505110202150300704000051000600207000080000
3024,EFKK,63.7212,23.1431,2024-04-17 00:20:00,85.0,36.0,v,magenta,0.0,1003.0,(38.35538541535605+0j),-0.0,5.0,20.0,10000.0,99999,,(-965.1446145846439+0j),0.2,1116000205100002100300304000051000600207850080000
3026,EFMA,60.1222,19.8982,2024-04-17 00:20:00,,,,,2.0,1002.0,(1310.3293377459552+0j),0.0,9.0,360.0,10000.0,99999,1.0,(307.8293377459552+0j),0.0,1116013609100202000300204000051000600007000081000
3028,EFPO,61.4617,21.8,2024-04-17 00:20:00,,,,,2.0,1002.0,(1862.0883593388487+0j),0.0,5.0,10.0,10000.0,99999,8.0,(859.7883593388487+0j),0.0,1116080105100202000300204000051000600007000088000
3029,EFRO,66.5648,25.8304,2024-04-17 00:20:00,,,,,-4.0,1008.0,(23096158.12254053+0j),-11.0,11.0,80.0,10000.0,99999,,(23095149.32254053+0j),0.2,11160008111104021110300804000051000600207000080000
3030,EFTP,61.4141,23.6044,2024-04-17 00:20:00,,,,,2.0,1000.0,(10.322334102680173+0j),1.0,4.0,10.0,10000.0,99999,8.0,(-990.3776658973198+0j),0.0,1116080104100202010300004000051000600007000088000
3031,EFTU,60.5141,22.2628,2024-04-17 00:20:00,,,,,2.0,1000.0,(4722.426495210844+0j),0.0,5.0,360.0,10000.0,99999,1.0,(3722.026495210844+0j),0.0,1116013605100202000300004000051000600007000081000
3032,EFVA,63.0507,21.7622,2024-04-17 00:20:00,80.0,36.0,q,green,0.0,1003.0,(38.35538541535605+0j),0.0,8.0,360.0,10000.0,99999,8.0,(-965.6446145846439+0j),0.0,1116083608100002000300304000051000600007800088000
3034,ENBR,60.2934,5.21814,2024-04-17 00:20:00,,,,,2.0,1008.0,(4995.148091320257+0j),2.0,3.0,,10000.0,99999,,0j,0.0,1116003603100202020300804000051000600007000080000
3035,ENCN,58.2042,8.08537,2024-04-17 00:20:00,,,,,1.0,1006.0,(3539.2212455185186+0j),-0.0,4.0,60.0,10000.0,99999,,(2533.3212455185185+0j),0.0,1116000604100102100300604000051000600007000080000
3037,ENHD,59.3453,5.20836,2024-04-17 00:20:00,,,,,5.0,1008.0,(1668.0939137507157+0j),2.0,11.0,350.0,10000.0,99999,4.0,(659.7939137507158+0j),0.0,1116043511100502020300804000051000600007000084000
3040,ENVA,63.4578,10.924,2024-04-17 00:20:00,,,,,2.0,1008.0,(2140.088926490207+0j),-2.0,0.0,0.0,10000.0,99999,8.0,(1131.9889264902072+0j),0.0,1116080000100202120300804000051000600007000088000
3041,ENZV,58.8767,5.63778,2024-04-17 00:20:00,,,,,5.0,1007.0,(1214.7982046915488+0j),1.0,9.0,340.0,10000.0,99999,7.0,0j,0.0,1116073409100502010300704000051000600007000087000
3046,LGAV,37.9364,23.9445,2024-04-17 00:20:00,,,,,18.0,1007.0,(1662.719786166932+0j),11.0,6.0,90.0,10000.0,99999,1.0,0j,0.0,11160109061018020110300704000051000600007000081000
3047,LGIR,35.3397,25.1803,2024-04-17 00:20:00,,,,,22.0,1007.0,(1193.5691516521692+0j),3.0,15.0,180.0,10000.0,99999,1.0,(184.3691516521692+0j),0.0,1116011815102202030300704000051000600007000081000
3050,LGKR,39.6019,19.9117,2024-04-17 00:20:00,61.0,36.0,^,green,19.0,1003.0,(1013.8481575220405+0j),17.0,16.0,160.0,10000.0,99999,4.0,(6.748157522040515+0j),1.5,11160416161019020170300304000051000601507610084000
3051,LGRP,36.4054,28.0862,2024-04-17 00:20:00,,,,,16.0,1010.0,(1046.95360428318+0j),13.0,2.0,,10000.0,99999,1.0,(34.75360428318004+0j),0.0,11160136021016020130301004000051000600007000081000
3076,ETAD,49.9727,6.6925,2024-04-17 00:10:00,,,,,4.0,29.78,(14.807692063656182+0j),3.0,4.0,290.0,10000.0,99999,7.0,(-993.5923079363438+0j),0.2,111607290410040203032974000051000600207000087000
3078,ENAL,62.5625,6.1197,2024-04-17 00:20:00,,,,,4.0,1010.0,(1673.5032082503117+0j),-2.0,16.0,40.0,10000.0,99999,5.0,(664.2032082503117+0j),0.0,1116050416100402120301004000051000600007000085000
3084,ENDU,69.0558,18.5404,2024-04-17 00:20:00,,,,,-3.0,1011.0,(-0.15844801126963554-0.16561191924881985j),-9.0,1.0,,10000.0,99999,1.0,0j,0.0,1116013601110302190301104000051000600007000081000
3099,ENRO,62.5784,11.3423,2024-04-17 00:20:00,,,,,-1.0,1005.0,(47.34732501552497+0j),-5.0,3.0,350.0,10000.0,99999,4.0,(-960.652674984475+0j),0.0,1116043503110102150300504000051000600007000084000
3101,ENRY,59.3789,10.7856,2024-04-17 00:20:00,,,,,-1.0,1006.0,(149419.36195793864+0j),-3.0,3.0,120.0,10000.0,99999,,0j,0.0,1116001203110102130300604000051000600007000080000
3107,ENTO,59.1867,10.2586,2024-04-17 00:20:00,,,,,2.0,1005.0,(7941.576800708514+0j),-5.0,0.0,0.0,10000.0,99999,,0j,0.0,1116000000100202150300504000051000600007000080000
3109,ESGG,57.6628,12.2798,2024-04-17 00:20:00,,,,,-1.0,1005.0,(108.5824023134591+0j),-2.0,3.0,40.0,10000.0,99999,,(-896.8175976865409+0j),0.0,1116000403110102120300504000051000600007000080000
3110,ESGJ,57.7576,14.0687,2024-04-17 00:20:00,,,,,-2.0,1005.0,(189.83937955072253+0j),-2.0,0.0,0.0,10000.0,99999,,(-814.9606204492775+0j),0.0,1116000000110202120300504000051000600007000080000
3112,ESKN,58.7886,16.9122,2024-04-17 00:20:00,,,,,1.0,1004.0,(7785.865475753486+0j),-2.0,9.0,330.0,10000.0,99999,,(6782.365475753486+0j),0.0,1116003309100102120300404000051000600007000080000
3113,ESMK,55.9217,14.0855,2024-04-17 00:20:00,,,,,3.0,1004.0,(2012.1348963270007+0j),3.0,6.0,290.0,10000.0,99999,3.0,(1008.1348963270007+0j),0.0,1116032906100302030300404000051000600007000083000
3114,ESMS,55.53631,13.3762,2024-04-17 00:20:00,,,,,4.0,1004.0,(3633.5620328939294+0j),3.0,5.0,260.0,10000.0,99999,,(2629.4620328939295+0j),0.0,1116002605100402030300404000051000600007000080000
3115,ESMX,56.9291,14.728,2024-04-17 00:20:00,,,,,0.0,1004.0,(38.393626078781125+0j),0.0,2.0,290.0,10000.0,99999,8.0,(-965.4063739212188+0j),0.0,1116082902100002000300404000051000600007000088000
3116,ESNN,62.5281,17.4439,2024-04-17 00:20:00,,,,,-0.0,1006.0,(38.47010740563129+0j),-4.0,9.0,310.0,10000.0,99999,8.0,(-967.4298925943687+0j),0.0,1116083109110002140300604000051000600007000088000
3117,ESNO,63.4083,18.99,2024-04-17 00:20:00,,,,,-0.0,1005.0,(38.4318667422062+0j),-3.0,5.0,320.0,10000.0,99999,1.0,(-967.4681332577937+0j),0.0,1116013205110002130300504000051000600007000081000
3118,ESNQ,67.822,20.3368,2024-04-17 00:20:00,71.0,36.0,h,magenta,-7.0,1008.0,(2732.225099887923+0j),-9.0,5.0,360.0,1600.0,99999,5.0,(1721.6250998879232+0j),0.2,1110053605110702190300804000051000600207710085000
3120,ESNU,63.7918,20.2828,2024-04-17 00:20:00,,,,,1.0,1005.0,(1955.1354870184996+0j),-2.0,9.0,360.0,10000.0,99999,8.0,(949.5354870184996+0j),0.0,1116083609100102120300504000051000600007000088000
3121,ESOK,59.4447,13.3374,2024-04-17 00:20:00,,,,,-1.0,1005.0,(215.55836928964644+0j),-1.0,0.0,0.0,10000.0,99999,3.0,(-790.2416307103535+0j),0.0,1116030000110102110300504000051000600007000083000
3122,ESOW,59.5894,16.6336,2024-04-17 00:20:00,,,,,-1.0,1005.0,(406.7416671766117+0j),-4.0,4.0,340.0,10000.0,99999,8.0,(-597.6583328233883+0j),0.0,1116083404110102140300504000051000600007000088000
3124,ESSB,59.3544,17.9417,2024-04-17 00:20:00,,,,,1.0,1004.0,(3032.488664126141+0j),-1.0,9.0,340.0,10000.0,99999,7.0,(2029.288664126141+0j),0.0,1116073409100102110300404000051000600007000087000
3125,ESSD,60.422,15.5152,2024-04-17 00:20:00,,,,,1.0,1005.0,(19.967386750355935+0j),0.0,4.0,260.0,10000.0,99999,8.0,(-985.6326132496441+0j),0.0,1116082604100102000300504000051000600007000088000
3126,ESSP,58.5863,16.2506,2024-04-17 00:20:00,,,,,1.0,1005.0,(2316.765997933392+0j),-3.0,5.0,320.0,10000.0,99999,,(1312.565997933392+0j),0.0,1116003205100102130300504000051000600007000080000
3128,LSGC,47.0839,6.79284,2024-04-17 00:20:00,71.0,36.0,h,magenta,0.0,1010.0,(38.62307005933162+0j),0.0,3.0,230.0,10000.0,99999,6.0,(-975.2769299406683+0j),0.2,1116062303100002000301004000051000600207710086000
3129,LSGG,46.2381,6.10895,2024-04-17 00:20:00,80.0,36.0,q,green,6.0,1013.0,(12.165177978761447+0j),4.0,3.0,,10000.0,99999,6.0,(-1003.3348220212386+0j),0.0,1116063603100602040301304000051000600007800086000
3130,LSGS,46.2196,7.32676,2024-04-17 00:20:00,61.0,36.0,^,green,5.0,1012.0,(15.151512087558775+0j),3.0,4.0,250.0,10000.0,99999,6.0,(-998.5484879124413+0j),0.6,1116062504100502030301204000051000600607610086000
3131,LSZA,46.0043,8.91058,2024-04-17 00:20:00,,,,,8.0,1007.0,(6515.000635684667+0j),1.0,1.0,,10000.0,99999,3.0,(5509.300635684667+0j),0.0,1116033601100802010300704000051000600007000083000
3132,LSZB,46.9141,7.49715,2024-04-17 00:20:00,,,,,4.0,1011.0,(18.103070598656476+0j),3.0,1.0,,10000.0,99999,3.0,(-995.0969294013436+0j),0.6,1116033601100402030301104000051000600607000083000
3133,LSZG,47.1816,7.41719,2024-04-17 00:20:00,,,,,5.0,1011.0,(13.936878841237288+0j),5.0,9.0,210.0,10000.0,99999,3.0,(-999.4631211587626+0j),0.6,1116032109100502050301104000051000600607000083000
3134,LSZH,47.4647,8.54917,2024-04-17 00:20:00,,,,,5.0,1010.0,(13.959003628782824+0j),3.0,7.0,250.0,10000.0,99999,5.0,(-998.0409963712171+0j),0.0,1116052507100502030301004000051000600007000085000
3135,LSZL,46.1608,8.87861,2024-04-17 00:20:00,,,,,6.0,1007.0,(6203.832181824097+0j),0.0,2.0,,10000.0,99999,1.0,(5197.432181824097+0j),0.0,1116013602100602000300704000051000600007000081000
3136,LSZR,47.485,9.56077,2024-04-17 00:20:00,,,,,6.0,1009.0,(11.395614225943786+0j),3.0,7.0,270.0,10000.0,99999,6.0,(-999.7043857740563+0j),0.4,1116062707100602030300904000051000600407000086000
3137,LSZS,46.5341,9.88411,2024-04-17 00:20:00,,,,,-1.0,1005.0,(41.37262384974447+0j),-6.0,8.0,30.0,10000.0,99999,1.0,(-971.2273761502555+0j),0.0,1116010308110102160300504000051000600007000081000
3138,EGAA,54.6575,-6.21583,2024-04-17 00:20:00,61.0,36.0,^,green,5.0,1020.0,(3414.4043369278284+0j),3.0,12.0,310.0,7000.0,99999,3.0,(2394.9043369278284+0j),0.0,1114033112100502030302004000051000600007610083000
3139,EGBB,52.4539,-1.74803,2024-04-17 00:20:00,,,,,6.0,1017.0,(3450.171571490421+0j),2.0,9.0,300.0,10000.0,99999,,(2432.871571490421+0j),0.0,1116003009100602020301704000051000600007000080000
3141,EGFF,51.3967,-3.34333,2024-04-17 00:20:00,,,,,6.0,1019.0,(2570.678652470467+0j),3.0,9.0,310.0,10000.0,99999,,(1550.978652470467+0j),0.0,1116003109100602030301904000051000600007000080000
3142,EGGD,51.3827,-2.71909,2024-04-17 00:20:00,,,,,4.0,1019.0,(8668.765935078587+0j),3.0,6.0,290.0,10000.0,99999,,(7650.565935078587+0j),0.0,1116002906100402030301904000051000600007000080000
3147,EGLF,51.2758,-0.77633,2024-04-17 00:20:00,,,,,5.0,1017.0,(3101.727162300005+0j),3.0,4.0,270.0,10000.0,99999,3.0,(2086.727162300005+0j),0.0,1116032704100502030301704000051000600007000083000
3149,EGMD,50.9561,0.93917,2024-04-17 00:20:00,,,,,6.0,1016.0,(1092.4025199952553+0j),4.0,7.0,320.0,10000.0,99999,,0j,0.0,1116003207100602040301604000051000600007000080000
3150,EGNJ,53.5744,-0.35083,2024-04-17 00:20:00,,,,,5.0,1015.0,(1983.4933180878313+0j),2.0,7.0,260.0,10000.0,99999,,(968.7933180878313+0j),0.0,1116002607100502020301504000051000600007000080000
3152,EGLL,51.4706,-0.46194,2024-04-17 00:20:00,,,,,5.0,1017.0,(1657.689552250278+0j),4.0,3.0,270.0,10000.0,99999,,(640.789552250278+0j),0.0,1116002703100502040301704000051000600007000080000
3153,EGNM,53.8659,-1.66057,2024-04-17 00:20:00,,,,,3.0,1015.0,(11.854305319475896+0j),-0.0,10.0,310.0,10000.0,99999,,(-1003.0456946805241+0j),0.0,1116003110100302100301504000051000600007000080000
3155,EGNX,52.8311,-1.32806,2024-04-17 00:20:00,,,,,5.0,1016.0,(3790.293844160508+0j),4.0,7.0,260.0,10000.0,99999,,(2773.893844160508+0j),0.0,1116002607100502040301604000051000600007000080000
3156,EGPA,58.9578,-2.905,2024-04-17 00:20:00,61.0,36.0,^,green,6.0,1009.0,(1313.0767933755228+0j),4.0,23.0,330.0,10000.0,99999,5.0,(300.9767933755228+0j),0.0,1116053323100602040300904000051000600007610085000
3167,EGGP,53.3336,-2.84972,2024-04-17 00:20:00,,,,,7.0,1017.0,(1445.3593902526184+0j),2.0,14.0,320.0,10000.0,99999,3.0,0j,0.0,1116033214100702020301704000051000600007000083000
3168,EGGW,51.8747,-0.36833,2024-04-17 00:20:00,,,,,4.0,1016.0,(7451.121135439811+0j),3.0,9.0,270.0,10000.0,99999,,(6434.921135439811+0j),0.0,1116002709100402030301604000051000600007000080000
3172,EGPE,57.5425,-4.0475,2024-04-17 00:20:00,,,,,4.0,1015.0,(1298.4249286705149+0j),1.0,9.0,240.0,10000.0,99999,3.0,(283.1249286705149+0j),0.0,1116032409100402010301504000051000600007000083000
3173,EGPF,55.8719,-4.43306,2024-04-17 00:20:00,,,,,3.0,1017.0,(1336.4145489924235+0j),0.0,6.0,270.0,10000.0,99999,,(320.41454899242353+0j),0.0,1116002706100302000301704000051000600007000080000
3174,EGPL,57.4811,-7.36278,2024-04-17 00:20:00,,,,,6.0,1019.0,(1131.78011797022+0j),1.0,10.0,350.0,10000.0,99999,6.0,(112.88011797022011+0j),0.0,1116063510100602010301904000051000600007000086000
3183,EDGS,50.7077,8.08297,2024-04-17 00:20:00,,,,,3.0,1007.0,(22.776964081357278+0j),3.0,9.0,330.0,9000.0,99999,5.0,(-983.2230359186427+0j),0.4,1115053309100302030300704000051000600407000085000
3184,EDLV,51.6024,6.14217,2024-04-17 00:20:00,,,,,4.0,1011.0,(2078.5382886624766+0j),3.0,4.0,260.0,10000.0,99999,,0j,0.0,1116002604100402030301104000051000600007000080000
3190,ESGT,58.3181,12.345,2024-04-17 00:20:00,,,,,-1.0,1006.0,(-21269888.688333254-22231563.903249085j),-2.0,2.0,350.0,10000.0,99999,,(-21270894.588333253-22231563.903249085j),0.0,1116003502110102120300604000051000600007000080000
3192,ESMQ,56.6855,16.2876,2024-04-17 00:20:00,,,,,2.0,1004.0,(1312.9447655658075+0j),1.0,5.0,310.0,10000.0,99999,3.0,(309.8447655658075+0j),0.0,1116033105100202010300404000051000600007000083000
3193,ESMT,56.6911,12.8202,2024-04-17 00:20:00,,,,,1.0,1005.0,(5812.368364021768+0j),-1.0,6.0,40.0,10000.0,99999,1.0,(4808.368364021768+0j),0.0,1116010406100102110300504000051000600007000081000
3194,ESNG,67.1324,20.8146,2024-04-17 00:20:00,71.0,36.0,h,magenta,-4.0,1008.0,(725.1249696505467+0j),-6.0,5.0,10.0,7000.0,99999,7.0,(-284.6750303494532+0j),0.3,1114070105110402160300804000051000600307710087000
3195,ESNK,63.0486,17.7689,2024-04-17 00:20:00,,,,,0.0,1006.0,(38.47010740563129+0j),-2.0,4.0,320.0,10000.0,99999,8.0,(-967.8298925943686+0j),0.0,1116083204100002120300604000051000600007000088000
3196,ESNL,64.5483,18.7162,2024-04-17 00:20:00,,,,,-2.0,1006.0,(214.97566379789777+0j),-3.0,2.0,290.0,10000.0,99999,3.0,0j,0.0,1116032902110202130300604000051000600007000083000
3197,ESNX,65.5903,19.2819,2024-04-17 00:20:00,71.0,36.0,h,magenta,-4.0,1006.0,(311.5840142408246+0j),-6.0,7.0,10.0,10000.0,99999,2.0,0j,0.0,1116020107110402160300604000051000600007710082000
3198,ESOE,59.2237,15.038,2024-04-17 00:20:00,,,,,1.0,1005.0,(10.061906854963564+0j),-1.0,4.0,310.0,10000.0,99999,,(-995.3380931450364+0j),0.0,1116003104100102110300504000051000600007000080000
3200,ESTA,56.2961,12.8471,2024-04-17 00:20:00,,,,,1.0,1005.0,(4098.171325842609+0j),1.0,2.0,20.0,10000.0,99999,,(3093.971325842609+0j),0.0,1116000202100102010300504000051000600007000080000
3201,ESTL,56.0828,13.2125,2024-04-17 00:20:00,,,,,3.0,1005.0,(3019.078236047541+0j),3.0,3.0,340.0,10000.0,99999,,(2014.778236047541+0j),0.0,1116003403100302030300504000051000600007000080000
3202,ESUT,65.8061,15.0828,2024-04-17 00:20:00,,,,,-4.0,1007.0,(184.09944129639484+0j),-7.0,2.0,160.0,10000.0,99999,8.0,(-825.0005587036052+0j),0.0,1116081602110402170300704000051000600007000088000
3203,LGPA,37.0103,25.1281,2024-04-17 00:20:00,,,,,19.0,1007.0,(1255.7915578783725+0j),14.0,13.0,120.0,10000.0,99999,,0j,0.0,11160012131019020140300704000051000600007000080000
3204,EETN,59.4133,24.8328,2024-04-17 00:20:00,,,,,2.0,998.0,(3941.8556239093346+0j),2.0,4.0,60.0,9000.0,99999,6.0,(2943.7556239093346+0j),0.0,1115060604100202020399804000051000600007000086000
3205,EETU,58.3075,26.6904,2024-04-17 00:20:00,,,,,2.0,997.0,(6201.855874887942+0j),1.0,3.0,,10000.0,99999,8.0,(5205.355874887942+0j),0.0,1116083603100202010399704000051000600007000088000
3206,EFHK,60.3172,24.9633,2024-04-17 00:20:00,,,,,4.0,999.0,(2907.4890553263613+0j),2.0,5.0,360.0,10000.0,99999,6.0,(1908.6890553263613+0j),0.0,1116063605100402020399904000051000600007000086000
3208,EVLA,56.5175,21.0969,2024-04-17 00:20:00,,,,,3.0,999.0,(1187.9757727356814+0j),1.0,3.0,330.0,10000.0,99999,6.0,(188.77577273568136+0j),0.0,1116063303100302010399904000051000600007000086000
3209,EVRA,56.9236,23.9711,2024-04-17 00:20:00,,,,,2.0,997.0,(1683.1583035597157+0j),1.0,5.0,320.0,10000.0,99999,,0j,0.0,1116003205100202010399704000051000600007000080000
3210,EYKA,54.9639,24.0848,2024-04-17 00:20:00,,,,,4.0,998.0,(3865.3978278578757+0j),3.0,6.0,260.0,10000.0,99999,5.0,0j,0.0,1116052606100402030399804000051000600007000085000
3211,EYPA,55.9732,21.0939,2024-04-17 00:20:00,,,,,2.0,999.0,(1624.2208859530172+0j),1.0,7.0,360.0,10000.0,99999,6.0,(625.4208859530172+0j),0.0,1116063607100202010399904000051000600007000086000
3212,EYVI,54.6341,25.2858,2024-04-17 00:20:00,61.0,36.0,^,green,3.0,997.0,(11.162736737686501+0j),2.0,10.0,260.0,8000.0,99999,8.0,(-987.1372632623135+0j),0.2,1114082610100302020399704000051000600207610088000
3213,ESCF,58.4023,15.5257,2024-04-17 00:20:00,,,,,1.0,1005.0,(14.748132721735521+0j),-1.0,4.0,330.0,10000.0,99999,,(-990.0518672782645+0j),0.0,1116003304100102110300504000051000600007000080000
3216,ESCM,59.8973,17.5886,2024-04-17 00:20:00,,,,,-1.0,1004.0,(0.2603209141249676+0j),-2.0,6.0,320.0,10000.0,99999,,(-1004.3396790858751+0j),0.0,1116003206110102120300404000051000600007000080000
3230,EGCC,53.3537,-2.27495,2024-04-17 00:20:00,,,,,6.0,1017.0,(2865.2591271833553+0j),2.0,10.0,300.0,10000.0,99999,,(1848.8591271833552+0j),0.0,1116003010100602020301704000051000600007000080000
3233,EGNT,55.0375,-1.69167,2024-04-17 00:20:00,,,,,4.0,1014.0,(4056.930017435066+0j),1.0,8.0,310.0,10000.0,99999,,(3043.2300174350657+0j),0.0,1116003108100402010301404000051000600007000080000
3238,EGTE,50.7344,-3.41389,2024-04-17 00:20:00,,,,,6.0,1020.0,(1679.479861423466+0j),3.0,3.0,300.0,10000.0,99999,,(660.079861423466+0j),0.0,1116003003100602030302004000051000600007000080000
3241,ENBS,70.6005,29.6914,2024-04-17 00:20:00,,,,,-4.0,1015.0,(-191977.1031450836-200656.96154167375j),-7.0,19.0,120.0,10000.0,99999,4.0,(-192993.8031450836-200656.96154167375j),0.0,1116041219110402170301504000051000600007000084000
3242,ENHK,70.4867,22.1397,2024-04-17 00:20:00,,,,,-1.0,1013.0,(409.9794117909529+0j),-7.0,5.0,120.0,10000.0,99999,,(-602.9205882090471+0j),0.0,1116001205110102170301304000051000600007000080000
3243,ENHV,71.0097,25.9836,2024-04-17 00:20:00,,,,,-1.0,1015.0,(68.87577741811528+0j),-7.0,6.0,150.0,10000.0,99999,4.0,(-946.9242225818847+0j),0.0,1116041506110102170301504000051000600007000084000
3244,ENNM,64.4722,11.5786,2024-04-17 00:20:00,,,,,-3.0,1009.0,(929.9451000631409+0j),-5.0,0.0,0.0,10000.0,99999,,(-79.15489993685912+0j),0.0,1116000000110302150300904000051000600007000080000
3245,LIEE,39.2515,9.05428,2024-04-17 00:20:00,,,,,15.0,1009.0,(1039.0702314464188+0j),6.0,12.0,350.0,10000.0,99999,,(29.170231446418825+0j),0.0,1116003512101502060300904000051000600007000080000
3246,LIMC,45.6306,8.72811,2024-04-17 00:20:00,,,,,8.0,1007.0,(5563.869777251846+0j),4.0,5.0,110.0,10000.0,99999,,(4558.469777251847+0j),0.0,1116001105100802040300704000051000600007000080000
3247,LIME,45.6739,9.70417,2024-04-17 00:20:00,,,,,7.0,1007.0,(6378.192368659096+0j),4.0,2.0,,10000.0,99999,,(5372.492368659096+0j),0.0,1116003602100702040300704000051000600007000080000
3248,LIMF,45.2008,7.64963,2024-04-17 00:20:00,,,,,9.0,1006.0,(6277.88259982223+0j),-4.0,3.0,40.0,10000.0,99999,,(5271.98259982223+0j),0.0,1116000403100902140300604000051000600007000080000
3249,LIRF,41.8045,12.2508,2024-04-17 00:20:00,,,,,11.0,1002.0,(1049.1531930043452+0j),9.0,4.0,60.0,8000.0,99999,,(46.45319300434517+0j),0.0,1114000604101102090300204000051000600007000080000
3250,LOWI,47.2602,11.344,2024-04-17 00:20:00,61.0,36.0,^,green,7.0,1007.0,(13.521897991043557+0j),1.0,10.0,250.0,10000.0,99999,3.0,(-995.1781020089564+0j),0.0,1116032510100702010300704000051000600007610083000
3251,LOWK,46.6425,14.3377,2024-04-17 00:20:00,,,,,1.0,1007.0,(29.837109627571348+0j),0.0,3.0,330.0,10000.0,99999,3.0,(-980.4628903724287+0j),0.0,1116033303100102000300704000051000600007000083000
3256,ENMH,71.0297,27.8267,2024-04-17 00:20:00,,,,,-4.0,1015.0,(702.278581476631+0j),-6.0,4.0,180.0,10000.0,99999,8.0,(-314.22141852336904+0j),0.0,1116081804110402160301504000051000600007000088000
3257,LIBD,41.1389,16.7606,2024-04-17 00:20:00,,,,,16.0,1000.0,(1406.8185173813904+0j),13.0,3.0,180.0,10000.0,99999,,(404.71851738139037+0j),0.0,11160018031016020130300004000051000600007000080000
3259,LIBR,40.6576,17.947,2024-04-17 00:20:00,,,,,17.0,1001.0,(1097.4553013979985+0j),15.0,6.0,190.0,10000.0,99999,,(93.35530139799846+0j),0.0,11160019061017020150300104000051000600007000080000
3261,LIEO,40.8987,9.51763,2024-04-17 00:20:00,,,,,15.0,1005.0,(1091.2212844394019+0j),4.0,20.0,270.0,10000.0,99999,6.0,(85.72128443940187+0j),0.0,1116062720101502040300504000051000600007000086000
3262,LIMJ,44.4133,8.8375,2024-04-17 00:20:00,,,,,15.0,1004.0,(1033.9212213797864+0j),-4.0,7.0,40.0,10000.0,99999,,(30.121221379786448+0j),0.0,1116000407101502140300404000051000600007000080000
3263,LIML,45.4451,9.27674,2024-04-17 00:20:00,,,,,9.0,1007.0,(2662.4235361220244+0j),6.0,4.0,80.0,10000.0,99999,,(1656.7235361220244+0j),0.0,1116000804100902060300704000051000600007000080000
3264,LIPE,44.5354,11.2887,2024-04-17 00:20:00,,,,,10.0,1006.0,(1464.383840487681+0j),6.0,1.0,280.0,10000.0,99999,6.0,(460.98384048768105+0j),0.0,1116062801101002060300604000051000600007000086000
3265,LIPQ,45.8275,13.4722,2024-04-17 00:20:00,,,,,6.0,1005.0,(1238.4833044990175+0j),2.0,5.0,360.0,10000.0,99999,,(232.98330449901755+0j),0.0,1116003605100602020300504000051000600007000080000
3267,LIRA,41.7994,12.5949,2024-04-17 00:20:00,,,,,12.0,1002.0,(2476.7491588156377+0j),8.0,2.0,10.0,10000.0,99999,,(1473.5491588156376+0j),0.0,1116000102101202080300204000051000600007000080000
3269,LIRP,43.6839,10.3927,2024-04-17 00:15:00,,,,,11.0,1002.0,(1020.7503599141276+0j),11.0,9.0,130.0,10000.0,99999,1.0,(19.05035991412751+0j),0.0,11160113091011020110300204000051000600007000081000
3270,LIRQ,43.81,11.2051,2024-04-17 00:20:00,,,,,11.0,1004.0,(1485.8295996835775+0j),6.0,6.0,350.0,10000.0,99999,,(483.62959968357745+0j),0.0,1116003506101102060300404000051000600007000080000
3271,LOWG,46.9911,15.4396,2024-04-17 00:20:00,,,,,2.0,1005.0,(21.057470997907078+0j),2.0,2.0,120.0,10000.0,99999,2.0,(-987.6425290020929+0j),0.0,1116021202100202020300504000051000600007000082000
3272,LOWL,48.2332,14.1875,2024-04-17 00:20:00,61.0,36.0,^,green,5.0,1006.0,(10.4108109469337+0j),4.0,14.0,290.0,10000.0,99999,3.0,(-996.3891890530663+0j),0.0,1116032914100502040300604000051000600007610083000
3273,LOWS,47.7933,13.0043,2024-04-17 00:20:00,,,,,8.0,1006.0,(9.542339035212182+0j),0.0,11.0,290.0,10000.0,99999,3.0,(-998.3576609647878+0j),0.0,1116032911100802000300604000051000600007000083000
3274,LOWW,48.1103,16.5697,2024-04-17 00:20:00,,,,,5.0,1004.0,(6782.641833500358+0j),2.0,4.0,240.0,10000.0,99999,2.0,(5776.541833500358+0j),0.0,1116022404100502020300404000051000600007000082000
3283,EGLC,51.5053,0.05528,2024-04-17 00:20:00,,,,,8.0,1017.0,(1100.9543389915893+0j),4.0,5.0,290.0,10000.0,99999,,(84.95433899158934+0j),0.0,1116002905100802040301704000051000600007000080000
3290,ESGP,57.7747,11.8704,2024-04-17 00:20:00,,,,,-1.0,1006.0,(6.040804591643359+0j),-3.0,0.0,0.0,10000.0,99999,,(-998.8591954083566+0j),0.0,1116000000110102130300604000051000600007000080000
3291,ESNS,64.6248,21.0769,2024-04-17 00:20:00,71.0,36.0,h,magenta,-1.0,1006.0,(932195971.1776417+0j),-1.0,7.0,350.0,2000.0,99999,7.0,(932194965.3776418+0j),0.1,1111073507110102110300604000051000600107710087000
3293,ESSL,58.4062,15.6805,2024-04-17 00:20:00,,,,,1.0,1005.0,(9.330278921405409+0j),-1.0,5.0,350.0,10000.0,99999,,(-995.0697210785945+0j),0.0,1116003505100102110300504000051000600007000080000
3294,ESSV,57.6628,18.3462,2024-04-17 00:20:00,,,,,2.0,1002.0,(4809.69248918408+0j),-0.0,13.0,360.0,10000.0,99999,,(3807.49248918408+0j),0.1,1116003613100202100300204000051000600107000080000
3300,ENAT,69.9761,23.3717,2024-04-17 00:20:00,,,,,-3.0,1014.0,(912.3772974859592+0j),-8.0,6.0,170.0,10000.0,99999,4.0,(-101.52270251404082+0j),0.0,1116041706110302180301404000051000600007000084000
3301,ENBN,65.4611,12.2175,2024-04-17 00:20:00,,,,,1.0,1009.0,(2007.2952872927465+0j),-6.0,6.0,30.0,10000.0,99999,,0j,0.0,1116000306100102160300904000051000600007000080000
3302,ENML,62.7447,7.2625,2024-04-17 00:20:00,,,,,4.0,1010.0,(1097.8417179862756+0j),-2.0,6.0,50.0,10000.0,99999,8.0,(89.04171798627567+0j),0.0,1116080506100402120301004000051000600007000088000
3303,ENMS,65.784,13.2149,2024-04-17 00:20:00,,,,,-4.0,1009.0,(5.706158097783715+0j),-6.0,3.0,170.0,10000.0,99999,,0j,0.0,1116001703110402160300904000051000600007000080000
3304,ENRS,67.5278,12.1033,2024-04-17 00:20:00,,,,,3.0,1010.0,(1091.8897587837484+0j),1.0,2.0,280.0,10000.0,99999,8.0,0j,0.0,1116082802100302010301004000051000600007000088000
3305,ENSD,61.83,6.10583,2024-04-17 00:20:00,,,,,4.0,1008.0,(3143.811689122487+0j),2.0,0.0,0.0,10000.0,99999,,0j,0.0,1116000000100402020300804000051000600007000080000
3307,ENSK,68.57883,15.03342,2024-04-17 00:20:00,,,,,-1.0,1010.0,(662.7821802117452+0j),-4.0,6.0,80.0,10000.0,99999,,(-346.7178197882548+0j),0.0,1116000806110102140301004000051000600007000080000
3308,ENSS,70.3554,31.0449,2024-04-17 00:20:00,,,,,-2.0,1016.0,(411.19356602133087+0j),-9.0,18.0,100.0,10000.0,99999,8.0,(-604.9064339786692+0j),0.0,1116081018110202190301604000051000600007000088000
3309,ENVD,70.0653,29.8447,2024-04-17 00:20:00,71.0,36.0,h,magenta,-2.0,1015.0,(1.7213262537330645+0j),-9.0,14.0,120.0,10000.0,99999,4.0,0j,0.0,1116041214110202190301504000051000600007710084000
3310,LGAL,40.8559,25.9563,2024-04-17 00:20:00,,,,,19.0,1005.0,(1048.7780087649066+0j),14.0,10.0,200.0,10000.0,99999,1.0,(42.47800876490669+0j),0.0,11160120101019020140300504000051000600007000081000
3311,LGKO,36.7933,27.0917,2024-04-17 00:20:00,,,,,19.0,1009.0,(1861.3478085471045+0j),13.0,15.0,130.0,10000.0,99999,1.0,(850.0478085471045+0j),0.0,11160113151019020130300904000051000600007000081000
3312,LGSA,35.5317,24.1497,2024-04-17 00:20:00,,,,,20.0,1006.0,(1979.1659010707615+0j),11.0,14.0,130.0,10000.0,99999,2.0,(970.9659010707614+0j),0.0,11160213141020020110300604000051000600007000082000
3314,LICJ,38.176,13.091,2024-04-17 00:20:00,,,,,17.0,1007.0,(1142.1801264836317+0j),12.0,15.0,230.0,10000.0,99999,,(134.28012648363176+0j),0.0,11160023151017020120300704000051000600007000080000
3315,LIPZ,45.5053,12.3519,2024-04-17 00:20:00,,,,,6.0,1006.0,(1046.4460786701725+0j),4.0,7.0,330.0,10000.0,99999,,(41.94607867017248+0j),0.0,1116003307100602040300604000051000600007000080000
3318,EBOS,51.1989,2.86222,2024-04-17 00:20:00,80.0,36.0,q,green,7.0,1014.0,(1079.2160783208735+0j),5.0,11.0,330.0,7000.0,99999,4.0,(65.51607832087348+0j),0.5,1114043311100702050301404000051000600507800084000
3330,EGJJ,49.2079,-2.19551,2024-04-17 00:20:00,,,,,9.0,1019.0,(2291.87716846037+0j),4.0,9.0,330.0,10000.0,99999,,(1272.8771684603698+0j),0.0,1116003309100902040301904000051000600007000080000
3333,EKSB,54.9644,9.79173,2024-04-17 00:20:00,,,,,6.0,1006.0,(1147.4491188100785+0j),1.0,6.0,290.0,10000.0,99999,,(141.8491188100785+0j),0.0,1116002906100602010300604000051000600007000080000
3335,EKVD,55.4363,9.33092,2024-04-17 00:20:00,,,,,3.0,1007.0,(3074.5294407657607+0j),1.0,3.0,300.0,10000.0,99999,,(2068.429440765761+0j),0.0,1116003003100302010300704000051000600007000080000
3337,EDAH,53.8787,14.1523,2024-04-17 00:20:00,,,,,5.0,1005.0,(1721.9644029988708+0j),2.0,3.0,10.0,10000.0,99999,4.0,(719.4644029988708+0j),0.0,1116040103100502020300504000051000600007000084000
3338,EDDB,52.36217,13.50067,2024-04-17 00:20:00,,,,,3.0,1005.0,(3283.962986382095+0j),1.0,8.0,330.0,10000.0,99999,3.0,(2281.062986382095+0j),0.0,1116033308100302010300504000051000600007000083000
3339,EDDC,51.1328,13.7672,2024-04-17 00:20:00,,,,,5.0,1004.0,(8324.063268886275+0j),4.0,8.0,320.0,10000.0,99999,6.0,(7319.763268886275+0j),0.0,1116063208100502040300404000051000600007000086000
3340,EDDE,50.9798,10.9581,2024-04-17 00:20:00,61.0,36.0,^,green,4.0,1006.0,(13.012605098201625+0j),3.0,9.0,290.0,10000.0,99999,5.0,(-992.5873949017983+0j),0.0,1116052909100402030300604000051000600007610085000
3341,EDDF,50.0264,8.54313,2024-04-17 00:20:00,,,,,5.0,1008.0,(4359.193649455795+0j),4.0,2.0,190.0,10000.0,99999,,(3351.593649455795+0j),0.0,1116001902100502040300804000051000600007000080000
3342,EDDG,52.1346,7.68483,2024-04-17 00:20:00,,,,,3.0,1009.0,(3364.1349708924095+0j),2.0,5.0,270.0,10000.0,99999,,(2356.6349708924095+0j),0.0,1116002705100302020300904000051000600007000080000
3343,EDDH,53.6304,9.98823,2024-04-17 00:20:00,,,,,5.0,1007.0,(1398.4495852867376+0j),4.0,2.0,320.0,10000.0,99999,1.0,(392.64958528673765+0j),0.0,1116013202100502040300704000051000600007000081000
3344,EDDK,50.8659,7.14274,2024-04-17 00:20:00,,,,,6.0,1010.0,(3216.672398388126+0j),6.0,6.0,330.0,10000.0,99999,1.0,(2208.272398388126+0j),0.2,1116013306100602060301004000051000600207000081000
3345,EDDL,51.2895,6.76678,2024-04-17 00:20:00,,,,,6.0,1010.0,(1987.035347993508+0j),4.0,7.0,320.0,10000.0,99999,1.0,(977.8353479935079+0j),0.2,1116013207100602040301004000051000600207000081000
3346,EDDM,48.3538,11.7861,2024-04-17 00:20:00,63.0,36.0,',green,4.0,1007.0,(16.76023096557774+0j),3.0,10.0,290.0,10000.0,99999,5.0,(-991.3397690344223+0j),0.0,1116052910100402030300704000051000600007630085000
3347,EDDN,49.4987,11.0669,2024-04-17 00:20:00,45.0,36.0,N,yellow,3.0,1006.0,(16.06189457585598+0j),3.0,5.0,300.0,650.0,99999,,(-990.338105424144+0j),0.4,1110003005100302030300604000051000600407450080000
3348,EDDP,51.4324,12.2416,2024-04-17 00:20:00,,,,,5.0,1006.0,(5402.178042050069+0j),4.0,6.0,340.0,10000.0,99999,1.0,(4397.078042050069+0j),0.1,1116013406100502040300604000051000600107000081000
3349,EDDR,49.2146,7.10951,2024-04-17 00:20:00,,,,,6.0,1009.0,(9.568867270605615+0j),5.0,8.0,280.0,10000.0,99999,6.0,(-1000.5311327293944+0j),0.0,1116062808100602050300904000051000600007000086000
3350,EDDS,48.6899,9.22196,2024-04-17 00:20:00,63.0,36.0,',green,5.0,1007.0,(12.880529956037252+0j),3.0,9.0,260.0,10000.0,99999,4.0,(-996.1194700439628+0j),0.0,1116042609100502030300704000051000600007630084000
3351,EDDV,52.4611,9.68508,2024-04-17 00:20:00,,,,,6.0,1007.0,(2252.102656382555+0j),4.0,4.0,260.0,10000.0,99999,3.0,(1247.4026563825548+0j),0.0,1116032604100602040300704000051000600007000083000
3352,EDDW,53.0475,8.78667,2024-04-17 00:20:00,,,,,4.0,1007.0,(1130.467484112702+0j),2.0,8.0,300.0,10000.0,99999,,(123.56748411270212+0j),0.0,1116003008100402020300704000051000600007000080000
3354,EDFM,49.47306,8.51417,2024-04-17 00:20:00,,,,,8.0,1008.0,(2630.410306777342+0j),5.0,6.0,320.0,10000.0,99999,7.0,(1623.4103067773422+0j),0.3,1116073206100802050300804000051000600307000087000
3359,EDVK,51.40833,9.3775,2024-04-17 00:20:00,,,,,5.0,1007.0,(9.800886711112382+0j),4.0,4.0,320.0,10000.0,99999,5.0,(-995.5991132888876+0j),0.0,1116053204100502040300704000051000600007000085000
3362,EDFH,49.9487,7.26389,2024-04-17 00:20:00,61.0,36.0,^,green,3.0,1008.0,(20.970861916745115+0j),2.0,4.0,270.0,7000.0,99999,6.0,(-987.8291380832549+0j),0.1,1114062704100302020300804000051000600107610086000
3363,EDHK,54.37944,10.14528,2024-04-17 00:20:00,,,,,4.0,1006.0,(2023.5636013277792+0j),2.0,5.0,310.0,10000.0,99999,1.0,(1017.9636013277792+0j),0.0,1116013105100402020300604000051000600007000081000
3369,ENBV,70.8714,29.0342,2024-04-17 00:20:00,71.0,36.0,h,magenta,-3.0,1016.0,(583.5335870329591+0j),-5.0,7.0,140.0,10000.0,99999,6.0,(-432.4664129670409+0j),0.0,1116061407110302150301604000051000600007710086000
3370,ENEV,68.4913,16.6781,2024-04-17 00:20:00,,,,,-0.0,1010.0,(38.62307005933162+0j),-7.0,9.0,120.0,10000.0,99999,,0j,0.0,1116001209110002170301004000051000600007000080000
3371,ENKB,63.1118,7.82452,2024-04-17 00:20:00,,,,,3.0,1010.0,(4118.560237911474+0j),-3.0,8.0,50.0,10000.0,99999,,0j,0.0,1116000508100302130301004000051000600007000080000
3372,ENNA,70.0688,24.9735,2024-04-17 00:20:00,,,,,-4.0,1014.0,(807.7049812229352+0j),-8.0,4.0,200.0,10000.0,99999,4.0,(-206.39501877706482+0j),0.0,1116042004110402180301404000051000600007000084000
3373,ENRA,66.3639,14.3014,2024-04-17 00:20:00,,,,,-3.0,1009.0,(2.807249106741098e-07+0j),-5.0,0.0,0.0,10000.0,99999,3.0,0j,0.0,1116030000110302150300904000051000600007000083000
3374,ENSR,69.7868,20.9594,2024-04-17 00:20:00,,,,,-2.0,1013.0,(753.026655236957+0j),-8.0,9.0,140.0,10000.0,99999,4.0,(-258.473344763043+0j),0.0,1116041409110202180301304000051000600007000084000
3375,LGKL,37.0683,22.0255,2024-04-17 00:20:00,,,,,14.0,1006.0,(1070.701553048125+0j),13.0,0.0,0.0,10000.0,99999,1.0,(62.00155304812506+0j),0.0,11160100001014020130300604000051000600007000081000
3376,LGTS,40.5197,22.9709,2024-04-17 00:20:00,,,,,17.0,1002.0,(1046.7270376524932+0j),17.0,3.0,,10000.0,99999,3.0,(42.22703765249321+0j),0.0,11160336031017020170300204000051000600007000083000
3377,LICC,37.4668,15.0664,2024-04-17 00:20:00,,,,,16.0,1005.0,(1090.1843481266949+0j),12.0,13.0,260.0,10000.0,99999,1.0,(82.88434812669493+0j),0.0,11160126131016020120300504000051000600007000081000
3379,LIPR,44.0203,12.6117,2024-04-17 00:20:00,,,,,12.0,1005.0,(1122.21983832206+0j),6.0,6.0,80.0,10000.0,99999,3.0,(120.61983832205999+0j),0.0,1116030806101202060300504000051000600007000083000
3380,LIPX,45.3957,10.8885,2024-04-17 00:20:00,,,,,7.0,1007.0,(2421.313561497042+0j),4.0,4.0,340.0,10000.0,99999,3.0,(1416.213561497042+0j),0.0,1116033404100702040300704000051000600007000083000
3382,EFKI,64.2855,27.6924,2024-04-17 00:20:00,,,,,-4.0,1004.0,(-116170.46319473386-121422.87691427278j),-9.0,7.0,60.0,10000.0,99999,3.0,(-117176.06319473387-121422.87691427278j),0.0,1116030607110402190300404000051000600007000083000
3383,EFKU,63.0071,27.7978,2024-04-17 00:20:00,,,,,-2.0,1003.0,(11718471.080066893+0j),-6.0,10.0,60.0,10000.0,99999,8.0,(11717467.780066893+0j),0.0,1116080610110202160300304000051000600007000088000
3384,EFOU,64.9301,25.3546,2024-04-17 00:20:00,,,,,-1.0,1006.0,(47.78405955589907+0j),-8.0,9.0,70.0,10000.0,99999,6.0,(-958.415940444101+0j),0.0,1116060709110102180300604000051000600007000086000
3386,EBBR,50.9014,4.48444,2024-04-17 00:20:00,,,,,4.0,1012.0,(3007.0698652737824+0j),3.0,5.0,280.0,10000.0,99999,,(1993.8698652737824+0j),0.2,1116002805100402030301204000051000600207000080000
3387,EGPD,57.2019,-2.19778,2024-04-17 00:20:00,,,,,4.0,1011.0,(3391.860252872774+0j),1.0,18.0,300.0,10000.0,99999,4.0,(2379.560252872774+0j),0.0,1116043018100402010301104000051000600007000084000
3388,EGPH,55.95,-3.3725,2024-04-17 00:20:00,,,,,3.0,1015.0,(2966.4200249044425+0j),-0.0,5.0,260.0,10000.0,99999,,(1951.6200249044425+0j),0.0,1116002605100302100301504000051000600007000080000
3389,EGPK,55.5094,-4.58667,2024-04-17 00:20:00,,,,,5.0,1017.0,(1508.763683646752+0j),1.0,12.0,310.0,10000.0,99999,,(491.9636836467521+0j),0.0,1116003112100502010301704000051000600007000080000
3390,EGPO,58.2156,-6.33111,2024-04-17 00:20:00,,,,,4.0,1018.0,(1254.5034865472635+0j),2.0,7.0,320.0,10000.0,99999,4.0,(237.40348654726347+0j),0.0,1116043207100402020301804000051000600007000084000
3391,EKAH,56.3,10.619,2024-04-17 00:20:00,,,,,1.0,1006.0,(4828.89285840238+0j),-2.0,2.0,270.0,10000.0,99999,1.0,(3822.8928584023797+0j),0.0,1116012702100102120300604000051000600007000081000
3392,EKKA,56.2975,9.12463,2024-04-17 00:20:00,,,,,5.0,1006.0,(2412.2187267837808+0j),4.0,7.0,280.0,10000.0,99999,8.0,(1405.7187267837808+0j),0.0,1116082807100502040300604000051000600007000088000
3393,EKYT,57.09276,9.84924,2024-04-17 00:20:00,,,,,2.0,1006.0,(1184.0098120018179+0j),1.0,1.0,230.0,10000.0,99999,,(177.7098120018179+0j),0.0,1116002301100202010300604000051000600007000080000
3394,ENAN,69.2925,16.1442,2024-04-17 00:20:00,,,,,-0.0,1011.0,(38.661310722756696+0j),-4.0,10.0,150.0,10000.0,99999,,0j,0.0,1116001510110002140301104000051000600007000080000
3395,ENBO,67.2692,14.3653,2024-04-17 00:20:00,,,,,-2.0,1009.0,(408.3605394837823+0j),-4.0,2.0,90.0,10000.0,99999,,(-601.5394605162177+0j),0.0,1116000902110202140300904000051000600007000080000
3396,ENGM,60.1939,11.1004,2024-04-17 00:20:00,,,,,-2.0,1005.0,(235.81190571663328+0j),-6.0,5.0,10.0,10000.0,99999,,0j,0.0,1116000105110202160300504000051000600007000080000
3397,ENOL,63.6989,9.604,2024-04-17 00:20:00,,,,,3.0,1009.0,(1351.6963156819315+0j),-2.0,4.0,40.0,10000.0,99999,1.0,(342.69631568193154+0j),0.0,1116010404100302120300904000051000600007000081000
3398,ENSH,68.2433,14.6692,2024-04-17 00:20:00,,,,,2.0,1010.0,(1518.621424360015+0j),-3.0,13.0,120.0,10000.0,99999,6.0,(508.92142436001495+0j),0.0,1116061213100202130301004000051000600007000086000
3399,ENTC,69.6833,18.9189,2024-04-17 00:20:00,,,,,-1.0,1011.0,(219.17168934776817+0j),-6.0,8.0,180.0,10000.0,99999,,(-791.3283106522318+0j),0.0,1116001808110102160301104000051000600007000080000
3400,ESSA,59.6519,17.9186,2024-04-17 00:20:00,,,,,-0.0,1003.0,(38.35538541535605+0j),-2.0,10.0,340.0,10000.0,99999,,(-965.6446145846439+0j),0.0,1116003410110002120300304000051000600007000080000
3401,EGSH,52.6758,1.28278,2024-04-17 00:20:00,,,,,3.0,1015.0,(2672.825553052155+0j),1.0,6.0,260.0,10000.0,99999,,(1657.125553052155+0j),0.0,1116002606100302010301504000051000600007000080000
3433,EBAW,51.1894,4.46028,2024-04-17 00:20:00,,,,,6.0,1012.0,(1247.1095563711501+0j),2.0,4.0,320.0,10000.0,99999,,(234.90955637115007+0j),0.0,1116003204100602020301204000051000600007000080000
3438,EDHL,53.8054,10.7192,2024-04-17 00:20:00,,,,,3.0,1007.0,(1686.012029474593+0j),2.0,2.0,260.0,10000.0,99999,3.0,(680.212029474593+0j),0.0,1116032602100302020300704000051000600007000083000
3443,EDMO,48.0814,11.2831,2024-04-17 00:20:00,,,,,5.0,1007.0,(17.256875146719516+0j),2.0,14.0,230.0,10000.0,99999,7.0,(-991.5431248532805+0j),0.0,1116072314100502020300704000051000600007000087000
3448,EDVE,52.3192,10.5561,2024-04-17 00:20:00,,,,,5.0,1007.0,(3644.4192899643267+0j),5.0,0.0,0.0,10000.0,99999,7.0,(2638.9192899643267+0j),0.0,1116070000100502050300704000051000600007000087000
3449,EDXW,54.9132,8.34047,2024-04-17 00:20:00,,,,,6.0,1007.0,(1316.8679072955858+0j),4.0,12.0,340.0,10000.0,99999,1.0,(309.6679072955858+0j),0.0,1116013412100602040300704000051000600007000081000
3451,ESKM,60.9579,14.5114,2024-04-17 00:20:00,,,,,-1.0,1005.0,(83.93691311386615+0j),-1.0,5.0,340.0,10000.0,99999,6.0,(-921.6630868861339+0j),0.0,1116063405110102110300504000051000600007000086000
3458,EBCI,50.4592,4.45382,2024-04-17 00:20:00,,,,,3.0,1013.0,(10.882674829196286+0j),2.0,2.0,,6000.0,99999,,(-1001.6173251708037+0j),0.3,1113003602100302020301304000051000600307000080000
3459,EBLG,50.6374,5.44322,2024-04-17 00:20:00,,,,,4.0,1012.0,(9.053097894560167+0j),3.0,6.0,290.0,9000.0,99999,3.0,(-1001.9469021054398+0j),0.6,1115032906100402030301204000051000600607000083000
3462,EDLN,51.23028,6.50444,2024-04-17 00:20:00,,,,,6.0,1011.0,(1828.0809799675396+0j),4.0,6.0,290.0,10000.0,99999,,(819.0809799675396+0j),0.0,1116002906100602040301104000051000600007000080000
3465,EDMA,48.42528,10.93167,2024-04-17 00:20:00,,,,,4.0,1007.0,(16.966788105306946+0j),3.0,8.0,350.0,10000.0,99999,4.0,(-991.833211894693+0j),0.0,1116043508100402030300704000051000600007000084000
3466,EDNY,47.6713,9.51149,2024-04-17 00:20:00,,,,,6.0,1009.0,(11.818504695060746+0j),5.0,12.0,250.0,10000.0,99999,7.0,(-999.1814953049393+0j),4.8,1116072512100602050300904000051000604707000087000
3469,EDTL,48.3693,7.82772,2024-04-17 00:20:00,,,,,6.0,1010.0,(5013.781415286343+0j),5.0,8.0,200.0,10000.0,99999,6.0,(4002.781415286343+0j),0.0,1116062008100602050301004000051000600007000086000
3470,ELLX,49.6266,6.21152,2024-04-17 00:20:00,80.0,36.0,q,green,5.0,1010.0,(12.592499987354435+0j),3.0,9.0,310.0,10000.0,99999,3.0,(-997.8075000126455+0j),0.0,1116033109100502030301004000051000600007800083000
3481,EDAC,50.98195,12.50639,2024-04-17 00:20:00,,,,,6.0,1005.0,(6105.533208593666+0j),5.0,7.0,310.0,10000.0,99999,5.0,(5097.033208593666+0j),0.0,1116053107100602050300504000051000600007000085000
3482,EDHI,53.53528,9.83556,2024-04-17 00:20:00,,,,,6.0,1007.0,(1142.5358292757046+0j),5.0,4.0,280.0,10000.0,99999,5.0,(136.43582927570458+0j),0.0,1116052804100602050300704000051000600007000085000
3483,EDLP,51.6141,8.61632,2024-04-17 00:20:00,,,,,5.0,1008.0,(7806.964945256676+0j),3.0,3.0,250.0,10000.0,99999,2.0,(6799.764945256677+0j),0.3,1116022503100502030300804000051000600307000082000
3484,EDLW,51.5183,7.61224,2024-04-17 00:20:00,,,,,4.0,1009.0,(6108.23490921482+0j),4.0,4.0,260.0,10000.0,99999,3.0,(5100.53490921482+0j),0.3,1116032604100402040300904000051000600307000083000
3485,EDQM,50.28861,11.85639,2024-04-17 00:20:00,,,,,3.0,1004.0,(22.672863882451857+0j),2.0,6.0,250.0,10000.0,99999,4.0,(-982.627136117548+0j),0.0,1116042506100302020300404000051000600007000084000
3486,EDSB,48.7794,8.0805,2024-04-17 00:20:00,,,,,7.0,1010.0,(3618.8070982786194+0j),4.0,7.0,240.0,10000.0,99999,8.0,(2609.3070982786194+0j),0.0,1116082407100702040301004000051000600007000088000
3487,ENBL,61.3911,5.75694,2024-04-17 00:20:00,,,,,3.0,1007.0,(16.07786067384391+0j),2.0,0.0,0.0,10000.0,99999,8.0,(-991.5221393261561+0j),0.0,1116080000100302020300704000051000600007000088000
3488,ENFL,61.5836,5.02472,2024-04-17 00:20:00,,,,,3.0,1008.0,(1468.6295803495161+0j),2.0,4.0,100.0,10000.0,99999,,(460.72958034951614+0j),0.0,1116001004100302020300804000051000600007000080000
3489,ENHF,70.6797,23.6686,2024-04-17 00:20:00,,,,,-4.0,1013.0,(0.5427352629061853+0j),-9.0,3.0,110.0,10000.0,99999,6.0,0j,0.0,1116061103110402190301304000051000600007000086000
3490,ENKR,69.7258,29.8913,2024-04-17 00:20:00,,,,,-5.0,1015.0,(10.347190308352216+0j),-7.0,7.0,110.0,10000.0,99999,4.0,0j,0.0,1116041107110502170301504000051000600007000084000
3491,ENOV,62.18,6.0741,2024-04-17 00:20:00,,,,,0.0,1009.0,(38.58482939590653+0j),-2.0,0.0,0.0,10000.0,99999,3.0,0j,0.0,1116030000100002120300904000051000600007000083000
3492,ENRM,64.8383,11.1461,2024-04-17 00:20:00,,,,,2.0,1009.0,(1262.2636513093998+0j),-3.0,5.0,360.0,10000.0,99999,,(253.36365130939987+0j),0.0,1116003605100202130300904000051000600007000080000
3493,ENSG,61.1561,7.13778,2024-04-17 00:20:00,,,,,-2.0,1006.0,(1006+0j),-2.0,0.0,0.0,10000.0,99999,,(0.8999999999999773+0j),0.0,1116000000110202120300604000051000600007000080000
3501,LGAD,37.9207,21.2926,2024-04-17 00:20:00,,,,,16.0,1006.0,(1127.09017598014+0j),14.0,4.0,120.0,10000.0,99999,4.0,(118.59017598013997+0j),0.0,11160412041016020140300604000051000600007000084000
3502,LIPH,45.6484,12.1944,2024-04-17 00:20:00,,,,,6.0,1006.0,(1367.0901128677554+0j),4.0,4.0,310.0,10000.0,99999,,(361.1901128677554+0j),0.0,1116003104100602040300604000051000600007000080000
3503,EKSP,55.2256,9.26393,2024-04-17 00:20:00,,,,,1.0,1007.0,(7858.630652858263+0j),-0.0,4.0,270.0,10000.0,99999,,(6852.230652858263+0j),0.0,1116002704100102100300704000051000600007000080000
3504,LIBP,42.4317,14.1811,2024-04-17 00:20:00,,,,,15.0,1002.0,(1114.091812710274+0j),8.0,8.0,10.0,10000.0,99999,4.0,(113.99181271027408+0j),0.0,1116040108101502080300204000051000600007000084000
3505,LICA,38.9054,16.2423,2024-04-17 00:20:00,,,,,16.0,1004.0,(1089.0995875812953+0j),15.0,4.0,230.0,10000.0,99999,6.0,(82.49958758129526+0j),1.9,11160623041016020150300404000051000601907000086000
3506,LICR,38.0712,15.6516,2024-04-17 00:20:00,,,,,16.0,1005.0,(1219.8193674702807+0j),14.0,4.0,320.0,10000.0,99999,6.0,(212.11936747028062+0j),0.5,11160632041016020140300504000051000600507000086000
3507,LIPY,43.6163,13.3623,2024-04-17 00:20:00,61.0,36.0,^,green,12.0,1003.0,(1147.047120334028+0j),9.0,7.0,40.0,10000.0,99999,5.0,(145.64712033402805+0j),0.0,1116050407101202090300304000051000600007610085000
3509,LICD,35.4979,12.6181,2024-04-17 00:20:00,,,,,17.0,1010.0,(1156.3055201895454+0j),12.0,14.0,320.0,10000.0,99999,,(147.50552018954545+0j),0.0,11160032141017020120301004000051000600007000080000
3510,LIRZ,43.0959,12.5132,2024-04-17 00:20:00,51.0,36.0,T,green,11.0,1003.0,(3852.2152901045147+0j),11.0,3.0,320.0,10000.0,99999,8.0,(2849.1152901045148+0j),1.1,11160832031011020110300304000051000601107510088000
3516,EHLE,52.4603,5.52722,2024-04-17 00:25:00,,,,,6.0,1010.0,(936.4254781798787+0j),3.0,5.0,300.0,10000.0,99999,,(-73.1745218201213+0j),0.0,1116003005100602030301004000051000600007000080000
3523,ETHB,52.2785,9.08217,2024-04-17 00:20:00,,,,,6.0,1007.0,(2619.826248066894+0j),4.0,3.0,310.0,10000.0,99999,3.0,(1613.126248066894+0j),0.0,1116033103100602040300704000051000600007000083000
3526,ETHL,48.2203,9.91002,2024-04-17 00:20:00,,,,,5.0,1007.0,(16.21491687989678+0j),2.0,11.0,240.0,10000.0,99999,6.0,(-993.2850831201032+0j),0.0,1116062411100502020300704000051000600007000086000
3531,ETNN,50.8312,6.65817,2024-04-17 00:20:00,,,,,6.0,1010.0,(3894.70354796521+0j),5.0,8.0,290.0,10000.0,99999,5.0,(2885.60354796521+0j),0.3,1116052908100602050301004000051000600307000085000
3533,ETSH,51.7678,13.1677,2024-04-17 00:20:00,,,,,3.0,1005.0,(5153.873406860428+0j),2.0,4.0,290.0,10000.0,99999,2.0,(4149.873406860428+0j),0.0,1116022904100302020300504000051000600007000082000
3540,ESDF,56.2667,15.265,2024-04-17 00:20:00,80.0,36.0,q,green,2.0,1004.0,(5521.330377501547+0j),2.0,2.0,,10000.0,99999,4.0,(4517.730377501547+0j),0.0,1116043602100202020300404000051000600007800084000
3541,ESPA,65.5438,22.122,2024-04-17 00:20:00,71.0,36.0,h,magenta,-1.0,1007.0,(1.0002395931129955+0j),-2.0,4.0,10.0,3800.0,99999,8.0,(-1005.5997604068871+0j),0.8,1112080104110102120300704000051000600807710088000
3563,ETHS,52.9194,10.1975,2024-04-17 00:20:00,,,,,1.0,1006.0,(12.472080119631999+0j),1.0,0.0,0.0,10000.0,99999,3.0,(-992.827919880368+0j),0.0,1116030000100102010300604000051000600007000083000
3564,ETNW,52.4573,9.42717,2024-04-17 00:20:00,,,,,7.0,1007.0,(2079.9396474756636+0j),5.0,7.0,290.0,10000.0,99999,3.0,(1074.1396474756637+0j),0.0,1116032907100702050300704000051000600007000083000
3590,ETHN,49.39194,9.95889,2024-04-17 00:20:00,,,,,4.0,1006.0,(15.631932694339522+0j),3.0,2.0,330.0,10000.0,99999,6.0,(-991.5680673056605+0j),0.9,1116063302100402030300604000051000600907000086000
3591,ETMN,53.7677,8.6585,2024-04-17 00:20:00,,,,,7.0,1007.0,(1391.7200286662778+0j),2.0,7.0,360.0,10000.0,99999,6.0,(385.02002866627777+0j),0.0,1116063607100702020300704000051000600007000086000
3592,ETNL,53.9182,12.2783,2024-04-17 00:20:00,,,,,3.0,1005.0,(2986.269974901335+0j),3.0,2.0,230.0,10000.0,99999,3.0,(1981.269974901335+0j),0.0,1116032302100302030300504000051000600007000083000
3609,EYSA,55.8939,23.395,2024-04-17 00:20:00,,,,,-0.0,998.0,(38.16418209823065+0j),-2.0,4.0,270.0,10000.0,99999,,0j,0.0,1116002704110002120399804000051000600007000080000
3624,EGAC,54.6181,-5.8725,2024-04-17 00:20:00,58.0,36.0,[,green,6.0,1020.0,(1108.7114379663378+0j),3.0,7.0,340.0,10000.0,99999,5.0,(89.1114379663378+0j),0.0,1116053407100602030302004000051000600007580085000
3627,EGKK,51.1481,-0.19028,2024-04-17 00:20:00,,,,,6.0,1017.0,(2422.832432140518+0j),4.0,6.0,300.0,10000.0,99999,,(1406.432432140518+0j),0.0,1116003006100602040301704000051000600007000080000
3629,EGPB,59.8789,-1.29556,2024-04-17 00:20:00,,,,,5.0,1009.0,(1150.8709352677627+0j),2.0,11.0,70.0,10000.0,99999,6.0,(140.37093526776266+0j),0.0,1116060711100502020300904000051000600007000086000
3630,EGPC,58.4589,-3.09306,2024-04-17 00:20:00,,,,,5.0,1011.0,(2020.2038460122012+0j),2.0,27.0,310.0,10000.0,99999,4.0,(1009.4038460122013+0j),0.5,1116043127100502020301104000051000600507000084000
3631,EGSS,51.885,0.235,2024-04-17 00:20:00,,,,,4.0,1016.0,(5140.087097768449+0j),3.0,3.0,270.0,10000.0,99999,,(4124.487097768449+0j),0.0,1116002703100402030301604000051000600007000080000
3670,LIRN,40.886,14.2908,2024-04-17 00:20:00,,,,,14.0,1002.0,(1818.9629331114159+0j),10.0,4.0,240.0,10000.0,99999,6.0,(814.6629331114159+0j),0.0,11160624041014020100300204000051000600007000086000
3693,LTCS,37.44566,38.89559,2024-04-17 00:20:00,,,,,15.0,1016.0,(9.830073355500241+0j),7.0,7.0,350.0,10000.0,99999,,(-1005.0699266444998+0j),0.0,1116003507101502070301604000051000600007000080000
3697,LTFM,41.27533,28.752,2024-04-17 00:20:00,,,,,20.0,1006.0,(1625.2229964080623+0j),7.0,17.0,220.0,10000.0,99999,,0j,0.0,1116002217102002070300604000051000600007000080000
3719,LTAZ,38.7719,34.5345,2024-04-17 00:20:00,,,,,13.0,1015.0,(12.322431156826969+0j),2.0,9.0,130.0,10000.0,99999,,0j,0.0,1116001309101302020301504000051000600007000080000
3720,LTBR,40.2552,29.5626,2024-04-17 00:20:00,,,,,15.0,1007.0,(3237.0912491641816+0j),9.0,3.0,,10000.0,99999,,(2228.8912491641813+0j),0.0,1116003603101502090300704000051000600007000080000
3722,LTFC,37.8554,30.3684,2024-04-17 00:20:00,,,,,14.0,1015.0,(10.809284575901515+0j),1.0,6.0,340.0,10000.0,99999,,(-1004.0907154240984+0j),0.0,1116003406101402010301504000051000600007000080000
3723,LTFJ,40.8986,29.3092,2024-04-17 00:20:00,,,,,22.0,1007.0,(1541.789905195618+0j),5.0,12.0,270.0,10000.0,99999,,(534.189905195618+0j),0.0,1116002712102202050300704000051000600007000080000
3728,EHBK,50.9117,5.77014,2024-04-17 00:25:00,,,,,4.0,1011.0,(5468.278974283447+0j),4.0,4.0,310.0,10000.0,99999,1.0,(4458.178974283446+0j),0.6,1116013104100402040301104000051000600607000081000
3729,EHEH,51.4501,5.37453,2024-04-17 00:25:00,,,,,4.0,1011.0,(1727.994042882706+0j),3.0,4.0,290.0,10000.0,99999,,(717.394042882706+0j),0.0,1116002904100402030301104000051000600007000080000
3730,EHGG,53.1197,6.57944,2024-04-17 00:25:00,,,,,2.0,1009.0,(1319.483335115438+0j),1.0,4.0,270.0,10000.0,99999,1.0,(310.2833351154379+0j),0.0,1116012704100202010300904000051000600007000081000
3731,EHLW,53.2286,5.76056,2024-04-17 00:25:00,,,,,6.0,1010.0,(1027.3193372590874+0j),5.0,6.0,360.0,10000.0,99999,4.0,(17.119337259087388+0j),0.0,1116043606100602050301004000051000600007000084000
3733,EHVK,51.6564,5.70861,2024-04-17 00:25:00,,,,,4.0,1011.0,(1706.7934251743957+0j),3.0,2.0,280.0,10000.0,99999,,(697.0934251743956+0j),0.0,1116002802100402030301104000051000600007000080000
3734,EHWO,51.4491,4.34203,2024-04-17 00:25:00,,,,,3.0,1012.0,(1837.1162557971584+0j),3.0,1.0,230.0,10000.0,99999,4.0,(826.1162557971584+0j),0.0,1116042301100302030301204000051000600007000084000
3735,ETHC,52.5912,10.0221,2024-04-17 00:20:00,,,,,6.0,1007.0,(1849.6689024604889+0j),5.0,3.0,230.0,10000.0,99999,4.0,(843.8689024604889+0j),0.0,1116042303100602050300704000051000600007000084000
3736,ETSL,48.1855,10.8612,2024-04-17 00:20:00,,,,,5.0,1007.0,(16.547097707539198+0j),2.0,13.0,220.0,10000.0,99999,3.0,(-992.3529022924607+0j),0.0,1116032213100502020300704000051000600007000083000
3774,LFCK,43.5563,2.28918,2024-04-17 00:30:00,,,,,9.0,1019.0,(5184.600048534389+0j),6.0,12.0,300.0,10000.0,99999,4.0,0j,0.0,1116043012100902060301904000051000600007000084000
3775,LFLP,45.9292,6.09876,2024-04-17 00:30:00,61.0,36.0,^,green,5.0,1013.0,(14.736424952850221+0j),4.0,3.0,,10000.0,99999,5.0,(-999.7635750471497+0j),0.4,1116053603100502040301304000051000600407610085000
3780,LFQA,49.2087,4.15658,2024-04-17 00:30:00,,,,,6.0,1013.0,(3318.512305903352+0j),5.0,6.0,290.0,10000.0,99999,,(2306.212305903352+0j),0.0,1116002906100602050301304000051000600007000080000
3804,LFJR,47.5603,-0.31222,2024-04-17 00:30:00,,,,,5.0,1018.0,(2671.0313103007843+0j),4.0,4.0,270.0,10000.0,99999,,(1652.9313103007844+0j),0.0,1116002704100502040301804000051000600007000080000
3811,LFPT,49.0966,2.04083,2024-04-17 00:30:00,,,,,5.0,1016.0,(3986.987221813122+0j),4.0,6.0,300.0,10000.0,99999,1.0,(2971.887221813122+0j),0.0,1116013006100502040301604000051000600007000081000
3819,EPBY,53.0968,17.9777,2024-04-17 00:30:00,61.0,36.0,^,green,4.0,1000.0,(3606.4420343988627+0j),4.0,7.0,280.0,10000.0,99999,6.0,0j,0.0,1116062807100402040300004000051000600007610086000
3823,EPRA,51.38883,21.21167,2024-04-17 00:30:00,,,,,3.0,1001.0,(10.8825344331172+0j),1.0,7.0,240.0,10000.0,99999,,(-990.3174655668829+0j),0.0,1116002407100302010300104000051000600007000080000
3825,EPSY,53.48194,20.93778,2024-04-17 00:30:00,,,,,4.0,999.0,(6545.944385366858+0j),2.0,4.0,230.0,10000.0,99999,,(5546.944385366858+0j),0.0,1116002304100402020399904000051000600007000080000
3828,LHKE,46.9175,19.7492,2024-04-17 00:15:00,,,,,6.0,1005.0,(3824.214167767939+0j),4.0,10.0,270.0,10000.0,99999,7.0,(2817.914167767939+0j),0.4,1116072710100602040300504000051000600407000087000
3829,LHPA,47.3636,17.5008,2024-04-17 00:15:00,,,,,4.0,1005.0,(6610.828604294605+0j),3.0,8.0,220.0,8000.0,99999,,(5603.428604294605+0j),0.0,1114002208100402030300504000051000600007000080000
3831,LHPR,47.6244,17.8136,2024-04-17 00:15:00,,,,,5.0,1005.0,(4969.866795616028+0j),3.0,10.0,240.0,10000.0,99999,,(3964.466795616028+0j),0.0,1116002410100502030300504000051000600007000080000
3832,LHSM,46.6864,17.1591,2024-04-17 00:15:00,,,,,5.0,1006.0,(4808.054359661176+0j),3.0,7.0,220.0,10000.0,99999,6.0,0j,0.0,1116062207100502030300604000051000600007000086000
3833,LHSN,47.1229,20.2355,2024-04-17 00:15:00,,,,,6.0,1005.0,(3367.5423937425817+0j),4.0,6.0,270.0,10000.0,99999,4.0,(2363.242393742582+0j),0.4,1116042706100602040300504000051000600407000084000
3844,LTAC,40.1281,32.9951,2024-04-17 00:20:00,,,,,10.0,1012.0,(15.002024732465758+0j),2.0,3.0,350.0,10000.0,99999,,(-995.5979752675343+0j),0.0,1116003503101002020301204000051000600007000080000
3845,LTAF,36.9822,35.2804,2024-04-17 00:20:00,,,,,14.0,1013.0,(1179.0462871818738+0j),11.0,2.0,40.0,10000.0,99999,,(165.04628718187382+0j),0.0,11160004021014020110301304000051000600007000080000
3846,LTAG,37.0021,35.4259,2024-04-17 00:20:00,,,,,15.0,1013.0,(1620.5519636751599+0j),10.0,4.0,60.0,10000.0,99999,,(606.1519636751599+0j),0.0,11160006041015020100301304000051000600007000080000
3847,LTAI,36.8987,30.8005,2024-04-17 00:20:00,,,,,18.0,1013.0,(1376.6026683250857+0j),12.0,4.0,30.0,10000.0,99999,,(361.6026683250857+0j),0.0,11160003041018020120301304000051000600007000080000
3848,LTAJ,36.9472,37.4787,2024-04-17 00:20:00,,,,,11.0,1015.0,(11.155259735726926+0j),7.0,2.0,,10000.0,99999,,(-1003.0447402642732+0j),0.0,1116003602101102070301504000051000600007000080000
3849,LTAP,40.8294,35.522,2024-04-17 00:20:00,,,,,10.0,1011.0,(9.563091202550233+0j),2.0,1.0,,10000.0,99999,,(-1001.5369087974498+0j),0.0,1116003601101002020301104000051000600007000080000
3850,LTAT,38.4353,38.091,2024-04-17 00:20:00,,,,,7.0,1016.0,(17.80991801649557+0j),4.0,4.0,230.0,10000.0,99999,,(-997.4900819835044+0j),0.0,1116002304100702040301604000051000600007000080000
3851,LTAU,38.7704,35.4954,2024-04-17 00:20:00,,,,,7.0,1016.0,(20.00675543107191+0j),2.0,0.0,0.0,10000.0,99999,,(-993.0932445689281+0j),0.0,1116000000100702020301604000051000600007000080000
3852,LTBA,40.9769,28.8146,2024-04-17 00:20:00,,,,,19.0,1006.0,(1318.590050865623+0j),10.0,7.0,240.0,10000.0,99999,,(311.09005086562297+0j),0.0,11160024071019020100300604000051000600007000080000
3853,LTBJ,38.2924,27.157,2024-04-17 00:20:00,,,,,18.0,1010.0,(1915.8682952316758+0j),8.0,3.0,140.0,10000.0,99999,,(904.8682952316758+0j),0.0,1116001403101802080301004000051000600007000080000
3854,LTBS,36.7131,28.7925,2024-04-17 00:20:00,,,,,14.0,1012.0,(1061.9147546212994+0j),11.0,4.0,70.0,10000.0,99999,,(47.81475462129936+0j),0.0,11160007041014020110301204000051000600007000080000
3855,LTBU,41.1382,27.9191,2024-04-17 00:20:00,,,,,16.0,1006.0,(2500.407692529713+0j),9.0,4.0,240.0,10000.0,99999,,(1493.6076925297132+0j),0.0,1116002404101602090300604000051000600007000080000
3856,LTCC,37.8939,40.201,2024-04-17 00:20:00,,,,,11.0,1016.0,(10.913578932492305+0j),7.0,3.0,270.0,10000.0,99999,,(-1003.5864210675077+0j),0.0,1116002703101102070301604000051000600007000080000
3857,LTCE,39.9565,41.1702,2024-04-17 00:20:00,,,,,1.0,1021.0,(36.448078296635764+0j),-1.0,3.0,170.0,10000.0,99999,,(-979.1519217033642+0j),0.0,1116001703100102110302104000051000600007000080000
3858,LTCG,40.9951,39.7897,2024-04-17 00:20:00,,,,,16.0,1010.0,(1244.6449129791122+0j),5.0,2.0,,10000.0,99999,,(233.84491297911222+0j),0.0,1116003602101602050301004000051000600007000080000
3859,LTFE,37.2506,27.6643,2024-04-17 00:20:00,,,,,19.0,1011.0,(1049.4907968941682+0j),6.0,5.0,140.0,10000.0,99999,,0j,0.0,1116001405101902060301104000051000600007000080000
3860,EGDR,50.0861,-5.25571,2024-04-17 00:20:00,,,,,7.0,1021.0,(2647.0156309325785+0j),5.0,7.0,330.0,10000.0,99999,,(1625.6156309325784+0j),0.0,1116003307100702050302104000051000600007000080000
3861,EGDY,51.0094,-2.63882,2024-04-17 00:20:00,,,,,5.0,1019.0,(1594.013412021789+0j),3.0,6.0,260.0,10000.0,99999,1.0,(575.613412021789+0j),0.0,1116012606100502030301904000051000600007000081000
3862,EGOS,52.7982,-2.66804,2024-04-17 00:20:00,80.0,36.0,q,green,6.0,1018.0,(2802.587090759114+0j),3.0,9.0,290.0,10000.0,99999,3.0,(1785.487090759114+0j),0.0,1116032909100602030301804000051000600007800083000
3863,EGUW,52.1273,0.95626,2024-04-17 00:20:00,,,,,2.0,1015.0,(7970.872477635159+0j),0.0,6.0,290.0,10000.0,99999,,(6955.572477635159+0j),0.0,1116002906100202000301504000051000600007000080000
3864,EGVN,51.75,-1.58362,2024-04-17 00:20:00,,,,,4.0,1017.0,(4356.199926720524+0j),2.0,4.0,280.0,10000.0,99999,,(3338.8999267205236+0j),0.0,1116002804100402020301704000051000600007000080000
3865,EGVP,51.1394,-1.56861,2024-04-17 00:20:00,,,,,3.0,1018.0,(5782.474995083913+0j),1.0,3.0,310.0,10000.0,99999,,(4765.074995083914+0j),0.0,1116003103100302010301804000051000600007000080000
3868,EHRD,51.9569,4.43722,2024-04-17 00:25:00,,,,,7.0,1012.0,(939.076654210838+0j),4.0,5.0,320.0,10000.0,99999,3.0,(-72.62334578916204+0j),0.0,1116033205100702040301204000051000600007000083000
3870,LBGO,43.1514,25.7129,2024-04-17 00:30:00,,,,,18.0,1001.0,(1599.984386116271+0j),12.0,7.0,250.0,10000.0,99999,2.0,(599.6843861162711+0j),0.0,11160225071018020120300104000051000600007000082000
3874,LGKP,35.4214,27.146,2024-04-17 00:30:00,,,,,19.0,1010.0,(1132.8819628587553+0j),16.0,7.0,80.0,10000.0,99999,,(120.58196285875533+0j),0.0,11160008071019020160301004000051000600007000080000
3881,LYBT,44.9353,20.2575,2024-04-17 00:30:00,61.0,36.0,^,green,6.0,1005.0,(2896.426584584727+0j),6.0,4.0,280.0,10000.0,99999,6.0,(1892.3265845847272+0j),0.0,1116062804100602060300504000051000600007610086000
3882,LYKV,43.8183,20.5872,2024-04-17 00:30:00,61.0,36.0,^,green,5.0,1005.0,(7654.857268482445+0j),4.0,6.0,300.0,10000.0,99999,4.0,(6651.857268482445+0j),0.0,1116043006100502040300504000051000600007610084000
3886,LYVR,45.1469,21.3099,2024-04-17 00:30:00,61.0,36.0,^,green,6.0,1005.0,(2986.269974901335+0j),6.0,6.0,320.0,8000.0,99999,8.0,(1983.769974901335+0j),0.0,1114083206100602060300504000051000600007610088000
3897,EGXV,53.8758,-0.435,2024-04-17 00:20:00,,,,,5.0,1014.0,(1276.1279785195059+0j),2.0,7.0,270.0,10000.0,99999,,(261.7279785195059+0j),0.0,1116002707100502020301404000051000600007000080000
3952,LFBY,43.6892,-1.06889,2024-04-17 00:30:00,,,,,10.0,1021.0,(1425.867752194801+0j),8.0,3.0,230.0,10000.0,99999,,(403.56775219480096+0j),0.0,1116002303101002080302104000051000600007000080000
3959,LFLN,46.4125,4.01326,2024-04-17 00:30:00,,,,,7.0,1015.0,(6532.551579511295+0j),6.0,8.0,310.0,10000.0,99999,7.0,(5516.6515795112955+0j),1.7,1116073108100702060301504000051000601707000087000
3972,LFYR,47.3208,1.68889,2024-04-17 00:30:00,,,,,4.0,1017.0,(4369.295308835175+0j),3.0,2.0,240.0,10000.0,99999,,(3352.395308835175+0j),0.0,1116002402100402030301704000051000600007000080000
3986,LFPM,48.6047,2.67112,2024-04-17 00:30:00,,,,,5.0,1015.0,(3745.3505231489567+0j),4.0,5.0,300.0,10000.0,99999,,(2730.550523148957+0j),0.0,1116003005100502040301504000051000600007000080000
4061,LTCJ,37.929,41.1166,2024-04-17 00:20:00,,,,,10.0,1015.0,(9.897141769738337+0j),10.0,3.0,10.0,10000.0,99999,,(-1004.6028582302616+0j),0.0,11160001031010020100301504000051000600007000080000
4080,EPLL,51.7219,19.3981,2024-04-17 00:30:00,,,,,2.0,1000.0,(14.472970537026734+0j),0.0,3.0,210.0,10000.0,99999,,(-987.1270294629733+0j),0.0,1116002103100202000300004000051000600007000080000
4081,EPWR,51.1027,16.8858,2024-04-17 00:30:00,,,,,4.0,1002.0,(5795.01801069633+0j),3.0,10.0,280.0,10000.0,99999,,(4792.9180106963295+0j),0.0,1116002810100402030300204000051000600007000080000
4083,LFBE,44.8253,0.51861,2024-04-17 00:30:00,,,,,8.0,1019.0,(1866.231055239337+0j),6.0,5.0,260.0,10000.0,99999,6.0,(846.1310552393369+0j),0.0,1116062605100802060301904000051000600007000086000
4084,LFBG,45.6583,-0.3175,2024-04-17 00:30:00,,,,,10.0,1019.0,(1399.2442320472412+0j),6.0,5.0,310.0,10000.0,99999,8.0,(379.84423204724123+0j),0.0,1116083105101002060301904000051000600007000088000
4085,LFCR,44.4079,2.48267,2024-04-17 00:30:00,,,,,5.0,1017.0,(17.220537770044658+0j),3.0,11.0,270.0,10000.0,99999,8.0,(-1001.5794622299553+0j),0.0,1116082711100502030301704000051000600007000088000
4088,LFMO,44.1405,4.86672,2024-04-17 00:30:00,,,,,9.0,1013.0,(1877.6698838411712+0j),3.0,8.0,320.0,10000.0,99999,3.0,(863.5698838411712+0j),0.0,1116033208100902030301304000051000600007000083000
4089,LFMU,43.3235,3.3539,2024-04-17 00:30:00,,,,,12.0,1016.0,(1183.4189222415541+0j),3.0,12.0,290.0,10000.0,99999,,(166.71892224155408+0j),0.0,1116002912101202030301604000051000600007000080000
4090,LFOK,48.7761,4.18449,2024-04-17 00:30:00,,,,,5.0,1013.0,(6709.8061264751+0j),4.0,7.0,280.0,10000.0,99999,7.0,0j,0.0,1116072807100502040301304000051000600007000087000
4091,LHDC,47.4889,21.6153,2024-04-17 00:15:00,,,,,7.0,1003.0,(3241.789320483321+0j),5.0,4.0,280.0,10000.0,99999,,(2237.689320483321+0j),0.0,1116002804100702050300304000051000600007000080000
4092,LHPP,45.9909,18.241,2024-04-17 00:15:00,,,,,3.0,1006.0,(15.587332763057669+0j),3.0,9.0,290.0,10000.0,99999,7.0,(-992.5126672369423+0j),0.0,1116072909100302030300604000051000600007000087000
4096,LZPP,48.6252,17.8284,2024-04-17 00:30:00,,,,,6.0,1003.0,(5273.528324084429+0j),4.0,7.0,180.0,10000.0,99999,8.0,0j,0.0,1116081807100602040300304000051000600007000088000
4097,LZZI,49.2315,18.6135,2024-04-17 00:30:00,,,,,3.0,1003.0,(15.748758979037328+0j),2.0,1.0,,10000.0,99999,,0j,0.0,1116003601100302020300304000051000600007000080000
4114,LFOV,48.0314,-0.74299,2024-04-17 00:30:00,,,,,7.0,1018.0,(3081.912684539318+0j),6.0,7.0,300.0,10000.0,99999,,(2063.7126845393177+0j),0.0,1116003007100702060301804000051000600007000080000
4117,LFRV,47.7233,-2.71856,2024-04-17 00:30:00,,,,,5.0,1020.0,(5276.601043041936+0j),4.0,5.0,310.0,10000.0,99999,,(4256.301043041935+0j),0.0,1116003105100502040302004000051000600007000080000
4121,LFOZ,47.8969,2.16333,2024-04-17 00:30:00,,,,,4.0,1016.0,(5771.114533403984+0j),4.0,3.0,320.0,10000.0,99999,,(4755.414533403984+0j),0.0,1116003203100402040301604000051000600007000080000
4125,LFAQ,49.9715,2.69766,2024-04-17 00:30:00,,,,,5.0,1014.0,(4385.141230702556+0j),4.0,7.0,320.0,10000.0,99999,4.0,(3371.1412307025557+0j),0.2,1116043207100502040301404000051000600207000084000
4126,LFBU,45.7292,0.22146,2024-04-17 00:30:00,,,,,9.0,1019.0,(3150.1896400375626+0j),7.0,5.0,280.0,10000.0,99999,4.0,(2130.7896400375625+0j),0.0,1116042805100902070301904000051000600007000084000
4148,LJCE,45.9,15.5302,2024-04-17 00:30:00,,,,,3.0,1007.0,(9.255431432856126+0j),2.0,2.0,230.0,10000.0,99999,8.0,0j,0.0,1116082302100302020300704000051000600007000088000
4172,LEMI,37.803,-1.125,2024-04-17 00:30:00,,,,,16.0,1014.0,(2697.3942310375414+0j),10.0,7.0,40.0,10000.0,99999,,0j,0.0,11160004071016020100301404000051000600007000080000
4174,LECH,40.21417,0.07333,2024-04-17 00:30:00,,,,,15.0,1015.0,(4703.970789820475+0j),2.0,9.0,340.0,10000.0,99999,,(3682.470789820475+0j),0.0,1116003409101502020301504000051000600007000080000
4175,EBBE,50.7586,4.76833,2024-04-17 00:25:00,,,,,4.0,1012.0,(5408.199588407869+0j),3.0,99999.0,,10000.0,99999,,(4396.499588407869+0j),0.2,1116003699999100402030301204000051000600207000080000
4176,EBCV,50.5758,3.831,2024-04-17 00:25:00,,,,,6.0,1013.0,(2350.771836090428+0j),5.0,7.0,290.0,10000.0,99999,5.0,(1339.2718360904282+0j),0.2,1116052907100602050301304000051000600207000085000
4178,EBFN,51.0903,2.65278,2024-04-17 00:25:00,,,,,7.0,1014.0,(1115.0398565759315+0j),4.0,7.0,350.0,10000.0,99999,4.0,(102.03985657593148+0j),0.1,1116043507100702040301404000051000600107000084000
4184,LFMK,43.216,2.30632,2024-04-17 00:30:00,,,,,9.0,1018.0,(3130.3793556296732+0j),6.0,13.0,280.0,10000.0,99999,6.0,(2111.2793556296733+0j),0.0,1116062813100902060301804000051000600007000086000
4192,LFRL,48.2817,-4.44502,2024-04-17 00:30:00,,,,,7.0,1022.0,(2789.0317279840215+0j),5.0,7.0,330.0,10000.0,99999,1.0,(1767.6317279840214+0j),0.0,1116013307100702050302204000051000600007000081000
4197,UUDL,57.5607,40.1574,2024-04-17 00:30:00,,,,,5.0,999.0,(3534.736057364829+0j),3.0,1.0,80.0,10000.0,99999,,(2535.0360573648286+0j),0.0,1116000801100502030399904000051000600007000080000
4200,UUMO,55.5117,37.5072,2024-04-17 00:30:00,,,,,9.0,998.0,(3820.168961350113+0j),2.0,3.0,230.0,10000.0,99999,3.0,(2821.568961350113+0j),0.2,1116032303100902020399804000051000600207000083000
4208,URMG,43.3883,45.6986,2024-04-17 00:30:00,,,,,10.0,1011.0,(1011+0j),8.0,1.0,,10000.0,99999,,(-0.7999999999999545+0j),0.0,1116003601101002080301104000051000600007000080000
4211,URMO,43.2051,44.6066,2024-04-17 00:30:00,,,,,7.0,1012.0,(12.307617908658555+0j),5.0,3.0,100.0,10000.0,99999,,(-999.7923820913414+0j),0.0,1116001003100702050301204000051000600007000080000
4213,URRP,47.50083,39.93361,2024-04-17 00:30:00,,,,,15.0,1007.0,(1733.8695665238765+0j),3.0,4.0,180.0,10000.0,99999,,0j,0.0,1116001804101502030300704000051000600007000080000
4218,UUBC,54.55,36.36667,2024-04-17 00:30:00,,,,,10.0,998.0,(3946.958528656848+0j),7.0,2.0,220.0,10000.0,99999,3.0,0j,0.0,1116032202101002070399804000051000600007000083000
4219,UUOB,50.6438,36.5901,2024-04-17 00:30:00,10.0,36.0,+,yellow,12.0,1001.0,(3736.876934036766+0j),12.0,6.0,140.0,4000.0,99999,8.0,(2735.576934036766+0j),0.0,11120814061012020120300104000051000600007100088000
4220,UUOK,51.7506,36.2956,2024-04-17 00:30:00,45.0,36.0,N,yellow,10.0,1000.0,(4108.567041770932+0j),10.0,4.0,150.0,300.0,99999,,(3108.4670417709317+0j),0.0,11100015041010020100300004000051000600007450080000
4223,UWPS,54.12513,45.21226,2024-04-17 00:30:00,,,,,5.0,1005.0,(7555.354242349464+0j),0.0,2.0,170.0,10000.0,99999,,(6549.854242349464+0j),0.0,1116001702100502000300504000051000600007000080000
4226,UWKS,56.0903,47.3473,2024-04-17 00:30:00,,,,,4.0,1004.0,(7761.157930905058+0j),1.0,3.0,230.0,10000.0,99999,,(6756.457930905058+0j),0.0,1116002303100402010300404000051000600007000080000
4233,UUBW,55.5533,38.15,2024-04-17 00:30:00,,,,,10.0,998.0,(2566.4321619068996+0j),2.0,3.0,170.0,10000.0,99999,6.0,(1566.7321619068996+0j),0.0,1116061703101002020399804000051000600007000086000
4234,UUOL,52.7028,39.5378,2024-04-17 00:30:00,,,,,7.0,1002.0,(4883.835883025571+0j),6.0,3.0,170.0,10000.0,99999,,0j,0.0,1116001703100702060300204000051000600007000080000
4237,ETIC,49.6987,11.9402,2024-04-17 00:31:00,10.0,36.0,+,yellow,2.0,29.67,(23.69544511845529+0j),1.0,0.0,0.0,6000.0,99999,6.0,(-982.1045548815447+0j),0.0,111306000010020201032964000051000600007100086000
4244,LEHC,42.0761,-0.31667,2024-04-17 00:30:00,,,,,9.0,1015.0,(10.541578055198585+0j),1.0,20.0,290.0,10000.0,99999,,(-1006.7584219448014+0j),0.0,1116002920100902010301504000051000600007000080000
4247,LESB,39.5989,2.70278,2024-04-17 00:30:00,,,,,14.0,1015.0,(1433.9661430182923+0j),11.0,2.0,,10000.0,99999,4.0,(418.56614301829234+0j),0.0,11160436021014020110301504000051000600007000084000
4257,LFBX,45.1981,0.81556,2024-04-17 00:30:00,,,,,9.0,1018.0,(2557.4968449692883+0j),7.0,5.0,260.0,10000.0,99999,5.0,(1538.1968449692883+0j),0.0,1116052605100902070301804000051000600007000085000
4258,LFLW,44.8914,2.42194,2024-04-17 00:30:00,53.0,36.0,V,green,5.0,1016.0,(18.210747909625216+0j),3.0,5.0,300.0,10000.0,99999,8.0,(-1000.2892520903748+0j),0.0,1116083005100502030301604000051000600007530088000
4267,LQMO,43.2829,17.8459,2024-04-17 00:30:00,,,,,13.0,998.0,(1440.8677826617245+0j),8.0,9.0,330.0,10000.0,99999,4.0,(438.9677826617245+0j),1.1,1116043309101302080399804000051000601107000084000
4270,LRBC,46.5219,26.9103,2024-04-17 00:30:00,,,,,11.0,1000.0,(3426.6871725980664+0j),7.0,13.0,340.0,10000.0,99999,,(2424.9871725980665+0j),0.0,1116003413101102070300004000051000600007000080000
4292,LRCL,46.7852,23.6862,2024-04-17 00:30:00,61.0,36.0,^,green,7.0,1002.0,(8162.031462084324+0j),6.0,7.0,270.0,10000.0,99999,6.0,(7160.7314620843235+0j),0.3,1116062707100702060300204000051000600307610086000
4298,LEBG,42.3576,-3.62076,2024-04-17 00:30:00,,,,,6.0,1021.0,(20.019740412088595+0j),2.0,10.0,30.0,10000.0,99999,8.0,(-1002.1802595879115+0j),0.0,1116080310100602020302104000051000600007000088000
4316,LRIA,47.1785,27.6206,2024-04-17 00:30:00,,,,,11.0,1000.0,(2495.6405299522794+0j),8.0,8.0,300.0,10000.0,99999,1.0,(1498.2405299522793+0j),0.0,1116013008101102080300004000051000600007000081000
4317,LROD,47.0253,21.9025,2024-04-17 00:30:00,61.0,36.0,^,green,6.0,1004.0,(4585.493600017977+0j),5.0,6.0,280.0,10000.0,99999,8.0,(3581.1936000179767+0j),1.3,1116082806100602050300404000051000601307610088000
4319,LRSB,45.7856,24.0913,2024-04-17 00:30:00,63.0,36.0,',green,9.0,1001.0,(9.023830633922566+0j),8.0,6.0,340.0,9000.0,99999,5.0,(-991.7761693660774+0j),0.2,1115053406100902080300104000051000600207630085000
4320,LRSM,47.7033,22.8857,2024-04-17 00:30:00,80.0,36.0,q,green,7.0,1003.0,(3572.020816834899+0j),6.0,5.0,270.0,10000.0,99999,7.0,(2570.420816834899+0j),0.0,1116072705100702060300304000051000600007800087000
4321,LRSV,47.6875,26.3541,2024-04-17 00:30:00,,,,,8.0,1000.0,(9.278073130771606+0j),7.0,8.0,340.0,10000.0,99999,4.0,(-990.2219268692284+0j),0.0,1116043408100802070300004000051000600007000084000
4323,LUKK,46.9277,28.931,2024-04-17 00:30:00,,,,,16.0,998.0,(1982.6597634012198+0j),10.0,6.0,330.0,10000.0,99999,,(984.6597634012198+0j),0.0,11160033061016020100399804000051000600007000080000
4346,LRBM,47.6584,23.47,2024-04-17 00:30:00,61.0,36.0,^,green,7.0,1003.0,(5044.618200882678+0j),7.0,8.0,270.0,10000.0,99999,3.0,(4043.618200882678+0j),0.6,1116032708100702070300304000051000600607610083000
4348,LRCV,44.3181,23.8886,2024-04-17 00:30:00,,,,,13.0,1000.0,(3077.1334438760405+0j),12.0,7.0,300.0,10000.0,99999,,(2076.3334438760403+0j),0.8,11160030071013020120300004000051000600807000080000
4354,LFKS,41.9244,9.406,2024-04-17 00:30:00,,,,,13.0,1003.0,(1077.9718493858525+0j),-1.0,2.0,,10000.0,99999,,(74.37184938585244+0j),0.0,1116003602101302110300304000051000600007000080000
4356,LFMC,43.3847,6.38714,2024-04-17 00:30:00,,,,,12.0,1008.0,(1876.868647804414+0j),-3.0,12.0,270.0,10000.0,99999,,(870.068647804414+0j),0.0,1116002712101202130300804000051000600007000080000
4358,LFMY,43.6064,5.10925,2024-04-17 00:30:00,,,,,9.0,1013.0,(1867.960877465137+0j),2.0,9.0,330.0,10000.0,99999,,(855.2608774651369+0j),0.0,1116003309100902020301304000051000600007000080000
4365,LFRJ,48.5303,-4.15164,2024-04-17 00:30:00,,,,,8.0,1021.0,(2909.493615943798+0j),4.0,5.0,330.0,10000.0,99999,4.0,(1888.293615943798+0j),0.0,1116043305100802040302104000051000600007000084000
4374,GEML,35.2798,-2.95626,2024-04-17 00:30:00,,,,,26.0,1012.0,(1228.3156217710687+0j),8.0,6.0,280.0,10000.0,99999,,(214.4156217710687+0j),0.0,1116002806102602080301204000051000600007000080000
4376,EHGR,51.5674,4.93183,2024-04-17 00:29:00,45.0,36.0,N,yellow,2.0,1011.0,(1989.0027097241946+0j),1.0,3.0,270.0,600.0,99999,6.0,(977.8027097241945+0j),0.0,1110062703100202010301104000051000600007450086000
4377,EPGD,54.3776,18.4662,2024-04-17 00:30:00,,,,,3.0,1000.0,(8863.382414607573+0j),2.0,9.0,360.0,10000.0,99999,6.0,(7861.582414607573+0j),0.0,1116063609100302020300004000051000600007000086000
4378,EPKK,50.0777,19.7848,2024-04-17 00:30:00,,,,,1.0,1002.0,(24.519656482188772+0j),-1.0,2.0,,10000.0,99999,,(-979.2803435178112+0j),0.0,1116003602100102110300204000051000600007000080000
4379,EPKT,50.4743,19.08,2024-04-17 00:30:00,,,,,4.0,1001.0,(12.555986389587783+0j),0.0,8.0,210.0,10000.0,99999,,(-990.6440136104122+0j),0.0,1116002108100402000300104000051000600007000080000
4380,EPLB,51.24028,22.71361,2024-04-17 00:30:00,,,,,3.0,1002.0,(11.035571495764534+0j),1.0,3.0,260.0,10000.0,99999,,0j,0.0,1116002603100302010300204000051000600007000080000
4381,EPMO,52.4511,20.6518,2024-04-17 00:30:00,42.0,36.0,K,yellow,2.0,1000.0,(9.214321587049747+0j),2.0,5.0,160.0,10000.0,99999,,(-990.2856784129502+0j),0.0,1116001605100202020300004000051000600007420080000
4382,EPPO,52.421,16.8263,2024-04-17 00:30:00,,,,,4.0,1001.0,(4545.920411851897+0j),3.0,9.0,280.0,10000.0,99999,6.0,(3543.620411851897+0j),0.0,1116062809100402030300104000051000600007000086000
4383,EPRZ,50.11,22.019,2024-04-17 00:30:00,,,,,3.0,1002.0,(11.620508903951231+0j),2.0,3.0,230.0,10000.0,99999,,(-992.0794910960489+0j),0.0,1116002303100302020300204000051000600007000080000
4384,EPSC,53.5847,14.9022,2024-04-17 00:30:00,61.0,36.0,^,green,3.0,1004.0,(3247.3975578566183+0j),2.0,4.0,350.0,10000.0,99999,4.0,(2244.3975578566183+0j),0.0,1116043504100302020300404000051000600007610084000
4385,EPWA,52.1657,20.9671,2024-04-17 00:30:00,,,,,2.0,1001.0,(9.706163929011758+0j),1.0,6.0,170.0,10000.0,99999,,(-991.7938360709883+0j),0.0,1116001706100202010300104000051000600007000080000
4387,LBBG,42.5696,27.5152,2024-04-17 00:30:00,,,,,18.0,1003.0,(1273.6077070599883+0j),10.0,6.0,270.0,10000.0,99999,,(269.8077070599884+0j),0.0,11160027061018020100300304000051000600007000080000
4388,LBPD,42.0678,24.8508,2024-04-17 00:30:00,,,,,16.0,1001.0,(2555.7908448283442+0j),10.0,5.0,290.0,10000.0,99999,1.0,(1552.5908448283442+0j),5.2,11160129051016020100300104000051000605207000081000
4389,LBSF,42.69669,23.41144,2024-04-17 00:30:00,,,,,14.0,1002.0,(6993.297280901883+0j),9.0,4.0,80.0,10000.0,99999,2.0,(5991.097280901883+0j),0.0,1116020804101402090300204000051000600007000082000
4390,LBWN,43.2321,27.8251,2024-04-17 00:30:00,,,,,19.0,1002.0,(1450.8205981802028+0j),9.0,2.0,,10000.0,99999,,(448.2205981802027+0j),0.0,1116003602101902090300204000051000600007000080000
4391,LHBP,47.4369,19.2556,2024-04-17 00:30:00,,,,,5.0,1004.0,(5702.9517633244095+0j),4.0,5.0,270.0,10000.0,99999,,(4696.351763324409+0j),0.0,1116002705100502040300404000051000600007000080000
4392,LRAR,46.1766,21.262,2024-04-17 00:30:00,71.0,36.0,h,magenta,6.0,1004.0,(3616.637760708416+0j),5.0,7.0,320.0,9000.0,99999,,(2611.8377607084158+0j),1.5,1115003207100602050300404000051000601507710080000
4393,LRBS,44.5032,26.1021,2024-04-17 00:30:00,,,,,18.0,1000.0,(1625.8467326857028+0j),12.0,2.0,,10000.0,99999,,(626.1467326857028+0j),0.0,11160036021018020120300004000051000600007000080000
4394,LRCK,44.3622,28.4883,2024-04-17 00:30:00,,,,,17.0,1000.0,(1805.2529781289436+0j),11.0,10.0,200.0,10000.0,99999,,(804.2529781289436+0j),0.0,11160020101017020110300004000051000600007000080000
4395,LROP,44.5722,26.1022,2024-04-17 00:30:00,61.0,36.0,^,green,17.0,1000.0,(1707.9569686099164+0j),14.0,5.0,300.0,10000.0,99999,,(707.0569686099165+0j),0.0,11160030051017020140300004000051000600007610080000
4396,LRTC,45.0625,28.7143,2024-04-17 00:30:00,,,,,21.0,998.0,(1344.2843821223469+0j),10.0,9.0,210.0,10000.0,99999,5.0,(344.78438212234687+0j),0.0,11160521091021020100399804000051000600007000085000
4397,LRTM,46.4677,24.4125,2024-04-17 00:30:00,61.0,36.0,^,green,8.0,1001.0,(6781.386823101254+0j),6.0,5.0,310.0,10000.0,99999,7.0,(5780.386823101254+0j),0.1,1116073105100802060300104000051000600107610087000
4398,LRTR,45.8099,21.3379,2024-04-17 00:30:00,61.0,36.0,^,green,6.0,1004.0,(3582.8224329955124+0j),6.0,8.0,320.0,10000.0,99999,7.0,(2578.5224329955126+0j),0.0,1116073208100602060300404000051000600007610087000
4399,LDDU,42.5614,18.2682,2024-04-17 00:30:00,,,,,15.0,1000.0,(2450.7227861534584+0j),14.0,13.0,160.0,10000.0,99999,8.0,(1447.5227861534584+0j),3.1,11160816131015020140300004000051000603107000088000
4400,LDOS,45.4627,18.8102,2024-04-17 00:30:00,61.0,36.0,^,green,5.0,1006.0,(3589.959529475583+0j),4.0,7.0,290.0,10000.0,99999,5.0,(2581.6595294755834+0j),0.3,1116052907100502040300604000051000600307610085000
4401,LDPL,44.8935,13.9222,2024-04-17 00:30:00,,,,,8.0,1003.0,(2416.7015906385163+0j),3.0,15.0,70.0,10000.0,99999,,(1412.9015906385164+0j),0.0,1116000715100802030300304000051000600007000080000
4402,LDRI,45.2169,14.5703,2024-04-17 00:30:00,,,,,9.0,1003.0,(2260.9900707474058+0j),1.0,4.0,220.0,10000.0,99999,2.0,(1255.9900707474058+0j),0.4,1116022204100902010300304000051000600407000082000
4403,LDSP,43.5389,16.298,2024-04-17 00:30:00,,,,,13.0,998.0,(1214.1671822827016+0j),9.0,14.0,20.0,10000.0,99999,6.0,(214.46718228270151+0j),0.0,1116060214101302090399804000051000600007000086000
4404,LDZA,45.7429,16.0688,2024-04-17 00:30:00,,,,,3.0,1007.0,(6683.707915122434+0j),2.0,4.0,240.0,10000.0,99999,4.0,(5674.107915122434+0j),0.4,1116042404100302020300704000051000600407000084000
4405,LDZD,44.1083,15.3467,2024-04-17 00:30:00,,,,,9.0,1000.0,(2310.358127859458+0j),5.0,9.0,60.0,10000.0,99999,3.0,(1309.9581278594578+0j),0.5,1116030609100902050300004000051000600507000083000
4406,LJLJ,46.2237,14.4576,2024-04-17 00:30:00,,,,,1.0,1006.0,(28.74725596416031+0j),0.0,7.0,270.0,10000.0,99999,4.0,(-980.3527440358397+0j),1.0,1116042707100102000300604000051000601007000084000
4407,LJMB,46.4799,15.6861,2024-04-17 00:30:00,,,,,2.0,1005.0,(18.48489852676474+0j),1.0,3.0,,10000.0,99999,3.0,(-990.7151014732353+0j),0.0,1116033603100202010300504000051000600007000083000
4408,LJPZ,45.4734,13.615,2024-04-17 00:30:00,,,,,8.0,1004.0,(1034.2107429806513+0j),1.0,0.0,0.0,10000.0,99999,,(29.710742980651276+0j),0.0,1116000000100802010300404000051000600007000080000
4409,LKMT,49.6963,18.1111,2024-04-17 00:30:00,,,,,6.0,1002.0,(7803.201541598744+0j),2.0,3.0,260.0,10000.0,99999,6.0,(6800.001541598745+0j),0.0,1116062603100602020300204000051000600007000086000
4410,LKPR,50.1008,14.26,2024-04-17 00:30:00,,,,,3.0,1003.0,(17.88700968465778+0j),2.0,8.0,260.0,10000.0,99999,1.0,(-986.6129903153422+0j),0.0,1116012608100302020300304000051000600007000081000
4411,LKTB,49.1513,16.6944,2024-04-17 00:30:00,,,,,6.0,1002.0,(7256.718485902438+0j),2.0,8.0,240.0,10000.0,99999,6.0,(6252.418485902438+0j),0.0,1116062408100602020300204000051000600007000086000
4412,LQSA,43.8246,18.3315,2024-04-17 00:30:00,,,,,1.0,1004.0,(30.755847476828464+0j),1.0,3.0,330.0,7000.0,99999,7.0,(-975.5441525231715+0j),2.6,1114073303100102010300404000051000602607000087000
4413,LYBE,44.8184,20.3091,2024-04-17 00:30:00,61.0,36.0,^,green,5.0,1005.0,(4046.655735319183+0j),5.0,7.0,300.0,7000.0,99999,6.0,(3041.8557353191827+0j),0.0,1114063007100502050300504000051000600007610086000
4414,LYNI,43.3373,21.8537,2024-04-17 00:30:00,,,,,7.0,1004.0,(5369.160261016614+0j),7.0,17.0,330.0,10000.0,99999,4.0,(4365.960261016614+0j),0.2,1116043317100702070300404000051000600207000084000
4415,LYPG,42.3594,19.2519,2024-04-17 00:30:00,63.0,36.0,',green,15.0,1001.0,(1343.5485930374416+0j),14.0,11.0,130.0,10000.0,99999,4.0,0j,0.0,11160413111015020140300104000051000600007630084000
4416,LYTV,42.4047,18.7233,2024-04-17 00:30:00,80.0,36.0,q,green,16.0,1001.0,(1044.1454919682822+0j),15.0,10.0,170.0,10000.0,99999,7.0,(39.74549196828218+0j),2.0,11160717101016020150300104000051000602007800087000
4417,LZIB,48.1702,17.2127,2024-04-17 00:30:00,,,,,6.0,1004.0,(4334.996763696737+0j),4.0,7.0,230.0,10000.0,99999,,(3328.796763696737+0j),0.0,1116002307100602040300404000051000600007000080000
4418,LZKZ,48.6631,21.2411,2024-04-17 00:30:00,,,,,4.0,1003.0,(10.075484710802323+0j),3.0,3.0,360.0,10000.0,99999,3.0,0j,0.0,1116033603100402030300304000051000600007000083000
4419,LZTT,49.0736,20.2411,2024-04-17 00:30:00,,,,,0.0,1002.0,(38.31714475193097+0j),-2.0,8.0,280.0,10000.0,99999,,(-966.8828552480691+0j),0.0,1116002808100002120300204000051000600007000080000
4424,LFAT,50.5174,1.62059,2024-04-17 00:30:00,,,,,6.0,1015.0,(1231.9568736142635+0j),4.0,7.0,340.0,10000.0,99999,2.0,(217.0568736142635+0j),0.0,1116023407100602040301504000051000600007000082000
4425,LFBD,44.8283,-0.71556,2024-04-17 00:30:00,,,,,10.0,1020.0,(1645.738566996071+0j),6.0,5.0,280.0,10000.0,99999,3.0,(623.8385669960711+0j),0.0,1116032805101002060302004000051000600007000083000
4426,LFBH,46.1792,-1.19528,2024-04-17 00:30:00,,,,,10.0,1020.0,(1291.3513738400745+0j),6.0,10.0,350.0,10000.0,99999,5.0,(271.45137384007455+0j),0.0,1116053510101002060302004000051000600007000085000
4427,LFBI,46.5877,0.30667,2024-04-17 00:30:00,,,,,6.0,1018.0,(4281.896331582372+0j),5.0,7.0,300.0,10000.0,99999,,(3263.396331582372+0j),0.0,1116003007100602050301804000051000600007000080000
4428,LFBO,43.6291,1.36382,2024-04-17 00:30:00,,,,,9.0,1020.0,(3508.667661250704+0j),7.0,14.0,270.0,10000.0,99999,4.0,(2488.4676612507037+0j),0.0,1116042714100902070302004000051000600007000084000
4429,LFBT,43.1787,-0.00644,2024-04-17 00:30:00,,,,,8.0,1021.0,(8783.296901639798+0j),6.0,7.0,260.0,10000.0,99999,6.0,(7760.996901639798+0j),0.2,1116062607100802060302104000051000600207000086000
4430,LFBZ,43.4684,-1.52332,2024-04-17 00:30:00,,,,,11.0,1022.0,(1911.309459411857+0j),8.0,12.0,310.0,10000.0,99999,3.0,(888.409459411857+0j),0.1,1116033112101102080302204000051000600107000083000
4431,LFGJ,47.039,5.42725,2024-04-17 00:30:00,,,,,6.0,1014.0,(6203.598894725099+0j),5.0,6.0,240.0,10000.0,99999,4.0,(5189.398894725099+0j),0.4,1116042406100602050301404000051000600407000084000
4432,LFKB,42.5527,9.48373,2024-04-17 00:30:00,,,,,14.0,1003.0,(1067.5086060708443+0j),1.0,3.0,260.0,10000.0,99999,1.0,(65.30860607084423+0j),0.0,1116012603101402010300304000051000600007000081000
4433,LFKC,42.5308,8.79319,2024-04-17 00:30:00,,,,,12.0,1004.0,(1670.5251467388941+0j),3.0,8.0,160.0,10000.0,99999,,(666.1251467388942+0j),0.0,1116001608101202030300404000051000600007000080000
4434,LFKJ,41.9236,8.80292,2024-04-17 00:30:00,,,,,9.0,1005.0,(1074.6797868393191+0j),5.0,6.0,40.0,10000.0,99999,,(68.27978683931917+0j),0.0,1116000406100902050300504000051000600007000080000
4435,LFLB,45.6381,5.88023,2024-04-17 00:30:00,61.0,36.0,^,green,7.0,1014.0,(6400.30506536164+0j),5.0,2.0,,10000.0,99999,4.0,(5385.10506536164+0j),0.3,1116043602100702050301404000051000600307610084000
4436,LFLC,45.7867,3.16917,2024-04-17 00:30:00,,,,,7.0,1016.0,(8653.659433300576+0j),4.0,2.0,,10000.0,99999,3.0,(7636.759433300576+0j),0.0,1116033602100702040301604000051000600007000083000
4437,LFLL,45.7264,5.09083,2024-04-17 00:30:00,61.0,36.0,^,green,7.0,1014.0,(6710.540454920014+0j),5.0,6.0,270.0,10000.0,99999,5.0,(5694.840454920014+0j),0.0,1116052706100702050301404000051000600007610085000
4438,LFLS,45.3629,5.32937,2024-04-17 00:30:00,61.0,36.0,^,green,6.0,1014.0,(11.423851816942953+0j),5.0,3.0,270.0,10000.0,99999,6.0,(-1003.976148183057+0j),0.2,1116062703100602050301404000051000600207610086000
4439,LFLY,45.7272,4.94427,2024-04-17 00:30:00,,,,,8.0,1015.0,(4891.806521647731+0j),5.0,5.0,290.0,10000.0,99999,6.0,(3876.106521647731+0j),0.0,1116062905100802050301504000051000600007000086000
4440,LFMD,43.542,6.95348,2024-04-17 00:30:00,,,,,9.0,1005.0,(1055.1259515621248+0j),4.0,1.0,,10000.0,99999,,(49.92595156212474+0j),0.0,1116003601100902040300504000051000600007000080000
4442,LFML,43.43927,5.22142,2024-04-17 00:30:00,,,,,11.0,1012.0,(1255.6897303556937+0j),3.0,16.0,320.0,10000.0,99999,,(244.28973035569368+0j),0.0,1116003216101102030301204000051000600007000080000
4443,LFMN,43.6584,7.21587,2024-04-17 00:30:00,,,,,14.0,1005.0,(1034.6198542330897+0j),1.0,5.0,270.0,10000.0,99999,3.0,(31.219854233089677+0j),0.0,1116032705101402010300504000051000600007000083000
4444,LFMP,42.7404,2.87067,2024-04-17 00:30:00,,,,,11.0,1017.0,(1512.4622448595971+0j),6.0,10.0,290.0,10000.0,99999,6.0,(495.6622448595972+0j),0.0,1116062910101102060301704000051000600007000086000
4445,LFMT,43.5762,3.96301,2024-04-17 00:30:00,,,,,12.0,1015.0,(1064.6413099271424+0j),3.0,13.0,290.0,10000.0,99999,,(49.84130992714245+0j),0.0,1116002913101202030301504000051000600007000080000
4446,LFOB,49.4544,2.11278,2024-04-17 00:30:00,,,,,4.0,1015.0,(5279.658560212697+0j),3.0,7.0,290.0,10000.0,99999,1.0,(4264.258560212697+0j),0.0,1116012907100402030301504000051000600007000081000
4447,LFOH,49.5339,0.08806,2024-04-17 00:30:00,,,,,8.0,1017.0,(2684.1493520529884+0j),5.0,6.0,60.0,10000.0,99999,8.0,(1666.3493520529885+0j),0.0,1116080606100802050301704000051000600007000088000
4448,LFOT,47.4322,0.72761,2024-04-17 00:30:00,,,,,6.0,1017.0,(3706.345816215768+0j),4.0,4.0,290.0,10000.0,99999,,(2689.0458162157684+0j),0.0,1116002904100602040301704000051000600007000080000
4451,LFPN,48.7519,2.10619,2024-04-17 00:30:00,,,,,5.0,1015.0,(6214.926621610453+0j),4.0,7.0,310.0,10000.0,99999,,(5198.926621610453+0j),0.2,1116003107100502040301504000051000600207000080000
4452,LFPO,48.7253,2.35944,2024-04-17 00:30:00,,,,,7.0,1015.0,(2797.8175190694647+0j),4.0,6.0,290.0,10000.0,99999,,(1782.7175190694647+0j),0.0,1116002906100702040301504000051000600007000080000
4455,LFRC,49.6501,-1.47028,2024-04-17 00:30:00,,,,,8.0,1018.0,(3600.6799756815026+0j),4.0,4.0,340.0,10000.0,99999,,(2582.4799756815028+0j),0.0,1116003404100802040301804000051000600007000080000
4456,LFRD,48.5877,-2.07996,2024-04-17 00:30:00,,,,,9.0,1019.0,(1997.2761801586792+0j),4.0,11.0,330.0,10000.0,99999,,(977.7761801586792+0j),0.3,1116003311100902040301904000051000600307000080000
4457,LFRG,49.3653,0.15431,2024-04-17 00:30:00,,,,,8.0,1017.0,(3725.663453539004+0j),5.0,6.0,350.0,10000.0,99999,2.0,(2709.363453539004+0j),0.0,1116023506100802050301704000051000600007000082000
4458,LFRK,49.1733,-0.45,2024-04-17 00:30:00,,,,,5.0,1017.0,(3282.706963587175+0j),4.0,5.0,280.0,10000.0,99999,,(2264.506963587175+0j),0.3,1116002805100502040301704000051000600307000080000
4459,LFRN,48.0695,-1.73479,2024-04-17 00:30:00,,,,,5.0,1019.0,(2018.2009560361726+0j),4.0,5.0,260.0,10000.0,99999,,(998.6009560361725+0j),0.0,1116002605100502040301904000051000600007000080000
4460,LFRQ,47.975,-4.16779,2024-04-17 00:30:00,,,,,7.0,1022.0,(2859.35177380986+0j),5.0,7.0,320.0,10000.0,99999,,(1837.25177380986+0j),0.0,1116003207100702050302204000051000600007000080000
4461,LFRS,47.1532,-1.61073,2024-04-17 00:30:00,,,,,7.0,1020.0,(1507.3918476670215+0j),4.0,5.0,310.0,10000.0,99999,,(487.89184766702147+0j),0.0,1116003105100702040302004000051000600007000080000
4462,LFRT,48.5378,-2.85444,2024-04-17 00:30:00,,,,,6.0,1020.0,(4553.164175243415+0j),4.0,6.0,300.0,10000.0,99999,6.0,(3532.864175243415+0j),0.0,1116063006100602040302004000051000600007000086000
4463,LFRZ,47.3122,-2.14918,2024-04-17 00:30:00,,,,,8.0,1020.0,(1077.3071170583887+0j),5.0,7.0,300.0,10000.0,99999,,(57.407117058388735+0j),0.0,1116003007100802050302004000051000600007000080000
4464,LFSB,47.5896,7.52991,2024-04-17 00:30:00,,,,,6.0,1011.0,(8210.805918801309+0j),4.0,12.0,260.0,10000.0,99999,5.0,(7197.905918801309+0j),0.0,1116052612100602040301104000051000600007000085000
4466,LFSN,48.6921,6.23046,2024-04-17 00:30:00,,,,,7.0,1011.0,(6174.123736316026+0j),5.0,7.0,290.0,10000.0,99999,8.0,(5161.923736316026+0j),0.0,1116082907100702050301104000051000600007000088000
4467,LFST,48.5383,7.62823,2024-04-17 00:30:00,,,,,8.0,1010.0,(3866.817574983669+0j),5.0,5.0,250.0,10000.0,99999,6.0,(2855.817574983669+0j),0.0,1116062505100802050301004000051000600007000086000
4468,LFTW,43.7574,4.41635,2024-04-17 00:30:00,,,,,9.0,1014.0,(2447.1439043693113+0j),0.0,7.0,300.0,10000.0,99999,,(1432.8439043693113+0j),0.0,1116003007100902000301404000051000600007000080000
4469,LFBA,44.1747,0.59056,2024-04-17 00:30:00,,,,,9.0,1020.0,(1924.988705159216+0j),6.0,7.0,260.0,10000.0,99999,6.0,(904.4887051592159+0j),0.0,1116062607100902060302004000051000600007000086000
4470,LFBC,44.5333,-1.125,2024-04-17 00:30:00,,,,,11.0,1020.0,(1300.4418170314402+0j),7.0,6.0,310.0,10000.0,99999,4.0,(279.04181703144025+0j),0.0,1116043106101102070302004000051000600007000084000
4471,LFBL,45.8628,1.17944,2024-04-17 00:30:00,,,,,7.0,1017.0,(10.077862604371843+0j),6.0,7.0,310.0,10000.0,99999,5.0,(-1008.5221373956282+0j),0.5,1116053107100702060301704000051000600507000085000
4472,LFBM,43.9117,-0.5075,2024-04-17 00:30:00,,,,,9.0,1021.0,(1921.952814717133+0j),8.0,8.0,250.0,10000.0,99999,7.0,(900.2528147171329+0j),0.0,1116072508100902080302104000051000600007000087000
4473,LFKF,41.5006,9.09778,2024-04-17 00:30:00,,,,,14.0,1004.0,(1226.5826722436402+0j),5.0,13.0,240.0,10000.0,99999,,(221.18267224364024+0j),0.0,1116002413101402050300404000051000600007000080000
4474,LFOE,49.0287,1.21986,2024-04-17 00:30:00,,,,,4.0,1016.0,(6657.336832365093+0j),2.0,3.0,260.0,10000.0,99999,1.0,(5640.936832365093+0j),0.0,1116012603100402020301604000051000600007000081000
4475,LFOP,49.3842,1.1748,2024-04-17 00:30:00,,,,,5.0,1016.0,(5949.319481446483+0j),3.0,4.0,310.0,10000.0,99999,,(4933.019481446483+0j),0.0,1116003104100502030301604000051000600007000080000
4476,LFPB,48.9694,2.44139,2024-04-17 00:30:00,,,,,7.0,1015.0,(2299.847631389867+0j),4.0,5.0,290.0,10000.0,99999,,(1285.5476313898669+0j),0.0,1116002905100702040301504000051000600007000080000
4477,LFPG,49.0128,2.55,2024-04-17 00:30:00,,,,,6.0,1015.0,(4000.3533231395027+0j),3.0,6.0,320.0,10000.0,99999,3.0,(2985.053323139503+0j),0.0,1116033206100602030301504000051000600007000083000
4478,LFPV,48.7744,2.20154,2024-04-17 00:30:00,,,,,5.0,1015.0,(6692.0951632120705+0j),4.0,6.0,300.0,10000.0,99999,1.0,(5677.0951632120705+0j),0.0,1116013006100502040301504000051000600007000081000
4479,LFQB,48.3221,4.0167,2024-04-17 00:30:00,,,,,5.0,1014.0,(4646.893655881593+0j),3.0,9.0,300.0,10000.0,99999,,(3632.293655881593+0j),0.0,1116003009100502030301404000051000600007000080000
4481,LFRH,47.7606,-3.44,2024-04-17 00:30:00,,,,,5.0,1021.0,(2353.649834716411+0j),3.0,4.0,260.0,10000.0,99999,,(1332.3498347164111+0j),0.0,1116002604100502030302104000051000600007000080000
4482,LFSD,47.2689,5.09,2024-04-17 00:30:00,,,,,6.0,1014.0,(6901.53476472806+0j),4.0,5.0,280.0,10000.0,99999,,(5886.53476472806+0j),0.0,1116002805100602040301404000051000600007000080000
4484,LFSL,45.03967,1.4855,2024-04-17 00:30:00,,,,,8.0,1017.0,(7229.484798372228+0j),5.0,7.0,290.0,10000.0,99999,8.0,(6217.784798372229+0j),0.0,1116082907100802050301704000051000600007000088000
4486,LFSO,48.5831,5.955,2024-04-17 00:30:00,58.0,36.0,[,green,5.0,1011.0,(11.566642434346996+0j),4.0,10.0,290.0,10000.0,99999,7.0,(-999.8333575656529+0j),0.0,1116072910100502040301104000051000600007580087000
4487,LFSX,47.7831,6.36406,2024-04-17 00:30:00,,,,,6.0,1012.0,(8447.30039842803+0j),4.0,5.0,270.0,10000.0,99999,8.0,(7434.60039842803+0j),0.0,1116082705100602040301204000051000600007000088000
4488,LFTH,43.0973,6.14603,2024-04-17 00:30:00,,,,,13.0,1008.0,(1026.6198630767408+0j),-3.0,17.0,310.0,10000.0,99999,,(19.219863076740808+0j),0.0,1116003117101302130300804000051000600007000080000
4492,LPFR,37.0144,-7.96591,2024-04-17 00:30:00,,,,,16.0,1013.0,(1065.489050723066+0j),14.0,2.0,,10000.0,99999,,(51.189050723065975+0j),0.0,11160036021016020140301304000051000600007000080000
4493,LPMA,32.6979,-16.7745,2024-04-17 00:30:00,,,,,18.0,1019.0,(1417.765907208958+0j),7.0,6.0,20.0,10000.0,99999,1.0,(398.5659072089579+0j),0.0,1116010206101802070301904000051000600007000081000
4494,LPPR,41.2481,-8.68139,2024-04-17 00:30:00,,,,,14.0,1016.0,(1642.8742971005108+0j),7.0,6.0,340.0,10000.0,99999,,(626.3742971005108+0j),0.0,1116003406101402070301604000051000600007000080000
4495,LPPS,33.0734,-16.35,2024-04-17 00:30:00,,,,,17.0,1019.0,(1808.8529883940973+0j),15.0,4.0,100.0,10000.0,99999,1.0,(789.9529883940974+0j),0.0,11160110041017020150301904000051000600007000081000
4497,ULAA,64.6003,40.7167,2024-04-17 00:30:00,85.0,36.0,v,magenta,-8.0,1000.0,(750.8567105275151+0j),-10.0,6.0,60.0,7000.0,99999,8.0,(-249.2432894724849+0j),0.2,11140806061108021100300004000051000600207850088000
4501,ULMM,68.7817,32.7508,2024-04-17 00:30:00,85.0,36.0,v,magenta,-6.0,1014.0,(66.2740957997131+0j),-10.0,3.0,80.0,10000.0,99999,6.0,(-948.5259042002868+0j),0.0,11160608031106021100301404000051000600007850086000
4505,URKA,45.0021,37.3473,2024-04-17 00:30:00,,,,,17.0,1007.0,(1384.1475009931996+0j),2.0,4.0,170.0,10000.0,99999,,(374.9475009931996+0j),0.0,1116001704101702020300704000051000600007000080000
4506,URKK,45.0347,39.1705,2024-04-17 00:30:00,,,,,12.0,1008.0,(1369.807985855564+0j),5.0,3.0,150.0,10000.0,99999,,(360.8079858555641+0j),0.0,1116001503101202050300804000051000600007000080000
4507,URMM,44.2251,43.0819,2024-04-17 00:30:00,,,,,8.0,1012.0,(7434.399829094754+0j),6.0,2.0,290.0,10000.0,99999,,(6422.899829094754+0j),0.0,1116002902100802060301204000051000600007000080000
4508,URMT,45.1092,42.1128,2024-04-17 00:30:00,,,,,14.0,1011.0,(6114.776197486881+0j),6.0,3.0,160.0,10000.0,99999,,(5103.276197486881+0j),0.0,1116001603101402060301104000051000600007000080000
4509,URSS,43.4499,39.9566,2024-04-17 00:30:00,,,,,16.0,1010.0,(1209.5694107153922+0j),4.0,7.0,80.0,10000.0,99999,,(197.56941071539222+0j),0.0,1116000807101602040301004000051000600007000080000
4510,URWA,46.2833,48.0063,2024-04-17 00:30:00,10.0,36.0,+,yellow,11.0,1014.0,(818.4121991803354+0j),11.0,3.0,140.0,1700.0,99999,,(-195.68780081966463+0j),0.0,11110014031011020110301404000051000600007100080000
4511,URWI,46.3739,44.3309,2024-04-17 00:30:00,,,,,16.0,1011.0,(2298.6489868482527+0j),7.0,6.0,180.0,10000.0,99999,,(1286.7489868482526+0j),0.0,1116001806101602070301104000051000600007000080000
4512,URWW,48.7825,44.3455,2024-04-17 00:30:00,,,,,13.0,1009.0,(2564.9840273200894+0j),7.0,4.0,210.0,10000.0,99999,,(1556.9840273200894+0j),0.0,1116002104101302070300904000051000600007000080000
4514,UUOO,51.8142,39.2296,2024-04-17 00:30:00,45.0,36.0,N,yellow,10.0,1002.0,(3244.2491251944357+0j),9.0,1.0,,100.0,99999,,(2240.4491251944355+0j),0.0,1110003601101002090300204000051000600007450080000
4515,UUWW,55.5915,37.2615,2024-04-17 00:30:00,,,,,9.0,997.0,(4481.962703612934+0j),3.0,3.0,220.0,10000.0,99999,8.0,(3482.562703612934+0j),0.0,1116082203100902030399704000051000600007000088000
4517,UWGG,56.2301,43.784,2024-04-17 00:30:00,,,,,4.0,1002.0,(3880.890404322236+0j),1.0,3.0,200.0,10000.0,99999,,(2877.6904043222357+0j),0.0,1116002003100402010300204000051000600007000080000
4518,UWKD,55.6062,49.2787,2024-04-17 00:30:00,,,,,5.0,1005.0,(4834.502471406909+0j),3.0,2.0,140.0,10000.0,99999,,(3828.2024714069084+0j),0.0,1116001402100502030300504000051000600007000080000
4519,UWKE,55.5647,52.0925,2024-04-17 00:30:00,,,,,5.0,1007.0,(7239.178964249625+0j),2.0,3.0,210.0,10000.0,99999,,(6233.478964249625+0j),0.0,1116002103100502020300704000051000600007000080000
4520,UWWW,53.5049,50.1643,2024-04-17 00:30:00,,,,,7.0,1007.0,(4113.70592930548+0j),4.0,4.0,230.0,10000.0,99999,,(3106.30592930548+0j),0.0,1116002304100702040300704000051000600007000080000
4521,LEAL,38.2822,-0.55816,2024-04-17 00:30:00,,,,,17.0,1014.0,(1320.3404308241459+0j),15.0,7.0,60.0,10000.0,99999,2.0,(306.1404308241458+0j),0.0,11160206071017020150301404000051000600007000082000
4522,LEAM,36.8439,-2.3701,2024-04-17 00:30:00,,,,,17.0,1012.0,(1158.5952340909107+0j),14.0,5.0,70.0,10000.0,99999,,(146.5952340909107+0j),0.0,11160007051017020140301204000051000600007000080000
4523,LEAS,43.5636,-6.03462,2024-04-17 00:30:00,,,,,11.0,1025.0,(2641.6037518942444+0j),9.0,3.0,30.0,10000.0,99999,5.0,(1615.8037518942444+0j),0.0,1116050303101102090302504000051000600007000085000
4524,LEBB,43.3011,-2.91061,2024-04-17 00:30:00,,,,,11.0,1023.0,(1499.1130557061115+0j),9.0,3.0,280.0,10000.0,99999,6.0,(474.8130557061115+0j),0.2,1116062803101102090302304000051000600207000086000
4525,LEBL,41.2971,2.07846,2024-04-17 00:30:00,,,,,14.0,1014.0,(1043.8851066590578+0j),6.0,5.0,320.0,10000.0,99999,3.0,(29.685106659057737+0j),0.0,1116033205101402060301404000051000600007000083000
4526,LECO,43.3021,-8.37726,2024-04-17 00:30:00,,,,,11.0,1024.0,(2249.8339215270084+0j),6.0,6.0,40.0,10000.0,99999,8.0,(1224.4339215270084+0j),0.0,1116080406101102060302404000051000600007000088000
4527,LEDA,41.72819,0.53502,2024-04-17 00:30:00,,,,,8.0,1015.0,(8181.609495032179+0j),4.0,9.0,260.0,10000.0,99999,,(7166.70949503218+0j),0.0,1116002609100802040301504000051000600007000080000
4528,LEGE,41.901,2.76055,2024-04-17 00:30:00,,,,,10.0,1014.0,(3052.743812751153+0j),7.0,5.0,50.0,10000.0,99999,8.0,(2039.1438127511533+0j),0.5,1116080505101002070301404000051000600507000088000
4529,LEGR,37.1887,-3.77736,2024-04-17 00:30:00,,,,,14.0,1016.0,(7519.809203542631+0j),9.0,2.0,,10000.0,99999,,(6506.409203542631+0j),0.0,1116003602101402090301604000051000600007000080000
4530,LEIB,38.8729,1.37312,2024-04-17 00:30:00,,,,,16.0,1014.0,(1066.5408661729407+0j),6.0,6.0,40.0,10000.0,99999,,(52.540866172940696+0j),0.0,1116000406101602060301404000051000600007000080000
4531,LEJR,36.7446,-6.06011,2024-04-17 00:30:00,,,,,14.0,1013.0,(1253.737733564554+0j),12.0,3.0,70.0,7000.0,99999,,(239.33773356455401+0j),0.0,11140007031014020120301304000051000600007000080000
4532,LELC,37.775,-0.81239,2024-04-17 00:30:00,,,,,19.0,1013.0,(1033.1250728328107+0j),17.0,11.0,30.0,9000.0,99999,6.0,(19.1250728328107+0j),0.0,11150603111019020170301304000051000600007000086000
4533,LELL,41.5209,2.10508,2024-04-17 00:30:00,,,,,12.0,1014.0,(2738.823477393889+0j),5.0,6.0,250.0,10000.0,99999,4.0,(1723.6234773938888+0j),0.0,1116042506101202050301404000051000600007000084000
4534,LEMD,40.4936,-3.56676,2024-04-17 00:30:00,,,,,13.0,1017.0,(8574.90232816244+0j),5.0,3.0,40.0,10000.0,99999,,(7560.302328162439+0j),0.0,1116000403101302050301704000051000600007000080000
4535,LEMG,36.6749,-4.49911,2024-04-17 00:30:00,,,,,21.0,1012.0,(1100.868729545526+0j),8.0,5.0,310.0,10000.0,99999,,(87.96872954552612+0j),0.0,1116003105102102080301204000051000600007000080000
4536,LEMH,39.8626,4.21865,2024-04-17 00:30:00,,,,,14.0,1015.0,(1867.4846111526904+0j),8.0,18.0,10.0,10000.0,99999,1.0,(852.9846111526904+0j),0.0,1116010118101402080301504000051000600007000081000
4537,LEPA,39.5517,2.73881,2024-04-17 00:30:00,,,,,13.0,1015.0,(1088.1195153707222+0j),12.0,3.0,60.0,10000.0,99999,2.0,(73.81951537072223+0j),0.0,11160206031013020120301504000051000600007000082000
4538,LEPP,42.77,-1.64633,2024-04-17 00:30:00,61.0,36.0,^,green,7.0,1021.0,(11.411034736791176+0j),6.0,5.0,310.0,10000.0,99999,6.0,(-1011.5889652632088+0j),0.0,1116063105100702060302104000051000600007610086000
4539,LERS,41.1474,1.16717,2024-04-17 00:30:00,,,,,13.0,1015.0,(1710.2797060916803+0j),3.0,8.0,290.0,10000.0,99999,1.0,(695.8797060916803+0j),0.0,1116012908101302030301504000051000600007000081000
4540,LESO,43.3565,-1.79061,2024-04-17 00:30:00,,,,,11.0,1023.0,(1074.384246797183+0j),8.0,9.0,330.0,10000.0,99999,5.0,(51.28424679718307+0j),0.5,1116053309101102080302304000051000600507000085000
4541,LEST,42.8963,-8.41514,2024-04-17 00:30:00,,,,,8.0,1023.0,(8512.424706186519+0j),5.0,8.0,50.0,10000.0,99999,6.0,(7488.424706186519+0j),0.0,1116060508100802050302304000051000600007000086000
4543,LEVC,39.4893,-0.48162,2024-04-17 00:30:00,,,,,14.0,1015.0,(1677.267612362402+0j),9.0,4.0,330.0,10000.0,99999,1.0,(662.0676123624019+0j),0.0,1116013304101402090301504000051000600007000081000
4544,LEVD,41.7061,-4.85194,2024-04-17 00:30:00,,,,,5.0,1021.0,(21.348519204247733+0j),3.0,10.0,80.0,10000.0,99999,,(-998.2514807957523+0j),0.0,1116000810100502030302104000051000600007000080000
4545,LEVT,42.8828,-2.72447,2024-04-17 00:30:00,51.0,36.0,T,green,7.0,1022.0,(12.481222048399346+0j),6.0,1.0,360.0,9000.0,99999,3.0,(-1011.2187779516007+0j),0.0,1115033601100702060302204000051000600007510083000
4546,LEVX,42.2318,-8.62677,2024-04-17 00:30:00,,,,,9.0,1020.0,(5588.800105382901+0j),5.0,7.0,10.0,10000.0,99999,,(4568.9001053829015+0j),0.0,1116000107100902050302004000051000600007000080000
4547,LEXJ,43.4271,-3.82001,2024-04-17 00:30:00,,,,,10.0,1024.0,(1080.6366597396056+0j),8.0,6.0,280.0,7000.0,99999,4.0,(55.73665973960556+0j),0.2,1114042806101002080302404000051000600207000084000
4548,LEZG,41.6662,-1.04155,2024-04-17 00:30:00,,,,,11.0,1019.0,(4704.299915823549+0j),5.0,20.0,290.0,10000.0,99999,3.0,(3684.599915823549+0j),0.0,1116032920101102050301904000051000600007000083000
4549,LEZL,37.418,-5.89311,2024-04-17 00:30:00,,,,,16.0,1013.0,(1267.267669748684+0j),13.0,3.0,150.0,10000.0,99999,,(253.76766974868406+0j),0.0,11160015031016020130301304000051000600007000080000
4555,LEGT,40.2941,-3.72383,2024-04-17 00:30:00,,,,,13.0,1017.0,(8687.286501723247+0j),6.0,7.0,40.0,10000.0,99999,,(7670.986501723247+0j),0.0,1116000407101302060301704000051000600007000080000
4556,LELN,42.589,-5.65556,2024-04-17 00:30:00,,,,,7.0,1021.0,(18.563469264326457+0j),2.0,5.0,20.0,10000.0,99999,,(-1002.4365307356735+0j),0.0,1116000205100702020302104000051000600007000080000
4557,LESA,40.9521,-5.50199,2024-04-17 00:30:00,,,,,9.0,1020.0,(14.281956763528951+0j),4.0,10.0,90.0,10000.0,99999,,(-1002.8180432364711+0j),0.0,1116000910100902040302004000051000600007000080000
4560,LFLX,46.8622,1.73067,2024-04-17 00:30:00,,,,,5.0,1017.0,(6133.1448123910595+0j),4.0,6.0,270.0,10000.0,99999,,(5115.94481239106+0j),0.0,1116002706100502040301704000051000600007000080000
4561,LFMI,43.5227,4.92384,2024-04-17 00:30:00,,,,,8.0,1013.0,(1392.9737066430089+0j),2.0,7.0,310.0,10000.0,99999,,(379.5737066430089+0j),0.0,1116003107100802020301304000051000600007000080000
4562,LFMV,43.9073,4.90183,2024-04-17 00:30:00,,,,,9.0,1013.0,(1534.4541136856947+0j),3.0,7.0,320.0,10000.0,99999,,(521.1541136856947+0j),0.0,1116003207100902030301304000051000600007000080000
4563,LFOA,47.0533,2.6325,2024-04-17 00:30:00,,,,,6.0,1016.0,(5648.619969352877+0j),5.0,7.0,310.0,10000.0,99999,,(4632.619969352877+0j),0.0,1116003107100602050301604000051000600007000080000
4564,LFOJ,47.9878,1.76056,2024-04-17 00:30:00,,,,,4.0,1015.0,(5974.840427011287+0j),3.0,6.0,300.0,10000.0,99999,,(4959.040427011287+0j),0.0,1116003006100402030301504000051000600007000080000
4566,URML,42.8168,47.6523,2024-04-17 00:30:00,,,,,11.0,1010.0,(1047.9494221708208+0j),11.0,4.0,150.0,10000.0,99999,,(35.94942217082075+0j),0.0,11160015041011020110301004000051000600007000080000
4567,UWLL,54.2683,48.2267,2024-04-17 00:30:00,,,,,5.0,1006.0,(5381.344033066187+0j),1.0,4.0,170.0,10000.0,99999,,(4374.544033066187+0j),0.0,1116001704100502010300604000051000600007000080000
4568,EGDM,51.1522,-1.74741,2024-04-17 00:20:00,,,,,3.0,1018.0,(7676.63164761543+0j),2.0,6.0,300.0,10000.0,99999,,(6658.83164761543+0j),0.0,1116003006100302020301804000051000600007000080000
4569,EGOM,55.05,-2.55,2024-04-17 00:20:00,,,,,2.0,1014.0,(20.767409021888124+0j),-0.0,3.0,80.0,10000.0,99999,8.0,(-993.9325909781119+0j),0.0,1116080803100202100301404000051000600007000088000
4570,EGOV,53.2481,-4.53534,2024-04-17 00:20:00,,,,,8.0,1019.0,(1185.3673374945934+0j),2.0,11.0,320.0,10000.0,99999,6.0,(165.76733749459333+0j),0.0,1116063211100802020301904000051000600007000086000
4571,EGQK,57.6494,-3.56064,2024-04-17 00:20:00,,,,,5.0,1014.0,(1171.258039808135+0j),1.0,17.0,290.0,10000.0,99999,8.0,(156.45803980813503+0j),0.0,1116082917100502010301404000051000600007000088000
4572,EGUB,51.6164,-1.09583,2024-04-17 00:20:00,,,,,2.0,1017.0,(6508.343586708976+0j),2.0,2.0,180.0,10000.0,99999,6.0,(5491.443586708976+0j),0.0,1116061802100202020301704000051000600007000086000
4573,EGVO,51.2341,-0.94283,2024-04-17 00:20:00,,,,,5.0,1017.0,(4829.032455846837+0j),3.0,5.0,270.0,10000.0,99999,,(3812.1324558468373+0j),0.0,1116002705100502030301704000051000600007000080000
4574,EGWC,52.64,-2.30558,2024-04-17 00:20:00,,,,,99999.0,99999.0,(99999+0j),99999.0,7.0,320.0,10000.0,99999,,(98981.7+0j),0.0,11160032071099999020999990399904000051000600007000080000
4575,EGWU,51.553,-0.41817,2024-04-17 00:20:00,,,,,5.0,1017.0,(2014.2398157888003+0j),4.0,3.0,290.0,10000.0,99999,1.0,(997.3398157888004+0j),0.0,1116012903100502040301704000051000600007000081000
4576,EGXE,54.2924,-1.5354,2024-04-17 00:20:00,,,,,5.0,1015.0,(2082.2391999752103+0j),1.0,13.0,310.0,10000.0,99999,,(1067.5391999752103+0j),0.2,1116003113100502010301504000051000600207000080000
4577,EGXT,52.6126,-0.47645,2024-04-17 00:20:00,,,,,4.0,1015.0,(4151.965865041737+0j),3.0,9.0,250.0,10000.0,99999,,(3135.765865041737+0j),0.0,1116002509100402030301504000051000600007000080000
4578,EGXW,53.1662,-0.52381,2024-04-17 00:20:00,,,,,4.0,1015.0,(3609.268546284348+0j),2.0,6.0,250.0,10000.0,99999,1.0,(2593.668546284348+0j),0.0,1116012506100402020301504000051000600007000081000
4579,EGXZ,54.2055,-1.38209,2024-04-17 00:20:00,,,,,6.0,1015.0,(1601.5668297036557+0j),1.0,12.0,300.0,10000.0,99999,6.0,(587.0668297036557+0j),0.0,1116063012100602010301504000051000600007000086000
4580,EGYD,53.0303,-0.48324,2024-04-17 00:20:00,,,,,4.0,1015.0,(3443.386573316398+0j),2.0,12.0,260.0,10000.0,99999,,(2427.0865733163982+0j),0.0,1116002612100402020301504000051000600007000080000
4581,EGYE,52.9622,-0.56163,2024-04-17 00:20:00,,,,,3.0,1015.0,(6976.756868581118+0j),2.0,10.0,250.0,10000.0,99999,,(5961.256868581118+0j),0.0,1116002510100302020301504000051000600007000080000
4582,EGYM,52.6484,0.55069,2024-04-17 00:20:00,,,,,2.0,1015.0,(2600.5382947838766+0j),0.0,3.0,170.0,10000.0,99999,6.0,(1584.9382947838767+0j),0.0,1116061703100202000301504000051000600007000086000
4587,LQBK,44.9414,17.2975,2024-04-17 00:30:00,,,,,3.0,1008.0,(7484.476002227323+0j),3.0,3.0,260.0,5000.0,99999,5.0,(6475.376002227323+0j),1.6,1113052603100302030300804000051000601607000085000
4588,LQTZ,44.4587,18.7248,2024-04-17 00:30:00,68.0,36.0,e,magenta,4.0,1005.0,(10.41811968489252+0j),3.0,5.0,280.0,7000.0,99999,4.0,(-997.4818803151074+0j),4.0,1114042805100402030300504000051000604007680084000
4589,UUYY,61.647,50.8451,2024-04-17 00:30:00,,,,,3.0,994.0,(6411.884298392267+0j),3.0,3.0,210.0,8000.0,99999,4.0,(5417.584298392267+0j),0.0,1114042103100302030399404000051000600007000084000
4592,ETHF,51.1146,9.286,2024-04-17 00:30:00,,,,,6.0,1007.0,(11.644054044208414+0j),4.0,3.0,340.0,10000.0,99999,4.0,(-995.2559459557916+0j),0.0,1116043403100602040300704000051000600007000084000
4594,ETSN,48.711,11.2115,2024-04-17 00:20:00,,,,,4.0,1007.0,(14.919591372931892+0j),3.0,10.0,260.0,10000.0,99999,3.0,(-993.0804086270681+0j),0.0,1116032610100402030300704000051000600007000083000
4596,LFRB,48.4479,-4.41854,2024-04-17 00:30:00,,,,,7.0,1022.0,(3058.223414928605+0j),4.0,5.0,330.0,10000.0,99999,2.0,(2036.1234149286051+0j),0.0,1116023305100702040302204000051000600007000082000
4597,LPPT,38.7813,-9.13592,2024-04-17 00:30:00,,,,,15.0,1015.0,(2016.2459600048176+0j),12.0,8.0,310.0,10000.0,99999,,(1000.0459600048175+0j),0.0,11160031081015020120301504000051000600007000080000
4599,EBDT,50.9992,5.06556,2024-04-17 00:25:00,,,,,4.0,1012.0,(2013.263459603825+0j),3.0,7.0,290.0,10000.0,99999,,(1002.963459603825+0j),0.0,1116002907100402030301204000051000600007000080000
4600,EICK,51.8413,-8.49111,2024-04-17 00:30:00,,,,,5.0,1024.0,(5890.557819691861+0j),3.0,8.0,310.0,10000.0,99999,3.0,(4866.057819691861+0j),0.0,1116033108100502030302404000051000600007000083000
4601,EIDW,53.4213,-6.27007,2024-04-17 00:30:00,,,,,5.0,1021.0,(3154.135815213237+0j),3.0,10.0,280.0,10000.0,99999,2.0,(2132.835815213237+0j),0.0,1116022810100502030302104000051000600007000082000
4602,EINN,52.702,-8.92482,2024-04-17 00:30:00,,,,,7.0,1025.0,(1265.8584577120394+0j),4.0,8.0,300.0,10000.0,99999,1.0,(241.5584577120394+0j),0.0,1116013008100702040302504000051000600007000081000
4603,EHAM,52.3086,4.76389,2024-04-17 00:25:00,,,,,6.0,1011.0,(948.5247765174506+0j),5.0,4.0,330.0,6000.0,99999,2.0,(-61.37522348254936+0j),0.0,1113023304100602050301104000051000600007000082000
4604,LEMO,37.1749,-5.61594,2024-04-17 00:30:00,,,,,17.0,1013.0,(1658.0737305004102+0j),11.0,5.0,170.0,10000.0,99999,,(644.0737305004102+0j),0.0,11160017051017020110301304000051000600007000080000
4606,ULLI,59.8003,30.2625,2024-04-17 00:30:00,,,,,5.0,997.0,(1584.0470733263528+0j),3.0,2.0,50.0,10000.0,99999,5.0,(586.0470733263528+0j),0.0,1116050502100502030399704000051000600007000085000
4607,UMKK,54.89,20.5926,2024-04-17 00:30:00,,,,,4.0,1000.0,(1384.8287208115014+0j),3.0,5.0,350.0,10000.0,99999,5.0,(384.8287208115014+0j),0.0,1116053505100402030300004000051000600007000085000
4608,UMMS,53.8825,28.0307,2024-04-17 00:30:00,,,,,4.0,998.0,(9.056443573325627+0j),0.0,3.0,230.0,10000.0,99999,,(-989.7435564266743+0j),0.0,1116002303100402000399804000051000600007000080000
4609,UUDD,55.4088,37.9063,2024-04-17 00:30:00,,,,,10.0,998.0,(3601.7523353711867+0j),1.0,4.0,190.0,10000.0,99999,3.0,(2603.4523353711866+0j),0.0,1116031904101002010399804000051000600007000083000
4610,UUEE,55.9726,37.4146,2024-04-17 00:30:00,61.0,36.0,^,green,9.0,997.0,(4122.40298996666+0j),3.0,5.0,210.0,10000.0,99999,8.0,(3122.7029899666604+0j),0.0,1116082105100902030399704000051000600007610088000
4611,LEAB,38.9485,-1.86352,2024-04-17 00:30:00,,,,,12.0,1016.0,(10.34540375142096+0j),7.0,1.0,,10000.0,99999,,(-1003.8545962485791+0j),0.0,1116003601101202070301604000051000600007000080000
4612,LEBA,37.842,-4.84888,2024-04-17 00:30:00,,,,,14.0,1014.0,(1850.0708866034718+0j),12.0,1.0,,10000.0,99999,,(836.8708866034717+0j),0.0,11160036011014020120301404000051000600007000080000
4613,LELO,42.46095,-2.32224,2024-04-17 00:30:00,,,,,9.0,1022.0,(7367.4784669678875+0j),6.0,4.0,290.0,10000.0,99999,7.0,(6344.078466967888+0j),0.0,1116072904100902060302204000051000600007000087000
4614,LERT,36.6452,-6.34946,2024-04-17 00:30:00,,,,,15.0,1013.0,(1219.5427225323258+0j),12.0,0.0,0.0,10000.0,99999,,(205.44272253232577+0j),0.0,11160000001015020120301304000051000600007000080000
4615,LETO,40.4967,-3.44587,2024-04-17 00:30:00,,,,,12.0,1017.0,(9.292127214843548+0j),4.0,7.0,50.0,10000.0,99999,,(-1006.2078727851565+0j),0.0,1116000507101202040301704000051000600007000080000
4616,LFJL,48.9821,6.25132,2024-04-17 00:30:00,,,,,6.0,1010.0,(8079.791214878427+0j),5.0,11.0,300.0,10000.0,99999,8.0,(7069.3912148784275+0j),0.0,1116083011100602050301004000051000600007000088000
4625,LXGB,36.1512,-5.34966,2024-04-17 00:20:00,,,,,22.0,1013.0,(1036.7187022528628+0j),12.0,11.0,230.0,10000.0,99999,,(22.818702252862863+0j),0.0,11160023111022020120301304000051000600007000080000
4628,LFRI,46.7019,-1.37863,2024-04-17 00:30:00,,,,,6.0,1020.0,(3223.25940485548+0j),5.0,7.0,320.0,10000.0,99999,,(2203.45940485548+0j),0.0,1116003207100602050302004000051000600007000080000
4631,LFMH,45.5406,4.29639,2024-04-17 00:30:00,61.0,36.0,^,green,6.0,1015.0,(11.596999170179894+0j),4.0,8.0,350.0,10000.0,99999,3.0,(-1004.8030008298201+0j),0.0,1116033508100602040301504000051000600007610083000
4633,LFQQ,50.5619,3.08944,2024-04-17 00:30:00,,,,,6.0,1014.0,(2069.656382051883+0j),5.0,6.0,300.0,10000.0,99999,5.0,(1055.756382051883+0j),0.0,1116053006100602050301404000051000600007000085000
4634,LFRM,47.9486,0.20167,2024-04-17 00:30:00,,,,,5.0,1017.0,(2668.4075074419425+0j),5.0,2.0,190.0,10000.0,99999,,(1650.7075074419424+0j),0.0,1116001902100502050301704000051000600007000080000
4635,LFSI,48.636,4.89942,2024-04-17 00:30:00,,,,,6.0,1013.0,(4565.519389820543+0j),5.0,9.0,300.0,10000.0,99999,5.0,(3552.2193898205433+0j),0.0,1116053009100602050301304000051000600007000085000
4636,LKCV,49.9397,15.3818,2024-04-17 00:30:00,61.0,36.0,^,green,5.0,1003.0,(8690.519325174173+0j),3.0,11.0,290.0,10000.0,99999,8.0,(7686.119325174173+0j),0.0,1116082911100502030300304000051000600007610088000
4637,LKNA,49.1658,16.1249,2024-04-17 00:30:00,,,,,5.0,1002.0,(14.757518226177904+0j),1.0,10.0,300.0,10000.0,99999,7.0,(-990.2424817738221+0j),0.0,1116073010100502010300204000051000600007000087000
4638,LKPD,50.0134,15.7386,2024-04-17 00:30:00,61.0,36.0,^,green,5.0,1002.0,(8171.752840288969+0j),4.0,7.0,290.0,10000.0,99999,5.0,(7167.652840288969+0j),0.0,1116052907100502040300204000051000600007610085000
4642,EHKD,52.9234,4.78062,2024-04-17 00:38:00,,,,,7.0,1011.0,(1025.8521261761127+0j),4.0,8.0,340.0,10000.0,99999,4.0,(14.552126176112779+0j),0.0,1116043408100702040301104000051000600007000084000
4643,ETAR,49.4369,7.60028,2024-04-17 00:36:00,61.0,36.0,^,green,7.0,29.77,(6477.264906298795+0j),5.0,4.0,250.0,10000.0,99999,7.0,(5468.664906298794+0j),0.4,111607250410070205032974000051000600407610087000
4645,EEEI,59.2603,24.2085,2024-04-17 00:43:00,,,,,2.0,999.0,(2325.9680922198017+0j),2.0,2.0,,9000.0,99999,6.0,(1327.7680922198017+0j),0.0,1115063602100202020399904000051000600007000086000
4646,ETOU,50.0498,8.3254,2024-04-17 00:41:00,61.0,36.0,^,green,7.0,29.78,(4086.1871117499654+0j),5.0,7.0,320.0,10000.0,99999,5.0,(3078.3871117499657+0j),0.0,111605320710070205032974000051000600007610085000
4647,EBLB,50.4817,6.18194,2024-04-17 00:43:00,,,,,3.0,1009.0,(22.08405708719389+0j),2.0,7.0,350.0,10000.0,99999,8.0,(-988.1159429128062+0j),1.5,1116083507100302020300904000051000601507000088000
