,station,lat,lon,time,weather,weatherfont,weathersymbol,weathercolour,temperature,pressure,sl_pressure,dewpoint,windspeed,winddir,visibility,visual_range,cloudcover,pressure3h_change,rain,wwletter
57,EEEI,59.2602996826,24.2084999084,2024-03-06 23:50:00,,,,,-6.0,1030.0,(680.7525154825981+0j),-6.0,2.0,250.0,10000.0,99999,,(-350.24748451740186+0j),0.0,1116002502110602160303004000051000600007000080000
725,ESPA,65.543800354,22.1219997406,2024-03-06 23:50:00,10.0,36.0,+,yellow,-2.0,1030.0,(200.03266566645036+0j),-3.0,1.0,,5000.0,99999,8.0,(-831.2673343335496+0j),0.0,1113083601110202130303004000051000600007100088000
727,ESSB,59.3544006348,17.9416999817,2024-03-06 23:50:00,10.0,36.0,+,yellow,-5.0,1033.0,(725.2203131886033+0j),-5.0,0.0,0.0,4600.0,99999,,(-308.47968681139673+0j),0.0,1112000000110502150303304000051000600007100080000
748,EGJB,49.4350013733,-2.6019699574,2024-03-06 23:50:00,,,,,6.0,1019.0,(3533.671165225008+0j),5.0,9.0,100.0,10000.0,99999,1.0,(2513.071165225008+0j),0.0,1116011009100602050301904000051000600007000081000
757,EGNS,54.0833015442,-4.6238899231,2024-03-06 23:50:00,,,,,7.0,1022.0,(1294.983102675296+0j),5.0,17.0,130.0,10000.0,99999,,(273.78310267529605+0j),0.0,1116001317100702050302204000051000600007000080000
759,EGNV,54.5092010498,-1.4294099808,2024-03-06 23:50:00,,,,,7.0,1025.0,(1693.7924164250855+0j),5.0,4.0,150.0,4500.0,99999,2.0,(669.0924164250855+0j),0.0,1112021504100702050302504000051000600007000082000
787,EDDF,50.0264015198,8.543129921,2024-03-06 23:50:00,,,,,6.0,1024.0,(3792.413393547294+0j),2.0,8.0,10.0,10000.0,99999,,(2767.6133935472944+0j),0.0,1116000108100602020302404000051000600007000080000
799,ETNG,50.9608001709,6.0424199104,2024-03-06 23:50:00,,,,,6.0,1024.0,(3210.575634351036+0j),4.0,3.0,100.0,7000.0,99999,1.0,(2185.575634351036+0j),0.0,1114011003100602040302404000051000600007000081000
870,LGLM,39.917098999,25.2362995148,2024-03-06 23:50:00,,,,,8.0,1016.0,(1077.5280152937128+0j),6.0,0.0,0.0,10000.0,99999,1.0,(60.62801529371279+0j),0.0,1116010000100802060301604000051000600007000081000
895,LGSM,37.6899986267,26.911699295,2024-03-06 23:50:00,,,,,11.0,1016.0,(1076.7191431649217+0j),8.0,2.0,,10000.0,99999,1.0,(60.519143164921616+0j),0.0,1116013602101102080301604000051000600007000081000
901,LIME,45.6739006042,9.7041702271,2024-03-06 23:50:00,,,,,8.0,1017.0,(5711.125880872803+0j),6.0,3.0,10.0,10000.0,99999,3.0,(4693.525880872802+0j),0.0,1116030103100802060301704000051000600007000083000
970,LGAL,40.8558998108,25.9563007355,2024-03-06 23:50:00,,,,,9.0,1017.0,(1111.457311470027+0j),7.0,4.0,80.0,10000.0,99999,3.0,(94.35731147002696+0j),0.0,1116030804100902070301704000051000600007000083000
983,EBBR,50.9014015198,4.4844398499,2024-03-06 23:50:00,,,,,5.0,1024.0,(2589.730822867021+0j),2.0,3.0,100.0,10000.0,99999,,(1564.5308228670208+0j),0.0,1116001003100502020302404000051000600007000080000
1066,EHWO,51.4491004944,4.3420300484,2024-03-06 23:55:00,45.0,36.0,N,yellow,0.0,1025.0,(39.19668001070782+0j),-0.0,4.0,60.0,650.0,99999,,(-986.2033199892923+0j),0.0,1110000604100002100302504000051000600007450080000
1092,LGLR,39.6562825886,22.3400008678,2024-03-06 23:50:00,10.0,36.0,+,yellow,8.0,1016.0,(2254.8492862627127+0j),8.0,0.0,0.0,5000.0,99999,1.0,(1238.2492862627128+0j),0.0,1113010000100802080301604000051000600007100081000
1095,LGTG,38.3398017883,23.5650005341,2024-03-06 23:50:00,,,,,7.0,1017.0,(4214.219054071967+0j),6.0,0.0,0.0,10000.0,99999,1.0,(3196.6190540719667+0j),0.0,1116010000100702060301704000051000600007000081000
1157,LTAY,37.7855987549,29.7012996674,2024-03-06 23:50:00,,,,,2.0,1016.0,(29.737819132376828+0j),2.0,4.0,240.0,10000.0,99999,1.0,(-986.6621808676232+0j),0.0,1116012404100202020301604000051000600007000081000
1160,LTBH,40.1376991272,26.4267997742,2024-03-06 23:50:00,,,,,5.0,1017.0,(1182.1154605939355+0j),4.0,1.0,,10000.0,99999,,(165.01546059393547+0j),0.0,1116003601100502040301704000051000600007000080000
1162,LTBY,39.8098983765,30.5193996429,2024-03-06 23:50:00,,,,,2.0,1016.0,(29.159383277222602+0j),1.0,4.0,240.0,10000.0,99999,3.0,0j,0.0,1116032404100202010301604000051000600007000083000
1164,LTCB,40.966667,38.08,2024-03-06 23:50:00,80.0,36.0,q,green,9.0,1014.0,(1084.3037849304176+0j),7.0,4.0,210.0,10000.0,99999,6.0,(70.70378493041756+0j),0.7,1116062104100902070301404000051000600707800086000
1166,LTCN,37.5388259888,36.9535217285,2024-03-06 23:50:00,,,,,5.0,1012.0,(16.03282552946653+0j),5.0,1.0,,6000.0,99999,4.0,(-996.6671744705335+0j),0.0,1113043601100502050301204000051000600007000084000
1167,LTCT,39.9766273499,43.8766479492,2024-03-06 23:50:00,61.0,36.0,^,green,7.0,1011.0,(18.717921473938986+0j),4.0,1.0,,10000.0,99999,4.0,0j,0.0,1116043601100702040301104000051000600007610084000
1168,LTDA,36.36277771,36.2822227478,2024-03-06 23:50:00,80.0,36.0,q,green,11.0,1012.0,(1988.9471870815507+0j),10.0,2.0,,8000.0,99999,3.0,(976.7471870815507+0j),0.0,11140336021011020100301204000051000600007800083000
1169,LTFD,39.554599762,27.0137996674,2024-03-06 23:50:00,,,,,8.0,1017.0,(1243.813486830869+0j),4.0,15.0,60.0,10000.0,99999,1.0,(226.41348683086892+0j),0.0,1116010615100802040301704000051000600007000081000
1170,LTFG,36.2992172241,32.3005981445,2024-03-06 23:50:00,,,,,10.0,1013.0,(1328.579173411229+0j),8.0,6.0,130.0,10000.0,99999,,(315.579173411229+0j),0.0,1116001306101002080301304000051000600007000080000
1172,LTBD,37.8149986267,27.8952999115,2024-03-06 23:50:00,,,,,6.0,1016.0,(1672.893665888472+0j),5.0,5.0,80.0,10000.0,99999,,(656.893665888472+0j),0.0,1116000805100602050301604000051000600007000080000
1219,LGPZ,38.9254989624,20.7653007507,2024-03-06 23:50:00,,,,,12.0,1017.0,(1049.0687932320407+0j),11.0,4.0,100.0,10000.0,99999,3.0,(31.06879323204066+0j),0.0,11160310041012020110301704000051000600007000083000
1220,LGRX,38.1511001587,21.4256000519,2024-03-06 23:50:00,,,,,9.0,1018.0,(1202.272997975962+0j),9.0,0.0,0.0,10000.0,99999,3.0,(183.97299797596202+0j),0.0,1116030000100902090301804000051000600007000083000
1251,LBPG,42.2904014587,24.7140007019,2024-03-07 00:00:00,,,,,7.0,1017.0,(2120.075817036251+0j),4.0,6.0,90.0,10000.0,99999,7.0,(1103.475817036251+0j),0.0,1116070906100702040301704000051000600007000087000
1252,LBPL,43.4514007568,24.5027999878,2024-03-07 00:00:00,61.0,36.0,^,green,5.0,1015.0,(4034.9575999222657+0j),2.0,8.0,80.0,8000.0,99999,8.0,(3018.8575999222658+0j),0.0,1114080808100502020301504000051000600007610088000
1258,EHEH,51.4500999451,5.3745298386,2024-03-06 23:55:00,10.0,36.0,+,yellow,3.0,1025.0,(2024.0637821879284+0j),3.0,4.0,40.0,3900.0,99999,,(998.4637821879285+0j),0.0,1112000404100302030302504000051000600007100080000
1348,ETEK,49.6502990723,7.300069809,2024-03-06 23:55:00,,,,,4.6,30.21,(1030.21+0j),2.0,4.0,70.0,10000.0,99999,8.0,(6.110000000000127+0j),0.0,111608070410045202533024000051000600007000088000
1349,ETIC,49.6986999512,11.940199852,2024-03-06 23:55:00,,,,,1.6,30.17,(25.92810246090965+0j),-2.0,0.0,0.0,10000.0,99999,1.0,(-997.7718975390904+0j),0.0,111601000010016212633014000051000600007000081000
1460,EGQL,56.3728981018,-2.8684399128,2024-03-06 23:50:00,,,,,7.0,1025.0,(1222.4814175306426+0j),4.0,10.0,140.0,10000.0,99999,3.0,(197.68141753064265+0j),0.0,1116031410100702040302504000051000600007000083000
1461,EGQS,57.7052001953,-3.3391699791,2024-03-06 23:50:00,,,,,5.0,1024.0,(1335.1965016884587+0j),2.0,13.0,140.0,10000.0,99999,,(311.4965016884587+0j),0.0,1116001413100502020302404000051000600007000080000
1530,LTAN,37.9790000916,32.5619010925,2024-03-06 23:50:00,,,,,2.0,1015.0,(31.02603250416602+0j),-0.0,8.0,350.0,10000.0,99999,3.0,(-984.073967495834+0j),0.0,1116033508100202100301504000051000600007000083000
1534,LTBI,39.7840995789,30.5820999146,2024-03-06 23:50:00,,,,,2.0,1016.0,(29.138546340058433+0j),1.0,4.0,240.0,10000.0,99999,3.0,(-989.4614536599416+0j),0.0,1116032404100202010301604000051000600007000083000
1535,LTBQ,40.7350006104,30.0832996368,2024-03-06 23:50:00,,,,,5.0,1018.0,(2555.366356980556+0j),5.0,0.0,0.0,10000.0,99999,6.0,(1536.6663569805557+0j),0.0,1116060000100502050301804000051000600007000086000
1670,LTAB,39.9350013733,32.7407989502,2024-03-06 23:50:00,,,,,1.0,1015.0,(33.598379132722314+0j),-0.0,4.0,270.0,10000.0,99999,3.0,(-983.3016208672776+0j),0.0,1116032704100102100301504000051000600007000083000
1671,LTAD,39.949798584,32.6885986328,2024-03-06 23:50:00,,,,,1.0,1015.0,(33.53887616665787+0j),-2.0,2.0,100.0,10000.0,99999,3.0,(-983.261123833342+0j),0.0,1116031002100102120301504000051000600007000083000
1672,LTAR,39.8138008118,36.9034996033,2024-03-06 23:50:00,,,,,-1.0,1011.0,(41.83834552656794+0j),-1.0,6.0,310.0,10000.0,99999,6.0,(-971.361654473432+0j),0.0,1116063106110102110301104000051000600007000086000
1673,LTBF,39.6193008423,27.9260005951,2024-03-06 23:50:00,,,,,2.0,1018.0,(9.356533464396751+0j),2.0,1.0,230.0,10000.0,99999,1.0,(-1009.0434665356032+0j),0.0,1116012301100202020301804000051000600007000081000
1674,LTBG,40.3180007935,27.9776992798,2024-03-06 23:50:00,,,,,4.0,1018.0,(2851.672940432518+0j),3.0,0.0,0.0,10000.0,99999,3.0,(1833.072940432518+0j),0.0,1116030000100402030301804000051000600007000083000
1675,LTBL,38.5130004883,27.010099411,2024-03-06 23:50:00,,,,,5.0,1017.0,(1130.7698338586315+0j),4.0,1.0,290.0,10000.0,99999,,(114.36983385863152+0j),0.0,1116002901100502040301704000051000600007000080000
1676,LTCA,38.6068992615,39.2914009094,2024-03-06 23:50:00,,,,,6.0,1010.0,(19.73819491830015+0j),4.0,7.0,300.0,10000.0,99999,3.0,(-991.9618050816999+0j),0.5,1116033007100602040301004000051000600507000083000
1714,LTAE,40.0788993835,32.5656013489,2024-03-06 23:50:00,,,,,1.0,1015.0,(33.73323688295313+0j),-2.0,3.0,50.0,10000.0,99999,3.0,(-983.2667631170468+0j),0.0,1116030503100102120301504000051000600007000083000
1822,ULPB,61.8852005005,34.1547012329,2024-03-07 00:00:00,,,,,-4.0,1027.0,(129.91759135244692+0j),-7.0,2.0,310.0,10000.0,99999,,(-897.9824086475531+0j),0.0,1116003102110402170302704000051000600007000080000
2061,LPMR,39.831199646,-8.887260437,2024-03-07 00:00:00,,,,,13.0,1010.0,(1554.6753341794897+0j),8.0,12.0,160.0,10000.0,99999,1.0,(541.1753341794897+0j),0.0,1116011612101302080301004000051000600007000081000
2062,LPMT,38.7038993835,-9.0359201431,2024-03-07 00:00:00,,,,,14.0,1011.0,(1127.196882298942+0j),10.0,12.0,170.0,10000.0,99999,1.0,(112.99688229894196+0j),0.0,11160117121014020100301104000051000600007000081000
2067,UMGG,52.5270004272,31.0167007446,2024-03-07 00:00:00,,,,,-4.0,1026.0,(-55504.07534075355-58013.58041452959j),-7.0,2.0,350.0,9000.0,99999,,(-56531.97534075355-58013.58041452959j),0.0,1115003502110402170302604000051000600007000080000
2078,URMN,43.5129013062,43.6366004944,2024-03-07 00:00:00,10.0,36.0,+,yellow,2.0,1010.0,(23.937720071823993+0j),2.0,1.0,120.0,2000.0,99999,8.0,(-988.562279928176+0j),0.3,1111081201100202020301004000051000600307100088000
2091,UWLW,54.4010009766,48.8027000427,2024-03-07 00:00:00,,,,,-13.0,1024.0,(451.72345913094347+0j),-15.0,1.0,210.0,10000.0,99999,,(-573.4765408690566+0j),0.0,11160021011113021150302404000051000600007000080000
2127,EGVA,51.6822013855,-1.7900300026,2024-03-06 23:55:00,10.0,36.0,+,yellow,3.3,30.18,(5194.031178479211+0j),2.0,3.0,70.0,9000.0,99999,,(4170.931178479211+0j),0.0,111500070310032202233014000051000600007100080000
2166,EGXC,53.0929985046,-0.1660140008,2024-03-06 23:50:00,10.0,36.0,+,yellow,5.0,1025.0,(1206.3718263438004+0j),5.0,5.0,80.0,3000.0,99999,,(181.7718263438005+0j),0.0,1111000805100502050302504000051000600007100080000
2172,EGYM,52.648399353,0.5506920218,2024-03-06 23:50:00,45.0,36.0,N,yellow,5.0,1025.0,(1603.399163221132+0j),5.0,5.0,110.0,800.0,99999,8.0,(578.499163221132+0j),0.0,1110081105100502050302504000051000600007450088000
2216,LGHI,38.3432006836,26.1406002045,2024-03-06 23:50:00,,,,,7.0,1016.0,(1091.5502453490633+0j),6.0,0.0,0.0,10000.0,99999,,(75.65024534906331+0j),0.0,1116000000100702060301604000051000600007000080000
2219,LKKB,50.1213989258,14.5436000824,2024-03-07 00:00:00,,,,,3.0,1022.0,(15.167123380320659+0j),-0.0,5.0,300.0,10000.0,99999,3.0,0j,0.0,1116033005100302100302204000051000600007000083000
2220,LKKV,50.202999115,12.9149999619,2024-03-07 00:00:00,,,,,-3.0,1022.0,(81.8861762569745+0j),-4.0,0.0,0.0,10000.0,99999,1.0,(-943.3138237430255+0j),0.0,1116010000110302140302204000051000600007000081000
2221,LKLN,49.675201416,13.274600029,2024-03-07 00:00:00,,,,,1.0,1023.0,(28.68256362720507+0j),-2.0,1.0,,8000.0,99999,6.0,(-996.1174363727948+0j),0.0,1114063601100102120302304000051000600007000086000
2226,LOXZ,47.2028007507,14.7441997528,2024-03-06 23:50:00,,,,,4.0,1017.0,(21.261043517141534+0j),-0.0,2.0,90.0,10000.0,99999,3.0,(-999.8389564828585+0j),0.0,1116030902100402100301704000051000600007000083000
2236,LTCD,39.7102012634,39.5270004272,2024-03-06 23:50:00,68.0,36.0,e,magenta,1.0,1010.0,(34.8172993150666+0j),0.0,0.0,0.0,7000.0,99999,5.0,(-977.9827006849333+0j),0.8,1114050000100102000301004000051000600807680085000
2245,ULOO,57.7839012146,28.3955993652,2024-03-07 00:00:00,,,,,-3.0,1027.0,(26.645022193466673+0j),-7.0,2.0,300.0,10000.0,99999,,(-1002.4549778065332+0j),0.0,1116003002110302170302704000051000600007000080000
2267,LIBD,41.1389007568,16.7605991364,2024-03-06 23:50:00,,,,,7.0,1015.0,(2032.042633415878+0j),2.0,8.0,210.0,10000.0,99999,,(1015.0426334158781+0j),0.0,1116002108100702020301504000051000600007000080000
2320,LPBJ,38.0788993835,-7.9324002266,2024-03-07 00:00:00,,,,,8.0,1014.0,(4736.0602002802925+0j),7.0,8.0,190.0,10000.0,99999,1.0,(3719.8602002802927+0j),0.0,1116011908100802070301404000051000600007000081000
2329,EIME,53.301700592,-6.4513301849,2024-03-07 00:00:00,,,,,8.0,1018.0,(2723.234622630269+0j),5.0,12.0,130.0,10000.0,99999,3.0,(1704.934622630269+0j),0.0,1116031312100802050301804000051000600007000083000
2330,ENMH,71.0297012329,27.8267002106,2024-03-06 23:50:00,,,,,4.0,1021.0,(1384.1829997707491+0j),2.0,21.0,300.0,10000.0,99999,6.0,(360.9829997707491+0j),0.1,1116063021100402020302104000051000600107000086000
2343,LRCT,46.5023002625,23.8859004974,2024-03-07 00:00:00,,,,,6.0,1015.0,(9.818860364438356+0j),6.0,6.0,160.0,10000.0,99999,8.0,0j,0.0,1116081606100602060301504000051000600007000088000
2350,LIBA,41.5414009094,15.7180995941,2024-03-06 23:55:00,,,,,4.0,1015.0,(3003.577398014878+0j),2.0,4.0,350.0,10000.0,99999,,(1987.5773980148779+0j),0.0,1116003504100402020301504000051000600007000080000
2356,LIPC,44.2242012024,12.3072004318,2024-03-06 23:55:00,,,,,4.0,1017.0,(1178.4170208603618+0j),3.0,3.0,260.0,10000.0,99999,,(161.7170208603618+0j),0.0,1116002603100402030301704000051000600007000080000
2360,LIPS,45.6848983765,12.0829000473,2024-03-06 23:55:00,,,,,9.0,1016.0,(1598.5319525345117+0j),8.0,3.0,280.0,10000.0,99999,6.0,(581.3319525345116+0j),1.0,1116062803100902080301604000051000601007000086000
2362,LIRE,41.654499054,12.4451999664,2024-03-06 23:55:00,,,,,8.0,1016.0,(1200.4278329065198+0j),6.0,5.0,360.0,10000.0,99999,3.0,(182.92783290651982+0j),0.0,1116033605100802060301604000051000600007000083000
2364,LIRS,42.7597007751,11.0719003677,2024-03-06 23:55:00,,,,,5.0,1017.0,(1138.047513617822+0j),3.0,4.0,40.0,10000.0,99999,,(120.94751361782198+0j),0.0,1116000404100502030301704000051000600007000080000
2366,LICZ,37.4016990662,14.9224004745,2024-03-06 23:55:00,,,,,9.0,1019.0,(1343.3709356755762+0j),7.0,8.0,310.0,10000.0,99999,,(322.47093567557624+0j),0.0,1116003108100902070301904000051000600007000080000
2381,LTFH,41.2545013428,36.5671005249,2024-03-07 00:05:00,80.0,36.0,q,green,8.0,1014.0,(1093.2313983142221+0j),7.0,9.0,310.0,8000.0,99999,5.0,0j,0.0,1114053109100802070301404000051000600007800085000
2384,ETIH,49.2181015015,11.8360996246,2024-03-06 23:55:00,,,,,2.8,30.17,(20.82262122392375+0j),-1.2,0.0,0.0,10000.0,99999,1.0,(-1002.3773787760763+0j),0.0,111601000010027211733014000051000600007000081000
2387,ETAD,49.9726982117,6.6925001144,2024-03-06 23:55:00,,,,,6.0,30.2,(10.837020745555694+0j),2.1,7.0,60.0,10000.0,99999,,(-1013.4629792544442+0j),0.0,111600060710060202033014000051000600007000080000
2388,ETAR,49.4369010925,7.600279808,2024-03-06 23:55:00,,,,,6.9,30.2,(6564.601216867982+0j),2.8,6.0,60.0,10000.0,99999,3.0,(5540.901216867982+0j),0.0,111603060610069202933014000051000600007000083000
2389,ETOU,50.0498008728,8.3254003525,2024-03-06 23:55:00,,,,,6.9,30.23,(4138.302661940327+0j),1.4,3.0,40.0,10000.0,99999,,(3113.902661940327+0j),0.0,111600040310069201933024000051000600007000080000
2411,LICT,37.9113998413,12.4879999161,2024-03-06 23:55:00,,,,,9.0,1021.0,(1119.8566558984014+0j),8.0,5.0,140.0,10000.0,99999,1.0,(98.35665589840141+0j),0.0,1116011405100902080302104000051000600007000081000
2412,LIBN,40.239200592,18.1333007813,2024-03-06 23:55:00,,,,,9.0,1017.0,(1688.6273333377276+0j),6.0,7.0,280.0,10000.0,99999,,(671.6273333377276+0j),0.0,1116002807100902060301704000051000600007000080000
2413,LIED,39.3541984558,8.9724798203,2024-03-06 23:55:00,10.0,36.0,+,yellow,5.0,1020.0,(1808.0749774656485+0j),4.0,4.0,340.0,2000.0,99999,6.0,(786.9749774656485+0j),0.0,1111063404100502040302004000051000600007100086000
2414,LIPI,45.9786987305,13.0493001938,2024-03-06 23:55:00,,,,,8.0,1016.0,(1904.5882926180138+0j),6.0,2.0,300.0,10000.0,99999,4.0,(887.5882926180138+0j),0.0,1116043002100802060301604000051000600007000084000
2415,LIPL,45.4322013855,10.2677001953,2024-03-06 23:55:00,61.0,36.0,^,green,8.0,1016.0,(2803.194352319692+0j),8.0,3.0,90.0,8000.0,99999,4.0,(1785.594352319692+0j),0.0,1114040903100802080301604000051000600007610084000
2421,EGUN,52.3619003296,0.4864059985,2024-03-06 23:55:00,10.0,36.0,+,yellow,6.0,30.25,(1231.4500042219256+0j),5.0,6.0,120.0,4000.0,99999,8.0,(206.65000422192566+0j),0.0,111208120610060205033024000051000600007100088000
2441,EVGA,56.778301239,24.8539009094,2024-03-07 00:20:00,,,,,-5.0,1030.0,(105.81922039404395+0j),-6.0,0.0,0.0,10000.0,99999,,(-924.9807796059561+0j),0.0,1116000000110502160303004000051000600007000080000
2480,EVVA,57.35779953,21.5442008972,2024-03-07 00:20:00,,,,,-5.0,1031.0,(900.9342769619229+0j),-5.0,0.0,0.0,10000.0,99999,,0j,0.0,1116000000110502150303104000051000600007000080000
2494,LSZC,46.9744444444,8.3969444444,2024-03-07 00:20:00,,,,,2.0,1021.0,(24.29375731037698+0j),1.0,2.0,,10000.0,99999,8.0,(-999.8062426896229+0j),0.1,1116083602100202010302104000051000600107000088000
2495,LATI,41.4146995544,19.7206001282,2024-03-07 00:20:00,,,,,7.0,1017.0,(1716.9227630092587+0j),6.0,5.0,180.0,10000.0,99999,3.0,(699.5227630092587+0j),1.1,1116031805100702060301704000051000601107000083000
2497,LMML,35.857498,14.4775,2024-03-07 00:15:00,,,,,10.0,1021.0,(2260.132024969719+0j),8.0,3.0,320.0,10000.0,99999,,(1238.1320249697192+0j),0.0,1116003203101002080302104000051000600007000080000
2498,LWSK,41.9616012573,21.6214008331,2024-03-07 00:20:00,,,,,7.0,1015.0,(6421.448855961474+0j),6.0,2.0,80.0,10000.0,99999,1.0,(5405.048855961474+0j),1.0,1116010802100702060301504000051000601007000081000
2503,EKRS,55.4258003235,11.8066997528,2024-03-07 00:20:00,,,,,1.0,1031.0,(6597.937303733484+0j),0.0,8.0,90.0,10000.0,99999,8.0,(5566.837303733484+0j),0.0,1116080908100102000303104000051000600007000088000
2530,LSMA,46.943901062,8.2841701508,2024-03-07 00:20:00,10.0,36.0,+,yellow,2.0,1021.0,(24.191572604619136+0j),1.0,0.0,0.0,3400.0,99999,4.0,(-1000.1084273953808+0j),0.0,1112040000100202010302104000051000600007100084000
2531,LSMM,46.7433013916,8.1099996567,2024-03-07 00:20:00,45.0,36.0,N,yellow,1.0,1021.0,(31.928792211252045+0j),1.0,2.0,,1600.0,99999,4.0,(-992.271207788748+0j),0.0,1110043602100102010302104000051000600007450084000
2591,EGHQ,50.4406013489,-4.9954099655,2024-03-07 00:20:00,,,,,8.0,1018.0,(3162.438608796089+0j),7.0,13.0,110.0,10000.0,99999,6.0,(2143.838608796089+0j),0.0,1116061113100802070301804000051000600007000086000
2593,EGCK,53.1041984558,-4.340280056,2024-03-07 00:20:00,,,,,7.0,1021.0,(1025.9892640571097+0j),3.0,5.0,130.0,10000.0,99999,,(5.0892640571097445+0j),0.0,1116001305100702030302104000051000600007000080000
2632,ESOH,60.0200996399,13.5789003372,2024-03-07 00:20:00,,,,,-7.0,1033.0,(0.31063321110575565+0j),-8.0,0.0,0.0,10000.0,99999,,(-1034.789366788894+0j),0.0,1116000000110702180303304000051000600007000080000
2645,ESIB,58.426399231,12.7144002914,2024-03-07 00:20:00,,,,,-2.0,1033.0,(-8.313150253817357-8.689012613706081j),-3.0,4.0,40.0,10000.0,99999,,(-1042.1131502538174-8.689012613706081j),0.0,1116000404110202130303304000051000600007000080000
2646,ESMV,57.2921981812,14.1372003555,2024-03-07 00:20:00,,,,,-5.0,1032.0,(-8651.636021332326-9042.802334052712j),-5.0,2.0,30.0,10000.0,99999,,(-9685.236021332326-9042.802334052712j),0.0,1116000302110502150303204000051000600007000080000
2647,ESPE,65.8752975464,20.1499004364,2024-03-07 00:20:00,,,,,-10.0,1029.0,(5.210369068142962+0j),-11.0,2.0,270.0,10000.0,99999,,(-1026.089630931857+0j),0.0,11160027021110021110302904000051000600007000080000
2649,ESIA,58.5138015747,14.5071001053,2024-03-07 00:20:00,49.0,36.0,R,red,-4.0,1033.0,(-4.6502189532274796e-12-4.8604692454024285e-12j),-4.0,0.0,0.0,600.0,99999,,(-1034.6000000000045-4.8604692454024285e-12j),0.0,1110000000110402140303304000051000600007490080000
2650,ESCM,59.8973007202,17.5886001587,2024-03-07 00:20:00,,,,,-4.0,1033.0,(514.3401308871364+0j),-4.0,2.0,290.0,10000.0,99999,,(-519.5598691128637+0j),0.0,1116002902110402140303304000051000600007000080000
2658,ESNZ,63.1944007874,14.5003004074,2024-03-07 00:20:00,,,,,-5.0,1029.0,(941.484460604913+0j),-5.0,3.0,200.0,10000.0,99999,,(-90.81553939508694+0j),0.0,1116002003110502150302904000051000600007000080000
2691,EFJO,62.6628990173,29.6075000763,2024-03-07 00:20:00,,,,,-4.0,1027.0,(-268.031462318278-280.14996551808645j),-5.0,5.0,320.0,10000.0,99999,8.0,(-1297.9314623182781-280.14996551808645j),0.0,1116083205110402150302704000051000600007000088000
2696,EFKS,65.9876022339,29.2394008636,2024-03-07 00:20:00,,,,,-2.0,1025.0,(140.90262010931113+0j),-3.0,8.0,310.0,7000.0,99999,8.0,(-887.8973798906889+0j),0.0,1114083108110202130302504000051000600007000088000
2697,EFLP,61.0446014404,28.1443996429,2024-03-07 00:20:00,,,,,-5.0,1028.0,(0.09115149014501431+0j),-6.0,6.0,20.0,10000.0,99999,8.0,(-1030.008848509855+0j),0.0,1116080206110502160302804000051000600007000088000
2698,EFMI,61.6865997314,27.2017993927,2024-03-07 00:20:00,85.0,36.0,v,magenta,-4.0,1029.0,(-0.0318055113879822-0.033243533582067435j),-5.0,3.0,350.0,10000.0,99999,8.0,(-1030.731805511388-0.033243533582067435j),0.0,1116083503110402150302904000051000600007850088000
2734,EFHA,61.8559989929,24.7866001129,2024-03-07 00:20:00,,,,,-5.0,1029.0,(-74.1322350652997-77.48397489493583j),-5.0,5.0,340.0,10000.0,99999,8.0,(-1105.5322350652998-77.48397489493583j),0.0,1116083405110502150302904000051000600007000088000
2741,EFSA,61.9430999756,28.9451007843,2024-03-07 00:20:00,,,,,-3.0,1028.0,(-994.046703178894-1038.9905245088235j),-4.0,6.0,350.0,10000.0,99999,8.0,(-2024.1467031788939-1038.9905245088235j),0.0,1116083506110302140302804000051000600007000088000
2742,EFSI,62.6921005249,22.8323001862,2024-03-07 00:20:00,49.0,36.0,R,red,-5.0,1030.0,(4.361123326521058+0j),-5.0,3.0,330.0,550.0,99999,,0j,0.0,1110003303110502150303004000051000600007490080000
2778,ESNV,64.5791015625,16.8335990906,2024-03-07 00:20:00,,,,,-12.0,1029.0,(-54.93997632033401-57.42397679205761j),-13.0,2.0,120.0,10000.0,99999,8.0,(-1087.139976320334-57.42397679205761j),0.0,11160812021112021130302904000051000600007000088000
2780,ESST,60.1576004028,12.9912996292,2024-03-07 00:20:00,,,,,-6.0,1034.0,(0.8446398936594529+0j),-7.0,2.0,340.0,10000.0,99999,,0j,0.0,1116003402110602170303404000051000600007000080000
2781,ESUP,67.2455978394,23.0688991547,2024-03-07 00:20:00,,,,,-12.0,1029.0,(61.0972419413411+0j),-13.0,2.0,210.0,10000.0,99999,,(-969.602758058659+0j),0.0,11160021021112021130302904000051000600007000080000
2782,ESND,62.0477981567,14.4229001999,2024-03-07 00:20:00,,,,,-8.0,1031.0,(-6899185314.968243-7211118095.517091j),-8.0,3.0,280.0,10000.0,99999,,(-6899186348.468243-7211118095.517091j),0.0,1116002803110802180303104000051000600007000080000
2800,LIMZ,44.547000885,7.6232199669,2024-03-07 00:20:00,,,,,1.0,1017.0,(29.024845502855406+0j),-2.0,5.0,210.0,10000.0,99999,,0j,0.0,1116002105100102120301704000051000600007000080000
2803,LICB,36.9946010208,14.6071815491,2024-03-07 00:20:00,,,,,3.0,1020.0,(11.08909602575379+0j),1.0,4.0,90.0,10000.0,99999,,(-1010.0109039742463+0j),0.0,1116000904100302010302004000051000600007000080000
2805,LIPO,45.4289016724,10.3305997849,2024-03-07 00:20:00,61.0,36.0,^,green,8.0,1017.0,(2941.313068295204+0j),8.0,1.0,110.0,10000.0,99999,6.0,0j,0.0,1116061101100802080301704000051000600007610086000
2808,EFET,68.3626022339,23.4242992401,2024-03-07 00:20:00,,,,,-11.0,1027.0,(-12.284972625598535-12.840412941392843j),-12.0,4.0,250.0,10000.0,99999,,0j,0.0,11160025041111021120302704000051000600007000080000
2809,EFKT,67.7009963989,24.8467998505,2024-03-07 00:20:00,,,,,-4.0,1027.0,(16589960.042234316+0j),-6.0,3.0,240.0,10000.0,99999,,(16588930.342234317+0j),0.0,1116002403110402160302704000051000600007000080000
2811,EFUT,60.8964004517,26.9384002686,2024-03-07 00:20:00,,,,,-5.0,1028.0,(0.29584449952336145+0j),-7.0,4.0,40.0,10000.0,99999,8.0,(-1030.3041555004766+0j),0.0,1116080404110502170302804000051000600007000088000
2906,LGIO,39.6963996887,20.8225002289,2024-03-07 00:20:00,,,,,8.0,1017.0,(10.486622489876074+0j),8.0,0.0,0.0,10000.0,99999,,(-1008.513377510124+0j),0.0,1116000000100802080301704000051000600007000080000
2916,EEKE,58.2299003601,22.5095005035,2024-03-07 00:20:00,,,,,-4.0,1031.0,(910.9206008338062+0j),-4.0,3.0,320.0,10000.0,99999,,(-121.2793991661938+0j),0.0,1116003203110402140303104000051000600007000080000
2918,EEPU,58.4189987183,24.4727993011,2024-03-07 00:20:00,,,,,-3.0,1030.0,(547.1341555114074+0j),-3.0,3.0,310.0,10000.0,99999,,0j,0.0,1116003103110302130303004000051000600007000080000
2944,EDBC,51.8563995361,11.42029953,2024-03-07 00:20:00,,,,,3.0,1026.0,(10.725696524337883+0j),1.0,4.0,330.0,10000.0,99999,8.0,(-1016.0743034756621+0j),0.0,1116083304100302010302604000051000600007000088000
2984,EDJA,47.9888000488,10.2395000458,2024-03-07 00:20:00,,,,,1.0,1021.0,(32.46660851936571+0j),1.0,3.0,220.0,10000.0,99999,5.0,0j,0.0,1116052203100102010302104000051000600007000085000
2991,EDTY,49.1183319092,9.7838888168,2024-03-07 00:20:00,,,,,2.0,1022.0,(23.023696956580793+0j),1.0,7.0,50.0,10000.0,99999,,(-1000.1763030434192+0j),0.0,1116000507100202010302204000051000600007000080000
2995,EDWE,53.3911094666,7.2274999619,2024-03-07 00:20:00,,,,,4.0,1028.0,(1054.4899821710085+0j),1.0,6.0,80.0,10000.0,99999,8.0,(26.88998217100857+0j),0.0,1116080806100402010302804000051000600007000088000
2999,EKCH,55.6179008484,12.6560001373,2024-03-07 00:20:00,,,,,0.0,1032.0,(39.46436465468339+0j),-2.0,8.0,70.0,10000.0,99999,6.0,(-992.0356353453166+0j),0.0,1116060708100002120303204000051000600007000086000
3000,EKEB,55.5259017944,8.5534000397,2024-03-07 00:20:00,,,,,4.0,1031.0,(2017.0232025474106+0j),3.0,5.0,40.0,8000.0,99999,8.0,(986.4232025474107+0j),0.0,1114080405100402030303104000051000600007000088000
3003,EKRN,55.0633010864,14.7595996857,2024-03-07 00:20:00,,,,,2.0,1030.0,(2094.6825667353028+0j),0.0,11.0,50.0,10000.0,99999,,(1064.5825667353029+0j),0.0,1116000511100202000303004000051000600007000080000
3004,EKSB,54.9644012451,9.7917299271,2024-03-07 00:20:00,,,,,4.0,1030.0,(1250.1631328302378+0j),2.0,8.0,90.0,10000.0,99999,5.0,(220.06313283023792+0j),0.0,1116050908100402020303004000051000600007000085000
3005,EKSP,55.2256011963,9.2639303207,2024-03-07 00:20:00,,,,,4.0,1030.0,(2529.8697982213725+0j),2.0,5.0,60.0,8000.0,99999,3.0,(1499.1697982213725+0j),0.0,1114030605100402020303004000051000600007000083000
3006,EKVD,55.4362983704,9.3309202194,2024-03-07 00:20:00,,,,,4.0,1031.0,(2556.4939894983345+0j),2.0,7.0,70.0,10000.0,99999,,(1525.5939894983344+0j),0.0,1116000707100402020303104000051000600007000080000
3017,EFIV,68.6072998047,27.4053001404,2024-03-07 00:20:00,,,,,2.0,1025.0,(12.526533695246805+0j),-1.0,5.0,220.0,10000.0,99999,1.0,(-1014.9734663047532+0j),0.0,1116012205100202110302504000051000600007000081000
3018,EFJY,62.3995018005,25.6783008575,2024-03-07 00:20:00,85.0,36.0,v,magenta,-4.0,1029.0,(-22869.778731760623-23903.789755476373j),-4.0,6.0,330.0,6000.0,99999,8.0,(-23901.078731760623-23903.789755476373j),0.0,1113083306110402140302904000051000600007850088000
3019,EFKE,65.7787017822,24.5820999146,2024-03-07 00:20:00,10.0,36.0,+,yellow,-6.0,1030.0,(700.3030911800107+0j),-6.0,3.0,240.0,4200.0,99999,8.0,(-330.1969088199893+0j),0.0,1112082403110602160303004000051000600007100088000
3020,EFKK,63.7211990356,23.1431007385,2024-03-07 00:20:00,85.0,36.0,v,magenta,-3.0,1030.0,(274.3236610713119+0j),-4.0,3.0,240.0,10000.0,99999,8.0,(-757.3763389286881+0j),0.0,1116082403110302140303004000051000600007850088000
3022,EFMA,60.1222000122,19.8981990814,2024-03-07 00:20:00,,,,,-3.0,1032.0,(840.7294418861272+0j),-4.0,4.0,340.0,10000.0,99999,8.0,(-192.67055811387286+0j),0.0,1116083404110302140303204000051000600007000088000
3023,EFOU,64.9300994873,25.3546009064,2024-03-07 00:20:00,85.0,36.0,v,magenta,-5.0,1030.0,(723.1141554542705+0j),-6.0,2.0,,2100.0,99999,8.0,(-307.88584454572947+0j),0.0,1111083602110502160303004000051000600007850088000
3024,EFPO,61.4617004395,21.7999992371,2024-03-07 00:20:00,85.0,36.0,v,magenta,-3.0,1031.0,(574.1459667935252+0j),-4.0,5.0,320.0,10000.0,99999,8.0,(-458.55403320647486+0j),0.0,1116083205110302140303104000051000600007850088000
3025,EFRO,66.5647964478,25.8304004669,2024-03-07 00:20:00,49.0,36.0,R,red,-6.0,1027.0,(-2643.014028176753-2762.5125888329076j),-6.0,6.0,250.0,900.0,99999,,(-3672.914028176753-2762.5125888329076j),0.0,1110002506110602160302704000051000600007490080000
3026,EFTP,61.414100647,23.6044006348,2024-03-07 00:20:00,,,,,-5.0,1030.0,(-5.264429056952243e-06-5.502449622971032e-06j),-5.0,4.0,320.0,10000.0,99999,8.0,(-1032.000005264429-5.502449622971032e-06j),0.0,1116083204110502150303004000051000600007000088000
3027,EFTU,60.5140991211,22.2628002167,2024-03-07 00:20:00,,,,,-4.0,1031.0,(103.39368344656982+0j),-5.0,3.0,330.0,10000.0,99999,8.0,(-929.0063165534302+0j),0.0,1116083303110402150303104000051000600007000088000
3028,EFVA,63.0507011414,21.7621994019,2024-03-07 00:20:00,85.0,36.0,v,magenta,-4.0,1031.0,(869.6376024469624+0j),-4.0,3.0,180.0,10000.0,99999,8.0,(-161.86239755303757+0j),0.0,1116081803110402140303104000051000600007850088000
3030,ENBR,60.2933998108,5.2181401253,2024-03-07 00:20:00,,,,,2.0,1033.0,(5119.035692791493+0j),2.0,2.0,240.0,10000.0,99999,8.0,0j,0.0,1116082402100202020303304000051000600007000088000
3031,ENCN,58.2042007446,8.0853700638,2024-03-07 00:20:00,,,,,1.0,1034.0,(3637.728397481261+0j),-2.0,5.0,50.0,10000.0,99999,8.0,(2604.128397481261+0j),0.0,1116080505100102120303404000051000600007000088000
3033,ENHD,59.3452987671,5.2083601952,2024-03-07 00:20:00,,,,,2.0,1033.0,(2918.6673651393353+0j),0.0,6.0,110.0,10000.0,99999,8.0,(1885.7673651393352+0j),0.0,1116081106100202000303304000051000600007000088000
3036,ENVA,63.4578018188,10.9239997864,2024-03-07 00:20:00,,,,,-3.0,1032.0,(472.50452618609967+0j),-7.0,6.0,100.0,10000.0,99999,,(-558.8954738139005+0j),0.0,1116001006110302170303204000051000600007000080000
3037,ENZV,58.876701355,5.6377801895,2024-03-07 00:20:00,,,,,2.0,1033.0,(1594.911504171613+0j),-1.0,2.0,30.0,10000.0,99999,8.0,0j,0.0,1116080302100202110303304000051000600007000088000
3041,LGAV,37.9364013672,23.9444999695,2024-03-07 00:20:00,,,,,9.0,1017.0,(2449.117995762907+0j),7.0,1.0,,10000.0,99999,1.0,0j,0.0,1116013601100902070301704000051000600007000081000
3042,LGIR,35.3396987915,25.1802997589,2024-03-07 00:20:00,,,,,10.0,1018.0,(1449.6435219528273+0j),8.0,8.0,170.0,10000.0,99999,3.0,(431.34352195282736+0j),0.0,1116031708101002080301804000051000600007000083000
3045,LGKR,39.6018981934,19.911699295,2024-03-07 00:20:00,,,,,11.0,1016.0,(1035.0123409907721+0j),10.0,0.0,0.0,10000.0,99999,3.0,(17.912340990772122+0j),0.0,11160300001011020100301604000051000600007000083000
3046,LGRP,36.4053993225,28.0862007141,2024-03-07 00:20:00,,,,,15.0,1014.0,(1053.59344446398+0j),9.0,10.0,280.0,10000.0,99999,1.0,(38.59344446397995+0j),0.0,1116012810101502090301404000051000600007000081000
3073,ENAL,62.5625,6.119699955,2024-03-07 00:20:00,,,,,5.0,1032.0,(1564.1586725800057+0j),2.0,7.0,260.0,10000.0,99999,4.0,(532.8586725800058+0j),0.0,1116042607100502020303204000051000600007000084000
3079,ENDU,69.0558013916,18.5403995514,2024-03-07 00:20:00,,,,,-6.0,1030.0,(86.67346444283842+0j),-7.0,1.0,,10000.0,99999,3.0,0j,0.0,1116033601110602170303004000051000600007000083000
3093,ENRO,62.5783996582,11.342300415,2024-03-07 00:20:00,,,,,-14.0,1030.0,(-4391763356.172546-4590328098.625728j),-16.0,2.0,140.0,10000.0,99999,,(-4391764390.172546-4590328098.625728j),0.0,11160014021114021160303004000051000600007000080000
3095,ENRY,59.3788986206,10.7855997086,2024-03-07 00:20:00,,,,,-4.0,1034.0,(74.15918339074528+0j),-5.0,2.0,70.0,10000.0,99999,,0j,0.0,1116000702110402150303404000051000600007000080000
3101,ENTO,59.1866989136,10.258600235,2024-03-07 00:20:00,,,,,-2.0,1034.0,(-365007240.27150655-381510308.1237832j),-3.0,2.0,360.0,10000.0,99999,,0j,0.0,1116003602110202130303404000051000600007000080000
3104,ESGG,57.6627998352,12.279800415,2024-03-07 00:20:00,,,,,-3.0,1032.0,(573146.8881475246+0j),-4.0,3.0,60.0,10000.0,99999,,(572113.5881475245+0j),0.0,1116000603110302140303204000051000600007000080000
3108,ESMK,55.9216995239,14.0854997635,2024-03-07 00:20:00,,,,,1.0,1032.0,(4633.380205165657+0j),-0.0,5.0,50.0,10000.0,99999,8.0,(3601.7802051656568+0j),0.0,1116080505100102100303204000051000600007000088000
3110,ESMX,56.9291000366,14.7279996872,2024-03-07 00:20:00,,,,,-1.0,1032.0,(89.53516108355531+0j),-2.0,3.0,80.0,10000.0,99999,6.0,(-943.3648389164448+0j),0.0,1116060803110102120303204000051000600007000086000
3111,ESNN,62.5280990601,17.4438991547,2024-03-07 00:20:00,,,,,-5.0,1031.0,(920.9560642970316+0j),-6.0,4.0,290.0,10000.0,99999,,(-110.84393570296834+0j),0.0,1116002904110502160303104000051000600007000080000
3112,ESNO,63.4082984924,18.9899997711,2024-03-07 00:20:00,,,,,-5.0,1029.0,(0.04386695470772227+0j),-6.0,4.0,340.0,10000.0,99999,,(-1031.3561330452924+0j),0.0,1116003404110502160302904000051000600007000080000
3113,ESNQ,67.8219985962,20.3367996216,2024-03-07 00:20:00,,,,,-11.0,1027.0,(-22518727.519050874-23536866.468616363j),-12.0,7.0,220.0,10000.0,99999,,(-22519758.319050875-23536866.468616363j),0.0,11160022071111021120302704000051000600007000080000
3114,ESNS,64.6248016357,21.0769004822,2024-03-07 00:20:00,49.0,36.0,R,red,-6.0,1030.0,(308.4858435972487+0j),-6.0,2.0,,200.0,99999,,(-722.7141564027513+0j),0.0,1110003602110602160303004000051000600007490080000
3115,ESNU,63.7918014526,20.2828006744,2024-03-07 00:20:00,10.0,36.0,+,yellow,-4.0,1031.0,(829.2235487004058+0j),-4.0,2.0,,1200.0,99999,8.0,(-201.6764512995943+0j),0.0,1110083602110402140303104000051000600007100088000
3116,ESOK,59.4446983337,13.3374004364,2024-03-07 00:20:00,,,,,-4.0,1033.0,(-2.326834770437301-2.4320379222131403j),-5.0,1.0,360.0,10000.0,99999,,(-1037.2268347704373-2.4320379222131403j),0.0,1116003601110402150303304000051000600007000080000
3117,ESOW,59.5894012451,16.633600235,2024-03-07 00:20:00,,,,,-4.0,1033.0,(855.022245075296+0j),-5.0,0.0,0.0,600.0,99999,,(-179.177754924704+0j),0.0,1110000000110402150303304000051000600007000080000
3119,ESSD,60.422000885,15.5151996613,2024-03-07 00:20:00,,,,,-5.0,1032.0,(-385.1177592640512-402.5300837634881j),-6.0,3.0,290.0,10000.0,99999,,(-1419.0177592640512-402.5300837634881j),0.0,1116002903110502160303204000051000600007000080000
3120,ESSP,58.5862998962,16.2506008148,2024-03-07 00:20:00,,,,,-5.0,1034.0,(818.8529050962222+0j),-5.0,1.0,160.0,6000.0,99999,,(-215.54709490377786+0j),0.0,1113001601110502150303404000051000600007000080000
3122,LSGC,47.0839004517,6.792840004,2024-03-07 00:20:00,,,,,1.0,1018.0,(34.662010255521025+0j),1.0,6.0,50.0,10000.0,99999,8.0,(-989.037989744479+0j),0.0,1116080506100102010301804000051000600007000088000
3123,LSGG,46.2380981445,6.1089501381,2024-03-07 00:20:00,,,,,3.0,1020.0,(19.536685759741257+0j),1.0,2.0,300.0,10000.0,99999,1.0,(-1003.1633142402588+0j),0.0,1116013002100302010302004000051000600007000081000
3124,LSGS,46.2196006775,7.3267598152,2024-03-07 00:20:00,,,,,2.0,1020.0,(24.978568221511612+0j),-1.0,1.0,,10000.0,99999,,(-997.4214317784883+0j),0.0,1116003601100202110302004000051000600007000080000
3125,LSZA,46.0042991638,8.9105796814,2024-03-07 00:20:00,,,,,4.0,1018.0,(11.961879640026693+0j),3.0,2.0,,10000.0,99999,1.0,(-1005.9381203599733+0j),0.0,1116013602100402030301804000051000600007000081000
3126,LSZB,46.914100647,7.4971499443,2024-03-07 00:20:00,,,,,3.0,1020.0,(21.381331820693262+0j),2.0,3.0,90.0,10000.0,99999,6.0,(-1002.2186681793067+0j),0.0,1116060903100302020302004000051000600007000086000
3127,LSZG,47.1815986633,7.4171900749,2024-03-07 00:20:00,,,,,4.0,1020.0,(16.410533712926526+0j),4.0,2.0,100.0,10000.0,99999,8.0,(-1007.8894662870734+0j),0.0,1116081002100402040302004000051000600007000088000
3128,LSZH,47.4646987915,8.5491695404,2024-03-07 00:20:00,,,,,3.0,1021.0,(19.594352640571433+0j),2.0,4.0,130.0,9000.0,99999,4.0,(-1005.8056473594287+0j),0.5,1115041304100302020302104000051000600507000084000
3129,LSZR,47.4850006104,9.5607700348,2024-03-07 00:20:00,,,,,3.0,1021.0,(18.71253118504714+0j),3.0,3.0,120.0,10000.0,99999,8.0,(-1005.7874688149528+0j),0.5,1116081203100302030302104000051000600507000088000
3130,LSZS,46.5340995789,9.8841104507,2024-03-07 00:20:00,,,,,-10.0,1017.0,(96.79131106838278+0j),-11.0,3.0,190.0,10000.0,99999,,(-926.5086889316171+0j),0.0,11160019031110021110301704000051000600007000080000
3131,EGAA,54.6575012207,-6.2158298492,2024-03-07 00:20:00,,,,,6.0,1020.0,(2964.468012241073+0j),5.0,10.0,120.0,8000.0,99999,,(1944.9680122410732+0j),0.0,1114001210100602050302004000051000600007000080000
3132,EGBB,52.4538993835,-1.7480299473,2024-03-07 00:20:00,,,,,4.0,1023.0,(4897.2500103589855+0j),3.0,4.0,130.0,4000.0,99999,,(3873.8500103589854+0j),0.0,1112001304100402030302304000051000600007000080000
3135,EGGD,51.3827018738,-2.7190899849,2024-03-07 00:20:00,10.0,36.0,+,yellow,4.0,1021.0,(8685.780195991401+0j),4.0,10.0,110.0,4200.0,99999,8.0,(7663.480195991401+0j),0.0,1112081110100402040302104000051000600007100088000
3139,EGKK,51.1481018066,-0.1902779937,2024-03-07 00:20:00,45.0,36.0,N,yellow,3.0,1023.0,(4136.605507648631+0j),3.0,5.0,70.0,400.0,99999,,(3113.005507648631+0j),0.0,1110000705100302030302304000051000600007450080000
3143,EGNJ,53.5744018555,-0.3508329988,2024-03-07 00:20:00,10.0,36.0,+,yellow,5.0,1025.0,(2003.0351241773665+0j),4.0,2.0,,2200.0,99999,,(978.3351241773664+0j),0.0,1111003602100502040302504000051000600007100080000
3145,EGLL,51.4706001282,-0.4619410038,2024-03-07 00:20:00,,,,,5.0,1023.0,(1667.4694316145865+0j),3.0,5.0,80.0,10000.0,99999,,(643.7694316145864+0j),0.0,1116000805100502030302304000051000600007000080000
3148,EGNM,53.8658981323,-1.6605700254,2024-03-07 00:20:00,45.0,36.0,N,yellow,5.0,1024.0,(7748.924376575669+0j),5.0,5.0,100.0,800.0,99999,4.0,(6724.724376575669+0j),0.0,1110041005100502050302404000051000600007450084000
3152,EGPB,59.8788986206,-1.2955600023,2024-03-07 00:20:00,,,,,6.0,1028.0,(1147.902481388137+0j),3.0,10.0,160.0,10000.0,99999,2.0,(119.602481388137+0j),0.0,1116021610100602030302804000051000600007000082000
3158,EGSH,52.6758003235,1.2827800512,2024-03-07 00:20:00,10.0,36.0,+,yellow,6.0,1026.0,(1796.9299165060954+0j),5.0,5.0,110.0,3000.0,99999,6.0,(772.0299165060953+0j),0.0,1111061105100602050302604000051000600007100086000
3160,EGAC,54.6180992126,-5.8724999428,2024-03-07 00:20:00,,,,,7.0,1021.0,(1096.922047737592+0j),6.0,6.0,140.0,6000.0,99999,8.0,(76.92204773759204+0j),0.0,1113081406100702060302104000051000600007000088000
3161,EGGP,53.3335990906,-2.8497200012,2024-03-07 00:20:00,,,,,6.0,1023.0,(1531.3225573726415+0j),4.0,10.0,120.0,8000.0,99999,,0j,0.0,1114001210100602040302304000051000600007000080000
3163,EGLC,51.5052986145,0.0552779995,2024-03-07 00:20:00,10.0,36.0,+,yellow,6.0,1025.0,(1138.444181471517+0j),5.0,12.0,100.0,2200.0,99999,8.0,(114.344181471517+0j),0.0,1111081012100602050302504000051000600007100088000
3165,EGPC,58.4589004517,-3.0930600166,2024-03-07 00:20:00,,,,,6.0,1025.0,(1860.715575288624+0j),3.0,18.0,140.0,10000.0,99999,,(836.515575288624+0j),0.0,1116001418100602030302504000051000600007000080000
3167,EGPF,55.8718986511,-4.4330601692,2024-03-07 00:20:00,,,,,5.0,1024.0,(1212.6946307118897+0j),3.0,8.0,60.0,10000.0,99999,4.0,(190.79463071188968+0j),0.0,1116040608100502030302404000051000600007000084000
3168,EGPL,57.481098175,-7.3627800941,2024-03-07 00:20:00,,,,,8.0,1019.0,(1103.119440936509+0j),5.0,20.0,160.0,10000.0,99999,3.0,(84.31944093650895+0j),0.0,1116031620100802050301904000051000600007000083000
3171,EGSS,51.8849983215,0.2349999994,2024-03-07 00:20:00,45.0,36.0,N,yellow,5.0,1024.0,(4259.758644183384+0j),5.0,10.0,100.0,700.0,99999,8.0,(3235.7586441833837+0j),0.0,1110081010100502050302404000051000600007450088000
3177,EDGS,50.707698822,8.0829696655,2024-03-07 00:20:00,,,,,3.0,1023.0,(23.138862219690658+0j),2.0,12.0,80.0,8000.0,99999,3.0,(-1001.8611377803094+0j),0.0,1114030812100302020302304000051000600007000083000
3178,EDLV,51.6024017334,6.1421699524,2024-03-07 00:20:00,,,,,4.0,1025.0,(2107.3212125410864+0j),3.0,3.0,40.0,3600.0,99999,,0j,0.0,1112000403100402030302504000051000600007000080000
3184,ESGT,58.3180999756,12.345000267,2024-03-07 00:20:00,,,,,-3.0,1034.0,(57.86577061837289+0j),-4.0,4.0,40.0,10000.0,99999,,(-976.1342293816272+0j),0.0,1116000404110302140303404000051000600007000080000
3186,ESMQ,56.6855010986,16.2875995636,2024-03-07 00:20:00,,,,,1.0,1032.0,(1699.238448028448+0j),0.0,4.0,360.0,10000.0,99999,3.0,(666.3384480284478+0j),0.0,1116033604100102000303204000051000600007000083000
3187,ESMT,56.6911010742,12.8201999664,2024-03-07 00:20:00,,,,,-2.0,1032.0,(30.36724864239541+0j),-4.0,3.0,60.0,10000.0,99999,,(-1002.1327513576045+0j),0.0,1116000603110202140303204000051000600007000080000
3190,ESNL,64.5483016968,18.7161998749,2024-03-07 00:20:00,,,,,-12.0,1029.0,(6.554324988348309+0j),-13.0,0.0,0.0,10000.0,99999,,0j,0.0,11160000001112021130302904000051000600007000080000
3191,ESNX,65.5903015137,19.2819004059,2024-03-07 00:20:00,,,,,-9.0,1028.0,(-37629746.81926895-39331100.09807092j),-10.0,5.0,300.0,10000.0,99999,,0j,0.0,11160030051109021100302804000051000600007000080000
3193,ESSL,58.4062004089,15.6805000305,2024-03-07 00:20:00,,,,,-3.0,1033.0,(9.033016699960957+0j),-3.0,2.0,,150.0,99999,,(-1025.266983300039+0j),0.0,1110003602110302130303304000051000600007000080000
3194,ESTA,56.2961006165,12.8471002579,2024-03-07 00:20:00,,,,,-1.0,1032.0,(0.2675808599372177+0j),-2.0,4.0,70.0,10000.0,99999,,(-1031.8324191400627+0j),0.0,1116000704110102120303204000051000600007000080000
3195,ESTL,56.0828018188,13.2124996185,2024-03-07 00:20:00,41.0,36.0,J,yellow,-4.0,1032.0,(164.90292427813853+0j),-4.0,0.0,0.0,7000.0,99999,3.0,(-867.2970757218616+0j),0.0,1114030000110402140303204000051000600007410083000
3196,ESUT,65.806098938,15.0827999115,2024-03-07 00:20:00,,,,,-14.0,1029.0,(-2933.3739443284-3066.0005442921247j),-15.0,0.0,0.0,10000.0,99999,,(-3964.3739443284-3066.0005442921247j),0.0,11160000001114021150302904000051000600007000080000
3200,EETN,59.4132995605,24.8327999115,2024-03-07 00:20:00,,,,,-0.0,1029.0,(39.349642664408144+0j),-3.0,6.0,300.0,10000.0,99999,,(-991.7503573355917+0j),0.0,1116003006110002130302904000051000600007000080000
3201,EETU,58.3074989319,26.6903991699,2024-03-07 00:20:00,,,,,-2.0,1028.0,(-5370.6955963233595-5613.520790076008j),-6.0,6.0,280.0,10000.0,99999,,(-6400.99559632336-5613.520790076008j),0.0,1116002806110202160302804000051000600007000080000
3202,EFHK,60.317199707,24.963300705,2024-03-07 00:20:00,,,,,-5.0,1029.0,(153.95576173955877+0j),-6.0,4.0,310.0,10000.0,99999,,(-877.1442382604412+0j),0.0,1116003104110502160302904000051000600007000080000
3204,EVLA,56.5175018311,21.0969009399,2024-03-07 00:20:00,,,,,-5.0,1031.0,(920.9560642970316+0j),-5.0,2.0,30.0,10000.0,99999,,(-110.84393570296834+0j),0.0,1116000302110502150303104000051000600007000080000
3205,EVRA,56.9235992432,23.9710998535,2024-03-07 00:20:00,,,,,-6.0,1030.0,(828.4192581585044+0j),-7.0,0.0,0.0,10000.0,99999,,0j,0.0,1116000000110602170303004000051000600007000080000
3206,EYKA,54.9639015198,24.0848007202,2024-03-07 00:20:00,,,,,-5.0,1029.0,(27.249495494871372+0j),-7.0,1.0,,10000.0,99999,,0j,0.0,1116003601110502170302904000051000600007000080000
3207,EYPA,55.9732017517,21.0939006805,2024-03-07 00:20:00,,,,,-5.0,1031.0,(810.1380334748843+0j),-6.0,2.0,40.0,10000.0,99999,,(-221.4619665251156+0j),0.0,1116000402110502160303104000051000600007000080000
3208,EYVI,54.6341018677,25.2858009338,2024-03-07 00:20:00,,,,,-4.0,1028.0,(12010556.600507244+0j),-8.0,2.0,330.0,10000.0,99999,,(12009526.400507245+0j),0.0,1116003302110402180302804000051000600007000080000
3215,ESDF,56.2667007446,15.2650003433,2024-03-07 00:20:00,,,,,0.0,1032.0,(39.46436465468339+0j),-1.0,7.0,60.0,10000.0,99999,8.0,(-992.9356353453167+0j),0.0,1116080607100002110303204000051000600007000088000
3216,ESGJ,57.757598877,14.0686998367,2024-03-07 00:20:00,,,,,-5.0,1032.0,(-16784304222.127554-17543172761.8995j),-5.0,0.0,0.0,10000.0,99999,1.0,(-16784305255.527554-17543172761.8995j),0.0,1116010000110502150303204000051000600007000081000
3217,ESGP,57.7747001648,11.8704004288,2024-03-07 00:20:00,,,,,-2.0,1033.0,(248.7748772804009+0j),-4.0,0.0,0.0,10000.0,99999,,(-784.025122719599+0j),0.0,1116000000110202140303304000051000600007000080000
3218,ESKN,58.7886009216,16.9122009277,2024-03-07 00:20:00,42.0,36.0,K,yellow,-5.0,1033.0,(275.1226620258886+0j),-5.0,2.0,270.0,9000.0,99999,,(-759.0773379741115+0j),0.0,1115002702110502150303304000051000600007420080000
3219,ESMS,55.536305364,13.3761978149,2024-03-07 00:20:00,,,,,1.0,1030.0,(12.40363063932664+0j),-2.0,8.0,70.0,9000.0,99999,1.0,(-1018.9963693606735+0j),0.0,1115010708100102120303004000051000600007000081000
3220,ESNG,67.1324005127,20.8145999908,2024-03-07 00:20:00,,,,,-7.0,1028.0,(-4383235660.335319-4581414840.181794j),-9.0,8.0,310.0,10000.0,99999,,(-4383236691.935319-4581414840.181794j),0.0,1116003108110702190302804000051000600007000080000
3221,ESNK,63.0485992432,17.7688999176,2024-03-07 00:20:00,,,,,-6.0,1031.0,(839.9147815742222+0j),-7.0,2.0,340.0,350.0,99999,,(-192.28521842577788+0j),0.0,1110003402110602170303104000051000600007000080000
3222,ESOE,59.2237014771,15.0380001068,2024-03-07 00:20:00,,,,,-5.0,1033.0,(132.42670337804086+0j),-6.0,2.0,250.0,10000.0,99999,,(-902.2732966219592+0j),0.0,1116002502110502160303304000051000600007000080000
3223,ESSV,57.6627998352,18.346200943,2024-03-07 00:20:00,,,,,-3.0,1032.0,(15.295505273275827+0j),-4.0,3.0,80.0,10000.0,99999,,(-1017.8044947267241+0j),0.0,1116000803110302140303204000051000600007000080000
3224,EGCC,53.3536987305,-2.2749500275,2024-03-07 00:20:00,,,,,6.0,1023.0,(2882.163310824555+0j),4.0,4.0,110.0,9000.0,99999,,(1858.8633108245551+0j),0.0,1115001104100602040302304000051000600007000080000
3225,EGFF,51.3967018127,-3.3433299065,2024-03-07 00:20:00,,,,,6.0,1021.0,(2575.724145409565+0j),5.0,11.0,110.0,10000.0,99999,6.0,(1554.2241454095652+0j),0.0,1116061111100602050302104000051000600007000086000
3227,EGLF,51.2757987976,-0.7763329744,2024-03-07 00:20:00,0.0,,,,-1.0,1023.0,(1187.6034045987315+0j),-1.0,2.0,210.0,450.0,99999,,(163.60340459873146+0j),0.0,1110002102110102110302304000051000600007000080000
3228,EGMD,50.9561004639,0.9391670227,2024-03-07 00:20:00,,,,,5.0,1024.0,(1116.686568269097+0j),5.0,7.0,80.0,10000.0,99999,3.0,0j,0.0,1116030807100502050302404000051000600007000083000
3232,EGPE,57.5424995422,-4.0475001335,2024-03-07 00:20:00,,,,,6.0,1024.0,(1211.4433668351096+0j),1.0,3.0,,10000.0,99999,,(187.9433668351096+0j),0.0,1116003603100602010302404000051000600007000080000
3236,LOWG,46.9911003113,15.4395999908,2024-03-07 00:20:00,,,,,2.0,1017.0,(21.308903487434332+0j),0.0,2.0,270.0,10000.0,99999,,(-996.9910965125656+0j),0.0,1116002702100202000301704000051000600007000080000
3237,LOWI,47.2602005005,11.3439998627,2024-03-07 00:20:00,,,,,4.0,1020.0,(19.678330405463335+0j),3.0,3.0,220.0,10000.0,99999,3.0,(-1002.6216695945366+0j),0.1,1116032203100402030302004000051000600107000083000
3238,LOWK,46.6425018311,14.3376998901,2024-03-07 00:20:00,41.0,36.0,J,yellow,4.0,1017.0,(16.802671587737745+0j),2.0,5.0,300.0,10000.0,99999,1.0,(-1002.6973284122622+0j),0.4,1116013005100402020301704000051000600407410081000
3239,LOWL,48.2332000732,14.1875,2024-03-07 00:20:00,,,,,5.0,1021.0,(10.566041726460544+0j),3.0,1.0,,10000.0,99999,4.0,(-1011.7339582735394+0j),0.0,1116043601100502030302104000051000600007000084000
3240,LOWS,47.7933006287,13.0043001175,2024-03-07 00:20:00,61.0,36.0,^,green,4.0,1021.0,(16.42662247146861+0j),3.0,4.0,330.0,10000.0,99999,3.0,(-1006.7733775285315+0j),0.5,1116033304100402030302104000051000600507610083000
3241,LOWW,48.1102981567,16.5697002411,2024-03-07 00:20:00,61.0,36.0,^,green,6.0,1019.0,(5840.761397476671+0j),2.0,13.0,350.0,10000.0,99999,3.0,(4819.661397476671+0j),0.0,1116033513100602020301904000051000600007610083000
3247,ENAT,69.9760971069,23.3717002869,2024-03-07 00:20:00,,,,,2.0,1027.0,(1190.0042088727548+0j),0.0,2.0,,10000.0,99999,7.0,(162.10420887275473+0j),0.0,1116073602100202000302704000051000600007000087000
3248,ENHF,70.6797027588,23.6686000824,2024-03-07 00:20:00,,,,,4.0,1025.0,(4100.9401063816+0j),4.0,12.0,270.0,10000.0,99999,7.0,0j,0.0,1116072712100402040302504000051000600007000087000
3249,ENHV,71.0096969604,25.9836006165,2024-03-07 00:20:00,,,,,4.0,1023.0,(1436.6692653005211+0j),1.0,29.0,300.0,10000.0,99999,7.0,(412.16926530052115+0j),0.0,1116073029100402010302304000051000600007000087000
3250,ENML,62.7447013855,7.2624998093,2024-03-07 00:20:00,,,,,0.0,1033.0,(39.50260531810847+0j),-2.0,6.0,30.0,10000.0,99999,8.0,(-992.1973946818915+0j),0.0,1116080306100002120303304000051000600007000088000
3251,ENRM,64.8383026123,11.1461000443,2024-03-07 00:20:00,,,,,-2.0,1030.0,(796.7548656002842+0j),-5.0,1.0,,10000.0,99999,,(-233.24513439971577+0j),0.0,1116003601110202150303004000051000600007000080000
3252,ENSS,70.3554000854,31.0449008942,2024-03-07 00:20:00,,,,,3.0,1019.0,(1552.6758017265975+0j),0.0,20.0,320.0,10000.0,99999,8.0,(531.5758017265974+0j),0.0,1116083220100302000301904000051000600007000088000
3253,LGAD,37.9207000732,21.2926006317,2024-03-07 00:20:00,,,,,9.0,1018.0,(1239.7894239195232+0j),9.0,3.0,,10000.0,99999,1.0,(221.48942391952323+0j),0.0,1116013603100902090301804000051000600007000081000
3254,LGSA,35.5317001343,24.1497001648,2024-03-07 00:20:00,,,,,13.0,1016.0,(2612.3503535135587+0j),10.0,11.0,260.0,10000.0,99999,1.0,(1595.0503535135588+0j),0.0,11160126111013020100301604000051000600007000081000
3256,LICJ,38.1759986877,13.0909996033,2024-03-07 00:20:00,,,,,12.0,1020.0,(1216.0716303982178+0j),7.0,10.0,190.0,10000.0,99999,,(195.07163039821785+0j),0.0,1116001910101202070302004000051000600007000080000
3257,LIEO,40.8987007141,9.5176296234,2024-03-07 00:20:00,,,,,9.0,1018.0,(1165.2237590108762+0j),7.0,13.0,240.0,10000.0,99999,,(146.12375901087614+0j),0.0,1116002413100902070301804000051000600007000080000
3258,LIMJ,44.4132995605,8.8374996185,2024-03-07 00:20:00,,,,,9.0,1017.0,(1067.724470386747+0j),4.0,5.0,50.0,10000.0,99999,,(50.024470386747+0j),0.0,1116000505100902040301704000051000600007000080000
3259,LIPQ,45.8274993896,13.4722003937,2024-03-07 00:20:00,,,,,8.0,1016.0,(1191.1380537514945+0j),7.0,3.0,40.0,10000.0,99999,8.0,(174.03805375149443+0j),1.2,1116080403100802070301604000051000601107000088000
3261,LIRF,41.8045005798,12.2508001328,2024-03-07 00:20:00,51.0,36.0,T,green,6.0,1017.0,(1105.4505219723192+0j),4.0,2.0,,10000.0,99999,1.0,(87.95052197231917+0j),0.0,1116013602100602040301704000051000600007510081000
3269,ENBN,65.4610977173,12.217499733,2024-03-07 00:20:00,,,,,-2.0,1030.0,(633.0506914318864+0j),-2.0,2.0,230.0,10000.0,99999,,0j,0.0,1116002302110202120303004000051000600007000080000
3270,ENBS,70.6005020142,29.691400528,2024-03-07 00:20:00,,,,,3.0,1019.0,(9.047796422964892+0j),1.0,29.0,290.0,10000.0,99999,8.0,(-1013.0522035770351+0j),0.2,1116082929100302010301904000051000600207000088000
3271,ENEV,68.4913024902,16.6781005859,2024-03-07 00:20:00,,,,,-7.0,1031.0,(647.8121464761662+0j),-8.0,0.0,0.0,10000.0,99999,,0j,0.0,1116000000110702180303104000051000600007000080000
3272,ENHK,70.4867019653,22.1396999359,2024-03-07 00:20:00,51.0,36.0,T,green,4.0,1027.0,(1218.13082177153+0j),3.0,21.0,270.0,10000.0,99999,8.0,(189.73082177152992+0j),0.0,1116082721100402030302704000051000600007510088000
3273,ENMS,65.783996582,13.2149000168,2024-03-07 00:20:00,,,,,-6.0,1030.0,(110.98618274833245+0j),-8.0,4.0,210.0,10000.0,99999,,0j,0.0,1116002104110602180303004000051000600007000080000
3274,ENNA,70.0688018799,24.9734992981,2024-03-07 00:20:00,,,,,6.0,1025.0,(1175.2960612764616+0j),1.0,15.0,280.0,10000.0,99999,4.0,(147.29606127646161+0j),0.0,1116042815100602010302504000051000600007000084000
3275,ENNM,64.4721984863,11.5785999298,2024-03-07 00:20:00,71.0,36.0,h,magenta,-3.0,1031.0,(950.2214055154591+0j),-5.0,9.0,70.0,10000.0,99999,,(-80.77859448454092+0j),0.0,1116000709110302150303104000051000600007710080000
3276,ENRA,66.363899231,14.3014001846,2024-03-07 00:20:00,,,,,-9.0,1031.0,(322.8764394810442+0j),-10.0,0.0,0.0,10000.0,99999,,0j,0.0,11160000001109021100303104000051000600007000080000
3277,ENSR,69.7867965698,20.959400177,2024-03-07 00:20:00,51.0,36.0,T,green,3.0,1029.0,(1223.6507208658822+0j),-1.0,3.0,230.0,10000.0,99999,8.0,(193.65072086588225+0j),0.0,1116082303100302110302904000051000600007510088000
3278,ENVD,70.0652999878,29.8446998596,2024-03-07 00:20:00,,,,,3.0,1021.0,(2851.85849944504+0j),1.0,19.0,260.0,10000.0,99999,6.0,0j,0.0,1116062619100302010302104000051000600007000086000
3279,LGKL,37.0682983398,22.0254993439,2024-03-07 00:20:00,,,,,11.0,1018.0,(1101.6281238437555+0j),10.0,5.0,330.0,10000.0,99999,1.0,(83.32812384375552+0j),0.0,11160133051011020100301804000051000600007000081000
3280,LGKO,36.7933006287,27.0916996002,2024-03-07 00:20:00,,,,,12.0,1016.0,(2451.9706181846354+0j),8.0,6.0,340.0,10000.0,99999,1.0,(1435.9706181846354+0j),0.0,1116013406101202080301604000051000600007000081000
3282,LICC,37.4668006897,15.0663995743,2024-03-07 00:20:00,,,,,7.0,1019.0,(1220.6828695700067+0j),1.0,10.0,260.0,10000.0,99999,,(200.1828695700067+0j),0.0,1116002610100702010301904000051000600007000080000
3283,LIEE,39.251499176,9.0542802811,2024-03-07 00:20:00,42.0,36.0,K,yellow,7.0,1020.0,(1085.601972275435+0j),6.0,5.0,350.0,10000.0,99999,,(64.4019722754349+0j),0.0,1116003505100702060302004000051000600007420080000
3284,LIMC,45.6305999756,8.7281103134,2024-03-07 00:20:00,,,,,2.0,1017.0,(17.27703829566784+0j),1.0,5.0,10.0,10000.0,99999,,(-1001.3229617043322+0j),0.0,1116000105100202010301704000051000600007000080000
3285,LIPZ,45.5052986145,12.3519001007,2024-03-07 00:20:00,,,,,9.0,1016.0,(1043.1558745239388+0j),7.0,2.0,280.0,10000.0,99999,1.0,(26.355874523938837+0j),0.0,1116012802100902070301604000051000600007000081000
3286,LIRA,41.7994003296,12.5949001312,2024-03-07 00:20:00,,,,,6.0,1017.0,(4312.569788542813+0j),3.0,2.0,100.0,10000.0,99999,,(3294.7697885428124+0j),0.0,1116001002100602030301704000051000600007000080000
3294,ENBL,61.3911018372,5.756939888,2024-03-07 00:20:00,,,,,1.0,1032.0,(27.856784730892695+0j),0.0,0.0,0.0,10000.0,99999,5.0,(-1005.1432152691073+0j),0.0,1116050000100102000303204000051000600007000085000
3295,ENFL,61.5835990906,5.024720192,2024-03-07 00:20:00,,,,,4.0,1033.0,(1380.535985609492+0j),2.0,8.0,180.0,10000.0,99999,4.0,(347.8359856094919+0j),0.0,1116041808100402020303304000051000600007000084000
3296,ENKB,63.1118011475,7.8245201111,2024-03-07 00:20:00,,,,,3.0,1032.0,(4208.271451014497+0j),0.0,2.0,,10000.0,99999,6.0,0j,0.0,1116063602100302000303204000051000600007000086000
3297,ENKR,69.7257995605,29.8913002014,2024-03-07 00:20:00,,,,,3.0,1022.0,(5558.629700135848+0j),1.0,11.0,280.0,10000.0,99999,6.0,0j,0.0,1116062811100302010302204000051000600007000086000
3299,LGZA,37.7509002686,20.8843002319,2024-03-07 00:20:00,,,,,7.0,1018.0,(1093.6989663044749+0j),7.0,0.0,0.0,10000.0,99999,1.0,(75.2989663044749+0j),0.0,1116010000100702070301804000051000600007000081000
3300,LIBR,40.6576004028,17.9470005035,2024-03-07 00:20:00,,,,,11.0,1016.0,(1168.8785689370409+0j),8.0,9.0,260.0,10000.0,99999,,(152.27856893704086+0j),0.0,1116002609101102080301604000051000600007000080000
3302,LIMF,45.2008018494,7.6496300697,2024-03-07 00:20:00,,,,,4.0,1017.0,(12.697555318961708+0j),-1.0,4.0,280.0,10000.0,99999,,(-1005.5024446810384+0j),0.0,1116002804100402110301704000051000600007000080000
3303,LIPE,44.5354003906,11.2887001038,2024-03-07 00:20:00,,,,,7.0,1017.0,(1698.7143727195773+0j),4.0,8.0,260.0,10000.0,99999,,(680.8143727195774+0j),0.0,1116002608100702040301704000051000600007000080000
3304,LIPH,45.648399353,12.1943998337,2024-03-07 00:20:00,,,,,9.0,1016.0,(1254.1423449944223+0j),8.0,3.0,210.0,10000.0,99999,8.0,(237.14234499442227+0j),0.0,1116082103100902080301604000051000600007000088000
3305,LIPR,44.0203018188,12.611700058,2024-03-07 00:20:00,,,,,6.0,1016.0,(1258.3535510566392+0j),3.0,5.0,250.0,10000.0,99999,6.0,(241.45355105663918+0j),0.0,1116062505100602030301604000051000600007000086000
3306,LIPX,45.3956985474,10.8885002136,2024-03-07 00:20:00,61.0,36.0,^,green,9.0,1017.0,(2093.3927019212406+0j),7.0,3.0,310.0,10000.0,99999,6.0,(1075.8927019212406+0j),0.0,1116063103100902070301704000051000600007610086000
3307,LIRP,43.6838989258,10.3927001953,2024-03-07 00:15:00,,,,,6.0,1017.0,(1052.0051586758645+0j),6.0,4.0,110.0,10000.0,99999,,(34.305158675864504+0j),0.0,1116001104100602060301704000051000600007000080000
3308,LIRQ,43.8100013733,11.2051000595,2024-03-07 00:20:00,,,,,4.0,1017.0,(2509.8521340819334+0j),3.0,1.0,,10000.0,99999,,(1492.2521340819335+0j),0.0,1116003601100402030301704000051000600007000080000
3314,EDDG,52.134601593,7.6848301888,2024-03-07 00:20:00,,,,,5.0,1026.0,(2365.1760337111045+0j),2.0,3.0,50.0,9000.0,99999,,(1338.7760337111044+0j),0.0,1115000503100502020302604000051000600007000080000
3315,EDDH,53.6304016113,9.9882297516,2024-03-07 00:20:00,,,,,4.0,1028.0,(1535.3717400123032+0j),2.0,6.0,50.0,10000.0,99999,8.0,(506.47174001230314+0j),0.0,1116080506100402020302804000051000600007000088000
3318,EDDM,48.3538017273,11.7861003876,2024-03-07 00:20:00,,,,,5.0,1021.0,(14.616850826515709+0j),3.0,2.0,,8000.0,99999,6.0,(-1008.0831491734843+0j),0.0,1114063602100502030302104000051000600007000086000
3319,EDDN,49.4986991882,11.0669002533,2024-03-07 00:20:00,,,,,1.0,1023.0,(27.61384765475119+0j),-2.0,4.0,350.0,10000.0,99999,1.0,(-996.2861523452488+0j),0.0,1116013504100102120302304000051000600007000081000
3320,EDDP,51.4323997498,12.2416000366,2024-03-07 00:20:00,,,,,5.0,1025.0,(5504.207249603699+0j),3.0,6.0,50.0,7000.0,99999,8.0,(4478.007249603699+0j),0.0,1114080506100502030302504000051000600007000088000
3321,EDDR,49.2145996094,7.1095099449,2024-03-07 00:20:00,,,,,6.0,1022.0,(9.692152973794785+0j),4.0,7.0,50.0,10000.0,99999,1.0,(-1014.4078470262051+0j),0.0,1116010507100602040302204000051000600007000081000
3322,EDDS,48.6898994446,9.2219600677,2024-03-07 00:20:00,,,,,5.0,1021.0,(13.059603858107282+0j),4.0,7.0,30.0,9000.0,99999,7.0,(-1011.4403961418927+0j),0.4,1115070307100502040302104000051000600407000087000
3323,EDDV,52.461101532,9.6850795746,2024-03-07 00:20:00,,,,,0.0,1027.0,(39.27316133755799+0j),-1.0,3.0,60.0,10000.0,99999,3.0,(-988.3268386624419+0j),0.0,1116030603100002110302704000051000600007000083000
3324,EDDW,53.0475006104,8.7866697311,2024-03-07 00:20:00,,,,,1.0,1028.0,(1566.3893269626517+0j),-1.0,6.0,50.0,10000.0,99999,,(538.3893269626517+0j),0.0,1116000506100102110302804000051000600007000080000
3325,EDFM,49.4730567932,8.514166832,2024-03-07 00:20:00,,,,,5.0,1023.0,(3837.19849095+0j),3.0,4.0,360.0,10000.0,99999,1.0,(2813.69849095+0j),0.0,1116013604100502030302304000051000600007000081000
3335,EDDB,52.362167,13.500667,2024-03-07 00:20:00,10.0,36.0,+,yellow,6.0,1026.0,(2086.5478771557505+0j),5.0,7.0,40.0,4500.0,99999,5.0,(1059.0478771557505+0j),0.0,1112050407100602050302604000051000600007100085000
3336,EDDC,51.1328010559,13.76720047,2024-03-07 00:20:00,41.0,36.0,J,yellow,3.0,1024.0,(12.959614680932335+0j),3.0,3.0,340.0,1700.0,99999,6.0,(-1013.3403853190677+0j),0.0,1111063403100302030302404000051000600007410086000
3337,EDDE,50.979801178,10.9581003189,2024-03-07 00:20:00,,,,,2.0,1024.0,(20.663623247738627+0j),0.0,3.0,350.0,10000.0,99999,6.0,(-1005.6363767522613+0j),0.0,1116063503100202000302404000051000600007000086000
3338,EDDK,50.8658981323,7.1427397728,2024-03-07 00:20:00,,,,,3.0,1025.0,(5910.412680029055+0j),3.0,5.0,50.0,6000.0,99999,,(4885.0126800290545+0j),0.0,1113000505100302030302504000051000600007000080000
3339,EDDL,51.2895011902,6.7667798996,2024-03-07 00:20:00,10.0,36.0,+,yellow,3.0,1025.0,(3196.8323227684023+0j),2.0,6.0,50.0,3700.0,99999,,(2171.2323227684024+0j),0.0,1112000506100302020302504000051000600007100080000
3344,EGJJ,49.207901001,-2.1955099106,2024-03-07 00:20:00,,,,,6.0,1019.0,(3036.17924411709+0j),4.0,9.0,110.0,10000.0,99999,,(2015.77924411709+0j),0.0,1116001109100602040301904000051000600007000080000
3346,EKBI,55.7402992249,9.1517801285,2024-03-07 00:20:00,,,,,3.0,1031.0,(4966.693810568039+0j),2.0,4.0,60.0,6000.0,99999,3.0,(3935.4938105680394+0j),0.0,1113030604100302020303104000051000600007000083000
3347,EKRK,55.5856018066,12.1314001083,2024-03-07 00:20:00,,,,,1.0,1031.0,(8298.033011416857+0j),-2.0,5.0,80.0,10000.0,99999,6.0,(7266.8330114168575+0j),0.0,1116060805100102120303104000051000600007000086000
3348,EKVJ,55.9901008606,8.3539104462,2024-03-07 00:20:00,,,,,99999.0,1031.0,(99999+0j),99999.0,4.0,70.0,10000.0,99999,8.0,(98968.1+0j),0.0,11160807041099999020999990303104000051000600007000088000
3364,ENBV,70.8713989258,29.0342006683,2024-03-07 00:20:00,,,,,4.0,1020.0,(1412.5252952277312+0j),2.0,19.0,290.0,10000.0,99999,7.0,(389.8252952277312+0j),0.1,1116072919100402020302004000051000600107000087000
3365,ENOV,62.1800003052,6.0741000175,2024-03-07 00:20:00,,,,,1.0,1032.0,(12.713629584453077+0j),-1.0,0.0,0.0,10000.0,99999,7.0,0j,0.0,1116070000100102110303204000051000600007000087000
3366,ENRS,67.5278015137,12.1033000946,2024-03-07 00:20:00,,,,,5.0,1030.0,(1079.7763478639247+0j),3.0,6.0,50.0,10000.0,99999,8.0,0j,0.0,1116080506100502030303004000051000600007000088000
3367,ENSD,61.8300018311,6.1058301926,2024-03-07 00:20:00,,,,,3.0,1032.0,(4067.354314758588+0j),-1.0,0.0,0.0,10000.0,99999,8.0,0j,0.0,1116080000100302110303204000051000600007000088000
3368,ENSG,61.1561012268,7.1377801895,2024-03-07 00:20:00,,,,,0.0,1030.0,(1000+0j),-5.0,0.0,0.0,10000.0,99999,8.0,(-31.59999999999991+0j),0.0,1116080000100002150303004000051000600007000088000
3369,ENSK,68.5788269043,15.033416748,2024-03-07 00:20:00,,,,,-2.0,1030.0,(844.464026035757+0j),-3.0,2.0,,10000.0,99999,,(-187.33597396424295+0j),0.0,1116003602110202130303004000051000600007000080000
3374,LGTS,40.5196990967,22.9708995819,2024-03-07 00:20:00,,,,,11.0,1016.0,(1086.442451172884+0j),9.0,2.0,,10000.0,99999,1.0,(70.14245117288397+0j),2.5,1116013602101102090301604000051000602507000081000
3376,LIEA,40.6320991516,8.290769577,2024-03-07 00:20:00,,,,,8.0,1019.0,(1426.0641287894082+0j),7.0,3.0,110.0,10000.0,99999,,(405.6641287894082+0j),0.0,1116001103100802070301904000051000600007000080000
3377,LIML,45.445098877,9.2767400742,2024-03-07 00:20:00,,,,,7.0,1017.0,(3243.7677113051013+0j),6.0,3.0,20.0,10000.0,99999,1.0,(2227.0677113051015+0j),0.0,1116010203100702060301704000051000600007000081000
3419,EBCI,50.4592018127,4.4538202286,2024-03-07 00:20:00,,,,,4.0,1024.0,(8613.1238956603+0j),1.0,3.0,20.0,10000.0,99999,,(7588.2238956603+0j),0.0,1116000203100402010302404000051000600007000080000
3420,EBLG,50.6374015808,5.4432201385,2024-03-07 00:20:00,,,,,6.0,1024.0,(6387.296589897494+0j),3.0,6.0,80.0,9000.0,99999,,(5362.296589897494+0j),0.0,1115000806100602030302404000051000600007000080000
3421,EBOS,51.1988983154,2.8622200489,2024-03-07 00:20:00,,,,,3.0,1025.0,(1181.4847905430922+0j),3.0,2.0,70.0,3000.0,99999,,(156.78479054309219+0j),0.0,1111000702100302030302504000051000600007000080000
3422,EDAC,50.9819450378,12.5063886642,2024-03-07 00:20:00,,,,,4.0,1024.0,(8930.826680688026+0j),0.0,2.0,340.0,10000.0,99999,4.0,(7907.126680688026+0j),0.0,1116043402100402000302404000051000600007000084000
3423,EDAH,53.8787002563,14.152299881,2024-03-07 00:20:00,,,,,2.0,1028.0,(3079.774926170068+0j),1.0,6.0,50.0,10000.0,99999,3.0,(2052.0749261700676+0j),0.0,1116030506100202010302804000051000600007000083000
3424,EDFH,49.9486999512,7.2638897896,2024-03-07 00:20:00,,,,,3.0,1023.0,(21.282928314315726+0j),1.0,4.0,90.0,10000.0,99999,,(-1003.2170716856842+0j),0.0,1116000904100302010302304000051000600007000080000
3425,EDHI,53.5352783203,9.8355560303,2024-03-07 00:20:00,,,,,3.0,1028.0,(1311.817763823487+0j),2.0,5.0,60.0,7000.0,99999,8.0,(283.01776382348703+0j),0.0,1114080605100302020302804000051000600007000088000
3426,EDHK,54.3794441223,10.145277977,2024-03-07 00:20:00,,,,,3.0,1030.0,(2469.7666884565547+0j),1.0,10.0,80.0,10000.0,99999,8.0,(1440.2666884565547+0j),0.0,1116080810100302010303004000051000600007000088000
3427,EDHL,53.8054008484,10.7192001343,2024-03-07 00:20:00,,,,,4.0,1029.0,(1536.86529228858+0j),3.0,7.0,50.0,10000.0,99999,8.0,(507.66529228857985+0j),0.0,1116080507100402030302904000051000600007000088000
3428,EDLN,51.2302780151,6.5044441223,2024-03-07 00:20:00,,,,,5.0,1025.0,(2039.1255396184986+0j),4.0,3.0,50.0,5000.0,99999,,(1013.6255396184986+0j),0.0,1113000503100502040302504000051000600007000080000
3429,EDLP,51.6141014099,8.6163196564,2024-03-07 00:20:00,,,,,4.0,1025.0,(9.646046702014647+0j),1.0,4.0,90.0,10000.0,99999,,(-1016.2539532979854+0j),0.0,1116000904100402010302504000051000600007000080000
3430,EDLW,51.5182991028,7.6122398377,2024-03-07 00:20:00,,,,,3.0,1025.0,(8032.645875009463+0j),3.0,4.0,50.0,550.0,99999,1.0,(7006.845875009463+0j),0.0,1110010504100302030302504000051000600007000081000
3431,EDMA,48.42527771,10.9316673279,2024-03-07 00:20:00,,,,,4.0,1021.0,(17.202671951855404+0j),3.0,2.0,320.0,5000.0,99999,4.0,(-1005.6973280481445+0j),0.0,1113043202100402030302104000051000600007000084000
3432,EDMO,48.081401825,11.2831001282,2024-03-07 00:20:00,,,,,2.0,1021.0,(26.927546866278494+0j),2.0,3.0,310.0,8000.0,99999,8.0,(-996.1724531337215+0j),0.4,1114083103100202020302104000051000600407000088000
3433,EDNY,47.6712989807,9.5114898682,2024-03-07 00:20:00,,,,,3.0,1022.0,(19.229427380445824+0j),3.0,3.0,120.0,10000.0,99999,5.0,(-1004.9705726195542+0j),0.5,1116051203100302030302204000051000600507000085000
3434,EDQM,50.2886123657,11.8563890457,2024-03-07 00:20:00,,,,,1.0,1022.0,(32.15909480475461+0j),-3.0,10.0,40.0,10000.0,99999,8.0,(-993.5409051952454+0j),0.0,1116080410100102130302204000051000600007000088000
3435,EDSB,48.7793998718,8.0804996491,2024-03-07 00:20:00,,,,,6.0,1022.0,(4167.49362687676+0j),6.0,2.0,10.0,3800.0,99999,3.0,(3144.0936268767596+0j),0.0,1112030102100602060302204000051000600007000083000
3436,EDTL,48.3693008423,7.8277201653,2024-03-07 00:20:00,,,,,6.0,1022.0,(5073.351095467963+0j),5.0,0.0,0.0,10000.0,99999,8.0,(4049.551095467963+0j),0.1,1116080000100602050302204000051000600107000088000
3437,EDVE,52.3191986084,10.5560998917,2024-03-07 00:20:00,,,,,2.0,1026.0,(8332.627965074325+0j),-0.0,2.0,,10000.0,99999,,(7305.527965074325+0j),0.0,1116003602100202100302604000051000600007000080000
3438,EDVK,51.4083328247,9.3774995804,2024-03-07 00:20:00,,,,,3.0,1025.0,(14.869481969537514+0j),-1.0,6.0,60.0,10000.0,99999,,(-1010.5305180304625+0j),0.0,1116000606100302110302504000051000600007000080000
3439,EDXW,54.9132003784,8.340470314,2024-03-07 00:20:00,,,,,3.0,1030.0,(1695.945350260951+0j),2.0,14.0,100.0,10000.0,99999,6.0,(666.245350260951+0j),0.0,1116061014100302020303004000051000600007000086000
3441,ELLX,49.6265983582,6.211520195,2024-03-07 00:20:00,,,,,4.0,1022.0,(15.014650626041899+0j),1.0,9.0,60.0,10000.0,99999,3.0,(-1008.8853493739581+0j),0.0,1116030609100402010302204000051000600007000083000
3442,ESKM,60.957901001,14.5114002228,2024-03-07 00:20:00,,,,,-6.0,1032.0,(-1805.5565772189138-1887.191184474386j),-7.0,3.0,300.0,10000.0,99999,,(-2839.956577218914-1887.191184474386j),0.0,1116003003110602170303204000051000600007000080000
3445,EBAW,51.1893997192,4.4602799416,2024-03-07 00:20:00,,,,,4.0,1025.0,(1389.6058518756297+0j),2.0,4.0,60.0,6000.0,99999,,(364.6058518756297+0j),0.0,1113000604100402020302504000051000600007000080000
3446,EGPD,57.2019004822,-2.1977798939,2024-03-07 00:20:00,,,,,5.0,1026.0,(2898.8893675052836+0j),4.0,9.0,150.0,10000.0,99999,3.0,(1873.2893675052837+0j),0.0,1116031509100502040302604000051000600007000083000
3447,EGPH,55.9500007629,-3.3724999428,2024-03-07 00:20:00,,,,,7.0,1024.0,(1784.1373842378273+0j),4.0,9.0,120.0,10000.0,99999,8.0,(760.5373842378273+0j),0.0,1116081209100702040302404000051000600007000088000
3448,EGPK,55.5093994141,-4.5866699219,2024-03-07 00:20:00,,,,,5.0,1023.0,(1517.6649443172344+0j),3.0,8.0,90.0,10000.0,99999,,(495.66494431723436+0j),0.0,1116000908100502030302304000051000600007000080000
3449,EGPO,58.2155990601,-6.3311100006,2024-03-07 00:20:00,,,,,7.0,1021.0,(1154.043963411863+0j),3.0,8.0,130.0,10000.0,99999,,(133.74396341186298+0j),0.0,1116001308100702030302104000051000600007000080000
3450,EGPU,56.4991989136,-6.8691701889,2024-03-07 00:20:00,,,,,8.0,1020.0,(1191.1754071273863+0j),5.0,23.0,130.0,10000.0,99999,,(171.97540712738623+0j),0.0,1116001323100802050302004000051000600007000080000
3451,EKAH,56.2999992371,10.6190004349,2024-03-07 00:20:00,41.0,36.0,J,yellow,-1.0,1032.0,(-0.024325590608764838-0.02542542323691912j),-2.0,0.0,0.0,200.0,99999,8.0,(-1032.1243255906086-0.02542542323691912j),0.0,1110080000110102120303204000051000600007410088000
3452,EKKA,56.2975006104,9.1246299744,2024-03-07 00:20:00,,,,,2.0,1031.0,(5109.124684673794+0j),2.0,3.0,40.0,7000.0,99999,6.0,(4077.824684673794+0j),0.0,1114060403100202020303104000051000600007000086000
3453,EKYT,57.0927589138,9.8492431641,2024-03-07 00:20:00,,,,,2.0,1032.0,(1214.610463206636+0j),1.0,4.0,50.0,10000.0,99999,6.0,(182.3104632066361+0j),0.0,1116060504100202010303204000051000600007000086000
3454,ENAN,69.2925033569,16.1441993713,2024-03-07 00:20:00,,,,,2.0,1031.0,(1893.7523718339264+0j),1.0,2.0,,10000.0,99999,6.0,0j,0.0,1116063602100202010303104000051000600007000086000
3455,ENBO,67.269203186,14.3653001785,2024-03-07 00:20:00,,,,,-0.0,1029.0,(39.349642664408144+0j),-4.0,9.0,100.0,10000.0,99999,,(-991.0503573355919+0j),0.0,1116001009110002140302904000051000600007000080000
3456,ENGM,60.193901062,11.100399971,2024-03-07 00:20:00,,,,,-6.0,1033.0,(-16306.952928598865-17044.238990224305j),-8.0,1.0,,10000.0,99999,,0j,0.0,1116003601110602180303304000051000600007000080000
3457,ENOL,63.6988983154,9.6040000916,2024-03-07 00:20:00,,,,,1.0,1031.0,(2188.920320646234+0j),-1.0,7.0,240.0,10000.0,99999,,(1157.820320646234+0j),0.0,1116002407100102110303104000051000600007000080000
3458,ENSH,68.2433013916,14.6691999435,2024-03-07 00:20:00,,,,,1.0,1030.0,(2140.593314338698+0j),-2.0,4.0,10.0,10000.0,99999,,(1109.493314338698+0j),0.0,1116000104100102120303004000051000600007000080000
3459,ENTC,69.6832962036,18.9188995361,2024-03-07 00:20:00,,,,,1.0,1030.0,(2327.093942382284+0j),-2.0,9.0,190.0,10000.0,99999,2.0,(1296.1939423822837+0j),0.0,1116021909100102120303004000051000600007000082000
3460,ESSA,59.6519012451,17.9186000824,2024-03-07 00:20:00,,,,,-6.0,1032.0,(377.10122252141014+0j),-6.0,2.0,240.0,10000.0,99999,,(-656.1987774785898+0j),0.0,1116002402110602160303204000051000600007000080000
3468,LIBP,42.4317016602,14.1810998917,2024-03-07 00:20:00,,,,,4.0,1016.0,(1466.8553779401925+0j),4.0,3.0,240.0,10000.0,99999,,(450.15537794019247+0j),0.0,1116002403100402040301604000051000600007000080000
3469,LICA,38.9053993225,16.2423000336,2024-03-07 00:20:00,,,,,13.0,1019.0,(1125.7209334326424+0j),7.0,10.0,250.0,10000.0,99999,4.0,(105.72093343264237+0j),0.0,1116042510101302070301904000051000600007000084000
3470,LICR,38.0712013245,15.651599884,2024-03-07 00:20:00,,,,,11.0,1020.0,(1342.7192783637952+0j),4.0,6.0,50.0,10000.0,99999,,(321.61927836379516+0j),0.0,1116000506101102040302004000051000600007000080000
3471,LIPY,43.6162986755,13.3622999191,2024-03-07 00:20:00,,,,,5.0,1016.0,(1379.3691050433758+0j),2.0,3.0,170.0,10000.0,99999,,(362.36910504337584+0j),0.0,1116001703100502020301604000051000600007000080000
3473,LICD,35.4978981018,12.6181001663,2024-03-07 00:20:00,,,,,14.0,1021.0,(1201.6640338507514+0j),8.0,6.0,230.0,10000.0,99999,,(179.2640338507514+0j),0.0,1116002306101402080302104000051000600007000080000
3474,LIRZ,43.0959014893,12.5131998062,2024-03-07 00:20:00,,,,,2.0,1017.0,(16.23240346383717+0j),2.0,5.0,360.0,10000.0,99999,6.0,(-1001.8675965361629+0j),0.0,1116063605100202020301704000051000600007000086000
3478,EHLE,52.4603004456,5.5272197723,2024-03-07 00:25:00,10.0,36.0,+,yellow,3.0,1026.0,(879.0191107171017+0j),2.0,5.0,60.0,2600.0,99999,,(-147.38088928289835+0j),0.0,1111000605100302020302604000051000600007100080000
3480,EHVK,51.6563987732,5.7086100578,2024-03-07 00:25:00,10.0,36.0,+,yellow,5.0,1025.0,(1578.4036369340054+0j),4.0,4.0,50.0,4000.0,99999,8.0,(552.9036369340054+0j),0.0,1112080504100502040302504000051000600007100088000
3481,LSZL,46.1608009338,8.8786096573,2024-03-07 00:20:00,,,,,5.0,1017.0,(7382.298583870035+0j),1.0,0.0,0.0,10000.0,99999,,(6363.8985838700355+0j),0.0,1116000000100502010301704000051000600007000080000
3485,ETHS,52.9193992615,10.1975002289,2024-03-07 00:20:00,,,,,-1.0,1027.0,(979.6347755976095+0j),-2.0,0.0,0.0,8000.0,99999,,(-48.165224402390436+0j),0.0,1114000000110102120302704000051000600007000080000
3491,LSMD,47.398601532,8.648229599,2024-03-07 00:20:00,,,,,2.0,1021.0,(24.259848697335894+0j),2.0,3.0,140.0,9000.0,99999,5.0,(-999.840151302664+0j),0.6,1115051403100202020302104000051000600607000085000
3492,LSME,47.0923995972,8.3051204681,2024-03-07 00:20:00,10.0,36.0,+,yellow,3.0,1021.0,(19.470600822108782+0j),3.0,0.0,0.0,4000.0,99999,5.0,(-1004.7293991778913+0j),0.0,1112050000100302030302104000051000600007100085000
3493,LSMP,46.8432006836,6.9150600433,2024-03-07 00:20:00,,,,,4.0,1020.0,(16.81541558579406+0j),2.0,3.0,30.0,10000.0,99999,4.0,(-1007.0845844142059+0j),0.0,1116040303100402020302004000051000600007000084000
3522,EFKI,64.2854995728,27.6923999786,2024-03-07 00:20:00,,,,,-5.0,1028.0,(-99.09070703270558-103.57089394755805j),-6.0,6.0,280.0,10000.0,99999,8.0,(-1129.6907070327054-103.57089394755805j),0.0,1116082806110502160302804000051000600007000088000
3523,EFKU,63.0070991516,27.7978000641,2024-03-07 00:20:00,,,,,-3.0,1028.0,(-3201.1015492464144-3345.8329141090576j),-4.0,5.0,340.0,10000.0,99999,8.0,(-4231.701549246414-3345.8329141090576j),0.0,1116083405110302140302804000051000600007000088000
3569,EYSA,55.893901825,23.3950004578,2024-03-07 00:20:00,,,,,-5.0,1030.0,(-3.212452198216412-3.357696759830932j),-6.0,2.0,330.0,10000.0,99999,,0j,0.0,1116003302110502160303004000051000600007000080000
3596,ETMN,53.7677001953,8.6584997177,2024-03-07 00:20:00,,,,,-0.0,1028.0,(39.311402000983065+0j),-1.0,6.0,90.0,10000.0,99999,,(-989.4885979990169+0j),0.0,1116000906110002110302804000051000600007000080000
3598,ETNN,50.831199646,6.6581702232,2024-03-07 00:20:00,,,,,6.0,1024.0,(3948.689537738985+0j),4.0,2.0,70.0,10000.0,99999,6.0,(2923.089537738985+0j),0.0,1116060702100602040302404000051000600007000086000
3600,ETSN,48.7109985352,11.2115001678,2024-03-07 00:20:00,,,,,4.0,1021.0,(15.127013695892218+0j),2.0,4.0,350.0,10000.0,99999,6.0,(-1008.0729863041079+0j),0.0,1116063504100402020302104000051000600007000086000
3604,EGGW,51.8746986389,-0.3683330119,2024-03-07 00:20:00,45.0,36.0,N,yellow,3.0,1024.0,(9.664106704300735+0j),3.0,8.0,110.0,100.0,99999,,(-1014.5358932956993+0j),0.0,1110001108100302030302404000051000600007450080000
3605,EGNT,55.0374984741,-1.6916699409,2024-03-07 00:20:00,,,,,6.0,1025.0,(2962.3729628895017+0j),5.0,4.0,150.0,10000.0,99999,6.0,(1937.3729628895017+0j),0.0,1116061504100602050302504000051000600007000086000
3606,EGNX,52.8311004639,-1.3280600309,2024-03-07 00:20:00,,,,,5.0,1024.0,(3820.1386775790947+0j),4.0,8.0,130.0,8000.0,99999,,(2796.338677579095+0j),0.0,1114001308100502040302404000051000600007000080000
3607,EGPA,58.9578018188,-2.9049999714,2024-03-07 00:20:00,,,,,6.0,1025.0,(1333.8986255796938+0j),3.0,13.0,150.0,10000.0,99999,6.0,(309.1986255796937+0j),0.0,1116061513100602030302504000051000600007000086000
3608,EGTE,50.7344017029,-3.4138898849,2024-03-07 00:20:00,,,,,7.0,1020.0,(1577.7966139034845+0j),6.0,8.0,90.0,10000.0,99999,3.0,(557.1966139034845+0j),0.0,1116030908100702060302004000051000600007000083000
3611,EGUL,52.4093017578,0.5609999895,2024-03-07 00:25:00,10.0,36.0,+,yellow,6.0,30.25,(1225.1371770379737+0j),5.0,9.0,110.0,8000.0,99999,8.0,(200.23717703797365+0j),0.0,111408110910060205033024000051000600007100088000
3612,EGVN,51.75,-1.5836199522,2024-03-07 00:20:00,10.0,36.0,+,yellow,3.0,1023.0,(5652.272872024467+0j),2.0,2.0,60.0,6000.0,99999,,(4629.272872024467+0j),0.0,1113000602100302020302304000051000600007100080000
3629,EHBK,50.9117012024,5.7701401711,2024-03-07 00:25:00,10.0,36.0,+,yellow,4.0,1024.0,(5538.593145070474+0j),3.0,4.0,50.0,4800.0,99999,1.0,(4513.793145070474+0j),0.0,1112010504100402030302404000051000600007100081000
3630,EHGG,53.1197013855,6.5794401169,2024-03-07 00:25:00,,,,,4.0,1027.0,(1180.6880621588414+0j),2.0,5.0,60.0,10000.0,99999,8.0,(153.48806215884133+0j),0.0,1116080605100402020302704000051000600007000088000
3631,EHRD,51.9569015503,4.4372200966,2024-03-07 00:25:00,,,,,4.0,1026.0,(898.2179619201967+0j),3.0,2.0,70.0,5000.0,99999,,(-127.38203807980324+0j),0.0,1113000702100402030302604000051000600007000080000
3632,ETHB,52.2784996033,9.0821695328,2024-03-07 00:20:00,,,,,2.0,1026.0,(6670.6110170191205+0j),1.0,6.0,60.0,10000.0,99999,1.0,(5643.81101701912+0j),0.0,1116010606100202010302604000051000600007000081000
3633,ETHC,52.5912017822,10.0221004486,2024-03-07 00:20:00,,,,,1.0,1027.0,(7403.522882168318+0j),-0.0,2.0,350.0,10000.0,99999,6.0,(6376.2228821683175+0j),0.0,1116063502100102100302704000051000600007000086000
3635,ETHN,49.3919448853,9.9588890076,2024-03-07 00:20:00,,,,,1.0,1022.0,(29.59333095285643+0j),-1.0,7.0,50.0,10000.0,99999,2.0,(-994.3066690471436+0j),0.0,1116020507100102110302204000051000600007000082000
3636,ETNL,53.9182014465,12.2783002853,2024-03-07 00:20:00,,,,,3.0,1028.0,(3054.6124718393758+0j),1.0,10.0,60.0,10000.0,99999,8.0,(2026.3124718393758+0j),0.0,1116080610100302010302804000051000600007000088000
3637,ETNW,52.4572982788,9.4271697998,2024-03-07 00:20:00,,,,,1.0,1027.0,(10.236203632347117+0j),-0.0,4.0,50.0,10000.0,99999,1.0,(-1016.6637963676529+0j),0.0,1116010504100102100302704000051000600007000081000
3665,LTCS,37.4456634521,38.8955917358,2024-03-07 00:20:00,,,,,4.0,1011.0,(23.198688632764924+0j),4.0,4.0,330.0,10000.0,99999,,(-988.801311367235+0j),0.0,1116003304100402040301104000051000600007000080000
3669,LTFM,41.275333,28.752,2024-03-07 00:20:00,,,,,6.0,1019.0,(3439.94511351401+0j),5.0,4.0,360.0,10000.0,99999,6.0,0j,0.0,1116063604100602050301904000051000600007000086000
3690,LTAZ,38.771900177,34.5345001221,2024-03-07 00:20:00,,,,,3.0,1014.0,(27.265906265393266+0j),2.0,6.0,270.0,8000.0,99999,4.0,0j,0.0,1114042706100302020301404000051000600007000084000
3691,LTBR,40.2551994324,29.5625991821,2024-03-07 00:20:00,,,,,4.0,1018.0,(10.328133516794686+0j),4.0,2.0,,8000.0,99999,3.0,(-1008.3718664832054+0j),0.0,1114033602100402040301804000051000600007000083000
3693,LTFC,37.8554000854,30.3684005737,2024-03-07 00:20:00,,,,,4.0,1015.0,(23.753981415124212+0j),1.0,3.0,,10000.0,99999,6.0,(-992.4460185848758+0j),0.0,1116063603100402010301504000051000600007000086000
3694,LTFJ,40.898601532,29.3092002869,2024-03-07 00:20:00,,,,,5.0,1018.0,(3859.8631386475454+0j),3.0,2.0,,10000.0,99999,1.0,(2841.3631386475454+0j),0.0,1116013602100502030301804000051000600007000081000
3725,LFCK,43.5563011169,2.2891800404,2024-03-07 00:30:00,,,,,7.0,1018.0,(6492.460059647198+0j),2.0,12.0,120.0,10000.0,99999,,0j,0.0,1116001212100702020301804000051000600007000080000
3726,LFLP,45.9291992188,6.098760128,2024-03-07 00:30:00,,,,,0.0,1020.0,(39.00547669358242+0j),-1.0,3.0,20.0,10000.0,99999,,(-983.2945233064175+0j),0.0,1116000203100002110302004000051000600007000080000
3730,LFQA,49.2086982727,4.1565799713,2024-03-07 00:30:00,,,,,1.0,1023.0,(15.181964009851304+0j),1.0,2.0,,10000.0,99999,,(-1008.8180359901487+0j),0.0,1116003602100102010302304000051000600007000080000
3765,LFJR,47.5602989197,-0.3122220039,2024-03-07 00:30:00,,,,,3.0,1020.0,(3985.3166785831986+0j),2.0,6.0,90.0,10000.0,99999,,(2964.016678583199+0j),0.0,1116000906100302020302004000051000600007000080000
3776,EPBY,53.0968017578,17.9776992798,2024-03-07 00:30:00,,,,,-2.0,1028.0,(-48482.36095987117-50674.3933479525j),-3.0,3.0,40.0,10000.0,99999,,0j,0.0,1116000403110202130302804000051000600007000080000
3780,EPRA,51.388833,21.211667,2024-03-07 00:30:00,,,,,1.0,1024.0,(22.63403873972564+0j),-2.0,9.0,60.0,10000.0,99999,8.0,(-1002.8659612602744+0j),0.0,1116080609100102120302404000051000600007000088000
3782,EPSY,53.481944,20.937778,2024-03-07 00:30:00,,,,,-3.0,1028.0,(967087889546.6859+0j),-6.0,4.0,30.0,10000.0,99999,,(967087888517.8859+0j),0.0,1116000304110302160302804000051000600007000080000
3785,LHKE,46.9174995422,19.7492008209,2024-03-07 00:15:00,61.0,36.0,^,green,6.0,1016.0,(3866.0712382609217+0j),4.0,7.0,40.0,10000.0,99999,7.0,(2849.5712382609217+0j),0.6,1116070407100602040301604000051000600607610087000
3786,LHPA,47.3636016846,17.5007991791,2024-03-07 00:15:00,,,,,3.0,1017.0,(8643.640279640214+0j),1.0,7.0,330.0,10000.0,99999,,(7625.240279640215+0j),0.0,1116003307100302010301704000051000600007000080000
3788,LHPR,47.6244010925,17.8136005402,2024-03-07 00:15:00,,,,,3.0,1017.0,(7953.316060835988+0j),1.0,5.0,280.0,9000.0,99999,6.0,(6935.216060835987+0j),0.2,1115062805100302010301704000051000600207000086000
3789,LHSM,46.6864013672,17.1590995789,2024-03-07 00:15:00,,,,,6.0,1017.0,(4147.104714807891+0j),1.0,9.0,360.0,10000.0,99999,,0j,0.0,1116003609100602010301704000051000600007000080000
3790,LHSN,47.1228981018,20.2355003357,2024-03-07 00:15:00,,,,,5.0,1015.0,(3951.960973278668+0j),3.0,2.0,360.0,10000.0,99999,5.0,(2935.960973278668+0j),0.6,1116053602100502030301504000051000600607000085000
3792,LTAC,40.1281013489,32.995098114,2024-03-07 00:20:00,,,,,2.0,1013.0,(30.4401726868025+0j),-1.0,5.0,230.0,10000.0,99999,2.0,(-985.0598273131975+0j),0.0,1116022305100202110301304000051000600007000082000
3794,LTAG,37.0021018982,35.4258995056,2024-03-07 00:20:00,,,,,10.0,1010.0,(1956.0150363289363+0j),8.0,3.0,310.0,10000.0,99999,,(944.5150363289363+0j),0.0,1116003103101002080301004000051000600007000080000
3800,LTBA,40.9768981934,28.8145999908,2024-03-07 00:20:00,,,,,6.0,1018.0,(2123.2453758648608+0j),4.0,1.0,310.0,10000.0,99999,1.0,(1104.2453758648608+0j),0.0,1116013101100602040301804000051000600007000081000
3802,LTBS,36.7131004333,28.7924995422,2024-03-07 00:20:00,,,,,9.0,1015.0,(1093.3150857598018+0j),6.0,4.0,50.0,10000.0,99999,,(78.61508575980179+0j),0.0,1116000504100902060301504000051000600007000080000
3804,LTCC,37.893901825,40.2010002136,2024-03-07 00:20:00,,,,,8.0,1010.0,(13.893400289530808+0j),5.0,2.0,,10000.0,99999,4.0,(-997.8065997104692+0j),0.0,1116043602100802050301004000051000600007000084000
3811,ETHF,51.1146,9.286,2024-03-07 00:20:00,,,,,4.0,1025.0,(15.975110682372957+0j),0.0,3.0,30.0,10000.0,99999,6.0,(-1010.124889317627+0j),0.0,1116060303100402000302504000051000600007000086000
3812,EHAM,52.3086013794,4.7638897896,2024-03-07 00:25:00,,,,,4.0,1026.0,(931.5611403746101+0j),3.0,6.0,70.0,7000.0,99999,,(-94.43885962538991+0j),0.0,1114000706100402030302604000051000600007000080000
3814,LYBT,44.935299,20.2575,2024-03-07 00:30:00,61.0,36.0,^,green,8.0,1013.0,(2387.8471459255184+0j),7.0,6.0,110.0,10000.0,99999,3.0,(1373.1471459255183+0j),0.0,1116031106100802070301304000051000600007610083000
3815,LYKV,43.818298,20.5872,2024-03-07 00:30:00,10.0,36.0,+,yellow,7.0,1014.0,(5707.377328481975+0j),7.0,2.0,360.0,4000.0,99999,1.0,(4692.877328481975+0j),0.4,1112013602100702070301404000051000600407100081000
3819,LYVR,45.1469,21.3099,2024-03-07 00:30:00,61.0,36.0,^,green,9.0,1014.0,(2275.4795575809935+0j),5.0,17.0,130.0,10000.0,99999,8.0,(1261.1795575809936+0j),0.0,1116081317100902050301404000051000600007610088000
3852,LBGO,43.1514015198,25.7129001617,2024-03-07 00:30:00,,,,,3.0,1016.0,(5561.04291847658+0j),1.0,5.0,110.0,10000.0,99999,6.0,(4543.84291847658+0j),0.0,1116061105100302010301604000051000600007000086000
3910,LFBY,43.689201355,-1.0688899755,2024-03-07 00:30:00,,,,,7.0,1015.0,(1605.5204806256274+0j),5.0,4.0,80.0,10000.0,99999,,(587.6204806256275+0j),0.0,1116000804100702050301504000051000600007000080000
3947,EGXV,53.8758010864,-0.4350000024,2024-03-07 00:20:00,,,,,6.0,1025.0,(1244.0943797582465+0j),5.0,3.0,100.0,1900.0,99999,8.0,(219.09437975824653+0j),0.0,1111081003100602050302504000051000600007000088000
3981,LTAF,36.9822006226,35.2803993225,2024-03-07 00:20:00,10.0,36.0,+,yellow,8.0,1011.0,(1307.6725381960337+0j),8.0,2.0,210.0,3900.0,99999,,(295.2725381960337+0j),0.0,1112002102100802080301104000051000600007100080000
3982,LTAI,36.8987007141,30.8005008698,2024-03-07 00:20:00,,,,,12.0,1013.0,(1574.3179717893163+0j),4.0,9.0,310.0,10000.0,99999,,(560.0179717893163+0j),0.0,1116003109101202040301304000051000600007000080000
3983,LTAJ,36.9472007751,37.4786987305,2024-03-07 00:20:00,,,,,6.0,1011.0,(17.2263593799163+0j),4.0,5.0,310.0,10000.0,99999,,(-991.6736406200837+0j),0.0,1116003105100602040301104000051000600007000080000
3984,LTAP,40.8293991089,35.5219993591,2024-03-07 00:20:00,,,,,6.0,1012.0,(14.334548976339969+0j),2.0,5.0,60.0,10000.0,99999,4.0,(-1000.06545102366+0j),0.0,1116040605100602020301204000051000600007000084000
3985,LTAT,38.4352989197,38.0909996033,2024-03-07 00:20:00,,,,,5.0,1011.0,(21.335648173153267+0j),0.0,2.0,,10000.0,99999,2.0,(-991.4643518268467+0j),0.9,1116023602100502000301104000051000600907000082000
3986,LTAU,38.770401001,35.4953994751,2024-03-07 00:20:00,80.0,36.0,q,green,4.0,1013.0,(25.647378660775185+0j),2.0,5.0,320.0,10000.0,99999,4.0,(-988.6526213392248+0j),0.6,1116043205100402020301304000051000600607800084000
3987,LTBJ,38.2924003601,27.156999588,2024-03-07 00:20:00,,,,,5.0,1016.0,(4897.941582778729+0j),4.0,1.0,,10000.0,99999,,(3880.6415827787287+0j),0.0,1116003601100502040301604000051000600007000080000
3988,LTBU,41.1381988525,27.9190998077,2024-03-07 00:20:00,,,,,6.0,1018.0,(5607.096933493913+0j),4.0,4.0,60.0,10000.0,99999,6.0,(4588.096933493913+0j),0.0,1116060604100602040301804000051000600007000086000
3989,LTCE,39.9565010071,41.1702003479,2024-03-07 00:20:00,,,,,1.0,1008.0,(35.98399894516049+0j),-2.0,2.0,,10000.0,99999,6.0,(-974.6160010548396+0j),0.0,1116063602100102120300804000051000600007000086000
3990,LTCG,40.995098114,39.7896995544,2024-03-07 00:20:00,80.0,36.0,q,green,10.0,1013.0,(1398.8852262540831+0j),7.0,6.0,250.0,10000.0,99999,3.0,(385.88522625408314+0j),0.0,1116032506101002070301304000051000600007800083000
3991,LTCJ,37.9290008545,41.1166000366,2024-03-07 00:20:00,,,,,8.0,1010.0,(11.826790094077358+0j),8.0,4.0,360.0,10000.0,99999,4.0,(-1000.8732099059226+0j),0.0,1116043604100802080301004000051000600007000084000
3992,LTFE,37.2505989075,27.6643009186,2024-03-07 00:20:00,,,,,7.0,1016.0,(1122.4067403018298+0j),6.0,3.0,90.0,10000.0,99999,,0j,0.0,1116000903100702060301604000051000600007000080000
4002,LFMC,43.3847007751,6.3871397972,2024-03-07 00:30:00,,,,,2.0,1018.0,(7516.514344700051+0j),-0.0,1.0,,10000.0,99999,,(6498.614344700051+0j),0.0,1116003601100202100301804000051000600007000080000
4013,LFRL,48.2817001343,-4.4450201988,2024-03-07 00:30:00,,,,,8.0,1016.0,(2525.2626397715594+0j),7.0,11.0,110.0,10000.0,99999,8.0,(1506.9626397715595+0j),0.0,1116081111100802070301604000051000600007000088000
4019,LFYR,47.3208007813,1.6888899803,2024-03-07 00:30:00,,,,,1.0,1020.0,(14.305776468395404+0j),1.0,1.0,60.0,10000.0,99999,,(-1007.9942235316046+0j),0.0,1116000601100102010302004000051000600007000080000
4043,EPLL,51.7219009399,19.3980998993,2024-03-07 00:30:00,,,,,2.0,1024.0,(14.820321829915375+0j),-1.0,9.0,60.0,10000.0,99999,6.0,(-1011.7796781700845+0j),0.0,1116060609100202110302404000051000600007000086000
4044,EPWR,51.1026992798,16.885799408,2024-03-07 00:30:00,,,,,3.0,1024.0,(7671.101578244572+0j),1.0,5.0,20.0,10000.0,99999,3.0,(6645.801578244572+0j),0.0,1116030205100302010302404000051000600007000083000
4045,LFBE,44.8252983093,0.5186110139,2024-03-07 00:30:00,,,,,2.0,1018.0,(5071.077702320614+0j),2.0,2.0,,6000.0,99999,,(4050.6777023206137+0j),0.0,1113003602100202020301804000051000600007000080000
4046,LFBG,45.6582984924,-0.3174999952,2024-03-07 00:30:00,,,,,5.0,1018.0,(1821.880370526876+0j),5.0,6.0,80.0,10000.0,99999,,(801.680370526876+0j),0.0,1116000806100502050301804000051000600007000080000
4047,LFCR,44.4079017639,2.4826700687,2024-03-07 00:30:00,,,,,-1.0,1018.0,(48.76962022534832+0j),-1.0,3.0,140.0,10000.0,99999,,(-972.4303797746518+0j),0.0,1116001403110102110301804000051000600007000080000
4048,LFJL,48.9821014404,6.2513198853,2024-03-07 00:30:00,,,,,7.0,1022.0,(7125.529142982445+0j),3.0,4.0,50.0,10000.0,99999,7.0,(6101.629142982445+0j),0.0,1116070504100702030302204000051000600007000087000
4049,LFMK,43.2159996033,2.306319952,2024-03-07 00:30:00,,,,,3.0,1018.0,(8110.666058781835+0j),3.0,3.0,100.0,10000.0,99999,,(7090.266058781835+0j),0.0,1116001003100302030301804000051000600007000080000
4050,LFMO,44.140499115,4.8667201996,2024-03-07 00:30:00,,,,,6.0,1019.0,(2388.231994841228+0j),1.0,11.0,340.0,10000.0,99999,,(1368.1319948412279+0j),0.0,1116003411100602010301904000051000600007000080000
4051,LFMU,43.3235015869,3.3538999557,2024-03-07 00:30:00,,,,,4.0,1019.0,(1552.6758017265975+0j),2.0,2.0,20.0,10000.0,99999,,(532.3758017265975+0j),0.0,1116000202100402020301904000051000600007000080000
4052,LHDC,47.488899231,21.6152992249,2024-03-07 00:15:00,,,,,7.0,1015.0,(3280.5744369796316+0j),4.0,9.0,30.0,10000.0,99999,8.0,(2264.5744369796316+0j),0.0,1116080309100702040301504000051000600007000088000
4053,LHPP,45.9908981323,18.2409992218,2024-03-07 00:15:00,,,,,7.0,1015.0,(8013.499115577908+0j),1.0,8.0,20.0,10000.0,99999,,(6996.399115577908+0j),0.0,1116000208100702010301504000051000600007000080000
4054,LKCV,49.9397010803,15.3817996979,2024-03-07 00:30:00,,,,,4.0,1022.0,(10.706200364176793+0j),2.0,3.0,300.0,8000.0,99999,8.0,(-1014.1937996358233+0j),0.0,1114083003100402020302204000051000600007000088000
4055,LKNA,49.1657981873,16.1249008179,2024-03-07 00:30:00,,,,,3.0,1020.0,(20.541167021035054+0j),0.0,8.0,330.0,10000.0,99999,7.0,(-1002.0588329789649+0j),0.0,1116073308100302000302004000051000600007000087000
4056,LKPD,50.0134010315,15.7385997772,2024-03-07 00:30:00,,,,,5.0,1022.0,(8334.861679416494+0j),2.0,5.0,10.0,10000.0,99999,8.0,(7311.5616794164935+0j),0.0,1116080105100502020302204000051000600007000088000
4060,LZPP,48.6251983643,17.8283996582,2024-03-07 00:30:00,,,,,6.0,1018.0,(5352.394649968044+0j),2.0,16.0,20.0,10000.0,99999,,0j,0.0,1116000216100602020301804000051000600007000080000
4061,LZZI,49.2314987183,18.6135005951,2024-03-07 00:30:00,,,,,4.0,1019.0,(13.026260432047616+0j),-0.0,7.0,40.0,10000.0,99999,,0j,0.0,1116000407100402100301904000051000600007000080000
4063,LIRN,40.8860015869,14.2908000946,2024-03-07 00:20:00,,,,,9.0,1016.0,(2373.37155539142+0j),4.0,4.0,200.0,10000.0,99999,,(1355.1715553914198+0j),0.0,1116002004100902040301604000051000600007000080000
4068,LFOV,48.0313987732,-0.7429860234,2024-03-07 00:30:00,,,,,3.0,1020.0,(6371.053399106621+0j),2.0,4.0,90.0,10000.0,99999,,(5350.053399106621+0j),0.0,1116000904100302020302004000051000600007000080000
4071,LFRV,47.7233009338,-2.7185599804,2024-03-07 00:30:00,,,,,6.0,1017.0,(4478.528171464434+0j),6.0,8.0,100.0,10000.0,99999,,(3459.4281714644344+0j),0.0,1116001008100602060301704000051000600007000080000
4083,LFAQ,49.9715003967,2.6976599693,2024-03-07 00:30:00,,,,,3.0,1023.0,(6980.040723667121+0j),1.0,5.0,90.0,10000.0,99999,,(5955.940723667121+0j),0.0,1116000905100302010302304000051000600007000080000
4084,LFBU,45.7291984558,0.2214560062,2024-03-07 00:30:00,,,,,4.0,1018.0,(6306.400290100333+0j),3.0,5.0,60.0,10000.0,99999,,(5286.300290100333+0j),0.0,1116000605100402030301804000051000600007000080000
4093,LFOZ,47.896900177,2.1633300781,2024-03-07 00:30:00,,,,,0.0,1021.0,(39.0437173570075+0j),-0.0,4.0,60.0,7000.0,99999,,(-983.4562826429925+0j),0.0,1114000604100002100302104000051000600007000080000
4094,LFPT,49.0965995789,2.0408298969,2024-03-07 00:30:00,,,,,2.0,1022.0,(9.034271394473441+0j),2.0,7.0,70.0,10000.0,99999,,(-1014.3657286055266+0j),0.0,1116000707100202020302204000051000600007000080000
4105,LJCE,45.9000015259,15.5302000046,2024-03-07 00:30:00,,,,,8.0,1017.0,(3926.0184870712087+0j),2.0,4.0,80.0,10000.0,99999,,0j,0.0,1116000804100802020301704000051000600007000080000
4136,LEMI,37.803,-1.125,2024-03-07 00:30:00,,,,,11.0,1018.0,(3609.4310241584735+0j),10.0,5.0,360.0,10000.0,99999,,0j,0.0,11160036051011020100301804000051000600007000080000
4138,LECH,40.9000015259,-1.3041199446,2024-03-07 00:30:00,,,,,6.0,1019.0,(19.947357221500166+0j),4.0,0.0,0.0,10000.0,99999,,(-997.7526427784999+0j),0.0,1116000000100602040301904000051000600007000080000
4139,UUBC,54.5499992371,36.3666687012,2024-03-07 00:30:00,,,,,-12.0,1025.0,(15.191756690995854+0j),-14.0,0.0,0.0,10000.0,99999,,0j,0.0,11160000001112021140302504000051000600007000080000
4140,UUOB,50.6437988281,36.5900993347,2024-03-07 00:30:00,,,,,-3.0,1023.0,(975.8192555368598+0j),-5.0,4.0,30.0,10000.0,99999,6.0,(-48.78074446314008+0j),0.0,1116060304110302150302304000051000600007000086000
4141,UUOK,51.7505989075,36.2956008911,2024-03-07 00:30:00,,,,,-7.0,1025.0,(-161.51596333590462-168.81858259402009j),-9.0,3.0,350.0,10000.0,99999,,(-1186.5159633359046-168.81858259402009j),0.0,1116003503110702190302504000051000600007000080000
4144,UWPS,54.1251296997,45.2122573853,2024-03-07 00:30:00,,,,,-13.0,1024.0,(23.931700714601792+0j),-16.0,0.0,0.0,10000.0,99999,,(-1002.6682992853981+0j),0.0,11160000001113021160302404000051000600007000080000
4172,UWKS,56.0903015137,47.3473014832,2024-03-07 00:30:00,,,,,-6.0,1022.0,(-24.7127639701623-25.83010186272992j),-13.0,3.0,280.0,10000.0,99999,6.0,(-1049.5127639701623-25.83010186272992j),0.0,11160628031106021130302204000051000600007000086000
4176,UUDL,57.5606994629,40.1573982239,2024-03-07 00:30:00,,,,,-4.0,1023.0,(0.01909595553720974+0j),-12.0,1.0,190.0,10000.0,99999,,(-1026.2809040444627+0j),0.0,11160019011104021120302304000051000600007000080000
4179,UUMO,55.5116996765,37.5071983337,2024-03-07 00:30:00,,,,,-13.0,1025.0,(71.97411642666489+0j),-15.0,0.0,0.0,10000.0,99999,,(-955.8258835733351+0j),0.0,11160000001113021150302504000051000600007000080000
4180,UUBW,55.5532989502,38.1500015259,2024-03-07 00:30:00,,,,,-12.0,1025.0,(215.62774531598436+0j),-14.0,1.0,90.0,10000.0,99999,,(-812.0722546840157+0j),0.0,11160009011112021140302504000051000600007000080000
4181,UUOL,52.7028007507,39.5377998352,2024-03-07 00:30:00,,,,,-11.0,1025.0,(20.03538253314351+0j),-12.0,1.0,350.0,8000.0,99999,,0j,0.0,11140035011111021120302504000051000600007000080000
4184,URMG,43.3883018494,45.698600769,2024-03-07 00:30:00,10.0,36.0,+,yellow,3.0,1013.0,(1013+0j),3.0,0.0,0.0,1900.0,99999,8.0,(0.6000000000000227+0j),0.0,1111080000100302030301304000051000600007100088000
4187,URMO,43.2051010132,44.6066017151,2024-03-07 00:30:00,10.0,36.0,+,yellow,2.0,1011.0,(25.274091763473194+0j),1.0,2.0,80.0,2600.0,99999,5.0,(-987.3259082365269+0j),0.0,1111050802100202010301104000051000600007100085000
4189,URRP,47.50083333,39.93361111,2024-03-07 00:30:00,,,,,-2.0,1018.0,(-125596841.85772517-131275450.31948589j),-5.0,6.0,60.0,10000.0,99999,1.0,0j,0.0,1116010606110202150301804000051000600007000081000
4220,LQMO,43.2829017639,17.8458995819,2024-03-07 00:30:00,,,,,6.0,1013.0,(2060.110136022198+0j),5.0,2.0,,10000.0,99999,3.0,(1044.9101360221978+0j),0.8,1116033602100602050301304000051000600807000083000
4246,LRCL,46.7851982117,23.6861991882,2024-03-07 00:30:00,61.0,36.0,^,green,5.0,1015.0,(11.014486013796342+0j),4.0,7.0,90.0,6000.0,99999,4.0,(-1004.9855139862036+0j),0.0,1113040907100502040301504000051000600007610084000
4247,LRIA,47.1785011292,27.6205997467,2024-03-07 00:30:00,,,,,4.0,1020.0,(5807.002693259409+0j),-2.0,11.0,80.0,10000.0,99999,,(4786.402693259409+0j),0.0,1116000811100402120302004000051000600007000080000
4249,LRSM,47.7033004761,22.8857002258,2024-03-07 00:30:00,,,,,7.0,1014.0,(3611.1955217054715+0j),6.0,5.0,150.0,10000.0,99999,3.0,(2595.6955217054715+0j),0.8,1116031505100702060301404000051000600807000083000
4251,EBBE,50.7585983276,4.7683300972,2024-03-07 00:25:00,,,,,5.0,1024.0,(4491.7443179574675+0j),3.0,4.0,60.0,7000.0,99999,,(3466.6443179574676+0j),0.0,1114000604100502030302404000051000600007000080000
4252,EBCV,50.5758018494,3.8310000896,2024-03-07 00:25:00,,,,,4.0,1024.0,(3168.4514508341804+0j),3.0,4.0,70.0,10000.0,99999,5.0,(2143.6514508341807+0j),0.0,1116050704100402030302404000051000600007000085000
4255,LFBX,45.1981010437,0.8155559897,2024-03-07 00:30:00,10.0,36.0,+,yellow,1.0,1018.0,(15.601934238941913+0j),1.0,2.0,90.0,1800.0,99999,6.0,(-1004.9980657610581+0j),0.0,1111060902100102010301804000051000600007100086000
4256,LFLN,46.4124984741,4.0132598877,2024-03-07 00:30:00,,,,,-1.0,1021.0,(70.77212698356031+0j),-2.0,2.0,200.0,10000.0,99999,,(-952.2278730164397+0j),0.0,1116002002110102120302104000051000600007000080000
4263,LFPM,48.6046981812,2.6711199284,2024-03-07 00:30:00,,,,,3.0,1022.0,(5893.113911209458+0j),2.0,4.0,60.0,6000.0,99999,,(4869.813911209458+0j),0.0,1113000604100302020302204000051000600007000080000
4274,LUKK,46.9277000427,28.9309997559,2024-03-07 00:30:00,,,,,0.0,1021.0,(39.0437173570075+0j),-3.0,7.0,40.0,10000.0,99999,,(-981.1562826429926+0j),0.0,1116000407100002130302104000051000600007000080000
4284,LEBG,42.3576011658,-3.620759964,2024-03-07 00:30:00,,,,,4.0,1013.0,(24.086602062386635+0j),-0.0,6.0,150.0,10000.0,99999,,(-991.4133979376134+0j),0.0,1116001506100402100301304000051000600007000080000
4295,LFMY,43.6063995361,5.1092500687,2024-03-07 00:30:00,,,,,5.0,1018.0,(2680.7255300562474+0j),1.0,2.0,,10000.0,99999,,(1661.1255300562475+0j),0.0,1116003602100502010301804000051000600007000080000
4297,LFRJ,48.5303001404,-4.1516399384,2024-03-07 00:30:00,,,,,8.0,1017.0,(2898.0950121594933+0j),6.0,10.0,140.0,10000.0,99999,,(1879.7950121594934+0j),0.0,1116001410100802060301704000051000600007000080000
4300,LRBM,47.6584014893,23.4699993134,2024-03-07 00:30:00,61.0,36.0,^,green,6.0,1015.0,(5861.476946751376+0j),4.0,10.0,100.0,10000.0,99999,7.0,(4845.176946751376+0j),0.3,1116071010100602040301504000051000600307610087000
4301,LRCV,44.3180999756,23.8885993958,2024-03-07 00:30:00,61.0,36.0,^,green,6.0,1016.0,(6050.473530417885+0j),3.0,9.0,100.0,10000.0,99999,8.0,(5033.273530417885+0j),0.0,1116081009100602030301604000051000600007610088000
4302,LROD,47.0252990723,21.9025001526,2024-03-07 00:30:00,,,,,7.0,1014.0,(4053.222163850194+0j),5.0,4.0,20.0,10000.0,99999,4.0,(3037.5221638501944+0j),0.0,1116040204100702050301404000051000600007000084000
4303,LRSV,47.6875,26.3540992737,2024-03-07 00:30:00,,,,,2.0,1018.0,(23.51610400761302+0j),0.0,10.0,70.0,10000.0,99999,6.0,(-997.083895992387+0j),0.0,1116060710100202000301804000051000600007000086000
4307,LQBK,44.9413986206,17.2975006104,2024-03-07 00:30:00,,,,,7.0,1015.0,(3578.1909297098964+0j),7.0,4.0,260.0,10000.0,99999,4.0,(2561.9909297098966+0j),1.2,1116042604100702070301504000051000601107000084000
4308,LQTZ,44.4586982727,18.7248001099,2024-03-07 00:30:00,61.0,36.0,^,green,7.0,1014.0,(6437.340297519214+0j),7.0,4.0,230.0,10000.0,99999,3.0,(5422.040297519214+0j),0.7,1116032304100702070301404000051000600707610083000
4312,LEHC,42.0760993958,-0.3166669905,2024-03-07 00:30:00,,,,,5.0,1017.0,(16.38807869025547+0j),0.0,3.0,50.0,10000.0,99999,,(-1002.7119213097445+0j),0.0,1116000503100502000301704000051000600007000080000
4315,LESB,39.5988998413,2.7027800083,2024-03-07 00:30:00,,,,,7.0,1020.0,(1914.4543632463633+0j),3.0,6.0,350.0,10000.0,99999,,(893.7543632463633+0j),0.0,1116003506100702030302004000051000600007000080000
4317,LEMO,37.1749000549,-5.615940094,2024-03-07 00:30:00,,,,,7.0,1015.0,(2756.008128242817+0j),5.0,5.0,120.0,10000.0,99999,,(1739.0081282428168+0j),0.0,1116001205100702050301504000051000600007000080000
4320,GEML,35.279800415,-2.9562599659,2024-03-07 00:30:00,,,,,14.0,1016.0,(1432.530053336905+0j),12.0,2.0,140.0,10000.0,99999,3.0,(414.530053336905+0j),0.0,11160314021014020120301604000051000600007000083000
4321,EBFS,50.2433013916,4.6458301544,2024-03-07 00:25:00,,,,,4.0,1023.0,(12.227197730088292+0j),1.0,2.0,,10000.0,99999,3.0,(-1012.1728022699118+0j),0.0,1116033602100402010302304000051000600007000083000
4322,EPGD,54.3776016235,18.4661998749,2024-03-07 00:30:00,,,,,-0.0,1028.0,(39.311402000983065+0j),-2.0,5.0,60.0,10000.0,99999,,(-990.7885979990168+0j),0.0,1116000605110002120302804000051000600007000080000
4323,EPKK,50.0777015686,19.7847995758,2024-03-07 00:30:00,51.0,36.0,T,green,3.0,1021.0,(13.385300518595532+0j),1.0,10.0,30.0,10000.0,99999,6.0,(-1010.5146994814045+0j),0.0,1116060310100302010302104000051000600007510086000
4324,EPKT,50.4743003845,19.0799999237,2024-03-07 00:30:00,,,,,2.0,1022.0,(20.18586873300377+0j),2.0,9.0,50.0,4100.0,99999,7.0,(-1003.5141312669963+0j),0.0,1112070509100202020302204000051000600007000087000
4325,EPLB,51.240278,22.713611,2024-03-07 00:30:00,,,,,0.0,1024.0,(39.158439347282744+0j),-2.0,7.0,70.0,10000.0,99999,5.0,0j,0.0,1116050707100002120302404000051000600007000085000
4326,EPMO,52.4510993958,20.6518001556,2024-03-07 00:30:00,,,,,-2.0,1026.0,(342477.2263126044+0j),-4.0,5.0,30.0,10000.0,99999,,(341450.4263126044+0j),0.0,1116000305110202140302604000051000600007000080000
4327,EPPO,52.4210014343,16.8262996674,2024-03-07 00:30:00,,,,,-0.0,1026.0,(39.2349206741329+0j),-2.0,6.0,60.0,10000.0,99999,1.0,(-987.9650793258671+0j),0.0,1116010606110002120302604000051000600007000081000
4328,EPRZ,50.1100006104,22.0189990997,2024-03-07 00:30:00,,,,,2.0,1021.0,(15.952430511896425+0j),1.0,11.0,60.0,10000.0,99999,7.0,(-1008.4475694881037+0j),0.0,1116070611100202010302104000051000600007000087000
4329,EPSC,53.5847015381,14.9021997452,2024-03-07 00:30:00,,,,,2.0,1027.0,(4663.996266705193+0j),-0.0,1.0,,10000.0,99999,1.0,(3636.696266705193+0j),0.0,1116013601100202100302704000051000600007000081000
4330,EPWA,52.1656990051,20.9671001434,2024-03-07 00:30:00,,,,,3.0,1026.0,(6965.902162761567+0j),-4.0,8.0,90.0,10000.0,99999,6.0,(5939.102162761566+0j),0.0,1116060908100302140302604000051000600007000086000
4331,UMMS,53.8824996948,28.0307006836,2024-03-07 00:30:00,,,,,-6.0,1027.0,(-9794.537787582254-10237.378103763172j),-7.0,2.0,320.0,10000.0,99999,,(-10824.137787582255-10237.378103763172j),0.0,1116003202110602170302704000051000600007000080000
4332,LBBG,42.5695991516,27.5151996613,2024-03-07 00:30:00,,,,,6.0,1018.0,(1913.8527110359237+0j),4.0,2.0,,10000.0,99999,,(895.1527110359236+0j),0.0,1116003602100602040301804000051000600007000080000
4333,LBPD,42.0677986145,24.8507995605,2024-03-07 00:30:00,,,,,6.0,1016.0,(5797.343904366957+0j),6.0,7.0,100.0,9000.0,99999,7.0,(4779.943904366957+0j),0.0,1115071007100602060301604000051000600007000087000
4334,LBSF,42.6966934204,23.4114360809,2024-03-07 00:30:00,63.0,36.0,',green,7.0,1015.0,(12.735801224025947+0j),5.0,8.0,100.0,6000.0,99999,5.0,(-1003.064198775974+0j),0.0,1113051008100702050301504000051000600007630085000
4335,LBWN,43.2321014404,27.8250999451,2024-03-07 00:30:00,,,,,3.0,1018.0,(4605.587271427744+0j),0.0,5.0,50.0,10000.0,99999,1.0,(3587.387271427744+0j),0.0,1116010505100302000301804000051000600007000081000
4336,LHBP,47.4369010925,19.2555999756,2024-03-07 00:30:00,,,,,7.0,1016.0,(4284.681805787385+0j),5.0,2.0,,10000.0,99999,8.0,(3267.181805787385+0j),0.0,1116083602100702050301604000051000600007000088000
4337,LRAR,46.1766014099,21.2619991302,2024-03-07 00:30:00,,,,,8.0,1014.0,(2914.1526925972867+0j),7.0,1.0,,5000.0,99999,3.0,(1898.1526925972867+0j),0.2,1113033601100802070301404000051000600207000083000
4338,LRBS,44.503200531,26.1021003723,2024-03-07 00:30:00,,,,,3.0,1018.0,(5782.474995083913+0j),-1.0,5.0,60.0,10000.0,99999,,(4764.274995083913+0j),0.0,1116000605100302110301804000051000600007000080000
4339,LRCK,44.3622016907,28.4883003235,2024-03-07 00:30:00,,,,,3.0,1018.0,(6756.717634155549+0j),0.0,3.0,340.0,10000.0,99999,,(5736.817634155549+0j),0.0,1116003403100302000301804000051000600007000080000
4340,LROP,44.5722007751,26.1021995544,2024-03-07 00:30:00,,,,,2.0,1018.0,(8733.216539048495+0j),0.0,4.0,90.0,10000.0,99999,,(7713.8165390484955+0j),0.0,1116000904100202000301804000051000600007000080000
4341,LRTC,45.0625,28.7143001556,2024-03-07 00:30:00,,,,,5.0,1019.0,(2732.0011287457905+0j),-3.0,8.0,10.0,6000.0,99999,6.0,(1712.9011287457906+0j),0.0,1113060108100502130301904000051000600007000086000
4342,LRTM,46.4677009583,24.4125003815,2024-03-07 00:30:00,53.0,36.0,V,green,5.0,1015.0,(10.369681235136168+0j),3.0,9.0,90.0,10000.0,99999,6.0,(-1006.9303187648638+0j),1.6,1116060909100502030301504000051000601607530086000
4343,LRTR,45.8098983765,21.3379001617,2024-03-07 00:30:00,,,,,7.0,1014.0,(3198.3251280282325+0j),7.0,4.0,70.0,10000.0,99999,4.0,(2183.125128028232+0j),1.1,1116040704100702070301404000051000601107000084000
4344,LDDU,42.5614013672,18.2681999207,2024-03-07 00:30:00,,,,,9.0,1014.0,(3646.9648996702003+0j),5.0,2.0,,10000.0,99999,1.0,(2631.4648996702003+0j),0.0,1116013602100902050301404000051000600007000081000
4345,LDOS,45.4626998901,18.8101997375,2024-03-07 00:30:00,,,,,9.0,1014.0,(2347.896239460032+0j),7.0,5.0,340.0,10000.0,99999,1.0,(1332.696239460032+0j),0.0,1116013405100902070301404000051000600007000081000
4346,LDPL,44.8935012817,13.9222002029,2024-03-07 00:30:00,61.0,36.0,^,green,8.0,1015.0,(2445.615268692018+0j),6.0,5.0,350.0,10000.0,99999,1.0,(1429.215268692018+0j),0.0,1116013505100802060301504000051000600007610081000
4347,LDRI,45.2168998718,14.5703001022,2024-03-07 00:30:00,,,,,11.0,1015.0,(2031.4597796624919+0j),2.0,7.0,40.0,10000.0,99999,3.0,(1015.6597796624919+0j),0.2,1116030407101102020301504000051000600207000083000
4348,LDSP,43.538898468,16.2980003357,2024-03-07 00:30:00,,,,,8.0,1014.0,(1379.5970111267372+0j),7.0,4.0,40.0,10000.0,99999,8.0,(364.9970111267372+0j),0.0,1116080404100802070301404000051000600007000088000
4349,LDZA,45.7429008484,16.0687999725,2024-03-07 00:30:00,,,,,9.0,1016.0,(2686.2187812313573+0j),1.0,10.0,40.0,10000.0,99999,,(1668.9187812313573+0j),0.0,1116000410100902010301604000051000600007000080000
4350,LDZD,44.1082992554,15.3466997147,2024-03-07 00:30:00,,,,,4.0,1014.0,(4356.406532112948+0j),3.0,3.0,340.0,10000.0,99999,1.0,(3341.006532112948+0j),0.0,1116013403100402030301404000051000600007000081000
4351,LJLJ,46.2237014771,14.4575996399,2024-03-07 00:30:00,10.0,36.0,+,yellow,6.0,1016.0,(11.239946776187162+0j),5.0,1.0,,3000.0,99999,3.0,(-1007.3600532238129+0j),0.0,1111033601100602050301604000051000600007100083000
4353,LJPZ,45.473400116,13.6149997711,2024-03-07 00:30:00,,,,,7.0,1016.0,(1050.970738657501+0j),6.0,2.0,110.0,10000.0,99999,5.0,(34.17073865750103+0j),0.4,1116051102100702060301604000051000600407000085000
4354,LKMT,49.6963005066,18.1110992432,2024-03-07 00:30:00,,,,,3.0,1021.0,(14.043196915054093+0j),2.0,10.0,50.0,10000.0,99999,7.0,(-1008.2568030849459+0j),0.0,1116070510100302020302104000051000600007000087000
4355,LKPR,50.1007995605,14.2600002289,2024-03-07 00:30:00,,,,,2.0,1022.0,(22.598227801355076+0j),-0.0,7.0,330.0,10000.0,99999,6.0,(-1002.601772198645+0j),0.0,1116063307100202100302204000051000600007000086000
4356,LKTB,49.1512985229,16.6944007874,2024-03-07 00:30:00,,,,,6.0,1020.0,(7387.07869822404+0j),1.0,7.0,360.0,10000.0,99999,3.0,(6365.978698224039+0j),0.0,1116033607100602010302004000051000600007000083000
4357,LQSA,43.8246002197,18.3314990997,2024-03-07 00:30:00,,,,,7.0,1013.0,(12.519261216981004+0j),6.0,0.0,0.0,10000.0,99999,4.0,(-1002.480738783019+0j),1.1,1116040000100702060301304000051000601107000084000
4358,LYBE,44.8184013367,20.3090991974,2024-03-07 00:30:00,,,,,8.0,1013.0,(2807.1166586443724+0j),6.0,5.0,140.0,10000.0,99999,3.0,(1792.0166586443725+0j),0.0,1116031405100802060301304000051000600007000083000
4359,LYNI,43.337299,21.853701,2024-03-07 00:30:00,10.0,36.0,+,yellow,8.0,1014.0,(4814.787522348764+0j),8.0,1.0,230.0,3000.0,99999,2.0,(3799.3875223487635+0j),0.0,1111022301100802080301404000051000600007100082000
4360,LYPG,42.3594017029,19.2518997192,2024-03-07 00:30:00,,,,,9.0,1015.0,(1615.4196428772777+0j),8.0,2.0,,10000.0,99999,3.0,0j,0.0,1116033602100902080301504000051000600007000083000
4361,LYTV,42.4047012329,18.7233009338,2024-03-07 00:30:00,,,,,10.0,1015.0,(1085.3731180516506+0j),8.0,2.0,,10000.0,99999,5.0,(69.17311805165059+0j),0.2,1116053602101002080301504000051000600207000085000
4362,LZIB,48.1702003479,17.2126998901,2024-03-07 00:30:00,,,,,6.0,1018.0,(4395.444925740317+0j),2.0,8.0,340.0,10000.0,99999,6.0,(3375.4449257403166+0j),0.0,1116063408100602020301804000051000600007000086000
4363,LZKZ,48.6631011963,21.2411003113,2024-03-07 00:30:00,,,,,4.0,1016.0,(10.206074243444824+0j),0.0,19.0,10.0,10000.0,99999,6.0,0j,0.0,1116060119100402000301604000051000600007000086000
4364,LZTT,49.073600769,20.2411003113,2024-03-07 00:30:00,,,,,0.0,1016.0,(38.852514039882095+0j),-1.0,14.0,70.0,10000.0,99999,4.0,(-980.9474859601179+0j),0.0,1116040714100002110301604000051000600007000084000
4369,LFAT,50.5173988342,1.6205899715,2024-03-07 00:30:00,,,,,2.0,1024.0,(1728.7403238165987+0j),1.0,3.0,150.0,10000.0,99999,,(704.6403238165988+0j),0.0,1116001503100202010302404000051000600007000080000
4370,LFBD,44.8283004761,-0.7155560255,2024-03-07 00:30:00,,,,,7.0,1016.0,(1938.4804311541673+0j),6.0,7.0,100.0,10000.0,99999,,(920.9804311541673+0j),0.0,1116001007100702060301604000051000600007000080000
4371,LFBH,46.1791992188,-1.1952799559,2024-03-07 00:30:00,,,,,7.0,1017.0,(1411.2032806696013+0j),6.0,8.0,100.0,10000.0,99999,,(391.7032806696013+0j),0.0,1116001008100702060301704000051000600007000080000
4372,LFBI,46.5876998901,0.3066659868,2024-03-07 00:30:00,,,,,5.0,1019.0,(5028.539125674355+0j),3.0,5.0,80.0,10000.0,99999,,(4007.639125674355+0j),0.0,1116000805100502030301904000051000600007000080000
4373,LFBO,43.6291007996,1.3638199568,2024-03-07 00:30:00,,,,,6.0,1017.0,(4943.149076889632+0j),4.0,4.0,110.0,10000.0,99999,,(3923.049076889632+0j),0.0,1116001104100602040301704000051000600007000080000
4374,LFBP,43.3800010681,-0.41861099,2024-03-07 00:30:00,,,,,8.0,1015.0,(4609.499718311365+0j),4.0,5.0,110.0,10000.0,99999,,(3592.1997183113644+0j),0.0,1116001105100802040301504000051000600007000080000
4376,LFBZ,43.4683990479,-1.5233199596,2024-03-07 00:30:00,,,,,8.0,1014.0,(2273.5484314174096+0j),4.0,9.0,90.0,10000.0,99999,,(1256.8484314174095+0j),0.0,1116000909100802040301404000051000600007000080000
4378,LFKB,42.5527000427,9.4837303162,2024-03-07 00:30:00,,,,,7.0,1017.0,(1149.522733388702+0j),-0.0,2.0,,10000.0,99999,,(132.0227333887019+0j),0.0,1116003602100702100301704000051000600007000080000
4379,LFKC,42.5307998657,8.7931900024,2024-03-07 00:30:00,,,,,9.0,1017.0,(1943.905664339049+0j),-1.0,8.0,170.0,10000.0,99999,,(926.1056643390491+0j),0.0,1116001708100902110301704000051000600007000080000
4380,LFKJ,41.9235992432,8.8029203415,2024-03-07 00:30:00,,,,,7.0,1018.0,(1109.1127015328855+0j),4.0,7.0,30.0,10000.0,99999,6.0,(90.11270153288547+0j),0.0,1116060307100702040301804000051000600007000086000
4381,LFLB,45.6380996704,5.88022995,2024-03-07 00:30:00,,,,,1.0,1020.0,(24.81089098523805+0j),-0.0,3.0,160.0,10000.0,99999,,(-997.789109014762+0j),0.0,1116001603100102100302004000051000600007000080000
4382,LFLC,45.7867012024,3.1691699028,2024-03-07 00:30:00,,,,,-0.0,1020.0,(39.00547669358242+0j),-2.0,2.0,,10000.0,99999,,(-983.6945233064176+0j),0.0,1116003602110002120302004000051000600007000080000
4383,LFLL,45.726398468,5.0908298492,2024-03-07 00:30:00,,,,,3.0,1020.0,(13.747771442433878+0j),1.0,5.0,260.0,10000.0,99999,,(-1008.4522285575662+0j),0.0,1116002605100302010302004000051000600007000080000
4384,LFLS,45.3628997803,5.3293700218,2024-03-07 00:30:00,,,,,-0.0,1019.0,(38.967236030157345+0j),-1.0,2.0,120.0,10000.0,99999,,(-983.3327639698426+0j),0.0,1116001202110002110301904000051000600007000080000
4385,LFLY,45.7271995544,4.944270134,2024-03-07 00:30:00,,,,,1.0,1020.0,(23.128537335538166+0j),0.0,1.0,230.0,10000.0,99999,,(-999.2714626644619+0j),0.0,1116002301100102000302004000051000600007000080000
4386,LFMD,43.5419998169,6.9534797668,2024-03-07 00:30:00,,,,,5.0,1017.0,(1109.05296868132+0j),3.0,4.0,360.0,10000.0,99999,,(91.55296868131995+0j),0.0,1116003604100502030301704000051000600007000080000
4387,LFMH,45.540599823,4.2963900566,2024-03-07 00:30:00,,,,,-2.0,1020.0,(81.78137527695603+0j),-3.0,0.0,0.0,10000.0,99999,,(-941.418624723044+0j),0.0,1116000000110202130302004000051000600007000080000
4388,LFML,43.439271922,5.2214241028,2024-03-07 00:30:00,,,,,6.0,1018.0,(1483.1993182498088+0j),1.0,5.0,340.0,10000.0,99999,,(464.29931824980883+0j),0.0,1116003405100602010301804000051000600007000080000
4389,LFMN,43.6584014893,7.2158699036,2024-03-07 00:30:00,,,,,9.0,1017.0,(1063.7853962551267+0j),2.0,9.0,340.0,10000.0,99999,,(46.18539625512665+0j),0.0,1116003409100902020301704000051000600007000080000
4390,LFMP,42.740398407,2.8706700802,2024-03-07 00:30:00,,,,,5.0,1019.0,(2200.2153132713042+0j),3.0,4.0,250.0,10000.0,99999,,(1179.7153132713042+0j),0.0,1116002504100502030301904000051000600007000080000
4391,LFMT,43.5761985779,3.9630100727,2024-03-07 00:30:00,,,,,5.0,1019.0,(1140.2855618255267+0j),-2.0,4.0,320.0,10000.0,99999,,(119.9855618255267+0j),0.0,1116003204100502120301904000051000600007000080000
4392,LFOB,49.4543991089,2.1127800941,2024-03-07 00:30:00,,,,,4.0,1023.0,(5321.271632608462+0j),3.0,2.0,,10000.0,99999,3.0,(4297.471632608462+0j),0.0,1116033602100402030302304000051000600007000083000
4393,LFOH,49.5339012146,0.0880559981,2024-03-07 00:30:00,,,,,6.0,1021.0,(3344.71970812174+0j),3.0,9.0,110.0,9000.0,99999,,(2322.71970812174+0j),0.0,1115001109100602030302104000051000600007000080000
4394,LFOT,47.4322013855,0.7276059985,2024-03-07 00:30:00,,,,,3.0,1020.0,(6839.027633295473+0j),2.0,5.0,80.0,10000.0,99999,,(5817.127633295473+0j),0.0,1116000805100302020302004000051000600007000080000
4397,LFPN,48.7518997192,2.1061899662,2024-03-07 00:30:00,41.0,36.0,J,yellow,2.0,1022.0,(13.60027926223013+0j),2.0,2.0,70.0,3100.0,99999,,(-1009.3997207377698+0j),0.0,1111000702100202020302204000051000600007410080000
4398,LFPO,48.7252998352,2.3594400883,2024-03-07 00:30:00,42.0,36.0,K,yellow,4.0,1022.0,(4417.1045984542125+0j),3.0,1.0,80.0,10000.0,99999,,(3393.8045984542123+0j),0.0,1116000801100402030302204000051000600007420080000
4401,LFRC,49.650100708,-1.4702800512,2024-03-07 00:30:00,,,,,6.0,1020.0,(4605.851308676728+0j),6.0,7.0,120.0,7000.0,99999,,(3585.051308676728+0j),0.0,1114001207100602060302004000051000600007000080000
4402,LFRD,48.5876998901,-2.0799601078,2024-03-07 00:30:00,,,,,5.0,1019.0,(2918.6257391031886+0j),3.0,7.0,100.0,10000.0,99999,,(1898.2257391031885+0j),0.0,1116001007100502030301904000051000600007000080000
4403,LFRG,49.3652992249,0.1543059945,2024-03-07 00:30:00,,,,,4.0,1021.0,(6884.5545810388385+0j),2.0,6.0,110.0,10000.0,99999,,(5861.754581038838+0j),0.0,1116001106100402020302104000051000600007000080000
4404,LFRK,49.1733016968,-0.4499999881,2024-03-07 00:30:00,,,,,5.0,1021.0,(3295.61829874386+0j),4.0,6.0,110.0,10000.0,99999,,(2273.61829874386+0j),0.0,1116001106100502040302104000051000600007000080000
4405,LFRN,48.0694999695,-1.7347899675,2024-03-07 00:30:00,,,,,6.0,1019.0,(1835.2787983312815+0j),3.0,8.0,100.0,10000.0,99999,,(814.7787983312815+0j),0.0,1116001008100602030301904000051000600007000080000
4407,LFRS,47.1531982422,-1.610730052,2024-03-07 00:30:00,,,,,6.0,1018.0,(1592.4491201552316+0j),5.0,8.0,90.0,10000.0,99999,,(572.5491201552317+0j),0.0,1116000908100602050301804000051000600007000080000
4408,LFRZ,47.3121986389,-2.1491799355,2024-03-07 00:30:00,,,,,6.0,1017.0,(1093.4777193259592+0j),5.0,8.0,90.0,10000.0,99999,,(73.67771932595929+0j),0.0,1116000908100602050301704000051000600007000080000
4409,LFSB,47.5895996094,7.5299100876,2024-03-07 00:30:00,,,,,5.0,1021.0,(9.713864147008+0j),5.0,3.0,300.0,10000.0,99999,4.0,(-1014.286135852992+0j),0.4,1116043003100502050302104000051000600407000084000
4410,LFSN,48.6921005249,6.2304601669,2024-03-07 00:30:00,,,,,7.0,1022.0,(6241.300156790286+0j),4.0,3.0,20.0,10000.0,99999,8.0,(5216.600156790286+0j),0.0,1116080203100702040302204000051000600007000088000
4411,LFST,48.5382995605,7.6282300949,2024-03-07 00:30:00,,,,,7.0,1022.0,(4385.136353184212+0j),6.0,3.0,20.0,10000.0,99999,5.0,(3359.936353184212+0j),0.0,1116050203100702060302204000051000600007000085000
4412,LFTW,43.7574005127,4.4163498878,2024-03-07 00:30:00,,,,,6.0,1019.0,(3304.357644177075+0j),0.0,7.0,360.0,10000.0,99999,,(2284.0576441770754+0j),0.0,1116003607100602000301904000051000600007000080000
4413,LFBA,44.1747016907,0.5905560255,2024-03-07 00:30:00,,,,,5.0,1017.0,(2765.6214299248854+0j),4.0,4.0,120.0,8000.0,99999,,(1745.5214299248855+0j),0.0,1114001204100502040301704000051000600007000080000
4414,LFBC,44.5332984924,-1.125,2024-03-07 00:30:00,,,,,6.0,1016.0,(1548.1046266479127+0j),5.0,4.0,90.0,10000.0,99999,,(529.5046266479127+0j),0.0,1116000904100602050301604000051000600007000080000
4415,LFBL,45.8628005981,1.1794400215,2024-03-07 00:30:00,,,,,3.0,1018.0,(18.607435158426362+0j),0.0,6.0,60.0,10000.0,99999,,(-1002.6925648415736+0j),0.0,1116000606100302000301804000051000600007000080000
4416,LFBM,43.9117012024,-0.5074999928,2024-03-07 00:30:00,,,,,6.0,1016.0,(2428.320227442891+0j),5.0,6.0,70.0,10000.0,99999,,(1409.520227442891+0j),0.0,1116000706100602050301604000051000600007000080000
4417,LFKF,41.5005989075,9.0977802277,2024-03-07 00:30:00,,,,,8.0,1018.0,(1424.6646546689083+0j),5.0,6.0,240.0,10000.0,99999,2.0,(406.06465466890825+0j),0.0,1116022406100802050301804000051000600007000082000
4418,LFOE,49.0287017822,1.2198599577,2024-03-07 00:30:00,,,,,3.0,1022.0,(8653.505048845516+0j),2.0,5.0,90.0,7000.0,99999,,(7630.3050488455165+0j),0.0,1114000905100302020302204000051000600007000080000
4419,LFOP,49.3842010498,1.1748000383,2024-03-07 00:30:00,,,,,3.0,1022.0,(9.424944105898215+0j),3.0,8.0,80.0,10000.0,99999,,(-1013.7750558941018+0j),0.0,1116000808100302030302204000051000600007000080000
4420,LFPB,48.9693984985,2.4413900375,2024-03-07 00:30:00,,,,,4.0,1023.0,(3470.526566012488+0j),3.0,4.0,50.0,10000.0,99999,,(2447.2265660124876+0j),0.0,1116000504100402030302304000051000600007000080000
4421,LFPG,49.0127983093,2.5499999523,2024-03-07 00:30:00,,,,,5.0,1022.0,(4715.266413180291+0j),4.0,6.0,80.0,10000.0,99999,1.0,(3691.6664131802913+0j),0.0,1116010806100502040302204000051000600007000081000
4422,LFPV,48.7743988037,2.2015399933,2024-03-07 00:30:00,,,,,4.0,1022.0,(8225.59625380022+0j),3.0,2.0,80.0,7000.0,99999,,(7202.396253800221+0j),0.0,1114000802100402030302204000051000600007000080000
4423,LFQB,48.322101593,4.016699791,2024-03-07 00:30:00,,,,,2.0,1022.0,(10.526926414705338+0j),2.0,0.0,0.0,10000.0,99999,,(-1013.3730735852946+0j),0.0,1116000000100202020302204000051000600007000080000
4424,LFQQ,50.5619010925,3.0894401073,2024-03-07 00:30:00,,,,,4.0,1024.0,(2708.7264094347975+0j),2.0,2.0,40.0,10000.0,99999,,(1684.4264094347975+0j),0.0,1116000402100402020302404000051000600007000080000
4425,LFRH,47.7606010437,-3.4400000572,2024-03-07 00:30:00,,,,,8.0,1017.0,(1802.757109884867+0j),8.0,10.0,80.0,10000.0,99999,7.0,(783.7571098848671+0j),0.0,1116070810100802080301704000051000600007000087000
4426,LFSD,47.268901825,5.0900001526,2024-03-07 00:30:00,,,,,3.0,1021.0,(12.538003595204142+0j),1.0,5.0,340.0,10000.0,99999,,(-1011.5619964047958+0j),0.0,1116003405100302010302104000051000600007000080000
4427,LFSI,48.6360015869,4.8994197845,2024-03-07 00:30:00,,,,,3.0,1022.0,(8555.364544176775+0j),3.0,2.0,60.0,8000.0,99999,,(7531.464544176775+0j),0.0,1114000602100302030302204000051000600007000080000
4428,LFSL,45.039667,1.4855,2024-03-07 00:30:00,,,,,2.0,1018.0,(20.3324463154589+0j),2.0,3.0,120.0,10000.0,99999,,(-1003.967553684541+0j),0.0,1116001203100202020301804000051000600007000080000
4429,LFSO,48.5830993652,5.9549999237,2024-03-07 00:30:00,,,,,5.0,1022.0,(11.692491165086674+0j),1.0,2.0,330.0,10000.0,99999,,(-1012.3075088349133+0j),0.0,1116003302100502010302204000051000600007000080000
4430,LFSX,47.7831001282,6.3640599251,2024-03-07 00:30:00,,,,,4.0,1021.0,(11.976376333891453+0j),2.0,2.0,,10000.0,99999,,(-1011.4236236661085+0j),0.0,1116003602100402020302104000051000600007000080000
4431,LFTH,43.0973014832,6.1460299492,2024-03-07 00:30:00,,,,,4.0,1017.0,(1078.5885743638837+0j),-1.0,3.0,,10000.0,99999,,(60.88857436388366+0j),0.0,1116003603100402110301704000051000600007000080000
4436,LPMA,32.6978988647,-16.7744998932,2024-03-07 00:30:00,,,,,18.0,1018.0,(1416.3745765836302+0j),10.0,4.0,,10000.0,99999,3.0,(396.77457658363016+0j),0.0,11160336041018020100301804000051000600007000083000
4440,ULAA,64.6003036499,40.7167015076,2024-03-07 00:30:00,,,,,-3.0,1019.0,(419.9266743526574+0j),-3.0,7.0,300.0,10000.0,99999,8.0,(-602.2733256473426+0j),0.0,1116083007110302130301904000051000600007000088000
4442,ULLI,59.8003005981,30.2625007629,2024-03-07 00:30:00,,,,,-3.0,1027.0,(310.7955501603897+0j),-5.0,3.0,60.0,10000.0,99999,8.0,(-718.6044498396104+0j),0.0,1116080603110302150302704000051000600007000088000
4443,ULMM,68.7817001343,32.7508010864,2024-03-07 00:30:00,,,,,2.0,1020.0,(7556.6652533401875+0j),2.0,3.0,270.0,10000.0,99999,4.0,(6534.465253340188+0j),0.2,1116042703100202020302004000051000600207000084000
4444,UUDD,55.4087982178,37.9062995911,2024-03-07 00:30:00,,,,,-13.0,1025.0,(60.403746808215985+0j),-16.0,2.0,200.0,10000.0,99999,,(-967.5962531917841+0j),0.0,11160020021113021160302504000051000600007000080000
4448,URKK,45.0346984863,39.170501709,2024-03-07 00:30:00,,,,,5.0,1012.0,(1951.0357989504532+0j),3.0,5.0,50.0,10000.0,99999,1.0,(938.9357989504532+0j),0.4,1116010505100502030301204000051000600407000081000
4450,URMT,45.1091995239,42.1128005981,2024-03-07 00:30:00,,,,,1.0,1012.0,(30.061818154537626+0j),-2.0,6.0,70.0,10000.0,99999,7.0,(-983.5381818454624+0j),0.1,1116070706100102120301204000051000600107000087000
4452,URWA,46.2832984924,48.0063018799,2024-03-07 00:30:00,,,,,-1.0,1016.0,(3986.987221813122+0j),-4.0,4.0,40.0,10000.0,99999,,(2970.887221813122+0j),0.0,1116000404110102140301604000051000600007000080000
4453,URWI,46.3739013672,44.3308982849,2024-03-07 00:30:00,,,,,-2.0,1016.0,(843.6077017092438+0j),-3.0,7.0,50.0,6000.0,99999,,(-173.19229829075618+0j),0.0,1113000507110202130301604000051000600007000080000
4454,URWW,48.7825012207,44.345500946,2024-03-07 00:30:00,,,,,-6.0,1020.0,(-0.002631110613597426-0.002750070985317026j),-8.0,7.0,70.0,10000.0,99999,8.0,(-1021.9026311106136-0.002750070985317026j),0.0,1116080707110602180302004000051000600007000088000
4455,UUEE,55.9725990295,37.4146003723,2024-03-07 00:30:00,,,,,-9.0,1024.0,(0.1413194947633944+0j),-14.0,1.0,330.0,10000.0,99999,,(-1027.6586805052366+0j),0.0,11160033011109021140302404000051000600007000080000
4456,UUOO,51.814201355,39.229598999,2024-03-07 00:30:00,,,,,-8.0,1024.0,(1.3410993171493228+0j),-10.0,1.0,,10000.0,99999,,(-1024.4589006828505+0j),0.0,11160036011108021100302404000051000600007000080000
4457,UUWW,55.5914993286,37.2615013123,2024-03-07 00:30:00,,,,,-12.0,1025.0,(9.451529817091325+0j),-15.0,2.0,250.0,10000.0,99999,,(-1018.3484701829086+0j),0.0,11160025021112021150302504000051000600007000080000
4458,UUYY,61.6469993591,50.8451004028,2024-03-07 00:30:00,,,,,-5.0,1016.0,(0.21213932655180676+0j),-5.0,3.0,210.0,10000.0,99999,7.0,(-1018.8878606734482+0j),0.0,1116072103110502150301604000051000600007000087000
4459,UWGG,56.2300987244,43.7840003967,2024-03-07 00:30:00,,,,,-11.0,1024.0,(364.8596568093223+0j),-15.0,1.0,190.0,10000.0,99999,6.0,(-661.6403431906776+0j),0.0,11160619011111021150302404000051000600007000086000
4460,UWKD,55.6062011719,49.2787017822,2024-03-07 00:30:00,,,,,-7.0,1022.0,(6.564303167719976+0j),-11.0,2.0,300.0,10000.0,99999,6.0,(-1017.7356968322799+0j),0.0,11160630021107021110302204000051000600007000086000
4461,UWKE,55.5647010803,52.0924987793,2024-03-07 00:30:00,71.0,36.0,h,magenta,-8.0,1021.0,(-0.0028156916653526813-0.0029429974978886085j),-10.0,2.0,330.0,10000.0,99999,8.0,(-1023.7028156916654-0.0029429974978886085j),0.0,11160833021108021100302104000051000600007710088000
4462,UWWW,53.504901886,50.1642990112,2024-03-07 00:30:00,,,,,-10.0,1022.0,(44.37096878420362+0j),-14.0,3.0,310.0,10000.0,99999,6.0,(-979.1290312157964+0j),0.0,11160631031110021140302204000051000600007000086000
4463,LEAL,38.2821998596,-0.5581560135,2024-03-07 00:30:00,,,,,11.0,1018.0,(1506.5483391213963+0j),8.0,2.0,,10000.0,99999,1.0,(486.8483391213963+0j),0.0,1116013602101102080301804000051000600007000081000
4464,LEAM,36.8438987732,-2.3701000214,2024-03-07 00:30:00,,,,,13.0,1017.0,(1211.2967953030927+0j),9.0,6.0,340.0,10000.0,99999,,(192.79679530309272+0j),0.0,1116003406101302090301704000051000600007000080000
4465,LEAS,43.5635986328,-6.0346198082,2024-03-07 00:30:00,,,,,9.0,1009.0,(3009.1272248427636+0j),5.0,2.0,,10000.0,99999,,(1996.7272248427635+0j),0.0,1116003602100902050300904000051000600007000080000
4466,LEBB,43.3011016846,-2.9106099606,2024-03-07 00:30:00,,,,,13.0,1012.0,(1406.0007624951197+0j),3.0,9.0,150.0,10000.0,99999,,(390.30076249511967+0j),0.0,1116001509101302030301204000051000600007000080000
4467,LEBL,41.2971000671,2.0784599781,2024-03-07 00:30:00,,,,,7.0,1019.0,(1079.43496962652+0j),4.0,6.0,340.0,10000.0,99999,1.0,(58.73496962651984+0j),0.0,1116013406100702040301904000051000600007000081000
4469,LEDA,41.728185,0.535023,2024-03-07 00:30:00,,,,,7.0,1018.0,(9.220942884528174+0j),2.0,15.0,60.0,10000.0,99999,,(-1010.3790571154718+0j),0.0,1116000615100702020301804000051000600007000080000
4470,LEGE,41.9010009766,2.7605500221,2024-03-07 00:30:00,,,,,7.0,1019.0,(4095.570390160265+0j),6.0,0.0,0.0,10000.0,99999,3.0,(3075.170390160265+0j),0.0,1116030000100702060301904000051000600007000083000
4472,LEIB,38.8728981018,1.3731199503,2024-03-07 00:30:00,,,,,10.0,1019.0,(1104.0198328890615+0j),7.0,2.0,,10000.0,99999,,(84.01983288906149+0j),0.0,1116003602101002070301904000051000600007000080000
4473,LEJR,36.7445983887,-6.0601100922,2024-03-07 00:30:00,,,,,12.0,1015.0,(1298.4249286705149+0j),9.0,3.0,160.0,9000.0,99999,,(281.32492867051485+0j),0.0,1115001603101202090301504000051000600007000080000
4474,LELC,37.7750015259,-0.8123890162,2024-03-07 00:30:00,,,,,12.0,1018.0,(1050.1003259687486+0j),11.0,5.0,330.0,10000.0,99999,3.0,(30.60032596874862+0j),0.0,11160333051012020110301804000051000600007000083000
4475,LELL,41.5209007263,2.1050798893,2024-03-07 00:30:00,,,,,6.0,1020.0,(4834.4761230608965+0j),4.0,2.0,280.0,10000.0,99999,3.0,(3813.4761230608965+0j),0.0,1116032802100602040302004000051000600007000083000
4476,LEMD,40.4936,-3.56676,2024-03-07 00:30:00,,,,,5.0,1015.0,(17.69001690043004+0j),3.0,5.0,330.0,10000.0,99999,,(-999.80998309957+0j),0.0,1116003305100502030301504000051000600007000080000
4477,LEMG,36.6749000549,-4.4991102219,2024-03-07 00:30:00,,,,,11.0,1017.0,(1190.2011231291935+0j),9.0,4.0,300.0,10000.0,99999,3.0,(171.5011231291935+0j),0.0,1116033004101102090301704000051000600007000083000
4478,LEMH,39.8625984192,4.2186498642,2024-03-07 00:30:00,,,,,10.0,1019.0,(2264.990854658088+0j),8.0,5.0,140.0,10000.0,99999,,(1243.6908546580883+0j),0.0,1116001405101002080301904000051000600007000080000
4479,LEPA,39.551700592,2.7388100624,2024-03-07 00:30:00,,,,,6.0,1020.0,(1181.89317726408+0j),4.0,3.0,20.0,10000.0,99999,1.0,(160.69317726407985+0j),0.0,1116010203100602040302004000051000600007000081000
4480,LEPP,42.7700004578,-1.646329999,2024-03-07 00:30:00,,,,,7.0,1015.0,(11.343976746173404+0j),-1.0,8.0,100.0,10000.0,99999,,(-1006.4560232538265+0j),0.0,1116001008100702110301504000051000600007000080000
4481,LERS,41.1473999023,1.1671700478,2024-03-07 00:30:00,,,,,9.0,1019.0,(2067.2836800424084+0j),6.0,5.0,10.0,10000.0,99999,,(1046.9836800424084+0j),0.0,1116000105100902060301904000051000600007000080000
4482,LESO,43.3564987183,-1.7906099558,2024-03-07 00:30:00,,,,,6.0,1014.0,(1108.1786763329474+0j),5.0,3.0,220.0,10000.0,99999,,(91.57867633294734+0j),0.0,1116002203100602050301404000051000600007000080000
4483,LEST,42.8963012695,-8.415140152,2024-03-07 00:30:00,,,,,9.0,1007.0,(7549.301245539565+0j),5.0,7.0,150.0,10000.0,99999,3.0,(6537.601245539565+0j),0.0,1116031507100902050300704000051000600007000083000
4486,LEVD,41.7061004639,-4.851940155,2024-03-07 00:30:00,,,,,6.0,1013.0,(19.22498076152853+0j),1.0,6.0,190.0,10000.0,99999,,(-996.4750192384715+0j),0.0,1116001906100602010301304000051000600007000080000
4487,LEVT,42.8828010559,-2.7244699001,2024-03-07 00:30:00,,,,,4.0,1014.0,(18.208456292491537+0j),2.0,1.0,,10000.0,99999,,(-999.2915437075085+0j),0.0,1116003601100402020301404000051000600007000080000
4488,LEVX,42.2318000793,-8.6267700195,2024-03-07 00:30:00,61.0,36.0,^,green,10.0,1007.0,(5021.500199556174+0j),6.0,9.0,160.0,10000.0,99999,3.0,(4010.0001995561743+0j),0.0,1116031609101002060300704000051000600007610083000
4489,LEXJ,43.4271011353,-3.8200099468,2024-03-07 00:30:00,,,,,9.0,1011.0,(1073.2093214524707+0j),8.0,3.0,140.0,10000.0,99999,,(59.00932145247066+0j),0.0,1116001403100902080301104000051000600007000080000
4490,LEZG,41.6661987305,-1.0415500402,2024-03-07 00:30:00,,,,,8.0,1016.0,(6235.388387449977+0j),2.0,5.0,80.0,10000.0,99999,,(5216.388387449977+0j),0.0,1116000805100802020301604000051000600007000080000
4491,LEZL,37.4179992676,-5.8931097984,2024-03-07 00:30:00,,,,,10.0,1015.0,(1433.3967618016422+0j),7.0,3.0,210.0,10000.0,99999,,(416.5967618016423+0j),0.0,1116002103101002070301504000051000600007000080000
4496,LELN,42.5890007019,-5.6555600166,2024-03-07 00:30:00,,,,,4.0,1012.0,(24.265074960539767+0j),1.0,2.0,,10000.0,99999,,(-991.2349250394602+0j),0.0,1116003602100402010301204000051000600007000080000
4499,LFLX,46.8622016907,1.7306699753,2024-03-07 00:30:00,,,,,2.0,1020.0,(13.40384735749737+0j),1.0,4.0,80.0,10000.0,99999,,(-1008.3961526425026+0j),0.0,1116000804100202010302004000051000600007000080000
4500,LFMI,43.5227012634,4.9238400459,2024-03-07 00:30:00,,,,,6.0,1018.0,(1537.4731399526725+0j),2.0,10.0,310.0,10000.0,99999,,(517.9731399526725+0j),0.0,1116003110100602020301804000051000600007000080000
4501,LFMV,43.9072990417,4.9018301964,2024-03-07 00:30:00,,,,,5.0,1019.0,(2018.2009560361726+0j),1.0,4.0,340.0,10000.0,99999,,(998.5009560361725+0j),0.0,1116003404100502010301904000051000600007000080000
4502,LFOA,47.0532989502,2.6324999332,2024-03-07 00:30:00,,,,,2.0,1021.0,(14.355492034602154+0j),2.0,6.0,80.0,10000.0,99999,,(-1008.3445079653978+0j),0.0,1116000806100202020302104000051000600007000080000
4504,LFOK,48.7761001587,4.1844902039,2024-03-07 00:30:00,,,,,2.0,1022.0,(14.493890986055506+0j),1.0,5.0,20.0,9000.0,99999,,0j,0.0,1115000205100202010302204000051000600007000080000
4505,UMKK,54.8899993896,20.5925998688,2024-03-07 00:30:00,,,,,-3.0,1030.0,(591.574404177114+0j),-3.0,0.0,0.0,10000.0,99999,,(-438.7255958228859+0j),0.0,1116000000110302130303004000051000600007000080000
4506,URML,42.8167991638,47.6523017883,2024-03-07 00:30:00,10.0,36.0,+,yellow,6.0,1012.0,(1082.1651186879512+0j),6.0,2.0,300.0,3900.0,99999,8.0,(69.96511868795119+0j),0.0,1112083002100602060301204000051000600007100088000
4507,UWLL,54.2682991028,48.2266998291,2024-03-07 00:30:00,,,,,-19.0,1024.0,(342.180226075349+0j),-21.0,1.0,,10000.0,99999,,(-683.219773924651+0j),0.0,11160036011119021210302404000051000600007000080000
4508,EGDM,51.1521987915,-1.747410059,2024-03-07 00:20:00,45.0,36.0,N,yellow,3.0,1022.0,(7706.795229727867+0j),3.0,6.0,80.0,450.0,99999,1.0,(6683.695229727867+0j),0.0,1110010806100302030302204000051000600007450081000
4509,EGDR,50.086101532,-5.255710125,2024-03-07 00:20:00,,,,,10.0,1017.0,(2099.9460007530815+0j),9.0,9.0,110.0,10000.0,99999,8.0,(1082.2460007530815+0j),0.0,1116081109101002090301704000051000600007000088000
4510,EGDY,51.0093994141,-2.6388199329,2024-03-07 00:20:00,10.0,36.0,+,yellow,6.0,1021.0,(1494.3352713941792+0j),5.0,6.0,110.0,6000.0,99999,6.0,(472.6352713941792+0j),0.0,1113061106100602050302104000051000600007100086000
4511,EGOM,55.0499992371,-2.5499999523,2024-03-07 00:20:00,10.0,36.0,+,yellow,4.0,1023.0,(13.519202206543486+0j),4.0,8.0,120.0,2800.0,99999,8.0,(-1011.2807977934565+0j),0.0,1111081208100402040302304000051000600007100088000
4512,EGOS,52.7981987,-2.6680400372,2024-03-07 00:20:00,10.0,36.0,+,yellow,4.0,1022.0,(3867.2287888209744+0j),3.0,4.0,90.0,4500.0,99999,,(2844.4287888209747+0j),0.0,1112000904100402030302204000051000600007100080000
4513,EGOV,53.2481002808,-4.5353398323,2024-03-07 00:20:00,,,,,4.0,1021.0,(1364.4987815172228+0j),1.0,5.0,90.0,10000.0,99999,,(344.09878151722285+0j),0.0,1116000905100402010302104000051000600007000080000
4514,EGQK,57.6493988037,-3.5606400967,2024-03-07 00:20:00,,,,,6.0,1024.0,(1155.6811829912604+0j),2.0,7.0,140.0,10000.0,99999,1.0,(132.3811829912604+0j),0.0,1116011407100602020302404000051000600007000081000
4515,EGUB,51.6164016724,-1.0958299637,2024-03-07 00:20:00,,,,,3.0,1023.0,(4557.752050956857+0j),2.0,5.0,40.0,9000.0,99999,,(3534.2520509568567+0j),0.0,1115000405100302020302304000051000600007000080000
4516,EGUW,52.1273002625,0.956264019,2024-03-07 00:20:00,45.0,36.0,N,yellow,5.0,1024.0,(3592.2309666125116+0j),4.0,7.0,120.0,350.0,99999,8.0,(2567.3309666125115+0j),0.0,1110081207100502040302404000051000600007450088000
4517,EGVO,51.2341003418,-0.9428250194,2024-03-07 00:20:00,10.0,36.0,+,yellow,3.0,1022.0,(7673.019927348987+0j),3.0,4.0,90.0,9000.0,99999,,(6649.619927348987+0j),0.0,1115000904100302030302204000051000600007100080000
4518,EGVP,51.1394004822,-1.5686099529,2024-03-07 00:20:00,10.0,36.0,+,yellow,4.0,1022.0,(4496.152318400268+0j),4.0,4.0,70.0,3800.0,99999,,(3473.052318400268+0j),0.0,1112000704100402040302204000051000600007100080000
4519,EGWC,52.6399993896,-2.3055799007,2024-03-07 00:20:00,,,,,99999.0,99999.0,(99999+0j),99999.0,5.0,100.0,10000.0,99999,,(98976+0j),0.0,11160010051099999020999990399904000051000600007000080000
4520,EGWU,51.5530014038,-0.418166995,2024-03-07 00:20:00,,,,,99999.0,99999.0,(99999+0j),99999.0,7.0,90.0,10000.0,99999,,(98975.7+0j),0.0,11160009071099999020999990399904000051000600007000080000
4521,EGXE,54.2924003601,-1.535400033,2024-03-07 00:20:00,10.0,36.0,+,yellow,7.0,1025.0,(1767.3305749649633+0j),6.0,5.0,150.0,3800.0,99999,8.0,(742.8305749649633+0j),0.0,1112081505100702060302504000051000600007100088000
4522,EGXT,52.6125984192,-0.4764530063,2024-03-07 00:20:00,45.0,36.0,N,yellow,5.0,1024.0,(3479.050175030456+0j),5.0,5.0,130.0,150.0,99999,8.0,(2455.150175030456+0j),0.0,1110081305100502050302404000051000600007450088000
4523,EGXW,53.1661987305,-0.5238109827,2024-03-07 00:20:00,10.0,36.0,+,yellow,4.0,1024.0,(3641.271912704603+0j),4.0,8.0,110.0,2500.0,99999,,(2616.871912704603+0j),0.0,1111001108100402040302404000051000600007100080000
4524,EGXZ,54.2055015564,-1.3820899725,2024-03-07 00:20:00,10.0,36.0,+,yellow,6.0,1025.0,(1617.3458132475341+0j),5.0,4.0,110.0,3100.0,99999,8.0,(592.8458132475341+0j),0.0,1111081104100602050302504000051000600007100088000
4525,EGYD,53.0303001404,-0.4832420051,2024-03-07 00:20:00,45.0,36.0,N,yellow,3.0,1024.0,(4421.351280901851+0j),3.0,7.0,110.0,100.0,99999,6.0,(3396.951280901851+0j),0.0,1110061107100302030302404000051000600007450086000
4526,EGYE,52.9622001648,-0.5616250038,2024-03-07 00:20:00,,,,,5.0,1025.0,(4464.413823058788+0j),5.0,8.0,140.0,10000.0,99999,6.0,(3440.0138230587877+0j),0.0,1116061408100502050302504000051000600007000086000
4528,EIDW,53.4212989807,-6.270070076,2024-03-07 00:30:00,61.0,36.0,^,green,8.0,1019.0,(2267.314054444397+0j),5.0,14.0,140.0,10000.0,99999,3.0,(1248.8140544443968+0j),0.0,1116031414100802050301904000051000600007610083000
4533,LFRB,48.4478988647,-4.4185400009,2024-03-07 00:30:00,,,,,8.0,1017.0,(2757.083196745192+0j),7.0,11.0,130.0,10000.0,99999,8.0,(1738.6831967451917+0j),0.0,1116081311100802070301704000051000600007000088000
4535,LXGB,36.1511993408,-5.3496599197,2024-03-07 00:20:00,,,,,16.0,1016.0,(1048.7703036134917+0j),12.0,13.0,100.0,10000.0,99999,8.0,(30.87030361349173+0j),0.0,11160810131016020120301604000051000600007000088000
4536,EICK,51.8413009644,-8.491109848,2024-03-07 00:30:00,,,,,9.0,1014.0,(3505.0065081546563+0j),9.0,18.0,140.0,7000.0,99999,3.0,(2491.0065081546563+0j),0.2,1114031418100902090301404000051000600207000083000
4537,EINN,52.7019996643,-8.9248199463,2024-03-07 00:30:00,61.0,36.0,^,green,10.0,1014.0,(1178.6283943384963+0j),8.0,11.0,130.0,10000.0,99999,3.0,(165.42839433849622+0j),0.0,1116031311101002080301404000051000600007610083000
4540,LFKS,41.9244003296,9.4060001373,2024-03-07 00:30:00,,,,,8.0,1017.0,(1141.693576308459+0j),0.0,6.0,260.0,10000.0,99999,,(123.99357630845884+0j),0.0,1116002606100802000301704000051000600007000080000
4541,LFOJ,47.9878005981,1.7605600357,2024-03-07 00:30:00,,,,,3.0,1021.0,(7783.453254313093+0j),2.0,5.0,80.0,10000.0,99999,,(6761.353254313092+0j),0.0,1116000805100302020302104000051000600007000080000
4544,LFRQ,47.9749984741,-4.1677899361,2024-03-07 00:30:00,,,,,9.0,1017.0,(2391.388516858981+0j),8.0,9.0,110.0,10000.0,99999,8.0,(1372.888516858981+0j),0.0,1116081109100902080301704000051000600007000088000
4545,LEAB,38.9485015869,-1.8635200262,2024-03-07 00:30:00,,,,,8.0,1017.0,(14.219137630590943+0j),4.0,5.0,150.0,10000.0,99999,,(-1004.580862369409+0j),0.0,1116001505100802040301704000051000600007000080000
4546,LEBA,37.841999054,-4.8488798141,2024-03-07 00:30:00,,,,,9.0,1015.0,(2386.685687917272+0j),6.0,1.0,,10000.0,99999,,(1369.885687917272+0j),0.0,1116003601100902060301504000051000600007000080000
4547,LECO,43.3021011353,-8.3772602081,2024-03-07 00:30:00,,,,,10.0,1007.0,(2349.2455185786753+0j),7.0,1.0,,10000.0,99999,,(1338.2455185786753+0j),0.0,1116003601101002070300704000051000600007000080000
4548,LEGR,37.1887016296,-3.7773599625,2024-03-07 00:30:00,,,,,6.0,1016.0,(14.977216454639022+0j),3.0,1.0,,10000.0,99999,,(-1002.822783545361+0j),0.0,1116003601100602030301604000051000600007000080000
4549,LEGT,40.2941017151,-3.7238299847,2024-03-07 00:30:00,,,,,8.0,1015.0,(12.931568728346308+0j),2.0,0.0,0.0,10000.0,99999,,(-1003.1684312716537+0j),0.0,1116000000100802020301504000051000600007000080000
4550,LELO,42.4609534888,-2.3222351074,2024-03-07 00:30:00,,,,,7.0,1015.0,(9.132673614319508+0j),1.0,6.0,80.0,10000.0,99999,,(-1008.0673263856805+0j),0.0,1116000806100702010301504000051000600007000080000
4552,LESA,40.9520988464,-5.5019898415,2024-03-07 00:30:00,,,,,4.0,1012.0,(22.786558877473787+0j),1.0,4.0,130.0,10000.0,99999,,(-993.3134411225262+0j),0.0,1116001304100402010301204000051000600007000080000
4553,LETO,40.4967002869,-3.4458699226,2024-03-07 00:30:00,,,,,5.0,1015.0,(17.824525705518997+0j),3.0,5.0,10.0,10000.0,99999,,(-999.175474294481+0j),0.0,1116000105100502030301504000051000600007000080000
4554,LEVC,39.4892997742,-0.4816249907,2024-03-07 00:30:00,,,,,10.0,1018.0,(1980.4257968008285+0j),6.0,4.0,330.0,10000.0,99999,4.0,(960.4257968008285+0j),0.0,1116043304101002060301804000051000600007000084000
4555,LFBT,43.1786994934,-0.0064389999,2024-03-07 00:30:00,,,,,0.0,1015.0,(38.81427337645702+0j),-1.0,3.0,190.0,10000.0,99999,,(-980.3857266235431+0j),0.0,1116001903100002110301504000051000600007000080000
4556,LFGJ,47.0390014648,5.4272499084,2024-03-07 00:30:00,,,,,1.0,1021.0,(22.929131846891455+0j),0.0,0.0,0.0,10000.0,99999,,(-1000.0708681531086+0j),0.0,1116000000100102000302104000051000600007000080000
4557,LFRI,46.7019004822,-1.3786300421,2024-03-07 00:30:00,,,,,5.0,1017.0,(3721.7988503410074+0j),5.0,9.0,90.0,10000.0,99999,,(2702.098850341007+0j),0.0,1116000909100502050301704000051000600007000080000
4559,LJMB,46.4799003601,15.6861000061,2024-03-07 00:30:00,,,,,3.0,1017.0,(14.370086494758196+0j),-0.0,1.0,20.0,10000.0,99999,,(-1004.2299135052418+0j),0.0,1116000201100302100301704000051000600007000080000
4560,LPFR,37.0144004822,-7.9659099579,2024-03-07 00:30:00,,,,,14.0,1015.0,(1075.1977371647868+0j),9.0,7.0,220.0,10000.0,99999,1.0,(58.79773716478678+0j),0.0,1116012207101402090301504000051000600007000081000
4561,LPPR,41.2481002808,-8.6813898087,2024-03-07 00:30:00,,,,,13.0,1008.0,(1682.295977594096+0j),6.0,17.0,160.0,10000.0,99999,1.0,(669.795977594096+0j),0.0,1116011617101302060300804000051000600007000081000
4562,LPPS,33.0733985901,-16.3500003815,2024-03-07 00:30:00,,,,,17.0,1018.0,(1807.0778627921404+0j),15.0,16.0,270.0,10000.0,99999,3.0,(787.8778627921404+0j),0.0,11160327161017020150301804000051000600007000083000
4563,LPPT,38.7812995911,-9.1359195709,2024-03-07 00:30:00,,,,,14.0,1010.0,(2086.1360913112417+0j),11.0,12.0,170.0,10000.0,99999,3.0,(1071.8360913112417+0j),0.0,11160317121014020110301004000051000600007000083000
4564,LRBC,46.521900177,26.9102993011,2024-03-07 00:30:00,,,,,6.0,1019.0,(5902.096081939805+0j),-3.0,6.0,140.0,10000.0,99999,6.0,(4882.096081939805+0j),0.0,1116061406100602130301904000051000600007000086000
4565,LRSB,45.7855987549,24.091299057,2024-03-07 00:30:00,,,,,7.0,1014.0,(11.284049315272313+0j),2.0,10.0,140.0,10000.0,99999,3.0,(-1004.6159506847276+0j),0.1,1116031410100702020301404000051000600107000083000
4566,URKA,45.0021018982,37.3473014832,2024-03-07 00:30:00,61.0,36.0,^,green,5.0,1011.0,(2461.922205003987+0j),4.0,9.0,70.0,6000.0,99999,6.0,(1450.422205003987+0j),0.2,1113060709100502040301104000051000600207610086000
4567,URMM,44.2251014709,43.0819015503,2024-03-07 00:30:00,10.0,36.0,+,yellow,3.0,1012.0,(16.238897650947273+0j),2.0,4.0,90.0,2900.0,99999,8.0,(-996.4611023490528+0j),0.0,1111080904100302020301204000051000600007100088000
4568,URSS,43.4499015808,39.9566001892,2024-03-07 00:30:00,80.0,36.0,q,green,9.0,1011.0,(1376.0590493149498+0j),8.0,1.0,260.0,7000.0,99999,7.0,(364.85904931494974+0j),0.3,1114072601100902080301104000051000600307800087000
4570,LFRM,47.948600769,0.2016669959,2024-03-07 00:30:00,,,,,4.0,1021.0,(3159.1688782243145+0j),4.0,3.0,60.0,10000.0,99999,,(2137.6688782243145+0j),0.0,1116000603100402040302104000051000600007000080000
4571,LERT,36.645198822,-6.349460125,2024-03-07 00:30:00,,,,,13.0,1015.0,(1255.172598487364+0j),11.0,7.0,150.0,10000.0,99999,,(238.17259848736398+0j),0.0,11160015071013020110301504000051000600007000080000
4574,EHKD,52.9234008789,4.7806200981,2024-03-07 00:36:00,10.0,36.0,+,yellow,6.0,1027.0,(1044.6108508565178+0j),4.0,7.0,90.0,5000.0,99999,6.0,(18.01085085651789+0j),0.0,1113060907100602040302704000051000600007100086000
4575,ETIK,49.4738998413,10.3880996704,2024-03-07 00:40:00,10.0,36.0,+,yellow,-1.0,30.21,(59.9518393366159+0j),-2.0,0.0,0.0,6000.0,99999,6.0,(-964.148160663384+0j),0.0,111306000011010212033024000051000600007100086000
4578,LTCF,40.5621986389,43.1150016785,2024-03-07 00:36:00,71.0,36.0,h,magenta,-1.0,1009.0,(41.38426732357757+0j),-1.0,0.0,0.0,2800.0,99999,5.0,(-970.4157326764224+0j),0.6,1111050000110102110300904000051000600607710085000
4580,LTCI,38.4682006836,43.3322982788,2024-03-07 00:42:00,80.0,36.0,q,green,5.0,1010.0,(27.65800221107681+0j),-0.0,10.0,150.0,10000.0,99999,3.0,(-983.5419977889233+0j),0.0,1116031510100502100301004000051000600007800083000
