,station,lat,lon,time,weather,weatherfont,weathersymbol,weathercolour,temperature,pressure,sl_pressure,dewpoint,windspeed,winddir,visibility,visual_range,cloudcover,pressure3h_change,rain,wwletter
720,EGJB,49.435,-2.60197,2024-04-15 23:50:00,,,,,9.0,1017.0,(2597.6444757263585+0j),3.0,19.0,300.0,10000.0,99999,1.0,(1580.1444757263585+0j),0.0,1116013019100902030301704000051000600007000081000
861,ETNG,50.9608,6.04242,2024-04-15 23:50:00,,,,,6.0,1005.0,(3151.0044067605386+0j),2.0,10.0,240.0,10000.0,99999,4.0,(2145.3044067605388+0j),0.0,1116042410100602020300504000051000600007000084000
952,LGSM,37.69,26.9117,2024-04-15 23:50:00,,,,,14.0,1015.0,(1062.5353000725697+0j),10.0,2.0,,10000.0,99999,,(46.63530007256975+0j),0.0,11160036021014020100301504000051000600007000080000
1021,LGAL,40.8559,25.9563,2024-04-15 23:50:00,,,,,13.0,1011.0,(1075.633342205217+0j),10.0,0.0,0.0,10000.0,99999,,(63.03334220521708+0j),0.0,11160000001013020100301104000051000600007000080000
1022,LGBL,39.2196,22.7943,2024-04-15 23:50:00,,,,,12.0,1011.0,(1261.609782785844+0j),10.0,0.0,0.0,10000.0,99999,,(248.6097827858439+0j),0.0,11160000001012020100301104000051000600007000080000
1023,LGLM,39.9171,25.2363,2024-04-15 23:50:00,,,,,16.0,1011.0,(1041.421375650835+0j),11.0,0.0,0.0,10000.0,99999,,(27.92137565083499+0j),0.0,11160000001016020110301104000051000600007000080000
1024,LGLR,39.65628,22.34,2024-04-15 23:50:00,,,,,13.0,1011.0,(1729.6285273760323+0j),10.0,0.0,0.0,10000.0,99999,1.0,(716.4285273760322+0j),0.0,11160100001013020100301104000051000600007000081000
1028,LGSY,38.9676,24.4872,2024-04-15 23:50:00,,,,,23.0,1011.0,(1078.0068901329344+0j),6.0,10.0,190.0,10000.0,99999,,(65.2068901329344+0j),0.0,1116001910102302060301104000051000600007000080000
1061,LTAY,37.7856,29.7013,2024-04-15 23:50:00,,,,,7.0,1018.0,(17.717460808555913+0j),0.0,5.0,220.0,10000.0,99999,,(-1000.2825391914441+0j),0.0,1116002205100702000301804000051000600007000080000
1062,LTBD,37.815,27.8953,2024-04-15 23:50:00,,,,,13.0,1015.0,(1302.1167934148216+0j),11.0,0.0,0.0,10000.0,99999,,(286.31679341482163+0j),0.0,11160000001013020110301504000051000600007000080000
1064,LTBH,40.1377,26.4268,2024-04-15 23:50:00,,,,,11.0,1012.0,(1085.4015792626487+0j),8.0,0.0,0.0,10000.0,99999,,(72.10157926264878+0j),0.0,1116000000101102080301204000051000600007000080000
1065,LTBY,39.8099,30.5194,2024-04-15 23:50:00,,,,,6.0,1018.0,(18.557089707816502+0j),1.0,0.0,0.0,10000.0,99999,,0j,0.0,1116000000100602010301804000051000600007000080000
1067,LTCB,40.96667,38.08,2024-04-15 23:50:00,,,,,9.0,1016.0,(1086.442451172884+0j),6.0,1.0,,10000.0,99999,,(65.24245117288388+0j),0.0,1116003601100902060301604000051000600007000080000
1071,LTCN,37.53883,36.95352,2024-04-15 23:50:00,,,,,10.0,1017.0,(9.455802603192813+0j),7.0,6.0,70.0,10000.0,99999,,(-1007.0441973968071+0j),0.0,1116000706101002070301704000051000600007000080000
1072,LTCT,39.97663,43.87665,2024-04-15 23:50:00,,,,,9.0,1021.0,(16.17402620645234+0j),4.0,7.0,220.0,10000.0,99999,,0j,0.0,1116002207100902040302104000051000600007000080000
1073,LTDA,36.36278,36.28222,2024-04-15 23:50:00,,,,,15.0,1015.0,(1710.7151315660221+0j),13.0,4.0,120.0,10000.0,99999,,(694.7151315660221+0j),0.0,11160012041015020130301504000051000600007000080000
1074,LTFD,39.5546,27.0138,2024-04-15 23:50:00,,,,,12.0,1013.0,(1161.5364976322494+0j),10.0,2.0,,10000.0,99999,,(147.0364976322494+0j),0.0,11160036021012020100301304000051000600007000080000
1075,LTFG,36.29922,32.3006,2024-04-15 23:50:00,,,,,15.0,1016.0,(1223.1543989070512+0j),7.0,7.0,100.0,10000.0,99999,,(206.75439890705127+0j),0.0,1116001007101502070301604000051000600007000080000
1101,LGPZ,38.9255,20.7653,2024-04-15 23:50:00,,,,,16.0,1015.0,(1038.9645633547518+0j),16.0,4.0,30.0,10000.0,99999,3.0,(22.964563354751817+0j),0.0,11160303041016020160301504000051000600007000083000
1102,LGRX,38.1511,21.4256,2024-04-15 23:50:00,,,,,13.0,1015.0,(1140.8492089883089+0j),13.0,0.0,0.0,10000.0,99999,,(124.74920898830885+0j),0.0,11160000001013020130301504000051000600007000080000
1110,EGNS,54.0833,-4.62389,2024-04-15 23:50:00,,,,,9.0,1011.0,(1218.7938327896206+0j),5.0,26.0,330.0,10000.0,99999,3.0,(210.5938327896206+0j),0.0,1116033326100902050301104000051000600007000083000
1118,LBPG,42.2904,24.714,2024-04-16 00:00:00,,,,,15.0,1009.0,(1483.4687381813483+0j),9.0,4.0,140.0,10000.0,99999,3.0,(473.5687381813483+0j),0.0,1116031404101502090300904000051000600007000083000
1119,LBPL,43.4514,24.5028,2024-04-16 00:00:00,,,,,17.0,1007.0,(1759.8898360958333+0j),6.0,8.0,220.0,10000.0,99999,,(752.3898360958333+0j),0.0,1116002208101702060300704000051000600007000080000
1194,EGQL,56.3729,-2.86844,2024-04-15 23:50:00,16.0,36.0,1,,9.0,1006.0,(1155.5333084700458+0j),3.0,5.0,320.0,10000.0,99999,2.0,(153.03330847004577+0j),0.0,1116023205100902030300604000051000600007160082000
1195,EGQS,57.7052,-3.33917,2024-04-15 23:50:00,,,,,8.0,1007.0,(1194.408702554947+0j),5.0,18.0,330.0,10000.0,99999,3.0,(190.00870255494704+0j),0.0,1116033318100802050300704000051000600007000083000
1700,ULPB,61.8852,34.1547,2024-04-16 00:00:00,51.0,36.0,T,green,3.0,991.0,(3156.160739408547+0j),2.0,3.0,300.0,10000.0,99999,,(2166.160739408547+0j),0.3,1116003003100302020399104000051000600307510080000
1840,LRSV,47.6875,26.3541,2024-04-16 00:00:00,,,,,11.0,1004.0,(7036.143551969571+0j),9.0,5.0,150.0,10000.0,99999,,(6030.143551969571+0j),0.0,1116001505101102090300404000051000600007000080000
1938,LQSA,43.8246,18.3315,2024-04-16 00:00:00,,,,,20.0,1010.0,(5025.9928617078995+0j),6.0,12.0,150.0,10000.0,99999,,(4014.9928617078995+0j),0.0,1116001512102002060301004000051000600007000080000
2021,LPMR,39.8312,-8.88726,2024-04-16 00:00:00,,,,,12.0,1022.0,(1623.0694110876693+0j),12.0,2.0,,10000.0,99999,,(601.0694110876693+0j),0.0,11160036021012020120302204000051000600007000080000
2022,LPMT,38.7039,-9.03592,2024-04-16 00:00:00,,,,,15.0,1021.0,(1130.357206738079+0j),12.0,9.0,340.0,10000.0,99999,,(109.35720673807896+0j),0.0,11160034091015020120302104000051000600007000080000
2038,URMN,43.5129,43.6366,2024-04-16 00:00:00,,,,,12.0,1015.0,(6946.839240508559+0j),6.0,3.0,220.0,10000.0,99999,,(5929.839240508559+0j),0.0,1116002203101202060301504000051000600007000080000
2051,UWLW,54.401,48.8027,2024-04-16 00:00:00,,,,,4.0,998.0,(3814.5197003143076+0j),3.0,4.0,220.0,10000.0,99999,,(2814.9197003143076+0j),0.0,1116002204100402030399804000051000600007000080000
2084,EGPK,55.5094,-4.58667,2024-04-15 23:50:00,,,,,8.0,1010.0,(1306.3790935489556+0j),4.0,13.0,300.0,10000.0,99999,,(299.9790935489556+0j),0.0,1116003013100802040301004000051000600007000080000
2085,EGUL,52.4093,0.561,2024-04-15 23:55:00,,,,,6.4,29.65,(1211.84463511697+0j),3.4,15.0,260.0,10000.0,99999,1.0,(207.64463511697+0j),0.8,111601261510064203432964000051000600807000081000
2087,EGVA,51.6822,-1.79003,2024-04-15 23:55:00,51.0,36.0,T,green,8.4,29.79,(2471.5454495255444+0j),3.0,15.0,290.0,10000.0,99999,4.0,(1462.5454495255444+0j),0.0,111604291510084203432974000051000600007510084000
2176,LGHI,38.3432,26.1406,2024-04-15 23:50:00,,,,,13.0,1012.0,(1052.2364896711474+0j),9.0,2.0,,10000.0,99999,,(38.13648967114739+0j),0.0,1116003602101302090301204000051000600007000080000
2177,LGPA,37.0103,25.1281,2024-04-15 23:50:00,,,,,18.0,1014.0,(1279.0919919739642+0j),10.0,6.0,120.0,10000.0,99999,,0j,0.0,11160012061018020100301404000051000600007000080000
2179,LKKB,50.1214,14.5436,2024-04-16 00:00:00,,,,,8.0,1003.0,(6642.294887952129+0j),-1.0,18.0,260.0,10000.0,99999,3.0,0j,0.0,1116032618100802110300304000051000600007000083000
2180,LKKV,50.203,12.915,2024-04-16 00:00:00,,,,,2.0,1004.0,(26.666142714230453+0j),-0.0,12.0,250.0,10000.0,99999,3.0,(-975.3338572857696+0j),0.3,1116032512100202100300404000051000600307000083000
2181,LKLN,49.6752,13.2746,2024-04-16 00:00:00,,,,,6.0,1006.0,(10.51661861938003+0j),2.0,7.0,270.0,10000.0,99999,5.0,(-993.78338138062+0j),0.0,1116052707100602020300604000051000600007000085000
2184,LOXZ,47.2028,14.7442,2024-04-15 23:50:00,80.0,36.0,q,green,12.0,1005.0,(9.92666830270135+0j),8.0,3.0,,10000.0,99999,3.0,(-997.7733316972987+0j),1.5,1116033603101202080300504000051000601507800083000
2198,LTFH,41.2545,36.5671,2024-04-15 23:50:00,,,,,7.0,1015.0,(1105.844196518545+0j),6.0,1.0,,10000.0,99999,,0j,0.0,1116003601100702060301504000051000600007000080000
2203,ULOO,57.7839,28.3956,2024-04-16 00:00:00,,,,,4.0,999.0,(2606.92450046683+0j),2.0,5.0,270.0,10000.0,99999,6.0,(1607.52450046683+0j),0.0,1116062705100402020399904000051000600007000086000
2216,ETEK,49.6503,7.30007,2024-04-15 23:55:00,,,,,3.9,29.75,(1029.75+0j),2.6,13.0,260.0,10000.0,99999,5.0,(21.75+0j),0.0,111605261310039202932974000051000600007000085000
2252,EIME,53.3017,-6.45133,2024-04-16 00:00:00,,,,,6.0,1016.0,(3379.015500730319+0j),5.0,14.0,270.0,10000.0,99999,5.0,(2365.115500730319+0j),0.0,1116052714100602050301604000051000600007000085000
2271,LPBJ,38.0789,-7.9324,2024-04-16 00:00:00,,,,,14.0,1020.0,(3002.3586545483627+0j),12.0,7.0,300.0,10000.0,99999,,(1982.3586545483627+0j),0.0,11160030071014020120302004000051000600007000080000
2287,LIBA,41.5414,15.7181,2024-04-15 23:55:00,,,,,20.0,1010.0,(1345.9164078068056+0j),8.0,5.0,290.0,10000.0,99999,,(333.7164078068056+0j),0.0,1116002905102002080301004000051000600007000080000
2289,LIBN,40.2392,18.1333,2024-04-15 23:55:00,,,,,19.0,1012.0,(1312.2540109012045+0j),17.0,6.0,170.0,10000.0,99999,,(298.6540109012045+0j),0.0,11160017061019020170301204000051000600007000080000
2291,LIBV,40.7678,16.9333,2024-04-15 23:55:00,,,,,18.0,1011.0,(4016.1827843799733+0j),18.0,9.0,170.0,10000.0,99999,,(3002.6827843799733+0j),0.0,11160017091018020180301104000051000600007000080000
2294,LIED,39.3542,8.97248,2024-04-15 23:55:00,,,,,16.0,1013.0,(1238.9213983870898+0j),14.0,5.0,350.0,10000.0,99999,,(224.92139838708977+0j),0.0,11160035051016020140301304000051000600007000080000
2296,LIPC,44.2242,12.3072,2024-04-15 23:55:00,,,,,13.0,1005.0,(1053.0291833771266+0j),7.0,3.0,20.0,10000.0,99999,,(45.729183377126674+0j),0.0,1116000203101302070300504000051000600007000080000
2298,LIPI,45.9787,13.0493,2024-04-15 23:55:00,,,,,15.0,1004.0,(1446.8814070793585+0j),13.0,7.0,80.0,10000.0,99999,3.0,(441.8814070793585+0j),0.0,11160308071015020130300404000051000600007000083000
2301,LIRE,41.6545,12.4452,2024-04-15 23:55:00,,,,,18.0,1013.0,(1093.1461286959989+0j),16.0,7.0,90.0,10000.0,99999,,(78.74612869599889+0j),0.0,11160009071018020160301304000051000600007000080000
2303,LIRS,42.7597,11.0719,2024-04-15 23:55:00,,,,,17.0,1011.0,(1045.7986385656825+0j),15.0,8.0,150.0,10000.0,99999,3.0,(33.09863856568245+0j),0.0,11160315081017020150301104000051000600007000083000
2308,LIRM,41.0608,14.0819,2024-04-15 23:55:00,,,,,12.0,1013.0,(1098.1161216922424+0j),12.0,3.0,130.0,10000.0,99999,3.0,(83.61612169224236+0j),0.0,11160313031012020120301304000051000600007000083000
2316,EGXC,53.093,-0.16601,2024-04-15 23:50:00,,,,,7.0,1004.0,(1129.6736006535332+0j),4.0,14.0,290.0,10000.0,99999,1.0,(126.87360065353323+0j),0.0,1116012914100702040300404000051000600007000081000
2344,ETIK,49.4739,10.3881,2024-04-15 23:55:00,,,,,4.2,29.75,(13.238222367062356+0j),1.6,13.0,230.0,10000.0,99999,3.0,(-994.7617776329377+0j),0.4,111603231310042201232974000051000600407000083000
2350,LICT,37.9114,12.488,2024-04-15 23:55:00,,,,,17.0,1012.0,(1063.3982608445472+0j),16.0,2.0,50.0,10000.0,99999,,(50.59826084454721+0j),0.0,11160005021017020160301204000051000600007000080000
2352,LIPS,45.6849,12.0829,2024-04-15 23:55:00,,,,,13.0,1003.0,(1390.4871253579513+0j),13.0,0.0,0.0,10000.0,99999,,(385.4871253579513+0j),0.0,11160000001013020130300304000051000600007000080000
2355,LICZ,37.4017,14.9224,2024-04-15 23:55:00,,,,,19.0,1014.0,(1162.3612647816117+0j),16.0,5.0,30.0,10000.0,99999,3.0,(146.36126478161168+0j),0.0,11160303051019020160301404000051000600007000083000
2373,UMGG,52.527,31.0167,2024-04-16 00:00:00,,,,,5.0,1004.0,(5464.191888539975+0j),4.0,4.0,230.0,10000.0,99999,,(4459.391888539974+0j),0.0,1116002304100502040300404000051000600007000080000
2382,LTAB,39.935,32.7408,2024-04-15 23:50:00,,,,,8.0,1019.0,(15.869698842001231+0j),2.0,0.0,0.0,10000.0,99999,,(-1003.1303011579988+0j),0.0,1116000000100802020301904000051000600007000080000
2383,LTAD,39.9498,32.6886,2024-04-15 23:50:00,,,,,7.0,1019.0,(17.16897425949134+0j),1.0,0.0,0.0,10000.0,99999,,(-1002.8310257405086+0j),0.0,1116000000100702010301904000051000600007000080000
2384,LTAE,40.0789,32.5656,2024-04-15 23:50:00,,,,,3.0,1019.0,(26.386526491406407+0j),0.0,2.0,,10000.0,99999,,(-991.0134735085936+0j),0.0,1116003602100302000301904000051000600007000080000
2385,LTAN,37.979,32.5619,2024-04-15 23:50:00,,,,,6.0,1020.0,(21.485949196615508+0j),-0.0,1.0,,10000.0,99999,,(-996.8140508033845+0j),0.0,1116003601100602100302004000051000600007000080000
2386,LTAR,39.8138,36.9035,2024-04-15 23:50:00,,,,,2.0,1022.0,(33.70706115140785+0j),-2.0,3.0,150.0,10000.0,99999,,(-985.6929388485921+0j),0.0,1116001503100202120302204000051000600007000080000
2387,LTBF,39.6193,27.926,2024-04-15 23:50:00,,,,,11.0,1013.0,(2284.469060585818+0j),8.0,0.0,0.0,10000.0,99999,,(1270.4690605858182+0j),0.0,1116000000101102080301304000051000600007000080000
2388,LTBG,40.318,27.9777,2024-04-15 23:50:00,,,,,9.0,1012.0,(1746.2700339809796+0j),8.0,0.0,0.0,10000.0,99999,,(733.2700339809796+0j),0.0,1116000000100902080301204000051000600007000080000
2389,LTBI,39.7841,30.5821,2024-04-15 23:50:00,,,,,8.0,1018.0,(15.42696390592408+0j),-0.0,0.0,0.0,10000.0,99999,,(-1001.073036094076+0j),0.0,1116000000100802100301804000051000600007000080000
2390,LTBL,38.513,27.0101,2024-04-15 23:50:00,,,,,20.0,1014.0,(1041.8812524264595+0j),11.0,8.0,100.0,10000.0,99999,,(27.181252426459423+0j),0.0,11160010081020020110301404000051000600007000080000
2392,LTCA,38.6069,39.2914,2024-04-15 23:50:00,,,,,5.0,1019.0,(21.86946393408549+0j),4.0,4.0,240.0,10000.0,99999,,(-995.4305360659145+0j),0.0,1116002404100502040301904000051000600007000080000
2393,LTCD,39.7102,39.527,2024-04-15 23:50:00,,,,,4.0,1021.0,(26.666960570387594+0j),1.0,0.0,0.0,10000.0,99999,,(-994.3330394296124+0j),0.0,1116000000100402010302104000051000600007000080000
2394,LTCF,40.5622,43.115,2024-04-15 23:50:00,,,,,-1.0,1023.0,(41.9584791595836+0j),-3.0,4.0,300.0,10000.0,99999,,(-981.0415208404164+0j),0.0,1116003004110102130302304000051000600007000080000
2395,LTCI,38.4682,43.3323,2024-04-15 23:50:00,,,,,4.0,1022.0,(29.76567409162346+0j),3.0,0.0,0.0,10000.0,99999,1.0,(-987.7343259083765+0j),0.0,1116010000100402030302204000051000600007000081000
2422,LTBQ,40.735,30.0833,2024-04-15 23:50:00,,,,,10.0,1012.0,(1716.9596196288248+0j),9.0,2.0,,10000.0,99999,,(703.2596196288248+0j),0.0,1116003602101002090301204000051000600007000080000
2424,EVGA,56.7783,24.8539,2024-04-16 00:20:00,,,,,-1.0,1001.0,(6641.899589583777+0j),-1.0,0.0,0.0,10000.0,99999,3.0,(5639.999589583777+0j),0.0,1116030000110102110300104000051000600007000083000
2429,LATI,41.4147,19.7206,2024-04-16 00:20:00,,,,,16.0,1012.0,(1299.3732542011685+0j),11.0,1.0,,10000.0,99999,,(284.3732542011685+0j),0.0,11160036011016020110301204000051000600007000080000
2430,LMML,35.8575,14.4775,2024-04-16 00:15:00,61.0,36.0,^,green,17.0,1014.0,(1696.9023762005652+0j),13.0,14.0,120.0,10000.0,99999,1.0,(683.6023762005652+0j),0.0,11160112141017020130301404000051000600007610081000
2431,LWSK,41.9616,21.6214,2024-04-16 00:20:00,,,,,13.0,1012.0,(3717.7027073368754+0j),10.0,3.0,40.0,10000.0,99999,,(2705.5027073368756+0j),0.0,11160004031013020100301204000051000600007000080000
2462,EVVA,57.3578,21.5442,2024-04-16 00:20:00,45.0,36.0,N,yellow,-1.0,1000.0,(450.0512714789182+0j),-1.0,1.0,40.0,800.0,99999,6.0,0j,0.0,1110060401110102110300004000051000600007450086000
2476,LSZC,46.97444,8.39694,2024-04-16 00:20:00,,,,,13.0,1010.0,(6487.344353869238+0j),3.0,7.0,280.0,10000.0,99999,4.0,(5474.144353869238+0j),0.4,1116042807101302030301004000051000600407000084000
2482,EKRS,55.4258,11.8067,2024-04-16 00:20:00,,,,,6.0,994.0,(1712.8821089652297+0j),6.0,10.0,100.0,10000.0,99999,,(718.1821089652296+0j),0.7,1116001010100602060399404000051000600707000080000
2508,LSMA,46.9439,8.28417,2024-04-16 00:20:00,,,,,13.0,1010.0,(6427.829045536146+0j),2.0,6.0,230.0,10000.0,99999,6.0,(5416.829045536146+0j),1.1,1116062306101302020301004000051000601107000086000
2509,LSMD,47.3986,8.64823,2024-04-16 00:20:00,,,,,9.0,1011.0,(8976.763673815021+0j),4.0,22.0,320.0,10000.0,99999,5.0,(7965.763673815021+0j),0.0,1116053222100902040301104000051000600007000085000
2510,LSME,47.0924,8.30512,2024-04-16 00:20:00,,,,,12.0,1010.0,(6652.28054858613+0j),3.0,7.0,260.0,10000.0,99999,8.0,(5640.28054858613+0j),0.0,1116082607101202030301004000051000600007000088000
2511,LSMP,46.8432,6.91506,2024-04-16 00:20:00,,,,,12.0,1013.0,(6950.215727051452+0j),2.0,17.0,230.0,10000.0,99999,6.0,(5936.115727051451+0j),0.0,1116062317101202020301304000051000600007000086000
2600,EFJO,62.6629,29.6075,2024-04-16 00:20:00,,,,,3.0,995.0,(7354.947278626132+0j),2.0,5.0,330.0,10000.0,99999,8.0,(6359.0472786261325+0j),0.0,1116083305100302020399504000051000600007000088000
2602,EFKT,67.701,24.8468,2024-04-16 00:20:00,66.0,36.0,c,red,-1.0,1003.0,(82.53667357698718+0j),-4.0,9.0,30.0,10000.0,99999,1.0,(-919.4633264230129+0j),0.0,1116010309110102140300304000051000600007660081000
2626,EFET,68.3626,23.4243,2024-04-16 00:20:00,,,,,-2.0,1004.0,(109.50457255247046+0j),-5.0,8.0,50.0,10000.0,99999,6.0,0j,0.0,1116060508110202150300404000051000600007000086000
2627,EFHA,61.856,24.7866,2024-04-16 00:20:00,,,,,2.0,997.0,(12.14493451155639+0j),2.0,4.0,350.0,10000.0,99999,8.0,(-985.8550654884436+0j),0.0,1116083504100202020399704000051000600007000088000
2629,EFKS,65.9876,29.2394,2024-04-16 00:20:00,61.0,36.0,^,green,0.0,998.0,(38.16418209823065+0j),-1.0,5.0,30.0,7000.0,99999,8.0,(-958.8358179017694+0j),0.0,1114080305100002110399804000051000600007610088000
2631,EFLP,61.0446,28.1444,2024-04-16 00:20:00,,,,,3.0,996.0,(6543.1819907791105+0j),2.0,5.0,320.0,10000.0,99999,8.0,(5547.1819907791105+0j),0.0,1116083205100302020399604000051000600007000088000
2632,EFMI,61.6866,27.2018,2024-04-16 00:20:00,,,,,3.0,996.0,(6204.140312026354+0j),1.0,3.0,320.0,10000.0,99999,4.0,(5207.140312026354+0j),0.0,1116043203100302010399604000051000600007000084000
2634,EFSI,62.6921,22.8323,2024-04-16 00:20:00,,,,,2.0,999.0,(8282.608770535247+0j),-1.0,5.0,340.0,10000.0,99999,8.0,0j,0.0,1116083405100202110399904000051000600007000088000
2635,EFUT,60.8964,26.9384,2024-04-16 00:20:00,,,,,3.0,996.0,(6373.953011172212+0j),2.0,5.0,360.0,10000.0,99999,3.0,(5377.953011172212+0j),0.0,1116033605100302020399604000051000600007000083000
2664,EGHQ,50.4406,-4.99541,2024-04-16 00:20:00,,,,,8.0,1018.0,(3162.438608796089+0j),4.0,24.0,310.0,10000.0,99999,3.0,(2144.838608796089+0j),0.0,1116033124100802040301804000051000600007000083000
2666,EGCK,53.1042,-4.34028,2024-04-16 00:20:00,,,,,9.0,1013.0,(1016.8492385250747+0j),5.0,18.0,320.0,10000.0,99999,6.0,(6.349238525074725+0j),0.5,1116063218100902050301304000051000600507000086000
2713,ESOH,60.0201,13.5789,2024-04-16 00:20:00,,,,,-2.0,1001.0,(1197.5793198761871+0j),-4.0,5.0,20.0,10000.0,99999,,(196.57931987618713+0j),0.0,1116000205110202140300104000051000600007000080000
2722,ESNZ,63.1944,14.5003,2024-04-16 00:20:00,71.0,36.0,h,magenta,-1.0,1002.0,(55.0295824668077+0j),-1.0,7.0,310.0,3900.0,99999,,(-949.8704175331923+0j),0.0,1112003107110102110300204000051000600007710080000
2726,ESCF,58.4023,15.5257,2024-04-16 00:20:00,,,,,1.0,999.0,(14.66008416817292+0j),-2.0,4.0,30.0,10000.0,99999,1.0,(-986.0399158318271+0j),0.0,1116010304100102120399904000051000600007000081000
2728,ESIB,58.4264,12.7144,2024-04-16 00:20:00,,,,,3.0,999.0,(3682.9328571010014+0j),-0.0,6.0,40.0,10000.0,99999,6.0,(2682.9328571010014+0j),0.0,1116060406100302100399904000051000600007000086000
2729,ESMV,57.2922,14.1372,2024-04-16 00:20:00,,,,,0.0,997.0,(38.12594143480556+0j),-0.0,3.0,40.0,10000.0,99999,,(-959.8740585651944+0j),0.0,1116000403100002100399704000051000600007000080000
2731,ESPE,65.8753,20.1499,2024-04-16 00:20:00,,,,,-1.0,1003.0,(88.97315464073415+0j),-5.0,8.0,330.0,10000.0,99999,8.0,(-914.0268453592658+0j),0.0,1116083308110102150300304000051000600007000088000
2732,ESIA,58.5138,14.5071,2024-04-16 00:20:00,,,,,2.0,999.0,(8426.821785464266+0j),-2.0,3.0,10.0,10000.0,99999,1.0,(7426.721785464266+0j),0.0,1116010103100202120399904000051000600007000081000
2733,ESCM,59.8973,17.5886,2024-04-16 00:20:00,49.0,36.0,R,red,-0.0,1001.0,(38.27890408850588+0j),-0.0,4.0,360.0,350.0,99999,,(-964.1210959114941+0j),0.0,1110003604110002100300104000051000600007490080000
2747,ESNV,64.5791,16.8336,2024-04-16 00:20:00,,,,,-0.0,1003.0,(38.35538541535605+0j),-3.0,3.0,300.0,10000.0,99999,8.0,(-966.744614584644+0j),0.0,1116083003110002130300304000051000600007000088000
2749,ESST,60.1576,12.9913,2024-04-16 00:20:00,,,,,-1.0,1001.0,(165.83170724939797+0j),-5.0,6.0,320.0,10000.0,99999,,0j,0.0,1116003206110102150300104000051000600007000080000
2750,ESUP,67.2456,23.0689,2024-04-16 00:20:00,68.0,36.0,e,magenta,0.0,1003.0,(38.35538541535605+0j),-1.0,6.0,10.0,10000.0,99999,7.0,(-965.744614584644+0j),0.0,1116070106100002110300304000051000600007680087000
2751,ESND,62.0478,14.4229,2024-04-16 00:20:00,,,,,-1.0,1002.0,(56.07119919172696+0j),-7.0,6.0,230.0,10000.0,99999,8.0,(-948.1288008082731+0j),0.0,1116082306110102170300204000051000600007000088000
2768,LIMZ,44.547,7.62322,2024-04-16 00:20:00,,,,,11.0,1005.0,(6543.387941814676+0j),11.0,6.0,220.0,10000.0,99999,,0j,0.0,11160022061011020110300504000051000600007000080000
2782,LIPO,45.4289,10.3306,2024-04-16 00:20:00,,,,,14.0,1004.0,(2013.1923496993934+0j),11.0,6.0,230.0,10000.0,99999,,0j,0.0,11160023061014020110300404000051000600007000080000
2816,EEKE,58.2299,22.5095,2024-04-16 00:20:00,,,,,4.0,1000.0,(1122.6092195756726+0j),1.0,3.0,300.0,10000.0,99999,8.0,(121.60921957567257+0j),0.0,1116083003100402010300004000051000600007000088000
2818,EEPU,58.419,24.4728,2024-04-16 00:20:00,,,,,3.0,1000.0,(1591.5464461845102+0j),1.0,7.0,240.0,10000.0,99999,8.0,0j,0.0,1116082407100302010300004000051000600007000088000
2832,EDBC,51.8564,11.4203,2024-04-16 00:20:00,,,,,4.0,1001.0,(8178.158336328144+0j),1.0,16.0,230.0,10000.0,99999,1.0,(7178.358336328144+0j),0.0,1116012316100402010300104000051000600007000081000
2913,EFSA,61.9431,28.9451,2024-04-16 00:20:00,,,,,3.0,995.0,(5891.270308844728+0j),2.0,7.0,330.0,10000.0,99999,8.0,(4896.270308844728+0j),0.0,1116083307100302020399504000051000600007000088000
3021,EDJA,47.9888,10.2395,2024-04-16 00:20:00,,,,,4.0,1010.0,(20.406853424238317+0j),0.0,13.0,290.0,10000.0,99999,5.0,0j,0.0,1116052913100402000301004000051000600007000085000
3028,EDTY,49.11833,9.78389,2024-04-16 00:20:00,,,,,4.0,1008.0,(15.344192442983129+0j),2.0,10.0,230.0,9000.0,99999,7.0,(-993.6558075570168+0j),0.5,1115072310100402020300804000051000600507000087000
3032,EDWE,53.39111,7.2275,2024-04-16 00:20:00,,,,,6.0,996.0,(1013.0792672376745+0j),3.0,12.0,230.0,10000.0,99999,3.0,(15.579267237674458+0j),0.4,1116032312100602030399604000051000600407000083000
3035,EKBI,55.7403,9.15178,2024-04-16 00:20:00,63.0,36.0,',green,6.0,993.0,(2717.842450936357+0j),5.0,12.0,60.0,10000.0,99999,8.0,(1724.6424509363571+0j),0.6,1116080612100602050399304000051000600607630088000
3036,EKCH,55.6179,12.656,2024-04-16 00:20:00,,,,,6.0,994.0,(1092.2052852710583+0j),3.0,13.0,80.0,10000.0,99999,1.0,(96.00528527105826+0j),0.2,1116010813100602030399404000051000600207000081000
3042,EKSP,55.2256,9.26393,2024-04-16 00:20:00,61.0,36.0,^,green,5.0,993.0,(2117.1844778343684+0j),5.0,3.0,200.0,10000.0,99999,5.0,(1125.1844778343684+0j),1.0,1116052003100502050399304000051000601007610085000
3043,EKVD,55.4363,9.33092,2024-04-16 00:20:00,,,,,5.0,993.0,(2135.101529693537+0j),4.0,4.0,280.0,10000.0,99999,,(1143.101529693537+0j),1.7,1116002804100502040399304000051000601707000080000
3045,LOWG,46.9911,15.4396,2024-04-16 00:20:00,,,,,13.0,1004.0,(5015.344698509235+0j),9.0,1.0,,10000.0,99999,3.0,(4009.244698509235+0j),0.0,1116033601101302090300404000051000600007000083000
3046,LOWI,47.2602,11.344,2024-04-16 00:20:00,,,,,12.0,1004.0,(8700.774907012967+0j),8.0,2.0,,10000.0,99999,4.0,(7695.9749070129665+0j),0.2,1116043602101202080300404000051000600207000084000
3049,LOWS,47.7933,13.0043,2024-04-16 00:20:00,51.0,36.0,T,green,8.0,1009.0,(9.570795314641245+0j),3.0,17.0,320.0,10000.0,99999,3.0,(-997.9292046853587+0j),0.0,1116033217100802030300904000051000600007510083000
3053,EFIV,68.6073,27.4053,2024-04-16 00:20:00,,,,,-2.0,1005.0,(1084.6443497021094+0j),-4.0,15.0,40.0,10000.0,99999,8.0,(79.14434970210937+0j),0.0,1116080415110202140300504000051000600007000088000
3054,EFJY,62.3995,25.6783,2024-04-16 00:20:00,,,,,2.0,997.0,(11.745475566948034+0j),1.0,5.0,320.0,10000.0,99999,8.0,(-985.254524433052+0j),0.0,1116083205100202010399704000051000600007000088000
3055,EFKE,65.7787,24.5821,2024-04-16 00:20:00,,,,,1.0,1001.0,(3724.1683684423037+0j),-1.0,7.0,10.0,10000.0,99999,4.0,(2723.368368442304+0j),0.0,1116040107100102110300104000051000600007000084000
3056,EFKK,63.7212,23.1431,2024-04-16 00:20:00,,,,,2.0,1000.0,(2777.1182770641794+0j),-1.0,7.0,340.0,10000.0,99999,8.0,(1777.1182770641794+0j),0.0,1116083407100202110300004000051000600007000088000
3058,EFMA,60.1222,19.8982,2024-04-16 00:20:00,,,,,3.0,1000.0,(1201.4325378094354+0j),0.0,6.0,350.0,10000.0,99999,6.0,(201.43253780943542+0j),0.0,1116063506100302000300004000051000600007000086000
3060,EFPO,61.4617,21.8,2024-04-16 00:20:00,,,,,3.0,999.0,(1549.176555031439+0j),-1.0,6.0,350.0,10000.0,99999,8.0,(550.176555031439+0j),0.0,1116083506100302110399904000051000600007000088000
3061,EFRO,66.5648,25.8304,2024-04-16 00:20:00,71.0,36.0,h,magenta,-0.0,1000.0,(38.240663425080804+0j),-1.0,10.0,20.0,2300.0,99999,7.0,(-963.0593365749191+0j),0.0,1111070210110002110300004000051000600007710087000
3062,EFTP,61.4141,23.6044,2024-04-16 00:20:00,,,,,3.0,998.0,(7244.3795346138595+0j),1.0,4.0,350.0,10000.0,99999,8.0,(6244.97953461386+0j),0.0,1116083504100302010399804000051000600007000088000
3063,EFTU,60.5141,22.2628,2024-04-16 00:20:00,,,,,-2.0,998.0,(-0.003348041420996929-0.003499416376468623j),-2.0,2.0,,10000.0,99999,,(-999.003348041421-0.003499416376468623j),0.0,1116003602110202120399804000051000600007000080000
3064,EFVA,63.0507,21.7622,2024-04-16 00:20:00,,,,,1.0,1001.0,(1731.980401974951+0j),-1.0,6.0,360.0,10000.0,99999,8.0,(731.1804019749511+0j),0.0,1116083606100102110300104000051000600007000088000
3066,ENBR,60.2934,5.21814,2024-04-16 00:20:00,,,,,3.0,1002.0,(3508.326739288955+0j),-0.0,4.0,50.0,10000.0,99999,,0j,0.0,1116000504100302100300204000051000600007000080000
3067,ENCN,58.2042,8.08537,2024-04-16 00:20:00,,,,,3.0,1000.0,(1730.250151823128+0j),1.0,6.0,30.0,10000.0,99999,,(730.0501518231279+0j),0.0,1116000306100302010300004000051000600007000080000
3069,ENHD,59.3453,5.20836,2024-04-16 00:20:00,,,,,2.0,1001.0,(2828.2536616693847+0j),-3.0,4.0,60.0,10000.0,99999,6.0,(1828.2536616693847+0j),0.0,1116060604100202130300104000051000600007000086000
3072,ENVA,63.4578,10.924,2024-04-16 00:20:00,,,,,-2.0,1005.0,(267.6653197831733+0j),-5.0,7.0,120.0,10000.0,99999,,(-737.7346802168267+0j),0.0,1116001207110202150300504000051000600007000080000
3073,ENZV,58.8767,5.63778,2024-04-16 00:20:00,,,,,4.0,1001.0,(1261.6480653028436+0j),-0.0,0.0,0.0,10000.0,99999,,0j,0.0,1116000000100402100300104000051000600007000080000
3076,LGAD,37.9207,21.2926,2024-04-16 00:20:00,10.0,36.0,+,yellow,13.0,1014.0,(1165.036310064253+0j),13.0,0.0,0.0,4000.0,99999,1.0,(148.03631006425303+0j),0.0,11120100001013020130301404000051000600007100081000
3077,LGAV,37.9364,23.9445,2024-04-16 00:20:00,,,,,19.0,1013.0,(1634.8836627651576+0j),8.0,1.0,,10000.0,99999,,0j,0.0,1116003601101902080301304000051000600007000080000
3078,LGIR,35.3397,25.1803,2024-04-16 00:20:00,,,,,18.0,1015.0,(1246.6078640468163+0j),8.0,6.0,210.0,10000.0,99999,,(229.90786404681626+0j),0.0,1116002106101802080301504000051000600007000080000
3079,LGKL,37.0683,22.0255,2024-04-16 00:20:00,,,,,13.0,1014.0,(1084.3037849304176+0j),11.0,3.0,,10000.0,99999,,(67.70378493041756+0j),0.0,11160036031013020110301404000051000600007000080000
3080,LGKO,36.7933,27.0917,2024-04-16 00:20:00,,,,,17.0,1015.0,(1985.065855734658+0j),15.0,6.0,140.0,10000.0,99999,,(969.065855734658+0j),0.0,11160014061017020150301504000051000600007000080000
3081,LGKR,39.6019,19.9117,2024-04-16 00:20:00,,,,,17.0,1015.0,(1027.2727929214868+0j),15.0,0.0,0.0,10000.0,99999,1.0,(10.672792921486803+0j),0.0,11160100001017020150301504000051000600007000081000
3082,LGRP,36.4054,28.0862,2024-04-16 00:20:00,,,,,17.0,1014.0,(1048.9018986207736+0j),10.0,2.0,,10000.0,99999,,(32.401898620773636+0j),0.0,11160036021017020100301404000051000600007000080000
3083,LGSA,35.5317,24.1497,2024-04-16 00:20:00,,,,,17.0,1014.0,(2190.4982766283+0j),12.0,4.0,100.0,10000.0,99999,3.0,(1174.0982766283+0j),0.0,11160310041017020120301404000051000600007000083000
3084,LGTS,40.5197,22.9709,2024-04-16 00:20:00,,,,,16.0,1011.0,(1058.9770976636137+0j),14.0,4.0,100.0,10000.0,99999,1.0,(45.877097663613654+0j),0.0,11160110041016020140301104000051000600007000081000
3085,LIBD,41.1389,16.7606,2024-04-16 00:20:00,,,,,21.0,1009.0,(1316.7361941438724+0j),9.0,2.0,200.0,10000.0,99999,1.0,(304.5361941438723+0j),0.0,1116012002102102090300904000051000600007000081000
3086,LIBR,40.6576,17.947,2024-04-16 00:20:00,,,,,18.0,1011.0,(1102.908093303834+0j),14.0,4.0,160.0,10000.0,99999,,(89.30809330383397+0j),0.0,11160016041018020140301104000051000600007000080000
3087,LICC,37.4668,15.0664,2024-04-16 00:20:00,,,,,20.0,1013.0,(1081.4543692435975+0j),10.0,2.0,,10000.0,99999,1.0,(65.15436924359756+0j),0.0,11160136021020020100301304000051000600007000081000
3098,LIPH,45.6484,12.1944,2024-04-16 00:20:00,,,,,13.0,1003.0,(1163.5973023437468+0j),10.0,2.0,,10000.0,99999,,(158.59730234374683+0j),0.0,11160036021013020100300304000051000600007000080000
3099,LIPQ,45.8275,13.4722,2024-04-16 00:20:00,,,,,17.0,1004.0,(1084.013095934132+0j),13.0,7.0,140.0,10000.0,99999,,(78.01309593413202+0j),0.0,11160014071017020130300404000051000600007000080000
3100,LIPR,44.0203,12.6117,2024-04-16 00:20:00,,,,,19.0,1005.0,(1078.4017138880427+0j),5.0,8.0,200.0,10000.0,99999,,(70.50171388804267+0j),0.0,1116002008101902050300504000051000600007000080000
3102,LIPZ,45.5053,12.3519,2024-04-16 00:20:00,,,,,17.0,1003.0,(1017.1550425430412+0j),9.0,7.0,240.0,10000.0,99999,,(11.255042543041213+0j),0.0,1116002407101702090300304000051000600007000080000
3109,ENAL,62.5625,6.1197,2024-04-16 00:20:00,,,,,3.0,1002.0,(1905.5363458569157+0j),-0.0,5.0,60.0,10000.0,99999,,(903.4363458569156+0j),0.0,1116000605100302100300204000051000600007000080000
3115,ENDU,69.0558,18.5404,2024-04-16 00:20:00,16.0,36.0,1,,-0.0,1007.0,(38.50834806905637+0j),-1.0,3.0,270.0,10000.0,99999,3.0,0j,0.0,1116032703110002110300704000051000600007160083000
3123,ENMS,65.784,13.2149,2024-04-16 00:20:00,,,,,-4.0,1006.0,(5.689192315530641+0j),-5.0,4.0,200.0,10000.0,99999,,0j,0.0,1116002004110402150300604000051000600007000080000
3127,ENOV,62.18,6.0741,2024-04-16 00:20:00,,,,,-1.0,1002.0,(1008.5148288840049+0j),-3.0,0.0,0.0,10000.0,99999,,0j,0.0,1116000000110102130300204000051000600007000080000
3130,ENRO,62.5784,11.3423,2024-04-16 00:20:00,,,,,-9.0,1002.0,(1602.0647242226228+0j),-11.0,2.0,,10000.0,99999,,(600.0647242226228+0j),0.0,11160036021109021110300204000051000600007000080000
3131,ENRS,67.5278,12.1033,2024-04-16 00:20:00,,,,,3.0,1008.0,(1089.7276008455628+0j),-3.0,14.0,30.0,10000.0,99999,1.0,0j,0.0,1116010314100302130300804000051000600007000081000
3132,ENRY,59.3789,10.7856,2024-04-16 00:20:00,,,,,2.0,1001.0,(5064.199985104545+0j),-1.0,5.0,360.0,10000.0,99999,6.0,0j,0.0,1116063605100202110300104000051000600007000086000
3134,ENSG,61.1561,7.13778,2024-04-16 00:20:00,,,,,-0.0,1001.0,(1000+0j),-6.0,2.0,,10000.0,99999,,(-0.2999999999999545+0j),0.0,1116003602110002160300104000051000600007000080000
3136,ENSK,68.57883,15.03342,2024-04-16 00:20:00,,,,,-2.0,1009.0,(827.2467983204648+0j),-4.0,2.0,20.0,10000.0,99999,4.0,(-181.55320167953516+0j),0.0,1116040202110202140300904000051000600007000084000
3137,ENSR,69.7868,20.9594,2024-04-16 00:20:00,,,,,-0.0,1007.0,(38.50834806905637+0j),-1.0,3.0,,10000.0,99999,5.0,(-968.4916519309436+0j),0.3,1116053603110002110300704000051000600307000085000
3138,ENTO,59.1867,10.2586,2024-04-16 00:20:00,,,,,2.0,1000.0,(7902.066468366681+0j),-2.0,5.0,340.0,10000.0,99999,3.0,0j,0.0,1116033405100202120300004000051000600007000083000
3139,ENVD,70.0653,29.8447,2024-04-16 00:20:00,75.0,36.0,l,magenta,-2.0,1008.0,(1.7094550381900777+0j),-3.0,16.0,50.0,600.0,99999,,0j,0.0,1110000516110202130300804000051000600007750080000
3140,ESDF,56.2667,15.265,2024-04-16 00:20:00,,,,,3.0,997.0,(3844.573700318133+0j),2.0,7.0,60.0,10000.0,99999,3.0,(2845.373700318133+0j),0.0,1116030607100302020399704000051000600007000083000
3141,ESGG,57.6628,12.2798,2024-04-16 00:20:00,,,,,1.0,997.0,(19.87132252599052+0j),-0.0,6.0,50.0,10000.0,99999,,(-978.1286774740095+0j),0.0,1116000506100102100399704000051000600007000080000
3142,ESGJ,57.7576,14.0687,2024-04-16 00:20:00,,,,,2.0,997.0,(16.558170973454757+0j),0.0,4.0,20.0,10000.0,99999,6.0,(-983.1418290265453+0j),0.0,1116060204100202000399704000051000600007000086000
3143,ESGP,57.7747,11.8704,2024-04-16 00:20:00,,,,,3.0,998.0,(1754.943610413851+0j),0.0,5.0,10.0,10000.0,99999,,(755.943610413851+0j),0.0,1116000105100302000399804000051000600007000080000
3144,ESKN,58.7886,16.9122,2024-04-16 00:20:00,,,,,0.0,1000.0,(38.240663425080804+0j),-1.0,4.0,30.0,10000.0,99999,,(-962.2593365749192+0j),0.0,1116000304100002110300004000051000600007000080000
3145,ESMK,55.9217,14.0855,2024-04-16 00:20:00,,,,,3.0,996.0,(1996.101948945909+0j),3.0,4.0,50.0,10000.0,99999,6.0,(999.101948945909+0j),0.0,1116060504100302030399604000051000600007000086000
3146,ESMS,55.53631,13.3762,2024-04-16 00:20:00,,,,,4.0,994.0,(3597.3711759925955+0j),2.0,10.0,80.0,10000.0,99999,,(2601.3711759925955+0j),0.0,1116000810100402020399404000051000600007000080000
3147,ESMX,56.9291,14.728,2024-04-16 00:20:00,,,,,4.0,997.0,(8338.090008962985+0j),3.0,3.0,200.0,10000.0,99999,8.0,(7340.090008962985+0j),0.0,1116082003100402030399704000051000600007000088000
3148,ESNN,62.5281,17.4439,2024-04-16 00:20:00,61.0,36.0,^,green,1.0,1003.0,(1610.0515505063595+0j),0.0,6.0,300.0,10000.0,99999,2.0,(606.7515505063595+0j),0.4,1116023006100102000300304000051000600407610082000
3149,ESNO,63.4083,18.99,2024-04-16 00:20:00,,,,,2.0,1002.0,(9.533096841627831+0j),-5.0,6.0,350.0,10000.0,99999,4.0,(-993.3669031583721+0j),0.0,1116043506100202150300204000051000600007000084000
3150,ESNQ,67.822,20.3368,2024-04-16 00:20:00,71.0,36.0,h,magenta,-3.0,1003.0,(109.34584663623144+0j),-4.0,8.0,350.0,2000.0,99999,,(-893.6541533637685+0j),0.0,1111003508110302140300304000051000600007710080000
3151,ESNS,64.6248,21.0769,2024-04-16 00:20:00,,,,,2.0,1002.0,(4628.173723060746+0j),-4.0,6.0,310.0,10000.0,99999,8.0,(3626.173723060746+0j),0.0,1116083106100202140300204000051000600007000088000
3152,ESNU,63.7918,20.2828,2024-04-16 00:20:00,,,,,0.0,1002.0,(38.31714475193097+0j),-4.0,6.0,300.0,10000.0,99999,,(-963.682855248069+0j),0.0,1116003006100002140300204000051000600007000080000
3153,ESOK,59.4447,13.3374,2024-04-16 00:20:00,,,,,2.0,1000.0,(9.46822272224988+0j),-2.0,5.0,350.0,10000.0,99999,8.0,(-991.2317772777502+0j),0.0,1116083505100202120300004000051000600007000088000
3154,ESOW,59.5894,16.6336,2024-04-16 00:20:00,,,,,2.0,1001.0,(1386.2135495323128+0j),-1.0,6.0,350.0,10000.0,99999,8.0,(385.21354953231275+0j),0.0,1116083506100202110300104000051000600007000088000
3155,ESPA,65.5438,22.122,2024-04-16 00:20:00,,,,,2.0,1002.0,(2332.952981385627+0j),-3.0,10.0,350.0,10000.0,99999,3.0,(1330.3529813856271+0j),0.0,1116033510100202130300204000051000600007000083000
3157,ESSB,59.3544,17.9417,2024-04-16 00:20:00,,,,,1.0,1001.0,(3023.427443018194+0j),0.0,2.0,,10000.0,99999,3.0,(2021.627443018194+0j),0.0,1116033602100102000300104000051000600007000083000
3158,ESSD,60.422,15.5152,2024-04-16 00:20:00,,,,,-2.0,1001.0,(811.5146258681364+0j),-3.0,4.0,250.0,10000.0,99999,,(-189.48537413186364+0j),0.0,1116002504110202130300104000051000600007000080000
3159,ESSP,58.5863,16.2506,2024-04-16 00:20:00,,,,,-0.0,999.0,(38.202422761655725+0j),-2.0,2.0,,10000.0,99999,6.0,(-962.0975772383442+0j),0.0,1116063602110002120399904000051000600007000086000
3160,ESSV,57.6628,18.3462,2024-04-16 00:20:00,,,,,2.0,999.0,(4795.292212270355+0j),1.0,4.0,120.0,10000.0,99999,,(3793.9922122703547+0j),0.0,1116001204100202010399904000051000600007000080000
3161,LSGC,47.0839,6.79284,2024-04-16 00:20:00,,,,,5.0,1012.0,(23.170500301829676+0j),4.0,13.0,240.0,4600.0,99999,6.0,(-989.8294996981704+0j),0.0,1112062413100502040301204000051000600007000086000
3162,LSGG,46.2381,6.10895,2024-04-16 00:20:00,,,,,12.0,1015.0,(6732.508735864965+0j),2.0,7.0,220.0,10000.0,99999,3.0,(5717.008735864965+0j),0.0,1116032207101202020301504000051000600007000083000
3163,LSGS,46.2196,7.32676,2024-04-16 00:20:00,,,,,13.0,1010.0,(6921.453613269556+0j),3.0,11.0,250.0,10000.0,99999,1.0,(5911.053613269556+0j),0.1,1116012511101302030301004000051000600107000081000
3164,LSZA,46.0043,8.91058,2024-04-16 00:20:00,,,,,13.0,1005.0,(4221.252566536135+0j),12.0,1.0,,10000.0,99999,1.0,(3213.9525665361352+0j),0.0,11160136011013020120300504000051000600007000081000
3165,LSZB,46.9141,7.49715,2024-04-16 00:20:00,,,,,11.0,1012.0,(8448.038676840817+0j),2.0,10.0,250.0,10000.0,99999,4.0,(7434.038676840817+0j),0.0,1116042510101102020301204000051000600007000084000
3166,LSZG,47.1816,7.41719,2024-04-16 00:20:00,61.0,36.0,^,green,11.0,1011.0,(7251.360508675878+0j),4.0,17.0,240.0,10000.0,99999,6.0,(6239.360508675878+0j),0.0,1116062417101102040301104000051000600007610086000
3167,LSZH,47.4647,8.54917,2024-04-16 00:20:00,61.0,36.0,^,green,8.0,1011.0,(9.618723459965805+0j),4.0,13.0,280.0,10000.0,99999,4.0,(-1002.1812765400341+0j),0.0,1116042813100802040301104000051000600007610084000
3168,LSZL,46.1608,8.87861,2024-04-16 00:20:00,,,,,14.0,1005.0,(3007.35277104036+0j),12.0,0.0,0.0,10000.0,99999,3.0,(1999.95277104036+0j),0.0,11160300001014020120300504000051000600007000083000
3169,LSZR,47.485,9.56077,2024-04-16 00:20:00,,,,,8.0,1011.0,(8972.793656720225+0j),3.0,7.0,330.0,10000.0,99999,8.0,(7961.093656720225+0j),0.0,1116083307100802030301104000051000600007000088000
3170,LSZS,46.5341,9.88411,2024-04-16 00:20:00,,,,,7.0,1007.0,(24.750535032138135+0j),4.0,6.0,190.0,10000.0,99999,2.0,(-983.0494649678618+0j),0.0,1116021906100702040300704000051000600007000082000
3171,EGAA,54.6575,-6.21583,2024-04-16 00:20:00,,,,,8.0,1013.0,(2405.462911715761+0j),6.0,12.0,300.0,10000.0,99999,2.0,(1394.662911715761+0j),0.0,1116023012100802060301304000051000600007000082000
3172,EGBB,52.4539,-1.74803,2024-04-16 00:20:00,61.0,36.0,^,green,8.0,1008.0,(2744.775587221503+0j),5.0,16.0,310.0,10000.0,99999,6.0,(1737.075587221503+0j),0.0,1116063116100802050300804000051000600007610086000
3174,EGFF,51.3967,-3.34333,2024-04-16 00:20:00,,,,,8.0,1013.0,(2127.948209635554+0j),4.0,18.0,290.0,10000.0,99999,4.0,(1114.3482096355542+0j),0.0,1116042918100802040301304000051000600007000084000
3175,EGGD,51.3827,-2.71909,2024-04-16 00:20:00,,,,,7.0,1012.0,(5217.238198393448+0j),4.0,18.0,280.0,10000.0,99999,6.0,(4205.238198393448+0j),0.0,1116062818100702040301204000051000600007000086000
3182,EGMD,50.9561,0.93917,2024-04-16 00:20:00,,,,,7.0,1008.0,(1072.830184366312+0j),3.0,16.0,270.0,10000.0,99999,,0j,0.0,1116002716100702030300804000051000600007000080000
3186,EGPA,58.9578,-2.905,2024-04-16 00:20:00,61.0,36.0,^,green,7.0,1007.0,(1265.1575205923643+0j),4.0,17.0,340.0,10000.0,99999,5.0,(263.0575205923643+0j),0.0,1116053417100702040300704000051000600007610085000
3193,EGTE,50.7344,-3.41389,2024-04-16 00:20:00,,,,,9.0,1015.0,(1438.7142717869651+0j),3.0,15.0,300.0,10000.0,99999,3.0,(423.81427178696515+0j),0.0,1116033015100902030301504000051000600007000083000
3195,EGAC,54.6181,-5.8725,2024-04-16 00:20:00,,,,,9.0,1013.0,(1071.390477343386+0j),5.0,6.0,330.0,10000.0,99999,1.0,(61.090477343386056+0j),0.0,1116013306100902050301304000051000600007000081000
3197,EGGW,51.8747,-0.36833,2024-04-16 00:20:00,61.0,36.0,^,green,6.0,1007.0,(5129.342850673467+0j),5.0,17.0,280.0,10000.0,99999,7.0,(4122.142850673467+0j),0.0,1116072817100602050300704000051000600007610087000
3198,EGLC,51.5053,0.05528,2024-04-16 00:20:00,61.0,36.0,^,green,8.0,1008.0,(1091.2113802394515+0j),4.0,17.0,260.0,10000.0,99999,6.0,(83.2113802394515+0j),0.0,1116062617100802040300804000051000600007610086000
3200,EGPC,58.4589,-3.09306,2024-04-16 00:20:00,,,,,7.0,1007.0,(1700.040533284487+0j),5.0,17.0,330.0,10000.0,99999,6.0,(696.340533284487+0j),0.0,1116063317100702050300704000051000600007000086000
3201,EGPE,57.5425,-4.0475,2024-04-16 00:20:00,,,,,7.0,1009.0,(1166.5291745129568+0j),4.0,6.0,300.0,10000.0,99999,5.0,(159.52917451295684+0j),0.6,1116053006100702040300904000051000600607000085000
3202,EGPF,55.8719,-4.43306,2024-04-16 00:20:00,,,,,7.0,1009.0,(1140.4802733423799+0j),3.0,5.0,260.0,10000.0,99999,,(135.1802733423799+0j),0.0,1116002605100702030300904000051000600007000080000
3203,EGPL,57.4811,-7.36278,2024-04-16 00:20:00,,,,,8.0,1013.0,(1096.6241351017504+0j),4.0,14.0,350.0,10000.0,99999,4.0,(86.62413510175043+0j),0.0,1116043514100802040301304000051000600007000084000
3205,EGSS,51.885,0.235,2024-04-16 00:20:00,61.0,36.0,^,green,6.0,1007.0,(3593.5280777156186+0j),4.0,15.0,290.0,10000.0,99999,6.0,(2585.7280777156184+0j),0.0,1116062915100602040300704000051000600007610086000
3209,EDGS,50.7077,8.08297,2024-04-16 00:20:00,,,,,1.0,1003.0,(31.5819312733462+0j),0.0,15.0,240.0,10000.0,99999,5.0,(-974.4180687266538+0j),0.0,1116052415100102000300304000051000600007000085000
3210,EDLV,51.6024,6.14217,2024-04-16 00:20:00,,,,,6.0,1002.0,(1677.6405695467151+0j),3.0,12.0,210.0,10000.0,99999,3.0,0j,0.0,1116032112100602030300204000051000600007000083000
3216,ENSS,70.3554,31.0449,2024-04-16 00:20:00,79.0,36.0,p,,-1.0,1009.0,(84.90633555613985+0j),-4.0,22.0,70.0,9000.0,99999,5.0,(-924.0936644438601+0j),0.0,1115050722110102140300904000051000600007790085000
3217,ESGT,58.3181,12.345,2024-04-16 00:20:00,,,,,3.0,999.0,(2952.1622576520704+0j),-2.0,8.0,20.0,10000.0,99999,8.0,(1952.1622576520704+0j),0.0,1116080208100302120399904000051000600007000088000
3218,ESKM,60.9579,14.5114,2024-04-16 00:20:00,,,,,-4.0,1002.0,(132391187.84225824+0j),-6.0,5.0,340.0,10000.0,99999,,(132390185.84225824+0j),0.0,1116003405110402160300204000051000600007000080000
3219,ESMQ,56.6855,16.2876,2024-04-16 00:20:00,,,,,3.0,998.0,(1199.0296727338166+0j),2.0,4.0,130.0,10000.0,99999,1.0,(199.5296727338166+0j),0.0,1116011304100302020399804000051000600007000081000
3220,ESMT,56.6911,12.8202,2024-04-16 00:20:00,,,,,5.0,996.0,(1774.013184337871+0j),1.0,9.0,50.0,10000.0,99999,,(777.013184337871+0j),0.0,1116000509100502010399604000051000600007000080000
3221,ESNG,67.1324,20.8146,2024-04-16 00:20:00,68.0,36.0,e,magenta,-1.0,1003.0,(59.784874780395036+0j),-4.0,7.0,330.0,10000.0,99999,3.0,(-946.0151252196049+0j),0.0,1116033307110102140300304000051000600007680083000
3222,ESNK,63.0486,17.7689,2024-04-16 00:20:00,,,,,1.0,1003.0,(2405.025231574684+0j),1.0,3.0,310.0,10000.0,99999,7.0,(1401.6252315746838+0j),0.3,1116073103100102010300304000051000600307000087000
3223,ESNL,64.5483,18.7162,2024-04-16 00:20:00,,,,,-1.0,1003.0,(76.22729768807845+0j),-5.0,3.0,330.0,10000.0,99999,1.0,0j,0.0,1116013303110102150300304000051000600007000081000
3224,ESNX,65.5903,19.2819,2024-04-16 00:20:00,,,,,-2.0,1003.0,(85.27283764306331+0j),-6.0,8.0,290.0,10000.0,99999,8.0,0j,0.0,1116082908110202160300304000051000600007000088000
3225,ESOE,59.2237,15.038,2024-04-16 00:20:00,,,,,1.0,1000.0,(10.011847616879168+0j),-1.0,9.0,10.0,10000.0,99999,,(-990.6881523831208+0j),0.0,1116000109100102110300004000051000600007000080000
3226,ESSL,58.4062,15.6805,2024-04-16 00:20:00,,,,,0.0,999.0,(38.202422761655725+0j),-1.0,1.0,40.0,10000.0,99999,,(-961.7975772383443+0j),0.0,1116000401100002110399904000051000600007000080000
3227,ESTA,56.2961,12.8471,2024-04-16 00:20:00,,,,,4.0,996.0,(1639.9626882135021+0j),2.0,5.0,90.0,10000.0,99999,,(642.8626882135021+0j),0.0,1116000905100402020399604000051000600007000080000
3228,ESTL,56.0828,13.2125,2024-04-16 00:20:00,,,,,3.0,995.0,(2989.0376565843812+0j),2.0,4.0,80.0,10000.0,99999,,(1992.0376565843812+0j),0.0,1116000804100302020399504000051000600007000080000
3229,ESUT,65.8061,15.0828,2024-04-16 00:20:00,,,,,-8.0,1004.0,(19170.365702203195+0j),-9.0,1.0,,10000.0,99999,6.0,(18163.465702203193+0j),0.0,1116063601110802190300404000051000600007000086000
3230,EETN,59.4133,24.8328,2024-04-16 00:20:00,,,,,2.0,997.0,(3937.9058687751567+0j),1.0,9.0,250.0,10000.0,99999,6.0,(2938.705868775157+0j),0.0,1116062509100202010399704000051000600007000086000
3231,EETU,58.3075,26.6904,2024-04-16 00:20:00,,,,,3.0,999.0,(4330.569906748653+0j),1.0,8.0,260.0,10000.0,99999,8.0,(3330.269906748653+0j),0.0,1116082608100302010399904000051000600007000088000
3232,EFHK,60.3172,24.9633,2024-04-16 00:20:00,,,,,2.0,997.0,(5173.115637421352+0j),1.0,4.0,330.0,10000.0,99999,3.0,(4176.115637421352+0j),0.0,1116033304100202010399704000051000600007000083000
3234,EVLA,56.5175,21.0969,2024-04-16 00:20:00,,,,,1.0,1000.0,(1605.2358429774272+0j),0.0,1.0,,10000.0,99999,,(602.4358429774272+0j),0.0,1116003601100102000300004000051000600007000080000
3235,EVRA,56.9236,23.9711,2024-04-16 00:20:00,42.0,36.0,K,yellow,-3.0,1001.0,(628.962132514687+0j),-3.0,0.0,0.0,10000.0,99999,,0j,0.0,1116000000110302130300104000051000600007420080000
3236,EYKA,54.9639,24.0848,2024-04-16 00:20:00,,,,,-1.0,1001.0,(732.0578636658422+0j),-2.0,1.0,,10000.0,99999,7.0,0j,0.0,1116073601110102120300104000051000600007000087000
3237,EYPA,55.9732,21.0939,2024-04-16 00:20:00,,,,,1.0,1000.0,(2351.414470854455+0j),-0.0,4.0,90.0,10000.0,99999,,(1349.414470854455+0j),0.0,1116000904100102100300004000051000600007000080000
3238,EYVI,54.6341,25.2858,2024-04-16 00:20:00,,,,,1.0,1001.0,(22.495729147746026+0j),-1.0,2.0,90.0,10000.0,99999,,(-981.704270852254+0j),0.0,1116000902100102110300104000051000600007000080000
3239,EFKI,64.2855,27.6924,2024-04-16 00:20:00,80.0,36.0,q,green,1.0,997.0,(19.37848778353419+0j),0.0,5.0,330.0,10000.0,99999,8.0,(-978.9215122164658+0j),0.0,1116083305100102000399704000051000600007800088000
3240,EFKU,63.0071,27.7978,2024-04-16 00:20:00,,,,,3.0,996.0,(6101.99601989632+0j),0.0,7.0,330.0,10000.0,99999,7.0,(5104.69601989632+0j),0.0,1116073307100302000399604000051000600007000087000
3241,EFOU,64.9301,25.3546,2024-04-16 00:20:00,,,,,2.0,999.0,(1921.608316053154+0j),-1.0,6.0,340.0,10000.0,99999,8.0,(921.9083160531541+0j),0.0,1116083406100202110399904000051000600007000088000
3246,ENAT,69.9761,23.3717,2024-04-16 00:20:00,71.0,36.0,h,magenta,-0.0,1008.0,(38.54658873248145+0j),-2.0,0.0,0.0,10000.0,99999,8.0,(-968.7534112675185+0j),0.0,1116080000110002120300804000051000600007710088000
3247,ENBN,65.4611,12.2175,2024-04-16 00:20:00,,,,,1.0,1006.0,(2001.3271149816678+0j),-5.0,3.0,50.0,10000.0,99999,,0j,0.0,1116000503100102150300604000051000600007000080000
3248,ENBV,70.8714,29.0342,2024-04-16 00:20:00,71.0,36.0,h,magenta,-1.0,1010.0,(84.99048455074455+0j),-5.0,17.0,80.0,10000.0,99999,7.0,(-924.0095154492554+0j),0.0,1116070817110102150301004000051000600007710087000
3249,ENKB,63.1118,7.82452,2024-04-16 00:20:00,,,,,3.0,1003.0,(4090.015761015058+0j),-3.0,6.0,80.0,10000.0,99999,,0j,0.0,1116000806100302130300304000051000600007000080000
3250,ENML,62.7447,7.2625,2024-04-16 00:20:00,,,,,2.0,1003.0,(1180.478967632031+0j),-3.0,9.0,20.0,10000.0,99999,,(178.17896763203112+0j),0.0,1116000209100202130300304000051000600007000080000
3254,LIEO,40.8987,9.51763,2024-04-16 00:20:00,,,,,19.0,1012.0,(1080.2932312886992+0j),7.0,11.0,240.0,10000.0,99999,,(65.89323128869921+0j),0.0,1116002411101902070301204000051000600007000080000
3255,LIMC,45.6306,8.72811,2024-04-16 00:20:00,,,,,11.0,1005.0,(4191.987920932632+0j),9.0,1.0,,10000.0,99999,,(3184.5879209326317+0j),0.0,1116003601101102090300504000051000600007000080000
3256,LIME,45.6739,9.70417,2024-04-16 00:20:00,,,,,15.0,1004.0,(3287.3619647326855+0j),11.0,5.0,340.0,10000.0,99999,,(2280.4619647326854+0j),0.0,11160034051015020110300404000051000600007000080000
3257,LIML,45.4451,9.27674,2024-04-16 00:20:00,,,,,16.0,1004.0,(1868.5166327291947+0j),11.0,7.0,290.0,10000.0,99999,,(861.3166327291947+0j),0.0,11160029071016020110300404000051000600007000080000
3259,LIRA,41.7994,12.5949,2024-04-16 00:20:00,,,,,15.0,1012.0,(2169.862867641968+0j),10.0,3.0,50.0,10000.0,99999,,(1155.662867641968+0j),0.0,11160005031015020100301204000051000600007000080000
3260,LIRP,43.6839,10.3927,2024-04-16 00:15:00,,,,,13.0,1010.0,(1025.982610134273+0j),13.0,2.0,120.0,10000.0,99999,,(14.18261013427309+0j),0.0,11160012021013020130301004000051000600007000080000
3261,LIRQ,43.81,11.2051,2024-04-16 00:20:00,,,,,12.0,1009.0,(1450.0972256062546+0j),9.0,2.0,,10000.0,99999,,(438.4972256062546+0j),0.0,1116003602101202090300904000051000600007000080000
3264,EDDC,51.1328,13.7672,2024-04-16 00:20:00,,,,,5.0,1002.0,(8307.481469545864+0j),1.0,11.0,260.0,10000.0,99999,6.0,(7307.9814695458645+0j),0.0,1116062611100502010300204000051000600007000086000
3265,EDDE,50.9798,10.9581,2024-04-16 00:20:00,,,,,4.0,1002.0,(12.960865117691878+0j),0.0,18.0,230.0,10000.0,99999,6.0,(-990.2391348823081+0j),0.0,1116062318100402000300204000051000600007000086000
3267,EDDG,52.1346,7.68483,2024-04-16 00:20:00,,,,,4.0,1000.0,(2681.060970309902+0j),2.0,9.0,200.0,10000.0,99999,6.0,(1679.4609703099022+0j),0.0,1116062009100402020300004000051000600007000086000
3268,EDDH,53.6304,9.98823,2024-04-16 00:20:00,,,,,5.0,996.0,(1383.1735719419967+0j),3.0,11.0,240.0,10000.0,99999,6.0,(386.8735719419967+0j),0.6,1116062411100502030399604000051000600607000086000
3269,EDDK,50.8659,7.14274,2024-04-16 00:20:00,,,,,5.0,1005.0,(3708.4505179947796+0j),2.0,8.0,220.0,10000.0,99999,,(2701.5505179947795+0j),0.1,1116002208100502020300504000051000600107000080000
3270,EDDL,51.2895,6.76678,2024-04-16 00:20:00,,,,,5.0,1004.0,(2195.1154223961903+0j),3.0,14.0,220.0,10000.0,99999,3.0,(1190.3154223961903+0j),0.6,1116032214100502030300404000051000600607000083000
3272,EDDN,49.4987,11.0669,2024-04-16 00:20:00,,,,,5.0,1007.0,(11.01362624454784+0j),1.0,12.0,240.0,10000.0,99999,3.0,(-997.5863737554522+0j),0.5,1116032412100502010300704000051000600507000083000
3274,EDDR,49.2146,7.10951,2024-04-16 00:20:00,,,,,5.0,1009.0,(11.138315440652457+0j),3.0,13.0,250.0,10000.0,99999,5.0,(-998.8616845593475+0j),0.2,1116052513100502030300904000051000600207000085000
3275,EDDS,48.6899,9.22196,2024-04-16 00:20:00,61.0,36.0,^,green,4.0,1009.0,(15.172305777062444+0j),2.0,9.0,200.0,10000.0,99999,3.0,(-994.5276942229376+0j),2.0,1116032009100402020300904000051000602007610083000
3276,EDDV,52.4611,9.68508,2024-04-16 00:20:00,,,,,6.0,999.0,(2234.2110761928225+0j),2.0,12.0,240.0,10000.0,99999,6.0,(1233.9110761928225+0j),0.0,1116062412100602020399904000051000600007000086000
3277,EDDW,53.0475,8.78667,2024-04-16 00:20:00,,,,,5.0,997.0,(1094.3202323139767+0j),3.0,14.0,230.0,10000.0,99999,6.0,(95.72023231397668+0j),0.0,1116062314100502030399704000051000600007000086000
3290,ENHF,70.6797,23.6686,2024-04-16 00:20:00,71.0,36.0,h,magenta,-1.0,1007.0,(599.7615307823637+0j),-3.0,11.0,120.0,2400.0,99999,,0j,0.0,1111001211110102130300704000051000600007710080000
3291,ENHK,70.4867,22.1397,2024-04-16 00:20:00,,,,,2.0,1006.0,(1393.1376931363704+0j),-2.0,8.0,240.0,10000.0,99999,6.0,(386.8376931363705+0j),0.0,1116062408100202120300604000051000600007000086000
3292,ENHV,71.0097,25.9836,2024-04-16 00:20:00,71.0,36.0,h,magenta,-2.0,1009.0,(386.45564768488265+0j),-3.0,19.0,110.0,2200.0,99999,6.0,(-622.7443523151173+0j),0.0,1111061119110202130300904000051000600007710086000
3293,ENRA,66.3639,14.3014,2024-04-16 00:20:00,,,,,-1.0,1006.0,(1564.4642737331535+0j),-3.0,1.0,,10000.0,99999,8.0,0j,0.0,1116083601110102130300604000051000600007000088000
3294,ENRM,64.8383,11.1461,2024-04-16 00:20:00,,,,,-2.0,1006.0,(778.1897036833844+0j),-4.0,0.0,0.0,10000.0,99999,,(-227.81029631661556+0j),0.0,1116000000110202140300604000051000600007000080000
3295,ENSD,61.83,6.10583,2024-04-16 00:20:00,,,,,2.0,1003.0,(5645.462978764715+0j),-2.0,0.0,0.0,10000.0,99999,,0j,0.0,1116000000100202120300304000051000600007000080000
3297,LICJ,38.176,13.091,2024-04-16 00:20:00,,,,,18.0,1011.0,(1138.9908016075813+0j),16.0,9.0,240.0,10000.0,99999,6.0,(124.09080160758128+0j),0.0,11160624091018020160301104000051000600007000086000
3298,LIEE,39.2515,9.05428,2024-04-16 00:20:00,,,,,17.0,1013.0,(1039.6181194620976+0j),11.0,7.0,340.0,10000.0,99999,,(24.11811946209764+0j),0.0,11160034071017020110301304000051000600007000080000
3299,LIMF,45.2008,7.64963,2024-04-16 00:20:00,,,,,12.0,1005.0,(4845.780228050778+0j),11.0,4.0,320.0,10000.0,99999,,(3839.7802280507776+0j),0.0,11160032041012020110300504000051000600007000080000
3300,LIPE,44.5354,11.2887,2024-04-16 00:20:00,,,,,19.0,1004.0,(1236.2668393733632+0j),7.0,3.0,180.0,10000.0,99999,,(229.66683937336313+0j),0.0,1116001803101902070300404000051000600007000080000
3301,LIPX,45.3957,10.8885,2024-04-16 00:20:00,,,,,13.0,1004.0,(1711.1633026590448+0j),11.0,2.0,230.0,10000.0,99999,,(704.5633026590448+0j),0.0,11160023021013020110300404000051000600007000080000
3302,LIRF,41.8045,12.2508,2024-04-16 00:20:00,,,,,14.0,1012.0,(1049.340327476145+0j),13.0,3.0,70.0,10000.0,99999,,(35.04032747614497+0j),0.0,11160007031014020130301204000051000600007000080000
3303,LOWK,46.6425,14.3377,2024-04-16 00:20:00,,,,,13.0,1002.0,(6416.2859596431845+0j),7.0,2.0,,10000.0,99999,,(5411.085959643185+0j),0.0,1116003602101302070300204000051000600007000080000
3304,LOWL,48.2332,14.1875,2024-04-16 00:20:00,,,,,9.0,1007.0,(6221.046902699156+0j),4.0,18.0,280.0,10000.0,99999,3.0,(5216.746902699156+0j),0.4,1116032818100902040300704000051000600407000083000
3313,ENBL,61.3911,5.75694,2024-04-16 00:20:00,,,,,1.0,1002.0,(27.046994477087672+0j),-5.0,2.0,300.0,10000.0,99999,,(-975.0530055229124+0j),0.0,1116003002100102150300204000051000600007000080000
3314,ENBS,70.6005,29.6914,2024-04-16 00:20:00,71.0,36.0,h,magenta,-3.0,1008.0,(4263183.9939055415+0j),-5.0,20.0,80.0,7000.0,99999,4.0,(4262174.4939055415+0j),0.0,1114040820110302150300804000051000600007710084000
3315,ENEV,68.4913,16.6781,2024-04-16 00:20:00,85.0,36.0,v,magenta,-0.0,1008.0,(38.54658873248145+0j),-1.0,4.0,20.0,10000.0,99999,,0j,0.0,1116000204110002110300804000051000600007850080000
3316,ENKR,69.7258,29.8913,2024-04-16 00:20:00,,,,,-2.0,1007.0,(-159457671.2704257-166667228.99477223j),-6.0,10.0,80.0,10000.0,99999,8.0,0j,0.0,1116080810110202160300704000051000600007000088000
3317,ENMH,71.0297,27.8267,2024-04-16 00:20:00,,,,,-1.0,1010.0,(114.04952566868155+0j),-6.0,9.0,80.0,10000.0,99999,7.0,(-895.6504743313185+0j),0.0,1116070809110102160301004000051000600007000087000
3318,ENNA,70.0688,24.9735,2024-04-16 00:20:00,71.0,36.0,h,magenta,-1.0,1008.0,(324.32165700502867+0j),-3.0,6.0,190.0,10000.0,99999,4.0,(-683.2783429949714+0j),0.0,1116041906110102130300804000051000600007710084000
3319,ENNM,64.4722,11.5786,2024-04-16 00:20:00,,,,,-4.0,1006.0,(946.6220046287619+0j),-5.0,2.0,40.0,10000.0,99999,,(-59.277995371238035+0j),0.0,1116000402110402150300604000051000600007000080000
3321,LIEA,40.6321,8.29077,2024-04-16 00:20:00,,,,,12.0,1014.0,(1278.0331051119715+0j),12.0,2.0,,10000.0,99999,,(263.13310511197153+0j),0.0,11160036021012020120301404000051000600007000080000
3322,LIMJ,44.4133,8.8375,2024-04-16 00:20:00,,,,,18.0,1006.0,(1030.957943932266+0j),15.0,18.0,120.0,10000.0,99999,6.0,(20.657943932266107+0j),0.0,11160612181018020150300604000051000600007000086000
3326,EBCI,50.4592,4.45382,2024-04-16 00:20:00,80.0,36.0,q,green,4.0,1007.0,(8470.132580986252+0j),2.0,12.0,250.0,10000.0,99999,3.0,(7463.132580986252+0j),0.0,1116032512100402020300704000051000600007800083000
3327,EBLG,50.6374,5.44322,2024-04-16 00:20:00,,,,,4.0,1006.0,(8999.423401114158+0j),1.0,15.0,250.0,10000.0,99999,4.0,(7993.423401114158+0j),0.0,1116042515100402010300604000051000600007000084000
3328,EBOS,51.1989,2.86222,2024-04-16 00:20:00,,,,,9.0,1006.0,(1056.1758281308432+0j),3.0,26.0,280.0,10000.0,99999,3.0,(49.17582813084323+0j),0.0,1116032826100902030300604000051000600007000083000
3329,EDDB,52.36217,13.50067,2024-04-16 00:20:00,,,,,6.0,999.0,(2031.6387224937569+0j),3.0,16.0,250.0,10000.0,99999,4.0,(1032.738722493757+0j),0.3,1116042516100602030399904000051000600307000084000
3330,EDDF,50.0264,8.54313,2024-04-16 00:20:00,,,,,6.0,1007.0,(3729.4534055684817+0j),2.0,9.0,190.0,10000.0,99999,6.0,(2722.0534055684816+0j),0.0,1116061909100602020300704000051000600007000086000
3331,EDDM,48.3538,11.7861,2024-04-16 00:20:00,,,,,5.0,1008.0,(14.430740091212375+0j),-1.0,15.0,290.0,10000.0,99999,6.0,(-992.2692599087877+0j),0.0,1116062915100502110300804000051000600007000086000
3332,EDDP,51.4324,12.2416,2024-04-16 00:20:00,,,,,5.0,1002.0,(5380.6982088808845+0j),1.0,20.0,240.0,10000.0,99999,1.0,(4379.398208880884+0j),0.5,1116012420100502010300204000051000600507000081000
3337,EGJJ,49.2079,-2.19551,2024-04-16 00:20:00,,,,,9.0,1017.0,(2287.3788815742846+0j),4.0,19.0,300.0,10000.0,99999,3.0,(1270.4788815742845+0j),0.0,1116033019100902040301704000051000600007000083000
3338,EKEB,55.5259,8.5534,2024-04-16 00:20:00,61.0,36.0,^,green,6.0,993.0,(1600.8112659390652+0j),5.0,2.0,350.0,10000.0,99999,8.0,(608.8112659390652+0j),1.8,1116083502100602050399304000051000601807610088000
3339,EKRK,55.5856,12.1314,2024-04-16 00:20:00,,,,,5.0,994.0,(2164.235622745508+0j),3.0,8.0,90.0,10000.0,99999,6.0,(1168.235622745508+0j),0.2,1116060908100502030399404000051000600207000086000
3340,EKRN,55.0633,14.7596,2024-04-16 00:20:00,,,,,5.0,994.0,(1372.647497429969+0j),4.0,13.0,90.0,10000.0,99999,6.0,(375.047497429969+0j),0.2,1116060913100502040399404000051000600207000086000
3341,EKSB,54.9644,9.79173,2024-04-16 00:20:00,61.0,36.0,^,green,6.0,993.0,(1132.6212474934473+0j),6.0,3.0,220.0,7000.0,99999,8.0,(140.22124749344732+0j),1.4,1114082203100602060399304000051000601307610088000
3343,ELLX,49.6266,6.21152,2024-04-16 00:20:00,,,,,5.0,1008.0,(12.56756434381512+0j),2.0,16.0,260.0,10000.0,99999,2.0,(-996.8324356561849+0j),0.0,1116022616100502020300804000051000600007000082000
3357,EBAW,51.1894,4.46028,2024-04-16 00:20:00,,,,,6.0,1004.0,(1237.2509828029986+0j),1.0,10.0,240.0,10000.0,99999,,(232.25098280299858+0j),0.0,1116002410100602010300404000051000600007000080000
3358,EBBR,50.9014,4.48444,2024-04-16 00:20:00,,,,,6.0,1005.0,(2255.2829934604542+0j),1.0,16.0,240.0,10000.0,99999,1.0,(1248.0829934604542+0j),0.0,1116012416100602010300504000051000600007000081000
3359,EGPD,57.2019,-2.19778,2024-04-16 00:20:00,63.0,36.0,',green,7.0,1005.0,(2257.4709583963986+0j),6.0,20.0,340.0,4400.0,99999,4.0,(1256.0709583963985+0j),0.0,1112043420100702060300504000051000600007630084000
3360,EGPH,55.95,-3.3725,2024-04-16 00:20:00,,,,,8.0,1007.0,(1652.8543989113102+0j),3.0,5.0,,10000.0,99999,1.0,(649.5543989113103+0j),0.0,1116013605100802030300704000051000600007000081000
3361,EGPO,58.2156,-6.33111,2024-04-16 00:20:00,,,,,6.0,1012.0,(1166.500105394741+0j),3.0,11.0,330.0,10000.0,99999,6.0,(157.60010539474104+0j),0.0,1116063311100602030301204000051000600007000086000
3362,EKAH,56.3,10.619,2024-04-16 00:20:00,,,,,7.0,995.0,(1425.298357389955+0j),3.0,9.0,70.0,10000.0,99999,3.0,(429.2983573899551+0j),0.0,1116030709100702030399504000051000600007000083000
3363,EKKA,56.2975,9.12463,2024-04-16 00:20:00,,,,,7.0,994.0,(1946.1961861023506+0j),4.0,12.0,60.0,10000.0,99999,8.0,(952.1961861023506+0j),0.0,1116080612100702040399404000051000600007000088000
3364,EKYT,57.09276,9.84924,2024-04-16 00:20:00,,,,,5.0,997.0,(1066.125121869454+0j),2.0,9.0,50.0,10000.0,99999,,(69.42512186945396+0j),0.0,1116000509100502020399704000051000600007000080000
3365,ENAN,69.2925,16.1442,2024-04-16 00:20:00,,,,,-1.0,1008.0,(76.3281501503913+0j),-2.0,3.0,90.0,10000.0,99999,4.0,0j,0.0,1116040903110102120300804000051000600007000084000
3366,ENBO,67.2692,14.3653,2024-04-16 00:20:00,,,,,-2.0,1007.0,(407.551103330197+0j),-5.0,4.0,100.0,10000.0,99999,,(-600.348896669803+0j),0.0,1116001004110202150300704000051000600007000080000
3367,ENGM,60.1939,11.1004,2024-04-16 00:20:00,,,,,-2.0,1001.0,(234.87335086800988+0j),-5.0,6.0,20.0,10000.0,99999,,0j,0.0,1116000206110202150300104000051000600007000080000
3368,ENOL,63.6989,9.604,2024-04-16 00:20:00,,,,,-0.0,1005.0,(38.4318667422062+0j),-4.0,5.0,90.0,10000.0,99999,,(-966.5681332577938+0j),0.0,1116000905110002140300504000051000600007000080000
3369,ENSH,68.2433,14.6692,2024-04-16 00:20:00,,,,,1.0,1008.0,(2094.8719037411724+0j),-3.0,9.0,360.0,10000.0,99999,1.0,(1086.8719037411724+0j),0.0,1116013609100102130300804000051000600007000081000
3370,ENTC,69.6833,18.9189,2024-04-16 00:20:00,,,,,-1.0,1008.0,(218.52132825178072+0j),-2.0,2.0,170.0,10000.0,99999,3.0,(-789.7786717482193+0j),0.0,1116031702110102120300804000051000600007000083000
3371,ESSA,59.6519,17.9186,2024-04-16 00:20:00,,,,,-0.0,1000.0,(38.240663425080804+0j),-1.0,5.0,10.0,10000.0,99999,,(-963.1593365749192+0j),0.0,1116000105110002110300004000051000600007000080000
3378,EDFM,49.47306,8.51417,2024-04-16 00:20:00,,,,,6.0,1009.0,(3263.569856451522+0j),5.0,5.0,210.0,8000.0,99999,4.0,(2254.569856451522+0j),0.1,1114042105100602050300904000051000600107000084000
3412,EDAC,50.98195,12.50639,2024-04-16 00:20:00,,,,,4.0,1003.0,(8747.674961650479+0j),-0.0,12.0,220.0,10000.0,99999,,(7738.374961650478+0j),0.2,1116002212100402100300304000051000600207000080000
3413,EDHI,53.53528,9.83556,2024-04-16 00:20:00,,,,,5.0,996.0,(1157.7059968058602+0j),3.0,14.0,240.0,10000.0,99999,6.0,(161.7059968058602+0j),0.7,1116062414100502030399604000051000600707000086000
3414,EDHK,54.37944,10.14528,2024-04-16 00:20:00,,,,,5.0,994.0,(1778.9283775085607+0j),3.0,8.0,240.0,10000.0,99999,8.0,(785.8283775085607+0j),1.5,1116082408100502030399404000051000601507000088000
3415,EDHL,53.8054,10.7192,2024-04-16 00:20:00,,,,,5.0,996.0,(1383.1735719419967+0j),3.0,8.0,,10000.0,99999,5.0,(387.9735719419966+0j),0.8,1116053608100502030399604000051000600807000085000
3416,EDLN,51.23028,6.50444,2024-04-16 00:20:00,,,,,6.0,1004.0,(1815.4236438055489+0j),2.0,10.0,240.0,10000.0,99999,2.0,(811.4236438055489+0j),0.0,1116022410100602020300404000051000600007000082000
3417,EDLP,51.6141,8.61632,2024-04-16 00:20:00,,,,,5.0,1002.0,(7760.494915820625+0j),2.0,14.0,240.0,10000.0,99999,1.0,(6757.694915820624+0j),0.0,1116012414100502020300204000051000600007000081000
3418,EDLW,51.5183,7.61224,2024-04-16 00:20:00,,,,,5.0,1002.0,(4965.41506696716+0j),3.0,15.0,220.0,10000.0,99999,1.0,(3962.41506696716+0j),0.0,1116012215100502030300204000051000600007000081000
3419,EDMA,48.42528,10.93167,2024-04-16 00:20:00,,,,,4.0,1009.0,(17.000485797671015+0j),0.0,16.0,290.0,10000.0,99999,8.0,(-989.099514202329+0j),0.0,1116082916100402000300904000051000600007000088000
3420,EDMO,48.0814,11.2831,2024-04-16 00:20:00,,,,,5.0,1009.0,(17.29114898017874+0j),1.0,11.0,290.0,10000.0,99999,5.0,(-990.7088510198213+0j),0.0,1116052911100502010300904000051000600007000085000
3421,EDNY,47.6713,9.51149,2024-04-16 00:20:00,,,,,7.0,1010.0,(10.438251699762942+0j),1.0,6.0,330.0,10000.0,99999,7.0,(-999.861748300237+0j),0.0,1116073306100702010301004000051000600007000087000
3422,EDQM,50.28861,11.85639,2024-04-16 00:20:00,,,,,2.0,1004.0,(26.533205342760827+0j),0.0,9.0,240.0,10000.0,99999,3.0,(-977.5667946572391+0j),0.6,1116032409100202000300404000051000600607000083000
3423,EDSB,48.7794,8.0805,2024-04-16 00:20:00,,,,,6.0,1010.0,(4118.560237911474+0j),3.0,11.0,210.0,10000.0,99999,5.0,(3107.5602379114744+0j),0.3,1116052111100602030301004000051000600307000085000
3424,EDTL,48.3693,7.82772,2024-04-16 00:20:00,,,,,6.0,1011.0,(5018.745555301478+0j),4.0,11.0,200.0,10000.0,99999,3.0,(4004.645555301478+0j),0.1,1116032011100602040301104000051000600107000083000
3425,EDVE,52.3192,10.5561,2024-04-16 00:20:00,,,,,6.0,999.0,(3123.965175108508+0j),2.0,15.0,240.0,10000.0,99999,6.0,(2123.865175108508+0j),0.0,1116062415100602020399904000051000600007000086000
3426,EDVK,51.40833,9.3775,2024-04-16 00:20:00,,,,,5.0,1002.0,(9.752222924066144+0j),1.0,11.0,220.0,10000.0,99999,2.0,(-993.0477770759338+0j),0.0,1116022211100502010300204000051000600007000082000
3427,EDXW,54.9132,8.34047,2024-04-16 00:20:00,,,,,6.0,993.0,(1298.5599125566202+0j),4.0,10.0,270.0,10000.0,99999,4.0,(306.55991255662025+0j),0.7,1116042710100602040399304000051000600707000084000
3430,EGSH,52.6758,1.28278,2024-04-16 00:20:00,,,,,7.0,1003.0,(1639.6120905906523+0j),4.0,17.0,260.0,10000.0,99999,1.0,(635.5120905906523+0j),0.0,1116012617100702040300304000051000600007000081000
3438,LIBP,42.4317,14.1811,2024-04-16 00:20:00,,,,,24.0,1007.0,(1076.8184530817855+0j),5.0,20.0,230.0,10000.0,99999,,(66.61845308178545+0j),0.0,1116002320102402050300704000051000600007000080000
3439,LICA,38.9054,16.2423,2024-04-16 00:20:00,,,,,17.0,1011.0,(1091.5709561647484+0j),11.0,5.0,70.0,10000.0,99999,1.0,(77.5709561647484+0j),0.0,11160107051017020110301104000051000600007000081000
3440,LICR,38.0712,15.6516,2024-04-16 00:20:00,,,,,19.0,1012.0,(1193.0201894589734+0j),12.0,4.0,140.0,10000.0,99999,3.0,(178.42018945897337+0j),0.0,11160314041019020120301204000051000600007000083000
3441,LIPY,43.6163,13.3623,2024-04-16 00:20:00,,,,,21.0,1006.0,(1087.565442907377+0j),4.0,6.0,200.0,10000.0,99999,,(77.76544290737706+0j),0.0,1116002006102102040300604000051000600007000080000
3443,LICD,35.4979,12.6181,2024-04-16 00:20:00,,,,,20.0,1009.0,(1132.7127025518535+0j),14.0,10.0,160.0,9000.0,99999,3.0,(123.9127025518535+0j),0.0,11150316101020020140300904000051000600007000083000
3444,LIRZ,43.0959,12.5132,2024-04-16 00:20:00,,,,,13.0,1010.0,(3381.706632274005+0j),7.0,5.0,230.0,10000.0,99999,6.0,(2369.706632274005+0j),0.0,1116062305101302070301004000051000600007000086000
3452,EHLE,52.4603,5.52722,2024-04-16 00:25:00,95.0,36.0,2,red,5.0,999.0,(911.9615428460074+0j),4.0,16.0,290.0,10000.0,99999,4.0,(-88.03845715399257+0j),1.3,1116042916100502040399904000051000601307950084000
3472,LSMM,46.7433,8.11,2024-04-16 00:20:00,,,,,12.0,1010.0,(8708.718116649876+0j),3.0,15.0,300.0,10000.0,99999,2.0,(7695.018116649876+0j),0.7,1116023015101202030301004000051000600707000082000
3493,ENFL,61.5836,5.02472,2024-04-16 00:20:00,,,,,3.0,1002.0,(1459.8877376093403+0j),1.0,5.0,70.0,10000.0,99999,,(458.08773760934037+0j),0.0,1116000705100302010300204000051000600007000080000
3495,ETHC,52.5912,10.0221,2024-04-16 00:20:00,,,,,6.0,998.0,(1833.1376014454497+0j),2.0,15.0,220.0,10000.0,99999,6.0,(833.8376014454498+0j),0.1,1116062215100602020399804000051000600107000086000
3497,ETHL,48.2203,9.91002,2024-04-16 00:20:00,68.0,36.0,e,magenta,3.0,1009.0,(21.71307825183015+0j),1.0,9.0,270.0,10000.0,99999,4.0,(-986.8869217481699+0j),0.0,1116042709100302010300904000051000600007680084000
3499,ETHS,52.9194,10.1975,2024-04-16 00:20:00,,,,,5.0,997.0,(3109.5042202927775+0j),2.0,14.0,250.0,10000.0,99999,6.0,(2111.3042202927772+0j),0.0,1116062514100502020399704000051000600007000086000
3502,ETNN,50.8312,6.65817,2024-04-16 00:20:00,,,,,6.0,1004.0,(3871.5666952050206+0j),1.0,14.0,240.0,10000.0,99999,3.0,(2865.6666952050205+0j),0.0,1116032414100602010300404000051000600007000083000
3504,ETSH,51.7678,13.1677,2024-04-16 00:20:00,,,,,5.0,1001.0,(3320.798442852202+0j),2.0,14.0,230.0,10000.0,99999,3.0,(2320.698442852202+0j),0.5,1116032314100502020300104000051000600507000083000
3505,ETSL,48.1855,10.8612,2024-04-16 00:20:00,61.0,36.0,^,green,5.0,1010.0,(16.596393927124716+0j),1.0,4.0,260.0,10000.0,99999,6.0,(-989.5036060728753+0j),0.0,1116062604100502010301004000051000600007610086000
3507,LOWW,48.1103,16.5697,2024-04-16 00:20:00,61.0,36.0,^,green,13.0,1004.0,(2990.8557895386157+0j),11.0,11.0,210.0,10000.0,99999,3.0,(1986.0557895386157+0j),1.1,11160321111013020110300404000051000601107610083000
3509,EHBK,50.9117,5.77014,2024-04-16 00:25:00,,,,,5.0,1005.0,(4460.262103185994+0j),2.0,15.0,230.0,10000.0,99999,1.0,(3454.4621031859942+0j),0.0,1116012315100502020300504000051000600007000081000
3522,ETNW,52.4573,9.42717,2024-04-16 00:20:00,,,,,6.0,999.0,(2264.684162623306+0j),3.0,16.0,250.0,10000.0,99999,6.0,(1265.084162623306+0j),0.2,1116062516100602030399904000051000600207000086000
3568,EYSA,55.8939,23.395,2024-04-16 00:20:00,,,,,-1.0,1001.0,(132.2842048823323+0j),-2.0,2.0,,10000.0,99999,,0j,0.0,1116003602110102120300104000051000600007000080000
3569,EGCC,53.3537,-2.27495,2024-04-16 00:20:00,,,,,8.0,1008.0,(2329.486120057422+0j),5.0,13.0,310.0,10000.0,99999,3.0,(1323.886120057422+0j),1.3,1116033113100802050300804000051000601307000083000
3571,EGPB,59.8789,-1.29556,2024-04-16 00:20:00,,,,,6.0,1005.0,(1122.21983832206+0j),4.0,15.0,350.0,10000.0,99999,5.0,(120.81983832206004+0j),0.0,1116053515100602040300504000051000600007000085000
3580,EGGP,53.3336,-2.84972,2024-04-16 00:20:00,,,,,9.0,1009.0,(1334.4788040872522+0j),6.0,19.0,310.0,10000.0,99999,4.0,0j,0.0,1116043119100902060300904000051000600007000084000
3581,EGKK,51.1481,-0.19028,2024-04-16 00:20:00,,,,,7.0,1009.0,(2181.2309757316066+0j),3.0,15.0,270.0,10000.0,99999,1.0,(1171.7309757316066+0j),0.0,1116012715100702030300904000051000600007000081000
3582,EGLF,51.2758,-0.77633,2024-04-16 00:20:00,,,,,8.0,1009.0,(2222.0894861414595+0j),2.0,12.0,270.0,10000.0,99999,1.0,(1213.6894861414594+0j),0.0,1116012712100802020300904000051000600007000081000
3584,EGNJ,53.5744,-0.35083,2024-04-16 00:20:00,,,,,8.0,1004.0,(1575.6669626441167+0j),3.0,16.0,290.0,10000.0,99999,2.0,(573.7669626441167+0j),0.0,1116022916100802030300404000051000600007000082000
3585,EGNM,53.8659,-1.66057,2024-04-16 00:20:00,,,,,6.0,1005.0,(6457.201591135893+0j),2.0,19.0,300.0,10000.0,99999,,(5454.301591135893+0j),0.0,1116003019100602020300504000051000600007000080000
3586,EGNT,55.0375,-1.69167,2024-04-16 00:20:00,,,,,8.0,1005.0,(2374.8112887752864+0j),3.0,12.0,320.0,10000.0,99999,6.0,(1373.2112887752864+0j),0.0,1116063212100802030300504000051000600007000086000
3594,EHEH,51.4501,5.37453,2024-04-16 00:25:00,,,,,6.0,1003.0,(1461.3447113993698+0j),2.0,13.0,220.0,10000.0,99999,4.0,(457.1447113993697+0j),0.0,1116042213100602020300304000051000600007000084000
3619,LIRN,40.886,14.2908,2024-04-16 00:20:00,,,,,17.0,1013.0,(1680.3328421363915+0j),14.0,2.0,,10000.0,99999,,(665.3328421363915+0j),0.0,11160036021017020140301304000051000600007000080000
3644,LTCS,37.44566,38.89559,2024-04-16 00:20:00,,,,,12.0,1017.0,(11.822244998476126+0j),5.0,7.0,30.0,10000.0,99999,,(-1003.6777550015239+0j),0.0,1116000307101202050301704000051000600007000080000
3648,LTFM,41.27533,28.752,2024-04-16 00:20:00,,,,,17.0,1011.0,(1754.304763489221+0j),9.0,10.0,200.0,10000.0,99999,,0j,0.0,1116002010101702090301104000051000600007000080000
3650,EGNX,52.8311,-1.32806,2024-04-16 00:20:00,,,,,7.0,1007.0,(2880.0659963495186+0j),5.0,13.0,300.0,10000.0,99999,3.0,(1874.4659963495187+0j),0.0,1116033013100702050300704000051000600007000083000
3651,EGVN,51.75,-1.58362,2024-04-16 00:20:00,,,,,8.0,1009.0,(2513.7896517437557+0j),4.0,13.0,280.0,10000.0,99999,2.0,(1504.3896517437556+0j),0.0,1116022813100802040300904000051000600007000082000
3653,EHDL,52.0606,5.87306,2024-04-16 00:25:00,,,,,6.0,1000.0,(2048.49816902481+0j),3.0,9.0,240.0,10000.0,99999,5.0,(1046.49816902481+0j),0.6,1116052409100602030300004000051000600607000085000
3658,EHRD,51.9569,4.43722,2024-04-16 00:25:00,,,,,8.0,1001.0,(937.7568803362511+0j),3.0,19.0,270.0,10000.0,99999,6.0,(-65.04311966374883+0j),0.0,1116062719100802030300104000051000600007000086000
3659,EHVK,51.6564,5.70861,2024-04-16 00:25:00,,,,,7.0,1002.0,(1379.2390057824014+0j),2.0,12.0,240.0,10000.0,99999,3.0,(375.73900578240136+0j),0.9,1116032412100702020300204000051000600907000083000
3683,EGLL,51.4706,-0.46194,2024-04-16 00:20:00,61.0,36.0,^,green,8.0,1008.0,(1390.9995163938831+0j),4.0,18.0,270.0,10000.0,99999,4.0,(381.09951639388316+0j),0.0,1116042718100802040300804000051000600007610084000
3687,LBGO,43.1514,25.7129,2024-04-16 00:30:00,,,,,13.0,1007.0,(1868.0347161191053+0j),9.0,2.0,,10000.0,99999,,(860.0347161191053+0j),0.0,1116003602101302090300704000051000600007000080000
3688,LTAZ,38.7719,34.5345,2024-04-16 00:20:00,,,,,6.0,1020.0,(20.555100039888902+0j),2.0,7.0,120.0,10000.0,99999,,0j,0.0,1116001207100602020302004000051000600007000080000
3689,LTBR,40.2552,29.5626,2024-04-16 00:20:00,,,,,9.0,1013.0,(5014.0935374602395+0j),6.0,3.0,320.0,10000.0,99999,,(3999.7935374602393+0j),0.0,1116003203100902060301304000051000600007000080000
3691,LTFC,37.8554,30.3684,2024-04-16 00:20:00,,,,,4.0,1019.0,(23.847593164543422+0j),1.0,3.0,110.0,10000.0,99999,,(-995.1524068354565+0j),0.0,1116001103100402010301904000051000600007000080000
3692,LTFJ,40.8986,29.3092,2024-04-16 00:20:00,,,,,18.0,1012.0,(1680.3253307156149+0j),8.0,4.0,300.0,10000.0,99999,,(666.7253307156149+0j),0.0,1116003004101802080301204000051000600007000080000
3693,EHAM,52.3086,4.76389,2024-04-16 00:25:00,,,,,8.0,999.0,(952.5391878725147+0j),4.0,24.0,270.0,10000.0,99999,2.0,(-50.06081212748529+0j),0.9,1116022724100802040399904000051000600907000082000
3695,ETHF,51.1146,9.286,2024-04-16 00:20:00,,,,,5.0,1003.0,(13.347436497081038+0j),1.0,10.0,210.0,10000.0,99999,6.0,(-991.152563502919+0j),0.0,1116062110100502010300304000051000600007000086000
3696,ETHN,49.39194,9.95889,2024-04-16 00:20:00,80.0,36.0,q,green,3.0,1007.0,(18.724541762519532+0j),2.0,14.0,240.0,10000.0,99999,6.0,(-989.3754582374805+0j),0.3,1116062414100302020300704000051000600307800086000
3697,ETMN,53.7677,8.6585,2024-04-16 00:20:00,80.0,36.0,q,green,4.0,995.0,(1690.203489681467+0j),3.0,11.0,250.0,10000.0,99999,4.0,(694.4034896814671+0j),1.5,1116042511100402030399504000051000601507800084000
3698,ETNL,53.9182,12.2783,2024-04-16 00:20:00,61.0,36.0,^,green,5.0,994.0,(2092.496377778258+0j),4.0,9.0,250.0,10000.0,99999,6.0,(1097.3963777782583+0j),0.9,1116062509100502040399404000051000600907610086000
3699,ETSN,48.711,11.2115,2024-04-16 00:20:00,,,,,5.0,1009.0,(12.697267547591254+0j),0.0,12.0,260.0,10000.0,99999,3.0,(-993.6027324524086+0j),0.0,1116032612100502000300904000051000600007000083000
3700,ETHB,52.2785,9.08217,2024-04-16 00:29:00,80.0,36.0,q,green,5.0,999.0,(2968.4414974392375+0j),3.0,19.0,260.0,10000.0,99999,3.0,(1967.7414974392375+0j),0.0,1116032619100502030399904000051000600007800083000
3701,ETIH,49.2181,11.8361,2024-04-16 00:30:00,,,,,4.0,29.75,(16.901465480216007+0j),0.0,8.0,250.0,10000.0,99999,3.0,(-989.398534519784+0j),0.2,111603250810040200032974000051000600207000083000
3739,LFCK,43.5563,2.28918,2024-04-16 00:30:00,,,,,11.0,1023.0,(4362.745207758802+0j),6.0,14.0,280.0,10000.0,99999,5.0,0j,0.0,1116052814101102060302304000051000600007000085000
3740,LFLP,45.9292,6.09876,2024-04-16 00:30:00,,,,,11.0,1016.0,(7792.462318611026+0j),4.0,6.0,230.0,10000.0,99999,8.0,(6775.1623186110255+0j),0.0,1116082306101102040301604000051000600007000088000
3745,LFQA,49.2087,4.15658,2024-04-16 00:30:00,,,,,7.0,1011.0,(2940.655314008036+0j),4.0,11.0,260.0,10000.0,99999,,(1928.4553140080359+0j),0.0,1116002611100702040301104000051000600007000080000
3771,LFJR,47.5603,-0.31222,2024-04-16 00:30:00,,,,,7.0,1019.0,(2150.353775572311+0j),4.0,8.0,260.0,10000.0,99999,,(1131.353775572311+0j),0.0,1116002608100702040301904000051000600007000080000
3775,LFPT,49.0966,2.04083,2024-04-16 00:30:00,,,,,6.0,1013.0,(3419.690284582622+0j),4.0,11.0,250.0,10000.0,99999,,(2406.190284582622+0j),0.0,1116002511100602040301304000051000600007000080000
3778,LHKE,46.9175,19.7492,2024-04-16 00:15:00,,,,,12.0,1006.0,(2288.242375138469+0j),9.0,1.0,,10000.0,99999,,(1281.242375138469+0j),0.0,1116003601101202090300604000051000600007000080000
3779,LHPA,47.3636,17.5008,2024-04-16 00:15:00,61.0,36.0,^,green,14.0,1005.0,(2376.475347278291+0j),11.0,6.0,40.0,10000.0,99999,4.0,(1370.375347278291+0j),0.0,11160404061014020110300504000051000600007610084000
3781,LHPR,47.6244,17.8136,2024-04-16 00:15:00,63.0,36.0,',green,13.0,1006.0,(2347.6276590447396+0j),12.0,4.0,330.0,10000.0,99999,5.0,(1342.6276590447396+0j),0.0,11160533041013020120300604000051000600007630085000
3782,LHSM,46.6864,17.1591,2024-04-16 00:15:00,,,,,12.0,1004.0,(2407.4230633110496+0j),10.0,4.0,70.0,10000.0,99999,,0j,0.0,11160007041012020100300404000051000600007000080000
3783,LHSN,47.1229,20.2355,2024-04-16 00:15:00,,,,,13.0,1005.0,(1989.110238321839+0j),10.0,3.0,230.0,10000.0,99999,,(983.110238321839+0j),0.0,11160023031013020100300504000051000600007000080000
3790,EPBY,53.0968,17.9777,2024-04-16 00:30:00,80.0,36.0,q,green,7.0,996.0,(2368.3977114822674+0j),7.0,9.0,220.0,7000.0,99999,6.0,0j,0.0,1114062209100702070399604000051000600007800086000
3794,EPRA,51.38883,21.21167,2024-04-16 00:30:00,,,,,7.0,999.0,(5157.6129208345665+0j),5.0,7.0,170.0,10000.0,99999,3.0,(4155.012920834566+0j),0.0,1116031707100702050399904000051000600007000083000
3796,EPSY,53.48194,20.93778,2024-04-16 00:30:00,,,,,4.0,998.0,(6539.391888484609+0j),2.0,2.0,30.0,10000.0,99999,,(5538.391888484609+0j),0.0,1116000302100402020399804000051000600007000080000
3806,LTAC,40.1281,32.9951,2024-04-16 00:20:00,,,,,6.0,1019.0,(20.621491762606727+0j),0.0,3.0,10.0,10000.0,99999,,(-996.8785082373932+0j),0.0,1116000103100602000301904000051000600007000080000
3807,LTAF,36.9822,35.2804,2024-04-16 00:20:00,,,,,14.0,1015.0,(1181.3741179561716+0j),12.0,5.0,50.0,10000.0,99999,,(165.37411795617163+0j),0.0,11160005051014020120301504000051000600007000080000
3808,LTAG,37.0021,35.4259,2024-04-16 00:20:00,,,,,14.0,1015.0,(1671.2471170047236+0j),11.0,6.0,60.0,10000.0,99999,,(655.5471170047235+0j),0.0,11160006061014020110301504000051000600007000080000
3809,LTAJ,36.9472,37.4787,2024-04-16 00:20:00,,,,,12.0,1017.0,(10.404358128227882+0j),8.0,2.0,,10000.0,99999,,(-1002.5956418717722+0j),0.0,1116003602101202080301704000051000600007000080000
3810,LTAP,40.8294,35.522,2024-04-16 00:20:00,,,,,5.0,1017.0,(16.327260885915635+0j),2.0,0.0,0.0,10000.0,99999,,(-1001.5727391140844+0j),0.0,1116000000100502020301704000051000600007000080000
3811,LTAT,38.4353,38.091,2024-04-16 00:20:00,,,,,6.0,1019.0,(19.540612089340936+0j),3.0,3.0,240.0,10000.0,99999,,(-997.9593879106591+0j),0.0,1116002403100602030301904000051000600007000080000
3812,LTBA,40.9769,28.8146,2024-04-16 00:20:00,,,,,16.0,1011.0,(1387.7680335640118+0j),11.0,0.0,0.0,10000.0,99999,,(374.76803356401183+0j),0.0,11160000001016020110301104000051000600007000080000
3813,LTBJ,38.2924,27.157,2024-04-16 00:20:00,,,,,13.0,1014.0,(2323.1572101491115+0j),10.0,3.0,150.0,10000.0,99999,,(1307.2572101491114+0j),0.0,11160015031013020100301404000051000600007000080000
3814,LTBS,36.7131,28.7925,2024-04-16 00:20:00,,,,,12.0,1015.0,(1073.5057596283682+0j),9.0,5.0,50.0,10000.0,99999,,(56.40575962836817+0j),0.0,1116000505101202090301504000051000600007000080000
3815,LTBU,41.1382,27.9191,2024-04-16 00:20:00,,,,,12.0,1011.0,(3095.03053876052+0j),10.0,5.0,230.0,10000.0,99999,,(2082.03053876052+0j),0.0,11160023051012020100301104000051000600007000080000
3816,LTCC,37.8939,40.201,2024-04-16 00:20:00,,,,,9.0,1017.0,(12.810143732847267+0j),8.0,4.0,300.0,10000.0,99999,,(-1002.9898562671527+0j),0.0,1116003004100902080301704000051000600007000080000
3817,LTCE,39.9565,41.1702,2024-04-16 00:20:00,,,,,-1.0,1023.0,(42.02409881971898+0j),-4.0,3.0,260.0,10000.0,99999,,(-977.375901180281+0j),0.0,1116002603110102140302304000051000600007000080000
3818,LTCG,40.9951,39.7897,2024-04-16 00:20:00,,,,,11.0,1017.0,(1367.161151391759+0j),7.0,2.0,,10000.0,99999,,(348.261151391759+0j),0.0,1116003602101102070301704000051000600007000080000
3819,LTCJ,37.929,41.1166,2024-04-16 00:20:00,,,,,10.0,1017.0,(9.916643526920087+0j),10.0,3.0,350.0,10000.0,99999,,(-1005.78335647308+0j),0.0,11160035031010020100301704000051000600007000080000
3820,EHGG,53.1197,6.57944,2024-04-16 00:25:00,,,,,5.0,996.0,(1114.548007436923+0j),3.0,10.0,240.0,10000.0,99999,,(117.54800743692294+0j),0.0,1116002410100502030399604000051000600007000080000
3821,EHKD,52.9234,4.78062,2024-04-16 00:25:00,,,,,7.0,998.0,(1012.6611492816623+0j),4.0,15.0,280.0,10000.0,99999,5.0,(13.561149281662324+0j),0.4,1116052815100702040399804000051000600407000085000
3843,LGKP,35.4214,27.146,2024-04-16 00:30:00,,,,,17.0,1015.0,(1153.4059088540446+0j),15.0,2.0,,10000.0,99999,,(136.5059088540446+0j),0.0,11160036021017020150301504000051000600007000080000
3894,LFBY,43.6892,-1.06889,2024-04-16 00:30:00,,,,,12.0,1024.0,(1358.6777304413708+0j),9.0,6.0,270.0,8000.0,99999,,(333.3777304413709+0j),0.0,1114002706101202090302404000051000600007000080000
3908,LFRL,48.2817,-4.44502,2024-04-16 00:30:00,,,,,9.0,1021.0,(2348.427164218322+0j),5.0,15.0,310.0,10000.0,99999,4.0,(1327.027164218322+0j),0.0,1116043115100902050302104000051000600007000084000
3912,LFYR,47.3208,1.68889,2024-04-16 00:30:00,,,,,7.0,1017.0,(2789.350730818427+0j),4.0,5.0,270.0,10000.0,99999,,(1772.350730818427+0j),0.0,1116002705100702040301704000051000600007000080000
3935,LYBT,44.9353,20.2575,2024-04-16 00:30:00,,,,,15.0,1007.0,(1686.012029474593+0j),7.0,1.0,,10000.0,99999,,(679.012029474593+0j),0.0,1116003601101502070300704000051000600007000080000
3936,LYKV,43.8183,20.5872,2024-04-16 00:30:00,,,,,22.0,1008.0,(2285.786868170176+0j),5.0,3.0,260.0,10000.0,99999,,(1276.7868681701761+0j),0.0,1116002603102202050300804000051000600007000080000
3940,LYVR,45.1469,21.3099,2024-04-16 00:30:00,,,,,19.0,1007.0,(1555.843686555368+0j),6.0,8.0,180.0,10000.0,99999,,(549.143686555368+0j),0.0,1116001808101902060300704000051000600007000080000
3956,EGXV,53.8758,-0.435,2024-04-16 00:20:00,,,,,8.0,1003.0,(1162.1949576430118+0j),3.0,12.0,300.0,10000.0,99999,8.0,(160.89495764301182+0j),0.0,1116083012100802030300304000051000600007000088000
3987,EPLL,51.7219,19.3981,2024-04-16 00:30:00,,,,,7.0,997.0,(5007.060455485536+0j),5.0,8.0,270.0,10000.0,99999,2.0,(4007.0604554855363+0j),0.0,1116022708100702050399704000051000600007000082000
3988,EPWR,51.1027,16.8858,2024-04-16 00:30:00,,,,,9.0,1000.0,(2917.1658469202475+0j),5.0,17.0,290.0,10000.0,99999,2.0,(1919.1658469202475+0j),0.0,1116022917100902050300004000051000600007000082000
3989,LFBE,44.8253,0.51861,2024-04-16 00:30:00,,,,,11.0,1021.0,(1619.8968618004699+0j),10.0,6.0,250.0,10000.0,99999,6.0,(596.8968618004699+0j),0.0,11160625061011020100302104000051000600007000086000
3990,LFBG,45.6583,-0.3175,2024-04-16 00:30:00,,,,,11.0,1021.0,(1365.3911766293907+0j),8.0,7.0,290.0,10000.0,99999,5.0,(344.39117662939066+0j),0.3,1116052907101102080302104000051000600307000085000
3991,LFCR,44.4079,2.48267,2024-04-16 00:30:00,,,,,7.0,1020.0,(13.71771417406092+0j),7.0,12.0,260.0,4700.0,99999,8.0,(-1007.2822858259391+0j),0.0,1112082612100702070302004000051000600007000088000
3992,LFJL,48.9821,6.25132,2024-04-16 00:30:00,,,,,6.0,1010.0,(8079.791214878427+0j),3.0,13.0,270.0,10000.0,99999,5.0,(7069.791214878427+0j),0.0,1116052713100602030301004000051000600007000085000
3993,LFMK,43.216,2.30632,2024-04-16 00:30:00,,,,,12.0,1021.0,(2547.6853326442524+0j),7.0,16.0,280.0,10000.0,99999,3.0,(1526.6853326442524+0j),0.0,1116032816101202070302104000051000600007000083000
3995,LFMU,43.3235,3.3539,2024-04-16 00:30:00,,,,,14.0,1019.0,(1162.2769901267097+0j),5.0,13.0,310.0,10000.0,99999,,(143.97699012670978+0j),0.0,1116003113101402050301904000051000600007000080000
3996,LHDC,47.4889,21.6153,2024-04-16 00:15:00,,,,,13.0,1004.0,(2114.2410065917998+0j),9.0,4.0,180.0,10000.0,99999,,(1110.3410065917997+0j),0.0,1116001804101302090300404000051000600007000080000
3997,LHPP,45.9909,18.241,2024-04-16 00:15:00,,,,,16.0,1005.0,(3815.6872238091055+0j),5.0,2.0,200.0,10000.0,99999,,(2809.3872238091053+0j),0.0,1116002002101602050300504000051000600007000080000
4001,LZPP,48.6252,17.8284,2024-04-16 00:30:00,61.0,36.0,^,green,12.0,1003.0,(2951.736421170142+0j),12.0,6.0,190.0,10000.0,99999,,0j,0.0,11160019061012020120300304000051000600007610080000
4002,LZZI,49.2315,18.6135,2024-04-16 00:30:00,61.0,36.0,^,green,11.0,1002.0,(5366.549940618035+0j),10.0,2.0,,10000.0,99999,8.0,0j,0.0,11160836021011020100300204000051000600007610088000
4019,LTAI,36.8987,30.8005,2024-04-16 00:20:00,,,,,15.0,1016.0,(1458.8191259551281+0j),9.0,6.0,350.0,10000.0,99999,,(442.0191259551282+0j),0.0,1116003506101502090301604000051000600007000080000
4020,LTAU,38.7704,35.4954,2024-04-16 00:20:00,,,,,3.0,1020.0,(28.36394016153629+0j),-0.0,2.0,90.0,10000.0,99999,,(-990.4360598384636+0j),0.0,1116000902100302100302004000051000600007000080000
4021,LTFE,37.2506,27.6643,2024-04-16 00:20:00,,,,,11.0,1015.0,(1082.13113012449+0j),9.0,4.0,90.0,10000.0,99999,,0j,0.0,1116000904101102090301504000051000600007000080000
4054,LJCE,45.9,15.5302,2024-04-16 00:30:00,,,,,18.0,1004.0,(2146.6712862394725+0j),8.0,11.0,240.0,10000.0,99999,,0j,0.0,1116002411101802080300404000051000600007000080000
4067,LFOV,48.0314,-0.74299,2024-04-16 00:30:00,,,,,7.0,1018.0,(3081.912684539318+0j),4.0,9.0,260.0,10000.0,99999,,(2063.312684539318+0j),0.0,1116002609100702040301804000051000600007000080000
4070,LFRV,47.7233,-2.71856,2024-04-16 00:30:00,,,,,7.0,1020.0,(3935.7418700550174+0j),5.0,6.0,280.0,10000.0,99999,3.0,(2914.9418700550177+0j),0.0,1116032806100702050302004000051000600007000083000
4074,LFAQ,49.9715,2.69766,2024-04-16 00:30:00,,,,,6.0,1009.0,(3736.8604629777537+0j),3.0,13.0,270.0,10000.0,99999,,(2726.8604629777537+0j),0.0,1116002713100602030300904000051000600007000080000
4075,LFBU,45.7292,0.22146,2024-04-16 00:30:00,,,,,10.0,1020.0,(2911.5908301619575+0j),7.0,12.0,290.0,10000.0,99999,,(1890.5908301619575+0j),0.2,1116002912101002070302004000051000600207000080000
4079,LFOZ,47.8969,2.16333,2024-04-16 00:30:00,,,,,7.0,1016.0,(3552.474051131435+0j),3.0,10.0,270.0,10000.0,99999,,(2536.474051131435+0j),0.0,1116002710100702030301604000051000600007000080000
4106,LEMI,37.803,-1.125,2024-04-16 00:30:00,,,,,16.0,1018.0,(2708.034839444001+0j),3.0,4.0,310.0,10000.0,99999,,0j,0.0,1116003104101602030301804000051000600007000080000
4108,LECH,40.21417,0.07333,2024-04-16 00:30:00,,,,,18.0,1018.0,(4029.526398009594+0j),3.0,3.0,350.0,10000.0,99999,,(3006.726398009594+0j),0.0,1116003503101802030301804000051000600007000080000
4120,UUBW,55.5533,38.15,2024-04-16 00:30:00,,,,,6.0,997.0,(3802.2339824432684+0j),5.0,4.0,250.0,10000.0,99999,6.0,(2806.2339824432684+0j),0.0,1116062504100602050399704000051000600007000086000
4121,UUOL,52.7028,39.5378,2024-04-16 00:30:00,,,,,5.0,1002.0,(6606.383599545315+0j),-0.0,3.0,250.0,10000.0,99999,,0j,0.0,1116002503100502100300204000051000600007000080000
4128,URMG,43.3883,45.6986,2024-04-16 00:30:00,,,,,10.0,1017.0,(1017+0j),7.0,0.0,0.0,10000.0,99999,,(0.5+0j),0.0,1116000000101002070301704000051000600007000080000
4131,URMO,43.2051,44.6066,2024-04-16 00:30:00,,,,,6.0,1017.0,(13.897189904507494+0j),5.0,3.0,90.0,10000.0,99999,,(-1003.0028100954925+0j),0.0,1116000903100602050301704000051000600007000080000
4133,URRP,47.50083,39.93361,2024-04-16 00:30:00,,,,,14.0,1010.0,(1796.4904797110041+0j),10.0,7.0,240.0,10000.0,99999,,0j,0.0,11160024071014020100301004000051000600007000080000
4138,UUBC,54.55,36.36667,2024-04-16 00:30:00,,,,,6.0,999.0,(6205.765023480439+0j),1.0,3.0,250.0,10000.0,99999,1.0,0j,0.0,1116012503100602010399904000051000600007000081000
4139,UUOB,50.6438,36.5901,2024-04-16 00:30:00,,,,,8.0,1006.0,(5343.576607295898+0j),7.0,4.0,270.0,10000.0,99999,,(4337.576607295898+0j),0.0,1116002704100802070300604000051000600007000080000
4140,UUOK,51.7506,36.2956,2024-04-16 00:30:00,,,,,6.0,1004.0,(6493.458398213289+0j),1.0,3.0,240.0,10000.0,99999,,(5488.458398213289+0j),0.0,1116002403100602010300404000051000600007000080000
4143,UWPS,54.12513,45.21226,2024-04-16 00:30:00,,,,,5.0,998.0,(7502.729884442552+0j),0.0,6.0,230.0,10000.0,99999,,(6503.429884442552+0j),0.0,1116002306100502000399804000051000600007000080000
4152,UWKS,56.0903,47.3473,2024-04-16 00:30:00,,,,,5.0,995.0,(6296.371578410016+0j),5.0,4.0,250.0,10000.0,99999,1.0,(5300.871578410016+0j),0.0,1116012504100502050399504000051000600007000081000
4156,UUDL,57.5607,40.1574,2024-04-16 00:30:00,,,,,5.0,992.0,(3509.968137042953+0j),3.0,5.0,260.0,10000.0,99999,8.0,(2518.568137042953+0j),0.2,1116082605100502030399204000051000600207000088000
4159,UUMO,55.5117,37.5072,2024-04-16 00:30:00,,,,,6.0,997.0,(5439.852270954737+0j),3.0,7.0,270.0,10000.0,99999,6.0,(4442.752270954737+0j),0.0,1116062707100602030399704000051000600007000086000
4165,EGDM,51.1522,-1.74741,2024-04-16 00:20:00,,,,,7.0,1011.0,(3615.095129925062+0j),3.0,15.0,290.0,10000.0,99999,1.0,(2604.095129925062+0j),0.0,1116012915100702030301104000051000600007000081000
4167,EGDY,51.0094,-2.63882,2024-04-16 00:20:00,,,,,9.0,1013.0,(1318.2822514265656+0j),4.0,23.0,280.0,10000.0,99999,8.0,(305.6822514265656+0j),0.0,1116082823100902040301304000051000600007000088000
4169,EGOS,52.7982,-2.66804,2024-04-16 00:20:00,,,,,9.0,1009.0,(2127.093279608021+0j),5.0,15.0,310.0,10000.0,99999,8.0,(1118.993279608021+0j),0.0,1116083115100902050300904000051000600007000088000
4173,EGUW,52.1273,0.95626,2024-04-16 00:20:00,,,,,6.0,1004.0,(3048.920662202994+0j),3.0,18.0,280.0,10000.0,99999,2.0,(2043.9206622029942+0j),0.0,1116022818100602030300404000051000600007000082000
4174,EGVO,51.2341,-0.94283,2024-04-16 00:20:00,,,,,8.0,1009.0,(3228.0806338181746+0j),2.0,15.0,270.0,10000.0,99999,6.0,(2217.880633818175+0j),0.0,1116062715100802020300904000051000600007000086000
4175,EGVP,51.1394,-1.56861,2024-04-16 00:20:00,,,,,7.0,1010.0,(2825.7781717690395+0j),3.0,15.0,280.0,10000.0,99999,,(1814.5781717690395+0j),0.0,1116002815100702030301004000051000600007000080000
4177,EGWU,51.553,-0.41817,2024-04-16 00:20:00,,,,,8.0,1008.0,(1597.3949562394246+0j),4.0,16.0,280.0,10000.0,99999,8.0,(587.8949562394246+0j),0.0,1116082816100802040300804000051000600007000088000
4179,EGXT,52.6126,-0.47645,2024-04-16 00:20:00,,,,,6.0,1005.0,(2961.71132568606+0j),4.0,12.0,270.0,10000.0,99999,,(1955.5113256860598+0j),0.0,1116002712100602040300504000051000600007000080000
4181,EGXZ,54.2055,-1.38209,2024-04-16 00:20:00,,,,,8.0,1005.0,(1431.1313748159052+0j),3.0,21.0,320.0,10000.0,99999,8.0,(429.0313748159052+0j),0.0,1116083221100802030300504000051000600007000088000
4182,EGYD,53.0303,-0.48324,2024-04-16 00:20:00,,,,,6.0,1005.0,(2519.5798748576162+0j),4.0,14.0,280.0,10000.0,99999,,(1514.2798748576163+0j),0.0,1116002814100602040300504000051000600007000080000
4184,EGYM,52.6484,0.55069,2024-04-16 00:20:00,,,,,6.0,1004.0,(1469.4540768655788+0j),4.0,12.0,280.0,10000.0,99999,6.0,(464.8540768655788+0j),0.2,1116062812100602040300404000051000600207000086000
4193,LEHC,42.0761,-0.31667,2024-04-16 00:30:00,,,,,9.0,1018.0,(10.57273542876075+0j),2.0,18.0,270.0,10000.0,99999,,(-1007.4272645712392+0j),0.0,1116002718100902020301804000051000600007000080000
4196,LESB,39.5989,2.70278,2024-04-16 00:30:00,,,,,13.0,1018.0,(1472.8441975297183+0j),7.0,3.0,350.0,10000.0,99999,,(454.84419752971826+0j),0.0,1116003503101302070301804000051000600007000080000
4199,EGOV,53.2481,-4.53534,2024-04-16 00:20:00,,,,,9.0,1012.0,(1158.3560354803603+0j),6.0,19.0,300.0,10000.0,99999,3.0,(147.55603548036038+0j),0.0,1116033019100902060301204000051000600007000083000
4216,LQMO,43.2829,17.8459,2024-04-16 00:30:00,,,,,15.0,1009.0,(1393.3614938700591+0j),11.0,2.0,,10000.0,99999,,(382.3614938700591+0j),0.0,11160036021015020110300904000051000600007000080000
4237,LFMO,44.1405,4.86672,2024-04-16 00:30:00,,,,,14.0,1015.0,(1549.5091273829137+0j),5.0,6.0,310.0,10000.0,99999,,(534.5091273829137+0j),0.0,1116003106101402050301504000051000600007000080000
4241,LFPM,48.6047,2.67112,2024-04-16 00:30:00,,,,,6.0,1014.0,(3229.4116950154057+0j),4.0,12.0,260.0,10000.0,99999,3.0,(2215.4116950154057+0j),0.0,1116032612100602040301404000051000600007000083000
4248,LEBG,42.3576,-3.62076,2024-04-16 00:30:00,,,,,5.0,1024.0,(22.041877569218336+0j),4.0,6.0,40.0,10000.0,99999,1.0,(-1002.2581224307817+0j),0.0,1116010406100502040302404000051000600007000081000
4259,LFLW,44.8914,2.42194,2024-04-16 00:30:00,,,,,7.0,1019.0,(14.65888793544528+0j),6.0,8.0,280.0,10000.0,99999,7.0,(-1006.9411120645548+0j),0.0,1116072808100702060301904000051000600007000087000
4269,LRCL,46.7852,23.6862,2024-04-16 00:30:00,,,,,17.0,1004.0,(3732.331303724348+0j),10.0,8.0,280.0,10000.0,99999,,(2727.831303724348+0j),0.0,11160028081017020100300404000051000600007000080000
4270,LRSB,45.7856,24.0913,2024-04-16 00:30:00,,,,,16.0,1006.0,(5428.217076810167+0j),5.0,6.0,270.0,10000.0,99999,,(4421.717076810167+0j),0.0,1116002706101602050300604000051000600007000080000
4272,LUKK,46.9277,28.931,2024-04-16 00:30:00,,,,,15.0,1003.0,(2066.5631046496046+0j),11.0,4.0,360.0,10000.0,99999,,(1063.2631046496047+0j),0.0,11160036041015020110300304000051000600007000080000
4300,LRBC,46.5219,26.9103,2024-04-16 00:30:00,,,,,12.0,1005.0,(3213.2063037876283+0j),8.0,5.0,330.0,10000.0,99999,,(2208.806303787628+0j),0.0,1116003305101202080300504000051000600007000080000
4301,LRBM,47.6584,23.47,2024-04-16 00:30:00,,,,,17.0,1004.0,(2481.923601734892+0j),9.0,3.0,,10000.0,99999,4.0,(1478.3236017348922+0j),0.0,1116043603101702090300404000051000600007000084000
4302,LRCV,44.3181,23.8886,2024-04-16 00:30:00,,,,,20.0,1006.0,(2286.7038954566224+0j),4.0,11.0,260.0,10000.0,99999,,(1279.8038954566223+0j),0.0,1116002611102002040300604000051000600007000080000
4303,LROD,47.0253,21.9025,2024-04-16 00:30:00,,,,,15.0,1005.0,(2270.611079703102+0j),11.0,4.0,110.0,10000.0,99999,1.0,(1265.411079703102+0j),0.0,11160111041015020110300504000051000600007000081000
4306,GEML,35.2798,-2.95626,2024-04-16 00:30:00,,,,,17.0,1018.0,(1357.612332603132+0j),9.0,1.0,270.0,10000.0,99999,,(338.612332603132+0j),0.0,1116002701101702090301804000051000600007000080000
4307,EBBE,50.7586,4.76833,2024-04-16 00:25:00,,,,,5.0,1005.0,(4408.4014058078665+0j),1.0,99999.0,,10000.0,99999,1.0,(3401.4014058078665+0j),0.0,1116013699999100502010300504000051000600007000081000
4308,EBCV,50.5758,3.831,2024-04-16 00:25:00,,,,,6.0,1007.0,(2336.8482121846605+0j),3.0,11.0,240.0,10000.0,99999,4.0,(1328.7482121846606+0j),0.2,1116042411100602030300704000051000600207000084000
4309,EBDT,50.9992,5.06556,2024-04-16 00:25:00,,,,,6.0,1005.0,(1640.9010458229884+0j),2.0,8.0,240.0,10000.0,99999,,(635.9010458229884+0j),0.0,1116002408100602020300504000051000600007000080000
4310,EBFN,51.0903,2.65278,2024-04-16 00:25:00,,,,,9.0,1006.0,(1083.6206662801583+0j),3.0,22.0,270.0,10000.0,99999,6.0,(77.62066628015828+0j),0.0,1116062722100902030300604000051000600007000086000
4311,EBFS,50.2433,4.64583,2024-04-16 00:25:00,,,,,4.0,1007.0,(12.035961010947124+0j),2.0,13.0,250.0,10000.0,99999,6.0,(-995.9640389890528+0j),0.0,1116062513100402020300704000051000600007000086000
4312,EPGD,54.3776,18.4662,2024-04-16 00:30:00,,,,,5.0,996.0,(5595.770339076874+0j),2.0,7.0,130.0,10000.0,99999,,(4595.6703390768735+0j),0.0,1116001307100502020399604000051000600007000080000
4313,EPKK,50.0777,19.7848,2024-04-16 00:30:00,45.0,36.0,N,yellow,10.0,1000.0,(4649.974167429139+0j),9.0,3.0,210.0,300.0,99999,6.0,(3647.974167429139+0j),0.2,1110062103101002090300004000051000600207450086000
4314,EPKT,50.4743,19.08,2024-04-16 00:30:00,,,,,12.0,999.0,(4842.722527241223+0j),10.0,14.0,220.0,10000.0,99999,,(3841.7225272412234+0j),1.1,11160022141012020100399904000051000601107000080000
4315,EPLB,51.24028,22.71361,2024-04-16 00:30:00,,,,,5.0,999.0,(7081.466298413451+0j),4.0,4.0,80.0,10000.0,99999,,0j,0.0,1116000804100502040399904000051000600007000080000
4316,EPMO,52.4511,20.6518,2024-04-16 00:30:00,,,,,7.0,997.0,(3095.4449032482185+0j),5.0,8.0,110.0,10000.0,99999,,(2094.4449032482185+0j),0.0,1116001108100702050399704000051000600007000080000
4317,EPPO,52.421,16.8263,2024-04-16 00:30:00,,,,,7.0,997.0,(2865.296089269719+0j),7.0,10.0,220.0,10000.0,99999,3.0,(1866.7960892697188+0j),1.3,1116032210100702070399704000051000601307000083000
4318,EPRZ,50.11,22.019,2024-04-16 00:30:00,45.0,36.0,N,yellow,10.0,1000.0,(4052.145026103325+0j),10.0,4.0,150.0,300.0,99999,8.0,(3050.145026103325+0j),0.0,11100815041010020100300004000051000600007450088000
4319,EPSC,53.5847,14.9022,2024-04-16 00:30:00,80.0,36.0,q,green,5.0,994.0,(2236.65901798326+0j),5.0,14.0,240.0,4500.0,99999,4.0,(1240.6590179832601+0j),0.4,1112042414100502050399404000051000600407800084000
4320,EPWA,52.1657,20.9671,2024-04-16 00:30:00,,,,,6.0,997.0,(3675.5596181478463+0j),5.0,9.0,120.0,10000.0,99999,,(2673.1596181478462+0j),0.0,1116001209100602050399704000051000600007000080000
4322,LBBG,42.5696,27.5152,2024-04-16 00:30:00,,,,,17.0,1008.0,(1296.7639398184813+0j),9.0,11.0,250.0,10000.0,99999,,(286.2639398184813+0j),0.0,1116002511101702090300804000051000600007000080000
4323,LBPD,42.0678,24.8508,2024-04-16 00:30:00,,,,,12.0,1009.0,(3184.337421701523+0j),10.0,5.0,240.0,10000.0,99999,,(2175.337421701523+0j),0.0,11160024051012020100300904000051000600007000080000
4324,LBSF,42.69669,23.41144,2024-04-16 00:30:00,,,,,17.0,1011.0,(5923.718817452022+0j),7.0,10.0,310.0,10000.0,99999,,(4914.018817452023+0j),0.0,1116003110101702070301104000051000600007000080000
4325,LBWN,43.2321,27.8251,2024-04-16 00:30:00,,,,,15.0,1007.0,(1588.943642868553+0j),8.0,4.0,10.0,10000.0,99999,,(579.843642868553+0j),0.0,1116000104101502080300704000051000600007000080000
4326,LHBP,47.4369,19.2556,2024-04-16 00:30:00,61.0,36.0,^,green,14.0,1005.0,(2473.5086615196424+0j),12.0,3.0,360.0,10000.0,99999,3.0,(1467.4086615196425+0j),0.0,11160336031014020120300504000051000600007610083000
4327,LRBS,44.5032,26.1021,2024-04-16 00:30:00,,,,,18.0,1005.0,(1633.9759663491313+0j),9.0,3.0,290.0,10000.0,99999,,(627.9759663491313+0j),0.0,1116002903101802090300504000051000600007000080000
4330,LRTC,45.0625,28.7143,2024-04-16 00:30:00,,,,,20.0,1004.0,(1370.8537338593662+0j),9.0,9.0,220.0,10000.0,99999,1.0,(364.2537338593662+0j),0.0,1116012209102002090300404000051000600007000081000
4331,LRTR,45.8099,21.3379,2024-04-16 00:30:00,,,,,13.0,1006.0,(2080.3418133428454+0j),6.0,4.0,240.0,10000.0,99999,,(1074.4418133428453+0j),0.0,1116002404101302060300604000051000600007000080000
4332,LDDU,42.5614,18.2682,2024-04-16 00:30:00,,,,,19.0,1012.0,(2136.6073932476866+0j),11.0,10.0,140.0,10000.0,99999,,(1123.1073932476866+0j),0.0,11160014101019020110301204000051000600007000080000
4333,LDOS,45.4627,18.8102,2024-04-16 00:30:00,,,,,15.0,1005.0,(1753.0579913300842+0j),6.0,7.0,190.0,10000.0,99999,,(746.6579913300842+0j),0.0,1116001907101502060300504000051000600007000080000
4334,LDPL,44.8935,13.9222,2024-04-16 00:30:00,,,,,14.0,1005.0,(1763.1932782952538+0j),12.0,3.0,200.0,10000.0,99999,,(754.3932782952538+0j),0.0,11160020031014020120300504000051000600007000080000
4335,LDSP,43.5389,16.298,2024-04-16 00:30:00,,,,,18.0,1008.0,(1163.9210265349295+0j),12.0,3.0,20.0,10000.0,99999,,(152.12102653492957+0j),0.0,11160002031018020120300804000051000600007000080000
4336,LDZA,45.7429,16.0688,2024-04-16 00:30:00,,,,,15.0,1004.0,(1932.687834523589+0j),7.0,3.0,240.0,10000.0,99999,,(926.8878345235889+0j),0.0,1116002403101502070300404000051000600007000080000
4337,LDZD,44.1083,15.3467,2024-04-16 00:30:00,,,,,14.0,1008.0,(1814.4408748789897+0j),11.0,5.0,100.0,10000.0,99999,,(804.4408748789897+0j),0.0,11160010051014020110300804000051000600007000080000
4338,LJLJ,46.2237,14.4576,2024-04-16 00:30:00,,,,,10.0,1005.0,(7159.311349147339+0j),7.0,2.0,,10000.0,99999,1.0,(6152.611349147339+0j),0.0,1116013602101002070300504000051000600007000081000
4339,LJMB,46.4799,15.6861,2024-04-16 00:30:00,,,,,13.0,1004.0,(4062.415810454387+0j),9.0,7.0,340.0,10000.0,99999,,(3056.915810454387+0j),0.0,1116003407101302090300404000051000600007000080000
4340,LJPZ,45.4734,13.615,2024-04-16 00:30:00,,,,,19.0,1004.0,(1016.6736636781413+0j),10.0,7.0,150.0,10000.0,99999,,(10.673663678141338+0j),0.0,11160015071019020100300404000051000600007000080000
4341,LKMT,49.6963,18.1111,2024-04-16 00:30:00,,,,,12.0,1001.0,(4201.811946276468+0j),10.0,11.0,220.0,10000.0,99999,3.0,(3199.211946276468+0j),0.0,11160322111012020100300104000051000600007000083000
4342,LKPR,50.1008,14.26,2024-04-16 00:30:00,,,,,6.0,1004.0,(10.922298466277459+0j),-1.0,20.0,260.0,10000.0,99999,1.0,(-989.6777015337226+0j),0.0,1116012620100602110300404000051000600007000081000
4343,LKTB,49.1513,16.6944,2024-04-16 00:30:00,,,,,12.0,1002.0,(3923.516983228497+0j),11.0,5.0,240.0,10000.0,99999,6.0,(2920.216983228497+0j),0.0,11160624051012020110300204000051000600007000086000
4344,LYBE,44.8184,20.3091,2024-04-16 00:30:00,,,,,19.0,1007.0,(1684.5376550967846+0j),5.0,3.0,260.0,10000.0,99999,,(677.1376550967847+0j),0.0,1116002603101902050300704000051000600007000080000
4345,LYNI,43.3373,21.8537,2024-04-16 00:30:00,,,,,19.0,1010.0,(2426.7589181919548+0j),6.0,1.0,110.0,10000.0,99999,,(1416.9589181919548+0j),0.0,1116001101101902060301004000051000600007000080000
4346,LYPG,42.3594,19.2519,2024-04-16 00:30:00,,,,,16.0,1013.0,(1336.806707632493+0j),12.0,5.0,20.0,10000.0,99999,,0j,0.0,11160002051016020120301304000051000600007000080000
4347,LYTV,42.4047,18.7233,2024-04-16 00:30:00,,,,,14.0,1011.0,(1060.8654317412388+0j),11.0,0.0,0.0,10000.0,99999,,(46.86543174123881+0j),0.0,11160000001014020110301104000051000600007000080000
4348,LZIB,48.1702,17.2127,2024-04-16 00:30:00,61.0,36.0,^,green,13.0,1003.0,(2383.507803171344+0j),12.0,4.0,240.0,10000.0,99999,,(1378.3078031713442+0j),3.1,11160024041013020120300304000051000603107610080000
4349,LZKZ,48.6631,21.2411,2024-04-16 00:30:00,61.0,36.0,^,green,12.0,1002.0,(3825.555077597768+0j),11.0,9.0,160.0,10000.0,99999,3.0,0j,0.0,11160316091012020110300204000051000600007610083000
4350,LZTT,49.0736,20.2411,2024-04-16 00:30:00,61.0,36.0,^,green,9.0,1003.0,(13.07852180879966+0j),7.0,10.0,240.0,10000.0,99999,4.0,(-989.9214781912003+0j),0.1,1116042410100902070300304000051000600107610084000
4355,LFAT,50.5174,1.62059,2024-04-16 00:30:00,,,,,9.0,1009.0,(1150.8709352677627+0j),3.0,20.0,290.0,10000.0,99999,4.0,(141.5709352677627+0j),0.0,1116042920100902030300904000051000600007000084000
4356,LFBD,44.8283,-0.71556,2024-04-16 00:30:00,,,,,12.0,1022.0,(1536.6644511840943+0j),11.0,11.0,270.0,10000.0,99999,5.0,(512.1644511840943+0j),0.0,11160527111012020110302204000051000600007000085000
4357,LFBH,46.1792,-1.19528,2024-04-16 00:30:00,,,,,11.0,1021.0,(1266.8569315149834+0j),5.0,16.0,320.0,10000.0,99999,3.0,(246.85693151498344+0j),0.0,1116033216101102050302104000051000600007000083000
4358,LFBI,46.5877,0.30667,2024-04-16 00:30:00,,,,,8.0,1020.0,(3377.4668176101245+0j),4.0,9.0,290.0,10000.0,99999,2.0,(2358.2668176101242+0j),0.2,1116022909100802040302004000051000600207000082000
4359,LFBO,43.6291,1.36382,2024-04-16 00:30:00,,,,,11.0,1023.0,(3007.9464348753977+0j),7.0,11.0,260.0,10000.0,99999,8.0,(1984.1464348753977+0j),0.0,1116082611101102070302304000051000600007000088000
4360,LFBP,43.38,-0.41861,2024-04-16 00:30:00,,,,,10.0,1024.0,(3840.9494181161294+0j),8.0,8.0,250.0,10000.0,99999,6.0,(2814.9494181161294+0j),0.0,1116062508101002080302404000051000600007000086000
4362,LFBZ,43.4684,-1.52332,2024-04-16 00:30:00,,,,,13.0,1025.0,(1766.8558108297163+0j),9.0,11.0,270.0,10000.0,99999,4.0,(740.8558108297163+0j),0.0,1116042711101302090302504000051000600007000084000
4364,LFKB,42.5527,9.48373,2024-04-16 00:30:00,,,,,13.0,1008.0,(1077.8877862030185+0j),12.0,4.0,260.0,9000.0,99999,,(66.28778620301853+0j),0.0,11150026041013020120300804000051000600007000080000
4365,LFKC,42.5308,8.79319,2024-04-16 00:30:00,,,,,20.0,1010.0,(1396.7091942610589+0j),8.0,20.0,190.0,10000.0,99999,,(384.2091942610589+0j),0.0,1116001920102002080301004000051000600007000080000
4366,LFKJ,41.9236,8.80292,2024-04-16 00:30:00,,,,,12.0,1013.0,(1065.489050723066+0j),9.0,5.0,60.0,10000.0,99999,,(50.189050723065975+0j),0.0,1116000605101202090301304000051000600007000080000
4367,LFLB,45.6381,5.88023,2024-04-16 00:30:00,,,,,14.0,1016.0,(3505.032571572072+0j),3.0,4.0,,10000.0,99999,4.0,(2488.632571572072+0j),0.0,1116043604101402030301604000051000600007000084000
4369,LFLL,45.7264,5.09083,2024-04-16 00:30:00,,,,,13.0,1017.0,(3895.11205349449+0j),4.0,10.0,290.0,10000.0,99999,6.0,(2877.4120534944896+0j),0.0,1116062910101302040301704000051000600007000086000
4370,LFLS,45.3629,5.32937,2024-04-16 00:30:00,,,,,10.0,1017.0,(7392.462552040723+0j),5.0,2.0,,10000.0,99999,7.0,(6375.462552040723+0j),0.0,1116073602101002050301704000051000600007000087000
4371,LFLY,45.7272,4.94427,2024-04-16 00:30:00,,,,,13.0,1016.0,(3253.868329775244+0j),4.0,13.0,280.0,10000.0,99999,,(2236.868329775244+0j),0.0,1116002813101302040301604000051000600007000080000
4372,LFMD,43.542,6.95348,2024-04-16 00:30:00,,,,,17.0,1007.0,(1033.4604603142473+0j),6.0,7.0,170.0,10000.0,99999,,(24.460460314247257+0j),0.0,1116001707101702060300704000051000600007000080000
4374,LFML,43.43927,5.22142,2024-04-16 00:30:00,,,,,15.0,1015.0,(1192.1285451067831+0j),8.0,21.0,290.0,10000.0,99999,,(176.82854510678317+0j),0.0,1116002921101502080301504000051000600007000080000
4375,LFMN,43.6584,7.21587,2024-04-16 00:30:00,,,,,14.0,1007.0,(1036.6787992166383+0j),13.0,3.0,,10000.0,99999,1.0,(27.8787992166383+0j),0.0,11160136031014020130300704000051000600007000081000
4376,LFMP,42.7404,2.87067,2024-04-16 00:30:00,,,,,14.0,1018.0,(1401.2627823218409+0j),6.0,20.0,310.0,10000.0,99999,3.0,(382.66278232184084+0j),0.0,1116033120101402060301804000051000600007000083000
4377,LFMT,43.5762,3.96301,2024-04-16 00:30:00,,,,,15.0,1017.0,(1056.7105848322167+0j),6.0,12.0,280.0,10000.0,99999,,(39.11058483221666+0j),0.0,1116002812101502060301704000051000600007000080000
4378,LFOB,49.4544,2.11278,2024-04-16 00:30:00,,,,,7.0,1011.0,(3267.6460648141947+0j),3.0,11.0,260.0,10000.0,99999,1.0,(2255.6460648141947+0j),0.0,1116012611100702030301104000051000600007000081000
4380,LFOT,47.4322,0.72761,2024-04-16 00:30:00,,,,,7.0,1018.0,(3275.821576973192+0j),4.0,7.0,270.0,10000.0,99999,,(2257.821576973192+0j),0.0,1116002707100702040301804000051000600007000080000
4383,LFPN,48.7519,2.10619,2024-04-16 00:30:00,,,,,5.0,1014.0,(6208.803541195074+0j),4.0,8.0,260.0,10000.0,99999,3.0,(5194.803541195074+0j),0.3,1116032608100502040301404000051000600307000083000
4384,LFPO,48.7253,2.35944,2024-04-16 00:30:00,,,,,7.0,1014.0,(2795.0610486073274+0j),4.0,11.0,260.0,10000.0,99999,2.0,(1781.1610486073273+0j),0.0,1116022611100702040301404000051000600007000082000
4389,LFRG,49.3653,0.15431,2024-04-16 00:30:00,,,,,9.0,1014.0,(3375.1774109209628+0j),3.0,18.0,290.0,10000.0,99999,6.0,(2360.6774109209628+0j),0.0,1116062918100902030301404000051000600007000086000
4395,LFRZ,47.3122,-2.14918,2024-04-16 00:30:00,,,,,10.0,1020.0,(1065.7394016525084+0j),5.0,11.0,290.0,10000.0,99999,,(45.139401652508354+0j),0.0,1116002911101002050302004000051000600007000080000
4396,LFSB,47.5896,7.52991,2024-04-16 00:30:00,63.0,36.0,',green,6.0,1013.0,(8227.048858304379+0j),4.0,13.0,280.0,8000.0,99999,4.0,(7214.548858304379+0j),0.0,1114042813100602040301304000051000600007630084000
4398,LFST,48.5383,7.62823,2024-04-16 00:30:00,61.0,36.0,^,green,7.0,1011.0,(4337.938212396515+0j),4.0,9.0,200.0,10000.0,99999,5.0,(3324.8382123965152+0j),0.4,1116052009100702040301104000051000600407610085000
4399,LFTW,43.7574,4.41635,2024-04-16 00:30:00,,,,,14.0,1016.0,(1891.2415963004746+0j),4.0,13.0,310.0,10000.0,99999,,(875.2415963004746+0j),0.0,1116003113101402040301604000051000600007000080000
4400,LFBA,44.1747,0.59056,2024-04-16 00:30:00,,,,,11.0,1023.0,(1750.4590059086677+0j),8.0,8.0,280.0,10000.0,99999,6.0,(726.9590059086677+0j),0.0,1116062808101102080302304000051000600007000086000
4401,LFBC,44.5333,-1.125,2024-04-16 00:30:00,,,,,13.0,1023.0,(1259.1996184570678+0j),10.0,9.0,280.0,10000.0,99999,5.0,(235.1996184570678+0j),0.0,11160528091013020100302304000051000600007000085000
4402,LFBL,45.8628,1.17944,2024-04-16 00:30:00,,,,,8.0,1019.0,(9.007752006818432+0j),8.0,9.0,280.0,10000.0,99999,7.0,(-1011.8922479931815+0j),0.0,1116072809100802080301904000051000600007000087000
4403,LFBM,43.9117,-0.5075,2024-04-16 00:30:00,,,,,10.0,1024.0,(1828.2499895240617+0j),10.0,6.0,270.0,5000.0,99999,5.0,(803.5499895240616+0j),0.0,11130527061010020100302404000051000600007000085000
4404,LFKF,41.5006,9.09778,2024-04-16 00:30:00,,,,,17.0,1011.0,(1194.247917003416+0j),10.0,16.0,250.0,10000.0,99999,,(181.24791700341598+0j),0.0,11160025161017020100301104000051000600007000080000
4405,LFOE,49.0287,1.21986,2024-04-16 00:30:00,,,,,6.0,1014.0,(4622.4292323324635+0j),4.0,11.0,260.0,10000.0,99999,4.0,(3608.4292323324635+0j),0.0,1116042611100602040301404000051000600007000084000
4406,LFOP,49.3842,1.1748,2024-04-16 00:30:00,,,,,7.0,1013.0,(4398.718142926916+0j),3.0,10.0,260.0,10000.0,99999,3.0,(3385.218142926916+0j),0.0,1116032610100702030301304000051000600007000083000
4407,LFPB,48.9694,2.44139,2024-04-16 00:30:00,,,,,7.0,1013.0,(2295.3159119191478+0j),3.0,12.0,250.0,10000.0,99999,1.0,(1281.6159119191477+0j),0.0,1116012512100702030301304000051000600007000081000
4408,LFPG,49.0128,2.55,2024-04-16 00:30:00,,,,,7.0,1013.0,(3512.8644655279027+0j),3.0,12.0,250.0,10000.0,99999,1.0,(2499.3644655279027+0j),0.0,1116012512100702030301304000051000600007000081000
4409,LFPV,48.7744,2.20154,2024-04-16 00:30:00,,,,,5.0,1014.0,(6685.501966006936+0j),3.0,9.0,260.0,10000.0,99999,3.0,(5670.701966006935+0j),0.0,1116032609100502030301404000051000600007000083000
4410,LFQB,48.3221,4.0167,2024-04-16 00:30:00,,,,,6.0,1014.0,(3970.505210572551+0j),3.0,14.0,260.0,10000.0,99999,,(2956.7052105725506+0j),0.0,1116002614100602030301404000051000600007000080000
4411,LFQQ,50.5619,3.08944,2024-04-16 00:30:00,,,,,8.0,1007.0,(1768.9897825982237+0j),3.0,18.0,250.0,10000.0,99999,5.0,(760.3897825982236+0j),0.0,1116052518100802030300704000051000600007000085000
4413,LFSD,47.2689,5.09,2024-04-16 00:30:00,,,,,8.0,1015.0,(5332.240018580869+0j),5.0,6.0,270.0,10000.0,99999,,(4317.740018580869+0j),0.0,1116002706100802050301504000051000600007000080000
4414,LFSI,48.636,4.89942,2024-04-16 00:30:00,,,,,7.0,1012.0,(3993.4565644427494+0j),4.0,10.0,250.0,10000.0,99999,1.0,(2980.5565644427493+0j),0.0,1116012510100702040301204000051000600007000081000
4415,LFSL,45.03967,1.4855,2024-04-16 00:30:00,,,,,10.0,1020.0,(5930.680578393065+0j),8.0,5.0,250.0,10000.0,99999,7.0,(4909.680578393065+0j),0.0,1116072505101002080302004000051000600007000087000
4416,LFSO,48.5831,5.955,2024-04-16 00:30:00,,,,,6.0,1011.0,(9.955576401943091+0j),3.0,12.0,270.0,10000.0,99999,3.0,(-1001.0444235980569+0j),0.0,1116032712100602030301104000051000600007000083000
4417,LFSX,47.7831,6.36406,2024-04-16 00:30:00,61.0,36.0,^,green,7.0,1013.0,(7374.953605783153+0j),5.0,8.0,240.0,10000.0,99999,5.0,(6361.653605783153+0j),1.2,1116052408100702050301304000051000601107610085000
4418,LFTH,43.0973,6.14603,2024-04-16 00:30:00,,,,,18.0,1011.0,(1024.4730360675082+0j),5.0,14.0,300.0,10000.0,99999,,(12.173036067508292+0j),0.0,1116003014101802050301104000051000600007000080000
4423,LPMA,32.6979,-16.7745,2024-04-16 00:30:00,,,,,19.0,1021.0,(1398.2344024165604+0j),5.0,5.0,360.0,10000.0,99999,1.0,(377.0344024165604+0j),0.0,1116013605101902050302104000051000600007000081000
4425,LPPS,33.0734,-16.35,2024-04-16 00:30:00,,,,,20.0,1021.0,(1683.245185359965+0j),11.0,9.0,100.0,9000.0,99999,1.0,(662.245185359965+0j),0.0,11150110091020020110302104000051000600007000081000
4427,ULAA,64.6003,40.7167,2024-04-16 00:30:00,80.0,36.0,q,green,3.0,988.0,(1779.4459791475035+0j),3.0,4.0,60.0,10000.0,99999,8.0,(790.5459791475035+0j),0.0,1116080604100302030398804000051000600007800088000
4428,UMMS,53.8825,28.0307,2024-04-16 00:30:00,,,,,-2.0,1002.0,(246.26800852871517+0j),-2.0,1.0,,10000.0,99999,,(-758.1319914712848+0j),0.0,1116003601110202120300204000051000600007000080000
4431,ULMM,68.7817,32.7508,2024-04-16 00:30:00,,,,,-2.0,1005.0,(-4826321.116334653-5044533.513438066j),-6.0,6.0,60.0,10000.0,99999,6.0,(-4827327.016334654-5044533.513438066j),0.0,1116060606110202160300504000051000600007000086000
4432,UUDD,55.4088,37.9063,2024-04-16 00:30:00,,,,,6.0,997.0,(5611.691515282573+0j),2.0,6.0,260.0,10000.0,99999,6.0,(4614.391515282573+0j),0.0,1116062606100602020399704000051000600007000086000
4436,URKK,45.0347,39.1705,2024-04-16 00:30:00,,,,,14.0,1014.0,(1323.2611505073205+0j),8.0,6.0,220.0,10000.0,99999,,(308.6611505073205+0j),0.0,1116002206101402080301404000051000600007000080000
4438,URMT,45.1092,42.1128,2024-04-16 00:30:00,,,,,13.0,1015.0,(6563.274760230318+0j),3.0,6.0,250.0,10000.0,99999,,(5548.074760230318+0j),0.0,1116002506101302030301504000051000600007000080000
4440,URWA,46.2833,48.0063,2024-04-16 00:30:00,,,,,14.0,1013.0,(857.8983218015064+0j),10.0,3.0,240.0,10000.0,99999,,(-155.90167819849353+0j),0.0,11160024031014020100301304000051000600007000080000
4441,URWI,46.3739,44.3309,2024-04-16 00:30:00,,,,,13.0,1012.0,(2642.6986821096953+0j),7.0,10.0,250.0,10000.0,99999,,(1629.4986821096952+0j),0.0,1116002510101302070301204000051000600007000080000
4442,URWW,48.7825,44.3455,2024-04-16 00:30:00,,,,,13.0,1007.0,(2559.899817156918+0j),11.0,9.0,250.0,10000.0,99999,4.0,(1551.5998171569179+0j),0.0,11160425091013020110300704000051000600007000084000
4443,UUEE,55.9726,37.4146,2024-04-16 00:30:00,,,,,5.0,996.0,(6949.987799408015+0j),4.0,6.0,240.0,10000.0,99999,8.0,(5954.987799408015+0j),0.0,1116082406100502040399604000051000600007000088000
4444,UUOO,51.8142,39.2296,2024-04-16 00:30:00,,,,,5.0,1003.0,(5893.868140807317+0j),-0.0,3.0,250.0,10000.0,99999,,(4890.868140807317+0j),0.0,1116002503100502100300304000051000600007000080000
4445,UUWW,55.5915,37.2615,2024-04-16 00:30:00,,,,,5.0,997.0,(7584.066221024145+0j),3.0,7.0,250.0,10000.0,99999,6.0,(6588.066221024145+0j),0.0,1116062507100502030399704000051000600007000086000
4447,UWGG,56.2301,43.784,2024-04-16 00:30:00,,,,,6.0,994.0,(2792.448836230486+0j),2.0,4.0,240.0,10000.0,99999,8.0,(1797.648836230486+0j),0.0,1116082404100602020399404000051000600007000088000
4448,UWKD,55.6062,49.2787,2024-04-16 00:30:00,,,,,5.0,996.0,(4791.20841942416+0j),3.0,4.0,210.0,10000.0,99999,,(3795.2084194241597+0j),0.0,1116002104100502030399604000051000600007000080000
4449,UWKE,55.5647,52.0925,2024-04-16 00:30:00,,,,,6.0,997.0,(6082.532657552188+0j),5.0,3.0,200.0,10000.0,99999,3.0,(5084.532657552188+0j),0.0,1116032003100602050399704000051000600007000083000
4450,UWWW,53.5049,50.1643,2024-04-16 00:30:00,,,,,4.0,999.0,(6710.889797715348+0j),2.0,4.0,240.0,10000.0,99999,,(5710.889797715348+0j),0.0,1116002404100402020399904000051000600007000080000
4451,LEAL,38.2822,-0.55816,2024-04-16 00:30:00,,,,,15.0,1017.0,(1367.6362709468854+0j),8.0,0.0,0.0,10000.0,99999,,(349.63627094688536+0j),0.0,1116000000101502080301704000051000600007000080000
4452,LEAM,36.8439,-2.3701,2024-04-16 00:30:00,,,,,17.0,1017.0,(1164.3195188443244+0j),13.0,3.0,10.0,10000.0,99999,,(146.2195188443244+0j),0.0,11160001031017020130301704000051000600007000080000
4454,LEBB,43.3011,-2.91061,2024-04-16 00:30:00,,,,,12.0,1026.0,(1461.0356124986256+0j),10.0,6.0,290.0,10000.0,99999,3.0,(434.0356124986256+0j),0.0,11160329061012020100302604000051000600007000083000
4455,LEBL,41.2971,2.07846,2024-04-16 00:30:00,,,,,16.0,1017.0,(1043.2065290543926+0j),14.0,2.0,60.0,10000.0,99999,2.0,(25.10652905439258+0j),0.0,11160206021016020140301704000051000600007000082000
4456,LECO,43.3021,-8.37726,2024-04-16 00:30:00,,,,,12.0,1027.0,(2142.016700405906+0j),9.0,6.0,40.0,10000.0,99999,8.0,(1114.3167004059057+0j),0.0,1116080406101202090302704000051000600007000088000
4457,LEDA,41.72819,0.53502,2024-04-16 00:30:00,,,,,10.0,1018.0,(6722.227092430525+0j),4.0,8.0,250.0,10000.0,99999,,(5705.227092430525+0j),0.0,1116002508101002040301804000051000600007000080000
4458,LEGE,41.901,2.76055,2024-04-16 00:30:00,,,,,12.0,1017.0,(2678.0922043882183+0j),10.0,4.0,340.0,10000.0,99999,1.0,(1660.7922043882184+0j),0.0,11160134041012020100301704000051000600007000081000
4460,LEIB,38.8729,1.37312,2024-04-16 00:30:00,,,,,16.0,1017.0,(1069.6963125225648+0j),15.0,3.0,190.0,10000.0,99999,1.0,(51.39631252256481+0j),0.0,11160119031016020150301704000051000600007000081000
4462,LELC,37.775,-0.81239,2024-04-16 00:30:00,,,,,15.0,1017.0,(1042.6210713331952+0j),8.0,2.0,,8000.0,99999,,(24.621071333195232+0j),0.0,1114003602101502080301704000051000600007000080000
4463,LELL,41.5209,2.10508,2024-04-16 00:30:00,,,,,15.0,1017.0,(2360.0542520276067+0j),11.0,2.0,,10000.0,99999,3.0,(1342.0542520276067+0j),0.0,11160336021015020110301704000051000600007000083000
4464,LEMD,40.4936,-3.56676,2024-04-16 00:30:00,,,,,15.0,1020.0,(7576.958196661368+0j),5.0,1.0,140.0,10000.0,99999,,(6558.858196661367+0j),0.0,1116001401101502050302004000051000600007000080000
4465,LEMG,36.6749,-4.49911,2024-04-16 00:30:00,,,,,16.0,1017.0,(1134.861156134544+0j),12.0,6.0,280.0,10000.0,99999,,(116.86115613454399+0j),0.0,11160028061016020120301704000051000600007000080000
4466,LEMH,39.8626,4.21865,2024-04-16 00:30:00,,,,,15.0,1017.0,(1808.5289001894566+0j),14.0,8.0,30.0,10000.0,99999,1.0,(790.9289001894566+0j),0.0,11160103081015020140301704000051000600007000081000
4467,LEPA,39.5517,2.73881,2024-04-16 00:30:00,,,,,12.0,1017.0,(1096.46581073527+0j),8.0,0.0,0.0,10000.0,99999,1.0,(78.16581073527004+0j),0.0,1116010000101202080301704000051000600007000081000
4468,LEPP,42.77,-1.64633,2024-04-16 00:30:00,,,,,10.0,1024.0,(8460.21780322466+0j),4.0,14.0,330.0,10000.0,99999,8.0,(7436.217803224659+0j),0.0,1116083314101002040302404000051000600007000088000
4469,LERS,41.1474,1.16717,2024-04-16 00:30:00,,,,,16.0,1017.0,(1572.7874395363744+0j),4.0,15.0,270.0,10000.0,99999,,(555.7874395363744+0j),0.0,1116002715101602040301704000051000600007000080000
4471,LEST,42.8963,-8.41514,2024-04-16 00:30:00,,,,,9.0,1026.0,(7691.74089168182+0j),7.0,11.0,40.0,10000.0,99999,6.0,(6664.74089168182+0j),0.0,1116060411100902070302604000051000600007000086000
4473,LEVC,39.4893,-0.48162,2024-04-16 00:30:00,,,,,16.0,1017.0,(1590.8848282886745+0j),7.0,4.0,320.0,10000.0,99999,,(572.0848282886745+0j),0.0,1116003204101602070301704000051000600007000080000
4476,LEVX,42.2318,-8.62677,2024-04-16 00:30:00,,,,,10.0,1023.0,(5101.285704216451+0j),8.0,8.0,20.0,10000.0,99999,,(4077.1857042164515+0j),0.0,1116000208101002080302304000051000600007000080000
4477,LEXJ,43.4271,-3.82001,2024-04-16 00:30:00,,,,,12.0,1026.0,(1073.1994263104818+0j),10.0,6.0,220.0,10000.0,99999,4.0,(46.19942631048184+0j),0.0,11160422061012020100302604000051000600007000084000
4488,LFLX,46.8622,1.73067,2024-04-16 00:30:00,,,,,8.0,1018.0,(4053.3945115008632+0j),5.0,9.0,280.0,10000.0,99999,,(3035.194511500863+0j),0.9,1116002809100802050301804000051000600907000080000
4489,LFMI,43.5227,4.92384,2024-04-16 00:30:00,,,,,14.0,1015.0,(1226.5922569322254+0j),6.0,13.0,270.0,10000.0,99999,,(211.59225693222538+0j),0.0,1116002713101402060301504000051000600007000080000
4490,LFMV,43.9073,4.90183,2024-04-16 00:30:00,,,,,15.0,1015.0,(1318.310533663413+0j),5.0,9.0,310.0,10000.0,99999,,(303.01053366341307+0j),0.0,1116003109101502050301504000051000600007000080000
4493,LFOK,48.7761,4.18449,2024-04-16 00:30:00,,,,,5.0,1012.0,(6703.182428423299+0j),3.0,15.0,250.0,10000.0,99999,,0j,0.0,1116002515100502030301204000051000600007000080000
4494,UMKK,54.89,20.5926,2024-04-16 00:30:00,,,,,2.0,999.0,(1813.516936305693+0j),1.0,2.0,140.0,10000.0,99999,,(811.016936305693+0j),0.0,1116001402100202010399904000051000600007000080000
4495,URML,42.8168,47.6523,2024-04-16 00:30:00,,,,,10.0,1017.0,(1059.0666348348386+0j),7.0,1.0,,10000.0,99999,,(41.86663483483858+0j),0.0,1116003601101002070301704000051000600007000080000
4496,UWLL,54.2683,48.2267,2024-04-16 00:30:00,,,,,3.0,998.0,(8434.344113875064+0j),2.0,3.0,170.0,10000.0,99999,,(7434.744113875064+0j),0.0,1116001703100302020399804000051000600007000080000
4497,LEAB,38.9485,-1.86352,2024-04-16 00:30:00,,,,,12.0,1020.0,(10.386133687450176+0j),10.0,0.0,0.0,10000.0,99999,,(-1008.0138663125498+0j),0.0,11160000001012020100302004000051000600007000080000
4498,LEAS,43.5636,-6.03462,2024-04-16 00:30:00,,,,,11.0,1027.0,(2646.7581006784285+0j),8.0,4.0,230.0,10000.0,99999,8.0,(1619.7581006784285+0j),0.0,1116082304101102080302704000051000600007000088000
4499,LEGR,37.1887,-3.77736,2024-04-16 00:30:00,,,,,15.0,1021.0,(7103.857359492604+0j),11.0,2.0,,10000.0,99999,,(6085.457359492604+0j),0.0,11160036021015020110302104000051000600007000080000
4500,LEJR,36.7446,-6.06011,2024-04-16 00:30:00,,,,,15.0,1018.0,(1243.1465404643989+0j),12.0,2.0,,8000.0,99999,,(224.3465404643989+0j),0.0,11140036021015020120301804000051000600007000080000
4501,LELN,42.589,-5.65556,2024-04-16 00:30:00,,,,,8.0,1023.0,(17.14275727508181+0j),2.0,2.0,,10000.0,99999,,(-1005.7572427249181+0j),0.0,1116003602100802020302304000051000600007000080000
4502,LESA,40.9521,-5.50199,2024-04-16 00:30:00,,,,,12.0,1022.0,(11.481914749336433+0j),8.0,11.0,90.0,10000.0,99999,,(-1010.5180852506636+0j),0.0,1116000911101202080302204000051000600007000080000
4503,LESO,43.3565,-1.79061,2024-04-16 00:30:00,,,,,13.0,1025.0,(1068.4942592644697+0j),9.0,3.0,250.0,10000.0,99999,3.0,(42.19425926446979+0j),0.2,1116032503101302090302504000051000600207000083000
4504,LEVD,41.7061,-4.85194,2024-04-16 00:30:00,,,,,8.0,1023.0,(16.281739676268394+0j),6.0,6.0,70.0,10000.0,99999,,(-1006.7182603237316+0j),0.0,1116000706100802060302304000051000600007000080000
4505,LEVT,42.8828,-2.72447,2024-04-16 00:30:00,,,,,10.0,1025.0,(9.334955560404998+0j),5.0,4.0,320.0,10000.0,99999,4.0,(-1016.965044439595+0j),0.0,1116043204101002050302504000051000600007000084000
4506,LEZG,41.6662,-1.04155,2024-04-16 00:30:00,,,,,12.0,1022.0,(4373.230891635868+0j),5.0,18.0,280.0,10000.0,99999,,(3352.230891635868+0j),0.0,1116002818101202050302204000051000600007000080000
4507,LEZL,37.418,-5.89311,2024-04-16 00:30:00,,,,,16.0,1018.0,(1273.522692797789+0j),14.0,4.0,150.0,10000.0,99999,,(255.622692797789+0j),0.0,11160015041016020140301804000051000600007000080000
4513,LPFR,37.0144,-7.96591,2024-04-16 00:30:00,,,,,17.0,1018.0,(1067.6140175290682+0j),15.0,3.0,260.0,10000.0,99999,,(48.7140175290682+0j),0.0,11160026031017020150301804000051000600007000080000
4514,LPPR,41.2481,-8.68139,2024-04-16 00:30:00,,,,,12.0,1021.0,(1766.5854050114135+0j),9.0,0.0,0.0,10000.0,99999,,(745.5854050114135+0j),0.0,1116000000101202090302104000051000600007000080000
4516,LRCK,44.3622,28.4883,2024-04-16 00:30:00,,,,,15.0,1005.0,(1934.6128224065806+0j),10.0,10.0,230.0,10000.0,99999,,(927.2128224065806+0j),0.0,11160023101015020100300504000051000600007000080000
4517,LRIA,47.1785,27.6206,2024-04-16 00:30:00,,,,,13.0,1004.0,(2247.1570452452906+0j),10.0,4.0,300.0,10000.0,99999,,(1242.1570452452906+0j),0.0,11160030041013020100300404000051000600007000080000
4518,LROP,44.5722,26.1022,2024-04-16 00:30:00,,,,,15.0,1005.0,(1821.536985650965+0j),10.0,7.0,240.0,10000.0,99999,,(814.4369856509651+0j),0.0,11160024071015020100300504000051000600007000080000
4519,LRSM,47.7033,22.8857,2024-04-16 00:30:00,,,,,14.0,1004.0,(2173.6666609505346+0j),9.0,3.0,110.0,10000.0,99999,2.0,(1171.4666609505346+0j),0.0,1116021103101402090300404000051000600007000082000
4521,LFBT,43.1787,-0.00644,2024-04-16 00:30:00,,,,,9.0,1024.0,(7940.962397581245+0j),5.0,6.0,270.0,10000.0,99999,,(6915.6623975812445+0j),0.0,1116002706100902050302404000051000600007000080000
4522,LFBX,45.1981,0.81556,2024-04-16 00:30:00,,,,,11.0,1020.0,(2249.4774845549464+0j),10.0,8.0,250.0,5000.0,99999,7.0,(1227.4774845549464+0j),0.0,11130725081011020100302004000051000600007000087000
4523,LFGJ,47.039,5.42725,2024-04-16 00:30:00,61.0,36.0,^,green,8.0,1015.0,(4799.83072143513+0j),6.0,7.0,240.0,10000.0,99999,7.0,(3784.73072143513+0j),0.0,1116072407100802060301504000051000600007610087000
4524,LFKS,41.9244,9.406,2024-04-16 00:30:00,,,,,25.0,1008.0,(1046.8923881411042+0j),6.0,11.0,270.0,10000.0,99999,,(34.89238814110422+0j),0.0,1116002711102502060300804000051000600007000080000
4525,LFLN,46.4125,4.01326,2024-04-16 00:30:00,,,,,7.0,1017.0,(6545.423602328066+0j),5.0,9.0,310.0,10000.0,99999,5.0,(5529.423602328066+0j),0.0,1116053109100702050301704000051000600007000085000
4526,LFMC,43.3847,6.38714,2024-04-16 00:30:00,,,,,17.0,1010.0,(1604.214717416638+0j),5.0,16.0,260.0,10000.0,99999,,(592.814717416638+0j),0.0,1116002616101702050301004000051000600007000080000
4528,LFMY,43.6064,5.10925,2024-04-16 00:30:00,,,,,14.0,1015.0,(1543.6546709324246+0j),6.0,6.0,280.0,10000.0,99999,,(528.6546709324246+0j),0.0,1116002806101402060301504000051000600007000080000
4529,LFOA,47.0533,2.6325,2024-04-16 00:30:00,,,,,7.0,1017.0,(4926.843104296651+0j),5.0,6.0,290.0,10000.0,99999,2.0,(3910.1431042966515+0j),1.5,1116022906100702050301704000051000601507000082000
4530,LFOH,49.5339,0.08806,2024-04-16 00:30:00,,,,,9.0,1013.0,(2465.740749468427+0j),4.0,24.0,290.0,10000.0,99999,6.0,(1452.740749468427+0j),0.0,1116062924100902040301304000051000600007000086000
4531,LFOJ,47.9878,1.76056,2024-04-16 00:30:00,,,,,5.0,1016.0,(4897.941582778729+0j),3.0,12.0,250.0,10000.0,99999,,(3882.941582778729+0j),0.0,1116002512100502030301604000051000600007000080000
4532,LFRC,49.6501,-1.47028,2024-04-16 00:30:00,,,,,8.0,1015.0,(3590.068934495801+0j),4.0,22.0,290.0,10000.0,99999,8.0,(2575.068934495801+0j),0.0,1116082922100802040301504000051000600007000088000
4533,LFRD,48.5877,-2.07996,2024-04-16 00:30:00,,,,,9.0,1018.0,(1995.316144653126+0j),4.0,15.0,310.0,10000.0,99999,1.0,(976.916144653126+0j),0.0,1116013115100902040301804000051000600007000081000
4534,LFRH,47.7606,-3.44,2024-04-16 00:30:00,,,,,8.0,1021.0,(1809.8475999925756+0j),4.0,6.0,270.0,10000.0,99999,2.0,(788.6475999925756+0j),0.0,1116022706100802040302104000051000600007000082000
4535,LFRJ,48.5303,-4.15164,2024-04-16 00:30:00,,,,,8.0,1021.0,(2909.493615943798+0j),4.0,9.0,310.0,10000.0,99999,2.0,(1888.693615943798+0j),0.0,1116023109100802040302104000051000600007000082000
4536,LFRK,49.1733,-0.45,2024-04-16 00:30:00,,,,,7.0,1015.0,(2556.0316147602575+0j),4.0,13.0,270.0,10000.0,99999,,(1540.0316147602575+0j),0.0,1116002713100702040301504000051000600007000080000
4537,LFRN,48.0695,-1.73479,2024-04-16 00:30:00,,,,,7.0,1019.0,(1708.129028038652+0j),5.0,9.0,270.0,10000.0,99999,2.0,(688.529028038652+0j),0.2,1116022709100702050301904000051000600207000082000
4538,LFRQ,47.975,-4.16779,2024-04-16 00:30:00,,,,,9.0,1021.0,(2400.794174742399+0j),5.0,9.0,310.0,10000.0,99999,4.0,(1379.7941747423988+0j),0.0,1116043109100902050302104000051000600007000084000
4539,LFRS,47.1532,-1.61073,2024-04-16 00:30:00,,,,,7.0,1020.0,(1507.3918476670215+0j),4.0,6.0,280.0,10000.0,99999,,(487.29184766702144+0j),0.0,1116002806100702040302004000051000600007000080000
4540,LFRT,48.5378,-2.85444,2024-04-16 00:30:00,,,,,7.0,1019.0,(3983.8876188662107+0j),5.0,8.0,280.0,10000.0,99999,2.0,(2964.287618866211+0j),0.0,1116022808100702050301904000051000600007000082000
4541,LFSN,48.6921,6.23046,2024-04-16 00:30:00,,,,,7.0,1011.0,(6174.123736316026+0j),4.0,9.0,270.0,10000.0,99999,4.0,(5161.823736316026+0j),0.0,1116042709100702040301104000051000600007000084000
4544,LQBK,44.9414,17.2975,2024-04-16 00:30:00,,,,,19.0,1005.0,(1826.6772943808278+0j),6.0,11.0,200.0,10000.0,99999,,(818.6772943808278+0j),0.0,1116002011101902060300504000051000600007000080000
4545,LQTZ,44.4587,18.7248,2024-04-16 00:30:00,,,,,13.0,1006.0,(3707.431100163286+0j),6.0,2.0,,10000.0,99999,,(2699.431100163286+0j),0.0,1116003602101302060300604000051000600007000080000
4546,UUYY,61.647,50.8451,2024-04-16 00:30:00,80.0,36.0,q,green,5.0,989.0,(4053.221814527803+0j),4.0,4.0,120.0,10000.0,99999,7.0,(3061.221814527803+0j),0.0,1116071204100502040398904000051000600007800087000
4547,EEEI,59.2603,24.2085,2024-04-16 00:35:00,,,,,1.0,999.0,(3920.2758214481387+0j),1.0,7.0,250.0,10000.0,99999,8.0,(2920.475821448139+0j),0.0,1116082507100102010399904000051000600007000088000
4550,LRAR,46.1766,21.262,2024-04-16 00:30:00,,,,,12.0,1006.0,(2196.445314939738+0j),8.0,2.0,190.0,10000.0,99999,,(1190.545314939738+0j),0.0,1116001902101202080300604000051000600007000080000
4551,LRTM,46.4677,24.4125,2024-04-16 00:30:00,,,,,13.0,1004.0,(4407.9989251326315+0j),8.0,2.0,70.0,10000.0,99999,6.0,(3402.9989251326315+0j),0.0,1116060702101302080300404000051000600007000086000
4552,LFMH,45.5406,4.29639,2024-04-16 00:30:00,,,,,11.0,1017.0,(6893.876742335612+0j),4.0,7.0,300.0,10000.0,99999,4.0,(5875.876742335612+0j),0.0,1116043007101102040301704000051000600007000084000
4554,ETAR,49.4369,7.60028,2024-04-16 00:30:00,,,,,7.0,29.75,(6477.1391060733795+0j),3.0,10.0,240.0,10000.0,99999,6.0,(5468.1391060733795+0j),0.2,111606241010070203032974000051000600207000086000
4555,EGUN,52.3619,0.48641,2024-04-16 00:29:00,,,,,6.0,29.66,(1230.7447817007019+0j),4.0,18.0,270.0,10000.0,99999,6.0,(226.44478170070192+0j),0.4,111606271810060204032964000051000600407000086000
4557,LFRB,48.4479,-4.41854,2024-04-16 00:30:00,,,,,9.0,1021.0,(2549.0187738857826+0j),5.0,9.0,310.0,10000.0,99999,6.0,(1527.5187738857826+0j),0.0,1116063109100902050302104000051000600007000086000
4558,LPPT,38.7813,-9.13592,2024-04-16 00:30:00,,,,,13.0,1020.0,(2200.955495785773+0j),12.0,11.0,330.0,10000.0,99999,1.0,(1179.955495785773+0j),0.0,11160133111013020120302004000051000600007000081000
4559,LXGB,36.1512,-5.34966,2024-04-16 00:20:00,,,,,18.0,1017.0,(1046.1359150750832+0j),14.0,6.0,90.0,10000.0,99999,,(28.135915075083176+0j),0.0,11160009061018020140301704000051000600007000080000
4560,EGDR,50.0861,-5.25571,2024-04-16 00:20:00,,,,,8.0,1019.0,(2413.799942860676+0j),4.0,18.0,310.0,10000.0,99999,6.0,(1395.7999428606759+0j),0.0,1116063118100802040301904000051000600007000086000
4561,EGOM,55.05,-2.55,2024-04-16 00:20:00,61.0,36.0,^,green,4.0,1006.0,(13.294542932338953+0j),3.0,10.0,300.0,10000.0,99999,8.0,(-989.8054570676611+0j),0.0,1116083010100402030300604000051000600007610088000
4562,EGQK,57.6494,-3.56064,2024-04-16 00:20:00,,,,,8.0,1008.0,(1104.6032570815762+0j),5.0,14.0,320.0,10000.0,99999,8.0,(99.80325708157625+0j),0.0,1116083214100802050300804000051000600007000088000
4563,EGUB,51.6164,-1.09583,2024-04-16 00:20:00,,,,,8.0,1009.0,(2153.5715170152203+0j),4.0,13.0,270.0,10000.0,99999,3.0,(1144.3715170152202+0j),0.0,1116032713100802040300904000051000600007000083000
4564,EGWC,52.64,-2.30558,2024-04-16 00:20:00,,,,,99999.0,99999.0,(99999+0j),99999.0,17.0,300.0,10000.0,99999,,(98991+0j),0.7,11160030171099999020999990399904000051000600707000080000
4565,EGXE,54.2924,-1.5354,2024-04-16 00:20:00,61.0,36.0,^,green,7.0,1005.0,(1732.8460759412567+0j),3.0,18.0,320.0,10000.0,99999,8.0,(730.6460759412566+0j),0.0,1116083218100702030300504000051000600007610088000
4566,EGXW,53.1662,-0.52381,2024-04-16 00:20:00,,,,,7.0,1004.0,(2360.820128737873+0j),3.0,13.0,300.0,10000.0,99999,,(1357.1201287378728+0j),0.0,1116003013100702030300404000051000600007000080000
4567,EGYE,52.9622,-0.56163,2024-04-16 00:20:00,,,,,5.0,1005.0,(4377.303309438128+0j),3.0,15.0,280.0,10000.0,99999,,(3373.503309438128+0j),0.0,1116002815100502030300504000051000600007000080000
4568,EICK,51.8413,-8.49111,2024-04-16 00:30:00,,,,,7.0,1021.0,(4358.31198850265+0j),2.0,18.0,300.0,10000.0,99999,6.0,(3337.11198850265+0j),0.0,1116063018100702020302104000051000600007000086000
4570,EINN,52.702,-8.92482,2024-04-16 00:30:00,,,,,9.0,1021.0,(1205.8160421743196+0j),4.0,16.0,290.0,10000.0,99999,3.0,(186.51604217431964+0j),0.0,1116032916100902040302104000051000600007000083000
4571,EIDW,53.4213,-6.27007,2024-04-16 00:30:00,,,,,7.0,1015.0,(2460.8291597601847+0j),5.0,15.0,280.0,10000.0,99999,2.0,(1446.9291597601846+0j),0.0,1116022815100702050301504000051000600007000082000
4574,ETOU,50.0498,8.3254,2024-04-16 00:38:00,,,,,6.0,29.72,(4667.479162595913+0j),2.0,7.0,270.0,10000.0,99999,4.0,(3659.9791625959133+0j),0.0,111604270710060202032974000051000600007000084000
4577,ULLI,59.8003,30.2625,2024-04-16 00:30:00,61.0,36.0,^,green,5.0,995.0,(1580.8694462986168+0j),4.0,4.0,300.0,10000.0,99999,5.0,(584.4694462986168+0j),0.0,1116053004100502040399504000051000600007610085000
4578,URKA,45.0021,37.3473,2024-04-16 00:30:00,,,,,15.0,1013.0,(1446.515407424984+0j),6.0,8.0,190.0,10000.0,99999,,(431.21540742498405+0j),0.0,1116001908101502060301304000051000600007000080000
4579,URMM,44.2251,43.0819,2024-04-16 00:30:00,,,,,8.0,1016.0,(7463.784808656394+0j),5.0,2.0,260.0,10000.0,99999,,(6447.684808656393+0j),0.0,1116002602100802050301604000051000600007000080000
4580,URSS,43.4499,39.9566,2024-04-16 00:30:00,,,,,10.0,1018.0,(1346.8152175103196+0j),8.0,3.0,60.0,10000.0,99999,,(326.9152175103196+0j),0.0,1116000603101002080301804000051000600007000080000
4586,LEBA,37.842,-4.84888,2024-04-16 00:30:00,,,,,15.0,1018.0,(1795.8749876517857+0j),14.0,3.0,280.0,10000.0,99999,,(778.8749876517857+0j),0.0,11160028031015020140301804000051000600007000080000
4587,LEGT,40.2941,-3.72383,2024-04-16 00:30:00,,,,,14.0,1020.0,(8163.342768721279+0j),5.0,5.0,40.0,10000.0,99999,,(7144.542768721279+0j),0.0,1116000405101402050302004000051000600007000080000
4588,LELO,42.46095,-2.32224,2024-04-16 00:30:00,,,,,7.0,1024.0,(9.21365298626914+0j),4.0,5.0,280.0,10000.0,99999,3.0,(-1015.7863470137308+0j),0.0,1116032805100702040302404000051000600007000083000
4589,LEMO,37.1749,-5.61594,2024-04-16 00:30:00,,,,,16.0,1018.0,(1710.6288212065306+0j),13.0,2.0,120.0,10000.0,99999,,(692.6288212065306+0j),0.0,11160012021016020130301804000051000600007000080000
4590,LERT,36.6452,-6.34946,2024-04-16 00:30:00,,,,,17.0,1018.0,(1200.324133616208+0j),15.0,4.0,310.0,10000.0,99999,,(182.22413361620795+0j),0.0,11160031041017020150301804000051000600007000080000
4591,LETO,40.4967,-3.44587,2024-04-16 00:30:00,,,,,12.0,1020.0,(9.319537619607097+0j),6.0,7.0,20.0,10000.0,99999,,(-1010.6804623803929+0j),0.0,1116000207101202060302004000051000600007000080000
4593,LFRI,46.7019,-1.37863,2024-04-16 00:30:00,,,,,7.0,1021.0,(2870.6505437699866+0j),4.0,6.0,290.0,10000.0,99999,,(1850.6505437699866+0j),0.0,1116002906100702040302104000051000600007000080000
4599,LFLC,45.7867,3.16917,2024-04-16 00:30:00,61.0,36.0,^,green,10.0,1017.0,(6300.2053978703725+0j),6.0,7.0,270.0,10000.0,99999,6.0,(5282.005397870373+0j),0.0,1116062707101002060301704000051000600007610086000
4600,LFRM,47.9486,0.20167,2024-04-16 00:30:00,,,,,8.0,1018.0,(1991.5903202650475+0j),5.0,7.0,260.0,10000.0,99999,4.0,(973.5903202650475+0j),0.0,1116042607100802050301804000051000600007000084000
4601,LIPL,45.4322,10.2677,2024-04-15 23:55:00,,,,,14.0,1004.0,(1943.7674084780224+0j),14.0,5.0,240.0,10000.0,99999,,(938.0674084780223+0j),0.0,11160024051014020140300404000051000600007000080000
4602,LKCV,49.9397,15.3818,2024-04-16 00:30:00,,,,,10.0,1002.0,(4674.827322742638+0j),-0.0,13.0,260.0,10000.0,99999,,(3672.327322742638+0j),0.0,1116002613101002100300204000051000600007000080000
4603,LKNA,49.1658,16.1249,2024-04-16 00:30:00,,,,,11.0,1002.0,(7806.185698807946+0j),5.0,8.0,240.0,10000.0,99999,,(6802.285698807947+0j),1.2,1116002408101102050300204000051000601107000080000
4604,LKPD,50.0134,15.7386,2024-04-16 00:30:00,,,,,10.0,1002.0,(4400.410910624955+0j),1.0,20.0,270.0,10000.0,99999,,(3400.4109106249552+0j),0.0,1116002720101002010300204000051000600007000080000
4607,ETIC,49.6987,11.9402,2024-04-16 00:40:00,,,,,4.0,29.69,(16.191629863591622+0j),1.0,5.0,220.0,10000.0,99999,7.0,(-988.8083701364084+0j),0.4,111607220510040201032964000051000600407000087000
4608,EHWO,51.4491,4.34203,2024-04-16 00:35:00,63.0,36.0,',green,8.0,1003.0,(1287.8175632053083+0j),3.0,17.0,260.0,10000.0,99999,4.0,(283.81756320530826+0j),0.0,1116042617100802030300304000051000600007630084000
4609,ETAD,49.9727,6.6925,2024-04-16 00:39:00,,,,,1.0,29.72,(28.932523835101236+0j),-0.0,9.0,230.0,10000.0,99999,4.0,(-977.0674761648987+0j),0.0,111604230910010210032974000051000600007000084000
4610,EDFH,49.9487,7.26389,2024-04-16 00:20:00,71.0,36.0,h,magenta,0.0,1006.0,(38.47010740563129+0j),-0.0,12.0,290.0,3000.0,99999,4.0,(-970.0298925943687+0j),0.0,1111042912100002100300604000051000600007710084000
4617,EHGR,51.5674,4.93183,2024-04-16 00:40:00,,,,,7.0,1002.0,(1253.5066190406528+0j),3.0,9.0,260.0,10000.0,99999,5.0,(250.50661904065282+0j),0.0,1116052609100702030300204000051000600007000085000
4618,EHLW,53.2286,5.76056,2024-04-16 00:40:00,,,,,6.0,996.0,(1013.0792672376745+0j),4.0,15.0,250.0,10000.0,99999,4.0,(15.379267237674412+0j),0.1,1116042515100602040399604000051000600107000084000
4619,LRCT,46.5023,23.8859,2024-04-16 00:00:00,,,,,19.0,1004.0,(3532.185020378323+0j),5.0,8.0,210.0,10000.0,99999,4.0,0j,0.0,1116042108101902050300404000051000600007000084000
