,station,lat,lon,time,weather,weatherfont,weathersymbol,weathercolour,temperature,pressure,sl_pressure,dewpoint,windspeed,winddir,visibility,visual_range,cloudcover,pressure3h_change,rain,wwletter
6,EHKD,52.9234,4.78062,2024-05-16 23:45:00,,,,,13.0,1007.0,1014.9541773550277,13.0,4.0,270.0,10000.0,99999,,0.8999999999999773,0.0,11160027041013020130300704014951008600007000080000
324,EEEI,59.2603,24.2085,2024-05-16 23:50:00,,,,,10.0,1024.0,1261.897416723377,6.0,3.0,270.0,10000.0,99999,,0.0,0.0,1116002703101002060302404261851000600007000080000
749,ETNG,50.9608,6.04242,2024-05-16 23:50:00,,,,,13.0,1006.0,1903.0484515123972,12.0,3.0,260.0,10000.0,99999,,-0.6000000000000227,0.0,11160026031013020120300604903051003600007000080000
800,EGJB,49.435,-2.60197,2024-05-16 23:50:00,,,,,12.0,1006.0,2135.8427183027266,11.0,6.0,130.0,10000.0,99999,,-0.39999999999997726,0.0,11160013061012020110300604135851006600007000080000
824,LGAL,40.8559,25.9563,2024-05-16 23:50:00,,,,,11.0,1019.0,1096.1722214375636,10.0,4.0,60.0,10000.0,99999,,-1.1000000000000227,0.0,11160006041011020100301904096151018600007000080000
825,LGKO,36.7933,27.0917,2024-05-16 23:50:00,,,,,20.0,1017.0,1828.7779287452945,12.0,4.0,110.0,10000.0,99999,,0.0,0.0,11160011041020020120301704828751000600007000080000
876,LGKL,37.0683,22.0255,2024-05-16 23:50:00,,,,,19.0,1015.0,1062.9341982237845,12.0,0.0,0.0,10000.0,99999,,-0.39999999999997726,0.0,11160000001019020120301504062951006600007000080000
877,LGLM,39.9171,25.2363,2024-05-16 23:50:00,,,,,14.0,1018.0,1053.0395786942283,12.0,0.0,0.0,10000.0,99999,,-0.7999999999999545,0.0,11160000001014020120301804053051002600007000080000
880,LGSM,37.69,26.9117,2024-05-16 23:50:00,,,,,18.0,1017.0,1053.9646706242365,8.0,2.0,,10000.0,99999,,-1.1000000000000227,0.0,1116003602101802080301704053951018600007000080000
928,LGMK,37.4351,25.3481,2024-05-16 23:50:00,,,,,16.0,1017.0,2037.2513238851695,12.0,11.0,20.0,10000.0,99999,,-0.5,0.0,11160002111016020120301704037251005600007000080000
970,ETEK,49.6503,7.30007,2024-05-16 23:55:00,51.0,36.0,T,green,12.2,29.69,1029.69,10.8,3.0,340.0,10000.0,99999,,-976.6099999999999,0.0,11160034031012120101329640296519763600007510080000
1018,EHLW,53.2286,5.76056,2024-05-16 23:55:00,10.0,36.0,+,yellow,15.0,1007.0,1013.8920707340535,14.0,4.0,50.0,4000.0,99999,,-0.2999999999999545,0.3,11120005041015020140300704013851007600307100080000
1061,LGBL,39.2196,22.7943,2024-05-16 23:50:00,,,,,16.0,1018.0,1205.1224627651154,13.0,5.0,110.0,10000.0,99999,,-1.0,0.0,11160011051016020130301804205151010600007000080000
1062,LGLR,39.65628,22.34,2024-05-16 23:50:00,,,,,15.0,1018.0,1636.9222684211645,12.0,0.0,0.0,10000.0,99999,,-1.1000000000000227,0.0,11160000001015020120301804636951018600007000080000
1065,LGTG,38.3398,23.565,2024-05-16 23:50:00,,,,,14.0,1018.0,2471.4967268264804,10.0,0.0,0.0,10000.0,99999,,-1.0,0.0,11160000001014020100301804471451010600007000080000
1110,LTAY,37.7856,29.7013,2024-05-16 23:50:00,,,,,13.0,1020.0,11.40597898065705,9.0,1.0,,10000.0,99999,,-1.0,0.0,111600360110130209030200411451010600007000080000
1111,LTBD,37.815,27.8953,2024-05-16 23:50:00,,,,,16.0,1017.0,1248.5387633812113,12.0,5.0,40.0,10000.0,99999,,-1.2000000000000455,0.0,11160004051016020120301704248551017600007000080000
1113,LTBH,40.1377,26.4268,2024-05-16 23:50:00,,,,,11.0,1019.0,1092.9092976962836,9.0,4.0,40.0,10000.0,99999,,-1.0,0.0,1116000404101102090301904092951010600007000080000
1114,LTBY,39.8099,30.5194,2024-05-16 23:50:00,,,,,9.0,1020.0,14.25411697565102,7.0,2.0,,10000.0,99999,,0.0,0.0,111600360210090207030200414251000600007000080000
1116,LTCB,40.96667,38.08,2024-05-16 23:50:00,,,,,8.0,1022.0,1101.8564981036834,7.0,1.0,210.0,10000.0,99999,,2.6000000000000227,0.7,1116002101100802070302204101851026600707000080000
1120,LTCN,37.53883,36.95352,2024-05-16 23:50:00,,,,,13.0,1019.0,7525.84931902094,11.0,8.0,60.0,10000.0,99999,,0.7000000000000455,0.0,11160006081013020110301904525851007600007000080000
1121,LTDA,36.36278,36.28222,2024-05-16 23:50:00,,,,,19.0,1018.0,1557.6468014570073,15.0,8.0,240.0,10000.0,99999,,0.0,0.0,11160024081019020150301804557651000600007000080000
1122,LTFD,39.5546,27.0138,2024-05-16 23:50:00,,,,,14.0,1019.0,1146.5511942887952,9.0,9.0,60.0,10000.0,99999,,0.0,0.0,1116000609101402090301904146551000600007000080000
1123,LTFG,36.29922,32.3006,2024-05-16 23:50:00,,,,,16.0,1017.0,1210.937442171708,15.0,5.0,100.0,10000.0,99999,,-0.39999999999997726,0.0,11160010051016020150301704210951006600007000080000
1154,LTBQ,40.735,30.0833,2024-05-16 23:50:00,80.0,36.0,q,green,10.0,1021.0,1732.2290233607016,9.0,4.0,10.0,10000.0,99999,,0.0,0.0,1116000104101002090302104732251000600007800080000
1163,LGPZ,38.9255,20.7653,2024-05-16 23:50:00,,,,,20.0,1012.0,1031.0959320309025,14.0,3.0,,10000.0,99999,,1.0,0.0,11160036031020020140301204031051010600007000080000
1164,LGRX,38.1511,21.4256,2024-05-16 23:50:00,,,,,21.0,1012.0,1088.9509192549458,12.0,15.0,60.0,9000.0,99999,,-1.5,0.0,11150006151021020120301204088951015600007000080000
1167,LBIA,42.4549,26.3522,2024-05-17 00:00:00,,,,,13.0,1021.0,2696.1102396521637,8.0,6.0,100.0,10000.0,99999,,0.0,0.0,1116001006101302080302104696151000600007000080000
1168,LBPL,43.4514,24.5028,2024-05-17 00:00:00,,,,,13.0,1018.0,2042.5021180919962,10.0,2.0,150.0,10000.0,99999,,0.10000000000002274,4.1,11160015021013020100301804042551001604007000080000
1174,LTCT,39.97663,43.87665,2024-05-16 23:50:00,,,,,11.0,1018.0,14.022829259534952,7.0,8.0,270.0,10000.0,99999,,0.0,0.0,111600270810110207030180414051000600007000080000
1177,EGNS,54.0833,-4.62389,2024-05-16 23:50:00,61.0,36.0,^,green,14.0,1006.0,1137.089350825009,11.0,8.0,60.0,6000.0,99999,,0.7999999999999545,0.0,11130006081014020110300604137051007600007610080000
1221,LBPG,42.2904,24.714,2024-05-17 00:00:00,,,,,12.0,1020.0,1630.3537201184781,11.0,4.0,140.0,10000.0,99999,,0.10000000000002274,0.0,11160014041012020110302004630351001600007000080000
1412,EGQL,56.3729,-2.86844,2024-05-16 23:50:00,,,,,11.0,1011.0,1133.3098048366203,9.0,8.0,40.0,10000.0,99999,,-0.5,0.0,1116000408101102090301104133351005600007000080000
1802,LTAB,39.935,32.7408,2024-05-16 23:50:00,,,,,9.0,1020.0,14.64287416427708,6.0,1.0,,10000.0,99999,,0.5,0.0,111600360110090206030200414651005600007000080000
1804,LTAN,37.979,32.5619,2024-05-16 23:50:00,,,,,11.0,1020.0,14.94656974019129,5.0,4.0,280.0,10000.0,99999,,1.7999999999999545,0.0,111600280410110205030200414951017600007000080000
1805,LTAR,39.8138,36.9035,2024-05-16 23:50:00,,,,,1.0,1022.0,36.237437258158806,0.0,3.0,180.0,10000.0,99999,,1.0,0.0,111600180310010200030220436251010600007000080000
1806,LTBG,40.318,27.9777,2024-05-16 23:50:00,,,,,13.0,1020.0,1516.3528818794455,10.0,4.0,360.0,10000.0,99999,,0.0,0.0,11160036041013020100302004516351000600007000080000
1807,LTBI,39.7841,30.5821,2024-05-16 23:50:00,,,,,10.0,1020.0,13.15903221999353,6.0,2.0,310.0,10000.0,99999,,0.0,0.0,111600310210100206030200413151000600007000080000
1808,LTBL,38.513,27.0101,2024-05-16 23:50:00,,,,,14.0,1018.0,1058.0864049197226,11.0,1.0,310.0,10000.0,99999,,-0.39999999999997726,0.0,11160031011014020110301804058051006600007000080000
1909,LTAE,40.0789,32.5656,2024-05-16 23:50:00,,,,,7.0,1020.0,17.64273498500117,4.0,2.0,,10000.0,99999,,0.0,0.0,111600360210070204030200417651000600007000080000
2041,LPMR,39.8312,-8.88726,2024-05-17 00:00:00,,,,,14.0,1011.0,1514.3256129167114,13.0,6.0,300.0,10000.0,99999,,-0.5,0.0,11160030061014020130301104514351005600007000080000
2042,LPMT,38.7039,-9.03592,2024-05-17 00:00:00,,,,,15.0,1012.0,1120.393235278096,12.0,7.0,320.0,10000.0,99999,,0.0,0.0,11160032071015020120301204120351000600007000080000
2047,UMGG,52.527,31.0167,2024-05-17 00:00:00,,,,,10.0,1024.0,3102.9502720813675,5.0,4.0,260.0,10000.0,99999,,-1.2999999999999545,0.0,1116002604101002050302404102951017600007000080000
2058,URMN,43.5129,43.6366,2024-05-17 00:00:00,,,,,8.0,1020.0,9.965517251952722,6.0,4.0,200.0,10000.0,99999,,-2.1000000000000227,0.0,11160020041008020603020049951028600007000080000
2071,UWLW,54.401,48.8027,2024-05-17 00:00:00,,,,,7.0,1015.0,2528.7378558175537,-1.0,0.0,0.0,10000.0,99999,,-2.7999999999999545,0.0,1116000000100702110301504528751022600007000080000
2130,EGUL,52.4093,0.561,2024-05-16 23:55:00,,,,,13.7,29.7,1113.2755000952297,12.4,0.0,0.0,10000.0,99999,,-975.3,0.0,11160000001013620126329641132519757600007000080000
2220,LGHI,38.3432,26.1406,2024-05-16 23:50:00,,,,,15.0,1017.0,1052.0051586758645,11.0,1.0,210.0,10000.0,99999,,-0.7000000000000455,0.0,11160021011015020110301704052051002600007000080000
2223,LKKB,50.1214,14.5436,2024-05-17 00:00:00,,,,,14.0,1008.0,4062.4238854028367,8.0,9.0,70.0,10000.0,99999,,0.0,0.0,1116000709101402080300804062451000600007000080000
2224,LKKV,50.203,12.915,2024-05-17 00:00:00,,,,,12.0,1007.0,9.0556335974727,7.0,8.0,90.0,10000.0,99999,,-1.0,0.0,11160009081012020703007049051010600007000080000
2227,LOXZ,47.2028,14.7442,2024-05-16 23:50:00,80.0,36.0,q,green,12.0,1007.0,9.946422866487818,10.0,4.0,70.0,8000.0,99999,,-2.3999999999999773,0.9,111400070410120201003007049951026600907800080000
2237,LTCD,39.7102,39.527,2024-05-16 23:50:00,,,,,5.0,1021.0,24.54788561286917,4.0,2.0,,10000.0,99999,,0.5,1.6,111600360210050204030210424551005601607000080000
2238,LTCF,40.5622,43.115,2024-05-16 23:50:00,,,,,4.0,1019.0,30.203588753413964,1.0,4.0,10.0,10000.0,99999,,0.5,0.0,111600010410040201030190430251005600007000080000
2241,LTFH,41.2545,36.5671,2024-05-16 23:50:00,10.0,36.0,+,yellow,7.0,1022.0,1113.4707082186728,6.0,2.0,100.0,4700.0,99999,,0.0,0.0,1112001002100702060302204113451000600007100080000
2246,ULOO,57.7839,28.3956,2024-05-17 00:00:00,,,,,14.0,1021.0,1433.8605277339514,8.0,2.0,280.0,10000.0,99999,,-1.2999999999999545,0.0,1116002802101402080302104433851017600007000080000
2275,EIME,53.3017,-6.45133,2024-05-17 00:00:00,80.0,36.0,q,green,14.0,1006.0,1903.7689501006992,12.0,5.0,340.0,10000.0,99999,,-0.7999999999999545,1.3,11160034051014020120300604903751002601307800080000
2293,LPBJ,38.0789,-7.9324,2024-05-17 00:00:00,51.0,36.0,T,green,14.0,1012.0,2978.8107435322972,13.0,9.0,280.0,8000.0,99999,,-0.10000000000002274,0.0,11140028091014020130301204978851008600007510080000
2348,EBBL,51.1683,5.47,2024-05-17 00:04:00,,,,,99999.0,1006.0,99999.0,99999.0,3.0,300.0,4900.0,99999,,-1.2000000000000455,0.0,11130030031099999020999990300604999051017600007000080000
2357,LTAD,39.9498,32.6886,2024-05-16 23:50:00,,,,,9.0,1020.0,14.510562548409345,6.0,0.0,0.0,10000.0,99999,,-1.0,0.0,111600000010090206030200414551010600007000080000
2358,LTBF,39.6193,27.926,2024-05-16 23:50:00,,,,,11.0,1020.0,2300.2551251703203,10.0,1.0,280.0,10000.0,99999,,0.20000000000004547,0.0,11160028011011020100302004300251002600007000080000
2359,LTCA,38.6069,39.2914,2024-05-16 23:50:00,,,,,9.0,1019.0,15.527038463827845,6.0,8.0,280.0,10000.0,99999,,1.6000000000000227,0.0,111600280810090206030190415551016600007000080000
2360,LTCI,38.4682,43.3323,2024-05-16 23:50:00,,,,,5.0,1019.0,27.90445965652205,4.0,5.0,90.0,10000.0,99999,,4.5,0.0,111600090510050204030190427951045600007000080000
2362,ETIH,49.2181,11.8361,2024-05-16 23:55:00,,,,,13.1,29.64,6487.593051075596,9.0,0.0,0.0,10000.0,99999,,-974.36,0.0,1116000000101302090329644875519746600007000080000
2363,LICT,37.9114,12.488,2024-05-16 23:55:00,,,,,19.0,1011.0,1056.8916456843908,16.0,3.0,350.0,10000.0,99999,,-0.8999999999999773,0.0,11160035031019020160301104056851001600007000080000
2364,LIBA,41.5414,15.7181,2024-05-16 23:55:00,,,,,21.0,1008.0,1326.4221523988006,12.0,10.0,220.0,10000.0,99999,,1.0,0.0,11160022101021020120300804326451010600007000080000
2365,LIBN,40.2392,18.1333,2024-05-16 23:55:00,,,,,21.0,1009.0,1278.5107148721856,19.0,8.0,160.0,10000.0,99999,,-1.0,0.0,11160016081021020190300904278551010600007000080000
2366,LIBV,40.7678,16.9333,2024-05-16 23:55:00,45.0,36.0,N,yellow,17.0,1010.0,4213.121159258101,17.0,14.0,170.0,600.0,99999,,0.7999999999999545,0.0,11100017141017020170301004213151007600007450080000
2368,LIED,39.3542,8.97248,2024-05-16 23:55:00,,,,,15.0,1012.0,1253.3994032178334,14.0,4.0,50.0,10000.0,99999,,0.0,0.0,11160005041015020140301204253351000600007000080000
2369,LIPC,44.2242,12.3072,2024-05-16 23:55:00,,,,,15.0,1008.0,1049.6943637301056,10.0,4.0,250.0,10000.0,99999,,2.3999999999999773,0.0,11160025041015020100300804049651023600007000080000
2370,LIPL,45.4322,10.2677,2024-05-16 23:55:00,,,,,13.0,1005.0,2026.6890833013258,13.0,2.0,210.0,10000.0,99999,,0.6000000000000227,1.0,11160021021013020130300504026651006601007000080000
2372,LIRE,41.6545,12.4452,2024-05-16 23:55:00,,,,,18.0,1010.0,1089.908775896307,15.0,8.0,240.0,10000.0,99999,,1.3999999999999773,0.0,11160024081018020150301004089951013600007000080000
2373,LIRS,42.7597,11.0719,2024-05-16 23:55:00,,,,,16.0,1009.0,1045.917016556167,14.0,4.0,120.0,10000.0,99999,,-0.10000000000002274,0.0,11160012041016020140300904045951008600007000080000
2376,LICZ,37.4017,14.9224,2024-05-16 23:55:00,,,,,20.0,1010.0,1150.1885806145892,20.0,3.0,220.0,7000.0,99999,,0.20000000000004547,0.0,11140022031020020200301004150151002600007000080000
2377,LIRM,41.0608,14.0819,2024-05-16 23:55:00,,,,,17.0,1009.0,1068.5449882082307,17.0,7.0,220.0,10000.0,99999,,-1.0,0.0,11160022071017020170300904068551010600007000080000
2408,ETIC,49.6987,11.9402,2024-05-16 23:55:00,,,,,14.2,29.65,5688.265424271431,8.8,4.0,70.0,10000.0,99999,,-975.65,0.0,1116000704101412081329646882519753600007000080000
2419,LIPS,45.6849,12.0829,2024-05-16 23:55:00,,,,,12.0,1006.0,1429.2548730371975,12.0,3.0,310.0,7000.0,99999,,1.6000000000000227,0.0,11140031031012020120300604429251016600007000080000
2420,LIPI,45.9787,13.0493,2024-05-16 23:55:00,,,,,13.0,1006.0,1523.504369451529,11.0,4.0,260.0,10000.0,99999,,1.0,1.9,11160026041013020110300604523551010601907000080000
2421,EGUN,52.3619,0.48641,2024-05-16 23:55:00,10.0,36.0,+,yellow,14.0,29.71,1114.0638549736102,13.0,3.0,130.0,9000.0,99999,,-975.29,0.0,11150013031014020130329741140519757600007100080000
2424,ETIK,49.4739,10.3881,2024-05-16 23:55:00,,,,,12.8,29.63,5064.8248759682465,11.4,5.0,80.0,10000.0,99999,,-974.77,0.4,11160008051012820118329640648519742600407000080000
2428,ETOU,50.0498,8.3254,2024-05-16 23:55:00,,,,,15.6,29.65,2258.2675978236844,13.3,6.0,20.0,10000.0,99999,,-976.65,0.0,11160002061015520135329642582519763600007000080000
2439,EVGA,56.7783,24.8539,2024-05-17 00:20:00,,,,,11.0,1024.0,1736.5383649843432,9.0,3.0,20.0,10000.0,99999,,0.0,0.0,1116000203101102090302404736551000600007000080000
2450,LATI,41.4147,19.7206,2024-05-17 00:20:00,,,,,18.0,1011.0,1264.765660529042,12.0,4.0,180.0,10000.0,99999,,-0.7999999999999545,0.0,11160018041018020120301104264751002600007000080000
2451,LMML,35.8575,14.4775,2024-05-17 00:15:00,,,,,20.0,1011.0,1581.4990770893314,17.0,4.0,320.0,7000.0,99999,,-0.7000000000000455,0.0,11140032041020020170301104581451002600007000080000
2452,LWSK,41.9616,21.6214,2024-05-17 00:20:00,,,,,13.0,1017.0,3736.0708037169984,11.0,3.0,150.0,10000.0,99999,,-2.0,0.0,11160015031013020110301704736051020600007000080000
2481,EVLA,56.5175,21.0969,2024-05-17 00:20:00,,,,,7.0,1024.0,1105.303249255181,5.0,4.0,80.0,10000.0,99999,,-0.2999999999999545,0.0,1116000804100702050302404105351007600007000080000
2482,EVVA,57.3578,21.5442,2024-05-17 00:20:00,,,,,6.0,1025.0,1138.444181471517,6.0,0.0,0.0,10000.0,99999,,0.0,0.0,1116000000100602060302504138451000600007000080000
2483,EYKA,54.9639,24.0848,2024-05-17 00:20:00,,,,,6.0,1025.0,2879.537280821175,4.0,1.0,70.0,10000.0,99999,,0.0,0.0,1116000701100602040302504879551000600007000080000
2484,EYPA,55.9732,21.0939,2024-05-17 00:20:00,,,,,8.0,1024.0,1172.6058312559883,4.0,5.0,110.0,10000.0,99999,,-0.2999999999999545,0.0,1116001105100802040302404172651007600007000080000
2497,LSZC,46.97444,8.39694,2024-05-17 00:20:00,61.0,36.0,^,green,10.0,1008.0,8186.441509546706,9.0,2.0,240.0,10000.0,99999,,-0.20000000000004547,0.4,1116002402101002090300804186451007600407610080000
2501,EKRS,55.4258,11.8067,2024-05-17 00:20:00,,,,,12.0,1015.0,1362.9911131660213,8.0,9.0,90.0,10000.0,99999,,-0.7000000000000455,0.0,1116000909101202080301504362951002600007000080000
2525,LSMA,46.9439,8.28417,2024-05-17 00:20:00,61.0,36.0,^,green,10.0,1008.0,8112.916853063231,10.0,0.0,0.0,10000.0,99999,,0.7000000000000455,1.3,11160000001010020100300804112951007601307610080000
2526,LSMD,47.3986,8.64823,2024-05-17 00:20:00,61.0,36.0,^,green,10.0,1007.0,8153.857975035218,9.0,5.0,270.0,9000.0,99999,,0.0,4.3,1115002705101002090300704153851000604207610080000
2527,LSME,47.0924,8.30512,2024-05-17 00:20:00,61.0,36.0,^,green,10.0,1008.0,7816.884860119031,9.0,4.0,210.0,10000.0,99999,,0.0,1.5,1116002104101002090300804816851000601507610080000
2528,LSMP,46.8432,6.91506,2024-05-17 00:20:00,80.0,36.0,q,green,10.0,1009.0,8145.519772069647,9.0,0.0,0.0,10000.0,99999,,0.10000000000002274,0.0,1116000000101002090300904145551001600007800080000
2650,EFET,68.3626,23.4243,2024-05-17 00:20:00,,,,,6.0,1019.0,9.247010021261335,0.0,3.0,180.0,10000.0,99999,,0.0,0.0,11160018031006020003019049251000600007000080000
2651,EFHA,61.856,24.7866,2024-05-17 00:20:00,,,,,9.0,1022.0,3401.806029547558,6.0,2.0,300.0,10000.0,99999,,-1.0,0.0,1116003002100902060302204401851010600007000080000
2652,EFJO,62.6629,29.6075,2024-05-17 00:20:00,,,,,8.0,1022.0,3225.364563903822,2.0,5.0,90.0,10000.0,99999,,0.2999999999999545,0.0,1116000905100802020302204225351002600007000080000
2654,EFKS,65.9876,29.2394,2024-05-17 00:20:00,,,,,-2.0,1023.0,140.62768816763443,-2.0,1.0,,10000.0,99999,,-1.2000000000000455,0.0,1116003601110202120302304140651017600007000080000
2655,EFKT,67.701,24.8468,2024-05-17 00:20:00,,,,,4.0,1020.0,8944.272884456539,0.0,3.0,100.0,10000.0,99999,,-2.5,0.0,1116001003100402000302004944251025600007000080000
2656,EFLP,61.0446,28.1444,2024-05-17 00:20:00,,,,,14.0,1021.0,2027.9501844201823,7.0,4.0,360.0,10000.0,99999,,-0.10000000000002274,0.0,1116003604101402070302104027951008600007000080000
2657,EFMI,61.6866,27.2018,2024-05-17 00:20:00,,,,,8.0,1022.0,2795.1690438298388,7.0,3.0,280.0,10000.0,99999,,0.20000000000004547,0.0,1116002803100802070302204795151002600007000080000
2658,EFSA,61.9431,28.9451,2024-05-17 00:20:00,,,,,6.0,1022.0,3331.033292800072,5.0,1.0,,10000.0,99999,,0.6000000000000227,0.0,1116003601100602050302204331051006600007000080000
2659,EFSI,62.6921,22.8323,2024-05-17 00:20:00,,,,,8.0,1023.0,2633.144500569129,6.0,1.0,,10000.0,99999,,0.0,0.0,1116003601100802060302304633151000600007000080000
2660,EFUT,60.8964,26.9384,2024-05-17 00:20:00,,,,,14.0,1022.0,1997.8134285664582,7.0,5.0,20.0,10000.0,99999,,0.7000000000000455,0.0,1116000205101402070302204997851007600007000080000
2670,ESOH,60.0201,13.5789,2024-05-17 00:20:00,,,,,6.0,1023.0,4751.630960683413,3.0,0.0,0.0,10000.0,99999,,0.0,0.0,1116000000100602030302304751651000600007000080000
2682,EGHQ,50.4406,-4.99541,2024-05-17 00:20:00,,,,,12.0,1006.0,2342.266166940061,11.0,5.0,270.0,6000.0,99999,,-0.5,0.0,11130027051012020110300604342251005600007000080000
2684,EGCK,53.1042,-4.34028,2024-05-17 00:20:00,,,,,13.0,1005.0,1007.6431503682564,12.0,4.0,30.0,2300.0,99999,,0.0,2.2,11110003041013020120300504007651000602207000080000
2718,ESNZ,63.1944,14.5003,2024-05-17 00:20:00,,,,,17.0,1020.0,4396.866627382534,6.0,8.0,180.0,10000.0,99999,,-1.3999999999999773,0.0,1116001808101702060302004396851016600007000080000
2781,EGVA,51.6822,-1.79003,2024-05-17 00:20:00,51.0,36.0,T,green,13.0,29.67,1913.5095019565194,12.0,3.0,250.0,10000.0,99999,,-975.33,0.0,11160025031013020120329649135519756600007510080000
2789,ESCF,58.4023,15.5257,2024-05-17 00:20:00,,,,,9.0,1024.0,2465.9752484377746,5.0,4.0,90.0,10000.0,99999,,0.10000000000002274,0.0,1116000904100902050302404465951001600007000080000
2791,ESIB,58.4264,12.7144,2024-05-17 00:20:00,,,,,10.0,1021.0,1727.9505406737558,3.0,5.0,80.0,10000.0,99999,,0.20000000000004547,0.0,1116000805101002030302104727951002600007000080000
2792,ESMV,57.2922,14.1372,2024-05-17 00:20:00,,,,,8.0,1021.0,4242.033145036925,4.0,6.0,70.0,10000.0,99999,,-0.7999999999999545,0.0,1116000706100802040302104242051002600007000080000
2794,ESPE,65.8753,20.1499,2024-05-17 00:20:00,,,,,6.0,1022.0,5831.580187266762,5.0,1.0,,10000.0,99999,,-0.7000000000000455,0.0,1116003601100602050302204831551002600007000080000
2795,ESIA,58.5138,14.5071,2024-05-17 00:20:00,,,,,10.0,1023.0,2301.913657340921,5.0,4.0,90.0,10000.0,99999,,-0.39999999999997726,0.0,1116000904101002050302304301951006600007000080000
2796,ESCM,59.8973,17.5886,2024-05-17 00:20:00,,,,,9.0,1024.0,1302.4187338160978,6.0,2.0,,10000.0,99999,,-0.5,0.0,1116003602100902060302404302451005600007000080000
2799,ESNV,64.5791,16.8336,2024-05-17 00:20:00,,,,,8.0,1021.0,8043.011109570226,6.0,4.0,90.0,10000.0,99999,,-1.2999999999999545,0.0,1116000904100802060302104043051017600007000080000
2801,ESST,60.1576,12.9913,2024-05-17 00:20:00,,,,,7.0,1023.0,3554.8907204733555,6.0,0.0,0.0,10000.0,99999,,0.0,0.0,1116000000100702060302304554851000600007000080000
2802,ESUP,67.2456,23.0689,2024-05-17 00:20:00,,,,,9.0,1020.0,3754.6050209469913,3.0,7.0,190.0,10000.0,99999,,-1.7999999999999545,0.0,1116001907100902030302004754651012600007000080000
2803,ESND,62.0478,14.4229,2024-05-17 00:20:00,,,,,6.0,1022.0,10.609297492023211,3.0,0.0,0.0,10000.0,99999,,0.0,0.0,111600000010060203030220410651000600007000080000
2873,LICB,36.9946,14.60718,2024-05-17 00:20:00,,,,,19.0,1011.0,2367.4315050260298,16.0,2.0,100.0,10000.0,99999,,-0.10000000000002274,0.0,11160010021019020160301104367451008600007000080000
2874,LIPO,45.4289,10.3306,2024-05-17 00:20:00,,,,,13.0,1006.0,2104.57057965879,13.0,3.0,230.0,8000.0,99999,,0.0,0.0,11140023031013020130300604104551000600007000080000
2896,LIMZ,44.547,7.62322,2024-05-17 00:20:00,,,,,10.0,1007.0,7143.231718025735,10.0,2.0,,10000.0,99999,,0.0,0.0,11160036021010020100300704143251000600007000080000
2910,EEKE,58.2299,22.5095,2024-05-17 00:20:00,,,,,9.0,1025.0,1080.0997361714562,7.0,4.0,10.0,10000.0,99999,,-0.20000000000004547,0.0,1116000104100902070302504080051007600007000080000
2911,EETU,58.3075,26.6904,2024-05-17 00:20:00,,,,,13.0,1022.0,1676.2530564253912,4.0,10.0,280.0,10000.0,99999,,0.0,0.0,1116002810101302040302204676251000600007000080000
2912,EEPU,58.419,24.4728,2024-05-17 00:20:00,,,,,11.0,1024.0,1178.0823371963877,5.0,2.0,,10000.0,99999,,0.0,0.0,1116003602101102050302404178051000600007000080000
2930,EDBC,51.8564,11.4203,2024-05-17 00:20:00,,,,,14.0,1008.0,2820.182571428903,9.0,9.0,100.0,10000.0,99999,,0.39999999999997726,0.0,1116001009101402090300804820151003600007000080000
3027,EDDB,52.36217,13.50067,2024-05-17 00:20:00,,,,,16.0,1011.0,1370.6258695085478,7.0,10.0,80.0,10000.0,99999,,0.39999999999997726,0.0,1116000810101602070301104370651003600007000080000
3028,EDDC,51.1328,13.7672,2024-05-17 00:20:00,,,,,17.0,1009.0,2919.9804268305265,7.0,12.0,110.0,10000.0,99999,,0.2999999999999545,0.0,1116001112101702070300904919951002600007000080000
3029,EDDE,50.9798,10.9581,2024-05-17 00:20:00,,,,,12.0,1006.0,5054.741991806984,10.0,4.0,70.0,10000.0,99999,,-1.2000000000000455,0.0,11160007041012020100300604054751017600007000080000
3031,EDDG,52.1346,7.68483,2024-05-17 00:20:00,,,,,13.0,1007.0,1466.1470929822508,12.0,2.0,,1000.0,99999,,-0.20000000000004547,0.0,11100036021013020120300704466151007600007000080000
3040,EDDV,52.4611,9.68508,2024-05-17 00:20:00,,,,,14.0,1007.0,1496.8054118930443,10.0,8.0,80.0,10000.0,99999,,-1.0,0.0,11160008081014020100300704496851010600007000080000
3100,EDDP,51.4324,12.2416,2024-05-17 00:20:00,,,,,14.0,1007.0,2377.870220753214,9.0,12.0,80.0,10000.0,99999,,-0.8999999999999773,0.0,1116000812101402090300704377851001600007000080000
3101,EDDR,49.2146,7.10951,2024-05-17 00:20:00,61.0,36.0,^,green,12.0,1005.0,5145.194059816446,11.0,9.0,280.0,10000.0,99999,,-2.8999999999999773,0.0,11160028091012020110300504145151021600007610080000
3120,EBCI,50.4592,4.45382,2024-05-17 00:20:00,,,,,11.0,1007.0,3482.854807630184,11.0,2.0,,10000.0,99999,,-1.2999999999999545,0.0,11160036021011020110300704482851017600007000080000
3121,EBLG,50.6374,5.44322,2024-05-17 00:20:00,,,,,12.0,1007.0,3437.279069828152,11.0,2.0,270.0,10000.0,99999,,-0.8999999999999773,0.0,11160027021012020110300704437251001600007000080000
3122,EBOS,51.1989,2.86222,2024-05-17 00:20:00,10.0,36.0,+,yellow,11.0,1007.0,1048.0165411324276,11.0,2.0,90.0,5000.0,99999,,-0.7000000000000455,0.0,11130009021011020110300704048051002600007100080000
3123,ELLX,49.6266,6.21152,2024-05-17 00:20:00,63.0,36.0,',green,12.0,1006.0,5913.224407185327,11.0,8.0,340.0,8000.0,99999,,-1.7000000000000455,0.0,11140034081012020110300604913251012600007630080000
3124,EDDF,50.0264,8.54313,2024-05-17 00:20:00,,,,,16.0,1003.0,1896.5353906050648,12.0,8.0,10.0,10000.0,99999,,-3.2999999999999545,0.0,11160001081016020120300304896551037600007000080000
3125,EDDH,53.6304,9.98823,2024-05-17 00:20:00,,,,,18.0,1009.0,1112.6766815552307,10.0,6.0,50.0,10000.0,99999,,-0.10000000000002274,0.0,11160005061018020100300904112651008600007000080000
3126,EDDK,50.8659,7.14274,2024-05-17 00:20:00,,,,,13.0,1006.0,1923.2549412562012,13.0,2.0,,10000.0,99999,,-1.2999999999999545,0.0,11160036021013020130300604923251017600007000080000
3127,EDDL,51.2895,6.76678,2024-05-17 00:20:00,10.0,36.0,+,yellow,11.0,1006.0,1507.0984980662527,11.0,4.0,30.0,4400.0,99999,,-0.8999999999999773,0.0,11120003041011020110300604507051001600007100080000
3128,EDDM,48.3538,11.7861,2024-05-17 00:20:00,61.0,36.0,^,green,13.0,1003.0,6489.613534996773,12.0,3.0,120.0,10000.0,99999,,-0.20000000000004547,0.0,11160012031013020120300304489651007600007610080000
3129,EDDN,49.4987,11.0669,2024-05-17 00:20:00,,,,,13.0,1003.0,4734.596851913576,11.0,2.0,,10000.0,99999,,-1.7000000000000455,0.0,11160036021013020110300304734551012600007000080000
3130,EDDS,48.6899,9.22196,2024-05-17 00:20:00,63.0,36.0,',green,13.0,1003.0,5653.435291080982,12.0,4.0,340.0,8000.0,99999,,-3.2999999999999545,1.0,11140034041013020120300304653451037601007630080000
3131,EDDW,53.0475,8.78667,2024-05-17 00:20:00,,,,,18.0,1008.0,1034.9420487402856,10.0,8.0,80.0,10000.0,99999,,0.39999999999997726,0.0,11160008081018020100300804034951003600007000080000
3132,EDFM,49.47306,8.51417,2024-05-17 00:20:00,,,,,16.0,1003.0,1746.033624042041,14.0,2.0,,10000.0,99999,,-2.1000000000000227,0.2,11160036021016020140300304746051028600207000080000
3135,EDJA,47.9888,10.2395,2024-05-17 00:20:00,,,,,10.0,1004.0,10.916579454384912,9.0,18.0,240.0,10000.0,99999,,0.0,0.0,111600241810100209030040410951000600007000080000
3136,EDLN,51.23028,6.50444,2024-05-17 00:20:00,,,,,12.0,1006.0,1389.8715714103569,12.0,2.0,340.0,4300.0,99999,,-0.8999999999999773,0.0,11120034021012020120300604389851001600007000080000
3140,EDMO,48.0814,11.2831,2024-05-17 00:20:00,,,,,12.0,1003.0,8854.47775511242,11.0,11.0,250.0,7000.0,99999,,-1.3999999999999773,3.4,11140025111012020110300304854451016603307000080000
3141,EDQM,50.28861,11.85639,2024-05-17 00:20:00,,,,,13.0,1006.0,8325.704463037644,8.0,10.0,110.0,10000.0,99999,,-0.5,0.0,1116001110101302080300604325751005600007000080000
3142,EDTY,49.11833,9.78389,2024-05-17 00:20:00,,,,,12.0,1003.0,6174.901973714293,12.0,4.0,230.0,10000.0,99999,,-2.2000000000000455,0.0,11160023041012020120300304174951027600007000080000
3144,EDNY,47.6713,9.51149,2024-05-17 00:20:00,,,,,10.0,1006.0,7637.603428281707,10.0,11.0,230.0,10000.0,99999,,1.0,1.4,11160023111010020100300604637651010601307000080000
3145,EDVK,51.40833,9.3775,2024-05-17 00:20:00,,,,,12.0,1006.0,4503.657737066452,12.0,2.0,,10000.0,99999,,-0.39999999999997726,0.0,11160036021012020120300604503651006600007000080000
3146,EDWE,53.39111,7.2275,2024-05-17 00:20:00,,,,,16.0,1007.0,1013.4607259785004,12.0,6.0,80.0,10000.0,99999,,-0.6000000000000227,0.0,11160008061016020120300704013451003600007000080000
3149,EKBI,55.7403,9.15178,2024-05-17 00:20:00,,,,,14.0,1013.0,1695.0513035737558,7.0,11.0,80.0,10000.0,99999,,-0.7999999999999545,0.0,1116000811101402070301304695051002600007000080000
3150,EKCH,55.6179,12.656,2024-05-17 00:20:00,,,,,13.0,1016.0,1061.832142641469,7.0,10.0,70.0,10000.0,99999,,-1.2000000000000455,0.0,1116000710101302070301604061851017600007000080000
3151,EKEB,55.5259,8.5534,2024-05-17 00:20:00,,,,,15.0,1012.0,1245.8530947385018,8.0,14.0,70.0,10000.0,99999,,-0.39999999999997726,0.0,1116000714101502080301204245851006600007000080000
3153,EKRK,55.5856,12.1314,2024-05-17 00:20:00,,,,,13.0,1016.0,1436.0366482897734,6.0,8.0,70.0,10000.0,99999,,-0.5,0.0,1116000708101302060301604436051005600007000080000
3154,EKRN,55.0633,14.7596,2024-05-17 00:20:00,,,,,14.0,1017.0,1149.522733388702,5.0,14.0,80.0,10000.0,99999,,-0.5,0.0,1116000814101402050301704149551005600007000080000
3155,EKSB,54.9644,9.79173,2024-05-17 00:20:00,,,,,15.0,1011.0,1066.9176396452551,10.0,14.0,90.0,10000.0,99999,,-1.2000000000000455,0.0,11160009141015020100301104066951017600007000080000
3157,EKVD,55.4363,9.33092,2024-05-17 00:20:00,,,,,14.0,1013.0,1391.567598770164,7.0,10.0,90.0,10000.0,99999,,-0.20000000000004547,0.0,1116000910101402070301304391551007600007000080000
3160,LOWI,47.2602,11.344,2024-05-17 00:20:00,,,,,10.0,1005.0,10.178382795169217,8.0,5.0,,10000.0,99999,,1.7999999999999545,0.0,111600360510100208030050410151017600007000080000
3165,EETN,59.4133,24.8328,2024-05-17 00:20:00,,,,,14.0,1023.0,1371.3888570788454,4.0,9.0,300.0,10000.0,99999,,0.0,0.0,1116003009101402040302304371351000600007000080000
3166,EFHK,60.3172,24.9633,2024-05-17 00:20:00,,,,,13.0,1022.0,1547.735055247975,7.0,8.0,290.0,10000.0,99999,,0.0,0.0,1116002908101302070302204547751000600007000080000
3167,EFIV,68.6073,27.4053,2024-05-17 00:20:00,,,,,2.0,1021.0,12.477649661314134,-0.0,2.0,,10000.0,99999,,-2.5,0.0,111600360210020210030210412451025600007000080000
3168,EFJY,62.3995,25.6783,2024-05-17 00:20:00,,,,,7.0,1023.0,4044.3356675648056,6.0,2.0,310.0,10000.0,99999,,1.0,0.0,1116003102100702060302304044351010600007000080000
3169,EFKE,65.7787,24.5821,2024-05-17 00:20:00,,,,,4.0,1023.0,1610.7061552338205,2.0,2.0,100.0,10000.0,99999,,-1.099999999999909,0.0,1116001002100402020302304610751019600007000080000
3170,EFKK,63.7212,23.1431,2024-05-17 00:20:00,,,,,8.0,1023.0,1416.6797813901658,3.0,2.0,,10000.0,99999,,-1.599999999999909,0.0,1116003602100802030302304416651014600007000080000
3172,EFMA,60.1222,19.8982,2024-05-17 00:20:00,,,,,6.0,1024.0,1125.1692274824584,5.0,0.0,0.0,10000.0,99999,,-0.7000000000000455,0.0,1116000000100602050302404125151002600007000080000
3173,EFOU,64.9301,25.3546,2024-05-17 00:20:00,,,,,5.0,1024.0,1374.4193399304097,1.0,5.0,310.0,10000.0,99999,,-0.09999999999990905,0.0,1116003105100502010302404374451009600007000080000
3174,EFPO,61.4617,21.8,2024-05-17 00:20:00,,,,,7.0,1023.0,1252.508931284005,5.0,1.0,,10000.0,99999,,-1.0,0.0,1116003601100702050302304252551010600007000080000
3175,EFRO,66.5648,25.8304,2024-05-17 00:20:00,,,,,7.0,1022.0,5420.0577128029545,0.0,8.0,160.0,10000.0,99999,,-1.5,0.0,1116001608100702000302204420051015600007000080000
3176,EFTP,61.4141,23.6044,2024-05-17 00:20:00,,,,,10.0,1023.0,2693.8921583964056,6.0,1.0,,10000.0,99999,,1.0,0.0,1116003601101002060302304693851010600007000080000
3177,EFTU,60.5141,22.2628,2024-05-17 00:20:00,,,,,9.0,1024.0,1723.9807350671013,5.0,2.0,250.0,10000.0,99999,,-0.20000000000004547,0.0,1116002502100902050302404723951007600007000080000
3178,EFVA,63.0507,21.7622,2024-05-17 00:20:00,,,,,8.0,1023.0,1107.449644826348,6.0,1.0,,10000.0,99999,,-0.20000000000004547,0.0,1116003601100802060302304107451007600007000080000
3180,ENBR,60.2934,5.21814,2024-05-17 00:20:00,,,,,14.0,1018.0,1475.5043850945738,4.0,3.0,90.0,10000.0,99999,,0.0,0.0,1116000903101402040301804475551000600007000080000
3181,ENCN,58.2042,8.08537,2024-05-17 00:20:00,,,,,10.0,1018.0,1224.3099965557115,6.0,8.0,60.0,10000.0,99999,,-1.0,0.0,1116000608101002060301804224351010600007000080000
3183,ENHD,59.3453,5.20836,2024-05-17 00:20:00,,,,,15.0,1017.0,1224.3582910319599,4.0,6.0,60.0,10000.0,99999,,-1.2999999999999545,0.0,1116000606101502040301704224351017600007000080000
3184,ENKR,69.7258,29.8913,2024-05-17 00:20:00,,,,,2.0,1023.0,8008.606531808721,1.0,5.0,170.0,10000.0,99999,,0.0,0.0,1116001705100202010302304008651000600007000080000
3186,ENVA,63.4578,10.924,2024-05-17 00:20:00,,,,,13.0,1018.0,1172.469646344787,9.0,5.0,40.0,10000.0,99999,,-0.39999999999997726,0.0,1116000405101302090301804172451006600007000080000
3187,ENZV,58.8767,5.63778,2024-05-17 00:20:00,,,,,16.0,1017.0,1080.8164806004404,4.0,6.0,70.0,10000.0,99999,,0.0,0.0,1116000706101602040301704080851000600007000080000
3188,EVRA,56.9236,23.9711,2024-05-17 00:20:00,41.0,36.0,J,yellow,8.0,1024.0,1186.528052469037,7.0,0.0,0.0,10000.0,99999,,0.0,0.0,1116000000100802070302404186551000600007410080000
3189,EYVI,54.6341,25.2858,2024-05-17 00:20:00,,,,,8.0,1025.0,4853.752508118031,2.0,1.0,140.0,10000.0,99999,,0.0,0.0,1116001401100802020302504853751000600007000080000
3190,LGAD,37.9207,21.2926,2024-05-17 00:20:00,,,,,18.0,1013.0,1121.0988949961616,13.0,0.0,0.0,10000.0,99999,,-1.2999999999999545,0.0,11160000001018020130301304121051017600007000080000
3191,LGAV,37.9364,23.9445,2024-05-17 00:20:00,,,,,14.0,1017.0,1889.9639335804484,11.0,2.0,,10000.0,99999,,0.0,0.0,11160036021014020110301704889951000600007000080000
3192,LGIR,35.3397,25.1803,2024-05-17 00:20:00,,,,,27.0,1014.0,1166.0827925358392,7.0,25.0,170.0,10000.0,99999,,-2.0,0.0,1116001725102702070301404166051020600007000080000
3193,LGKR,39.6019,19.9117,2024-05-17 00:20:00,,,,,18.0,1011.0,1022.5436423005995,16.0,0.0,0.0,10000.0,99999,,-0.7999999999999545,0.0,11160000001018020160301104022551002600007000080000
3194,LGRP,36.4054,28.0862,2024-05-17 00:20:00,,,,,21.0,1016.0,1044.270765531523,10.0,2.0,,10000.0,99999,,-2.2000000000000455,0.0,11160036021021020100301604044251027600007000080000
3195,LGSA,35.5317,24.1497,2024-05-17 00:20:00,,,,,17.0,1015.0,2192.6585313389787,15.0,5.0,250.0,10000.0,99999,,0.0,0.0,11160025051017020150301504192651000600007000080000
3196,LGTS,40.5197,22.9709,2024-05-17 00:20:00,,,,,12.0,1018.0,1082.623025871219,12.0,5.0,110.0,10000.0,99999,,-2.2000000000000455,0.0,11160011051012020120301804082651027600007000080000
3197,LIBD,41.1389,16.7606,2024-05-17 00:20:00,,,,,20.0,1008.0,1331.6552275931963,17.0,8.0,180.0,10000.0,99999,,0.5,0.0,11160018081020020170300804331651005600007000080000
3198,LIBR,40.6576,17.947,2024-05-17 00:20:00,,,,,19.0,1010.0,1096.901037406927,16.0,8.0,180.0,10000.0,99999,,0.6000000000000227,0.0,11160018081019020160301004096951006600007000080000
3199,LICC,37.4668,15.0664,2024-05-17 00:20:00,10.0,36.0,+,yellow,20.0,1009.0,1077.1840657125272,19.0,6.0,70.0,5000.0,99999,,-0.8999999999999773,0.0,11130007061020020190300904077151001600007100080000
3200,LICJ,38.176,13.091,2024-05-17 00:20:00,,,,,19.0,1011.0,1132.0960352932157,17.0,4.0,50.0,10000.0,99999,,0.5,0.0,11160005041019020170301104132051005600007000080000
3201,LIEA,40.6321,8.29077,2024-05-17 00:20:00,,,,,13.0,1011.0,1253.1286913317304,13.0,2.0,80.0,10000.0,99999,,0.0,0.0,11160008021013020130301104253151000600007000080000
3202,LIEE,39.2515,9.05428,2024-05-17 00:20:00,,,,,16.0,1012.0,1040.2635987066544,14.0,3.0,30.0,10000.0,99999,,0.20000000000004547,0.0,11160003031016020140301204040251002600007000080000
3203,LIEO,40.8987,9.51763,2024-05-17 00:20:00,,,,,16.0,1011.0,1092.2270573056373,13.0,2.0,310.0,10000.0,99999,,-0.2999999999999545,0.0,11160031021016020130301104092251007600007000080000
3205,LIMF,45.2008,7.64963,2024-05-17 00:20:00,,,,,12.0,1006.0,4850.601899919485,12.0,4.0,310.0,10000.0,99999,,0.0,0.0,11160031041012020120300604850651000600007000080000
3206,LIMJ,44.4133,8.8375,2024-05-17 00:20:00,,,,,18.0,1006.0,1030.957943932266,13.0,7.0,160.0,10000.0,99999,,-0.20000000000004547,0.0,11160016071018020130300604030951007600007000080000
3207,LIML,45.4451,9.27674,2024-05-17 00:20:00,,,,,12.0,1006.0,2200.2490610272207,12.0,2.0,,8000.0,99999,,-1.3999999999999773,1.5,11140036021012020120300604200251016601507000080000
3208,LIPE,44.5354,11.2887,2024-05-17 00:20:00,,,,,12.0,1006.0,1383.348024563541,11.0,4.0,150.0,10000.0,99999,,-0.39999999999997726,0.0,11160015041012020110300604383351006600007000080000
3210,LIPZ,45.5053,12.3519,2024-05-17 00:20:00,,,,,13.0,1006.0,1024.5829189039696,13.0,5.0,230.0,10000.0,99999,,2.0,0.0,11160023051013020130300604024551020600007000080000
3211,LIRA,41.7994,12.5949,2024-05-17 00:20:00,,,,,18.0,1011.0,1954.5109497805672,15.0,7.0,180.0,10000.0,99999,,0.7000000000000455,0.0,11160018071018020150301104954551007600007000080000
3212,LIRF,41.8045,12.2508,2024-05-17 00:20:00,,,,,18.0,1010.0,1038.935372886759,17.0,10.0,240.0,10000.0,99999,,-0.39999999999997726,0.0,11160024101018020170301004038951006600007000080000
3213,LIRP,43.6839,10.3927,2024-05-17 00:15:00,,,,,17.0,1008.0,1020.188152970304,16.0,16.0,270.0,10000.0,99999,,0.0,0.1,11160027161017020160300804020151000600107000080000
3214,LIRQ,43.81,11.2051,2024-05-17 00:20:00,,,,,15.0,1009.0,1356.878070192141,12.0,4.0,200.0,10000.0,99999,,0.20000000000004547,0.0,11160020041015020120300904356851002600007000080000
3216,LIMC,45.6306,8.72811,2024-05-17 00:20:00,,,,,10.0,1006.0,4558.228997064235,8.0,4.0,330.0,10000.0,99999,,-0.8999999999999773,0.0,1116003304101002080300604558251001600007000080000
3217,LIPX,45.3957,10.8885,2024-05-17 00:20:00,10.0,36.0,+,yellow,13.0,1006.0,1714.571994497011,13.0,2.0,340.0,4000.0,99999,,1.0,0.0,11120034021013020130300604714551010600007100080000
3218,LIRZ,43.0959,12.5132,2024-05-17 00:20:00,,,,,15.0,1010.0,3024.199519067317,15.0,5.0,220.0,10000.0,99999,,2.0,0.1,11160022051015020150301004024151020600107000080000
3219,ENAL,62.5625,6.1197,2024-05-17 00:20:00,,,,,11.0,1018.0,1245.8959636904067,7.0,7.0,160.0,10000.0,99999,,-0.7999999999999545,0.0,1116001607101102070301804245851002600007000080000
3221,ENAT,69.9761,23.3717,2024-05-17 00:20:00,,,,,5.0,1021.0,1084.6199905115045,3.0,0.0,0.0,10000.0,99999,,-1.1000000000000227,0.0,1116000000100502030302104084651018600007000080000
3222,ENBL,61.3911,5.75694,2024-05-17 00:20:00,,,,,13.0,1019.0,4810.123820638019,3.0,2.0,350.0,10000.0,99999,,-0.20000000000004547,0.0,1116003502101302030301904810151007600007000080000
3223,ENBN,65.4611,12.2175,2024-05-17 00:20:00,,,,,15.0,1017.0,1075.6210419133502,6.0,3.0,280.0,10000.0,99999,,0.0,0.0,1116002803101502060301704075651000600007000080000
3224,ENBV,70.8714,29.0342,2024-05-17 00:20:00,,,,,2.0,1023.0,1857.0849107514753,0.0,3.0,260.0,10000.0,99999,,-0.39999999999997726,0.0,1116002603100202000302304857051006600007000080000
3225,ENDU,69.0558,18.5404,2024-05-17 00:20:00,,,,,2.0,1018.0,7185.460583877462,1.0,0.0,0.0,10000.0,99999,,0.0,0.0,1116000000100202010301804185451000600007000080000
3226,ENEV,68.4913,16.6781,2024-05-17 00:20:00,,,,,8.0,1019.0,1411.14046650692,5.0,6.0,200.0,10000.0,99999,,0.0,0.0,1116002006100802050301904411151000600007000080000
3227,ENFL,61.5836,5.02472,2024-05-17 00:20:00,,,,,14.0,1018.0,1111.6904025873557,11.0,8.0,90.0,10000.0,99999,,-0.20000000000004547,0.0,11160009081014020110301804111651007600007000080000
3228,ENHF,70.6797,23.6686,2024-05-17 00:20:00,61.0,36.0,^,green,3.0,1020.0,5248.414322119674,2.0,6.0,50.0,10000.0,99999,,0.0,0.0,1116000506100302020302004248451000600007610080000
3229,ENHV,71.0097,25.9836,2024-05-17 00:20:00,,,,,3.0,1022.0,1584.8432825246553,0.0,0.0,0.0,10000.0,99999,,-1.0,0.0,1116000000100302000302204584851010600007000080000
3230,ENKB,63.1118,7.82452,2024-05-17 00:20:00,,,,,15.0,1018.0,1534.7426088560567,7.0,5.0,80.0,10000.0,99999,,0.0,0.0,1116000805101502070301804534751000600007000080000
3231,ENMH,71.0297,27.8267,2024-05-17 00:20:00,,,,,2.0,1022.0,1789.924341782875,-1.0,2.0,,10000.0,99999,,-0.7999999999999545,0.0,1116003602100202110302204789951002600007000080000
3232,ENML,62.7447,7.2625,2024-05-17 00:20:00,,,,,12.0,1018.0,1047.1645639591295,8.0,7.0,350.0,10000.0,99999,,-0.6000000000000227,0.0,1116003507101202080301804047151003600007000080000
3234,ENNA,70.0688,24.9735,2024-05-17 00:20:00,61.0,36.0,^,green,3.0,1022.0,1329.9945320414117,2.0,1.0,,10000.0,99999,,-0.7999999999999545,0.0,1116003601100302020302204329951002600007610080000
3235,ENNM,64.4722,11.5786,2024-05-17 00:20:00,,,,,11.0,1018.0,1040.2393944978958,7.0,10.0,50.0,10000.0,99999,,-0.5,0.0,1116000510101102070301804040251005600007000080000
3237,ENOV,62.18,6.0741,2024-05-17 00:20:00,,,,,10.0,1018.0,1993.8255565387958,6.0,0.0,0.0,10000.0,99999,,0.0,0.0,1116000000101002060301804993851000600007000080000
3238,ENRA,66.3639,14.3014,2024-05-17 00:20:00,,,,,5.0,1021.0,3023.827710660916,4.0,0.0,0.0,10000.0,99999,,0.0,0.0,1116000000100502040302104023851000600007000080000
3239,ENRM,64.8383,11.1461,2024-05-17 00:20:00,,,,,9.0,1017.0,1071.669689450118,6.0,0.0,0.0,10000.0,99999,,-1.2000000000000455,0.0,1116000000100902060301704071651017600007000080000
3240,ENRO,62.5784,11.3423,2024-05-17 00:20:00,,,,,7.0,1021.0,14.477184881759364,2.0,0.0,0.0,10000.0,99999,,0.0,0.0,111600000010070202030210414451000600007000080000
3241,ENRS,67.5278,12.1033,2024-05-17 00:20:00,,,,,10.0,1018.0,1042.4746175478886,7.0,5.0,190.0,10000.0,99999,,0.0,0.0,1116001905101002070301804042451000600007000080000
3242,ENRY,59.3789,10.7856,2024-05-17 00:20:00,,,,,14.0,1021.0,1491.4345892697977,3.0,8.0,100.0,10000.0,99999,,0.0,0.0,1116001008101402030302104491451000600007000080000
3243,ENSD,61.83,6.10583,2024-05-17 00:20:00,,,,,14.0,1019.0,1552.6758017265975,6.0,0.0,0.0,10000.0,99999,,0.0,0.0,1116000000101402060301904552651000600007000080000
3247,ENSR,69.7868,20.9594,2024-05-17 00:20:00,61.0,36.0,^,green,4.0,1020.0,1163.4175956126046,4.0,1.0,,10000.0,99999,,-0.6000000000000227,0.1,1116003601100402040302004163451003600107610080000
3248,ENTO,59.1867,10.2586,2024-05-17 00:20:00,,,,,14.0,1020.0,1826.7035627645355,5.0,4.0,100.0,10000.0,99999,,0.0,0.0,1116001004101402050302004826751000600007000080000
3249,ENVD,70.0653,29.8447,2024-05-17 00:20:00,,,,,1.0,1023.0,7272.136626091239,-0.0,3.0,10.0,10000.0,99999,,0.0,0.0,1116000103100102100302304272151000600007000080000
3250,ESDF,56.2667,15.265,2024-05-17 00:20:00,,,,,9.0,1020.0,1861.36572253734,5.0,7.0,70.0,10000.0,99999,,-1.6000000000000227,0.0,1116000707100902050302004861351013600007000080000
3251,ESGG,57.6628,12.2798,2024-05-17 00:20:00,,,,,12.0,1019.0,2838.075198757683,2.0,10.0,110.0,10000.0,99999,,-1.0,0.0,1116001110101202020301904838051010600007000080000
3252,ESGJ,57.7576,14.0687,2024-05-17 00:20:00,,,,,10.0,1022.0,4488.243463731242,4.0,6.0,100.0,10000.0,99999,,0.0,0.0,1116001006101002040302204488251000600007000080000
3253,ESGP,57.7747,11.8704,2024-05-17 00:20:00,,,,,14.0,1019.0,1170.1727907595919,2.0,8.0,110.0,10000.0,99999,,-0.7999999999999545,0.0,1116001108101402020301904170151002600007000080000
3254,ESKN,58.7886,16.9122,2024-05-17 00:20:00,,,,,7.0,1024.0,1815.1654675733569,6.0,2.0,60.0,10000.0,99999,,-0.7999999999999545,0.0,1116000602100702060302404815151002600007000080000
3255,ESMK,55.9217,14.0855,2024-05-17 00:20:00,,,,,8.0,1019.0,1371.6352955779773,7.0,2.0,,10000.0,99999,,0.0,0.0,1116003602100802070301904371651000600007000080000
3256,ESMS,55.53631,13.3762,2024-05-17 00:20:00,,,,,13.0,1017.0,1723.4752289712117,5.0,12.0,90.0,10000.0,99999,,0.0,0.0,1116000912101302050301704723451000600007000080000
3257,ESMX,56.9291,14.728,2024-05-17 00:20:00,,,,,11.0,1021.0,3512.625381517077,4.0,4.0,100.0,10000.0,99999,,-0.6000000000000227,0.0,1116001004101102040302104512651003600007000080000
3258,ESNN,62.5281,17.4439,2024-05-17 00:20:00,,,,,6.0,1023.0,1118.0145817441864,5.0,3.0,330.0,350.0,99999,,0.5,0.0,1110003303100602050302304118051005600007000080000
3259,ESNO,63.4083,18.99,2024-05-17 00:20:00,,,,,5.0,1022.0,4314.491292376883,3.0,4.0,340.0,10000.0,99999,,-1.1000000000000227,0.0,1116003404100502030302204314451018600007000080000
3260,ESNQ,67.822,20.3368,2024-05-17 00:20:00,,,,,6.0,1019.0,12.883283730644347,2.0,8.0,200.0,10000.0,99999,,-2.2999999999999545,0.0,111600200810060202030190412851027600007000080000
3261,ESNS,64.6248,21.0769,2024-05-17 00:20:00,,,,,7.0,1023.0,1920.0851113735587,7.0,3.0,270.0,10000.0,99999,,-0.5,0.0,1116002703100702070302304920051005600007000080000
3262,ESNU,63.7918,20.2828,2024-05-17 00:20:00,,,,,6.0,1023.0,1166.8394120702887,3.0,3.0,340.0,10000.0,99999,,-0.5,0.0,1116003403100602030302304166851005600007000080000
3263,ESOK,59.4447,13.3374,2024-05-17 00:20:00,,,,,12.0,1023.0,2233.562184078879,3.0,5.0,110.0,10000.0,99999,,0.0,0.0,1116001105101202030302304233551000600007000080000
3264,ESOW,59.5894,16.6336,2024-05-17 00:20:00,,,,,7.0,1024.0,1131.2445886506632,4.0,2.0,,10000.0,99999,,-1.0,0.0,1116003602100702040302404131251010600007000080000
3265,ESPA,65.5438,22.122,2024-05-17 00:20:00,,,,,8.0,1022.0,1321.9004293138935,3.0,4.0,140.0,10000.0,99999,,-0.8999999999999773,0.0,1116001404100802030302204321951001600007000080000
3267,ESSB,59.3544,17.9417,2024-05-17 00:20:00,,,,,8.0,1025.0,1239.353576104061,7.0,0.0,0.0,10000.0,99999,,0.20000000000004547,0.0,1116000000100802070302504239351002600007000080000
3268,ESSD,60.422,15.5152,2024-05-17 00:20:00,,,,,12.0,1023.0,2836.882057703269,4.0,0.0,0.0,10000.0,99999,,-0.2999999999999545,0.0,1116000000101202040302304836851007600007000080000
3269,ESSP,58.5863,16.2506,2024-05-17 00:20:00,,,,,5.0,1024.0,1258.0848637104805,4.0,1.0,140.0,10000.0,99999,,-0.5,0.0,1116001401100502040302404258051005600007000080000
3270,ESSV,57.6628,18.3462,2024-05-17 00:20:00,,,,,9.0,1024.0,1738.2728812792784,5.0,8.0,110.0,10000.0,99999,,-0.7999999999999545,0.0,1116001108100902050302404738251002600007000080000
3271,LSGC,47.0839,6.79284,2024-05-17 00:20:00,61.0,36.0,^,green,6.0,1008.0,21.19258639599189,6.0,8.0,240.0,10000.0,99999,,-1.2999999999999545,0.1,111600240810060206030080421151017600107610080000
3272,LSGG,46.2381,6.10895,2024-05-17 00:20:00,,,,,10.0,1010.0,7887.002881700968,9.0,2.0,,10000.0,99999,,-0.10000000000002274,0.0,1116003602101002090301004887051008600007000080000
3273,LSGS,46.2196,7.32676,2024-05-17 00:20:00,,,,,9.0,1009.0,9.558581464172661,9.0,1.0,,10000.0,99999,,-0.20000000000004547,0.1,11160036011009020903009049551007600107000080000
3274,LSZA,46.0043,8.91058,2024-05-17 00:20:00,,,,,10.0,1007.0,5329.331335479482,10.0,1.0,,10000.0,99999,,1.0,0.0,11160036011010020100300704329351010600007000080000
3275,LSZB,46.9141,7.49715,2024-05-17 00:20:00,61.0,36.0,^,green,10.0,1009.0,9.151549490150705,9.0,2.0,110.0,8000.0,99999,,0.0,0.5,11140011021010020903009049151000600507610080000
3276,LSZG,47.1816,7.41719,2024-05-17 00:20:00,61.0,36.0,^,green,10.0,1008.0,7871.385054212451,10.0,8.0,230.0,10000.0,99999,,0.0,0.6,11160023081010020100300804871351000600607610080000
3277,LSZH,47.4647,8.54917,2024-05-17 00:20:00,61.0,36.0,^,green,10.0,1007.0,7888.291039007877,9.0,10.0,240.0,10000.0,99999,,0.20000000000004547,4.1,1116002410101002090300704888251002604007610080000
3278,LSZL,46.1608,8.87861,2024-05-17 00:20:00,,,,,10.0,1007.0,3951.6694216198953,9.0,1.0,30.0,10000.0,99999,,-1.0,0.0,1116000301101002090300704951651010600007000080000
3279,LSZR,47.485,9.56077,2024-05-17 00:20:00,61.0,36.0,^,green,11.0,1006.0,6731.24033082548,8.0,8.0,240.0,10000.0,99999,,-0.2999999999999545,0.0,1116002408101102080300604731251007600007610080000
3280,LSZS,46.5341,9.88411,2024-05-17 00:20:00,,,,,1.0,1007.0,35.87783881504323,1.0,2.0,220.0,10000.0,99999,,1.0,0.3,111600220210010201030070435851010600307000080000
3282,EGAA,54.6575,-6.21583,2024-05-17 00:20:00,,,,,13.0,1008.0,1813.256944034949,11.0,11.0,40.0,10000.0,99999,,0.39999999999997726,0.0,11160004111013020110300804813251003600007000080000
3283,EGBB,52.4539,-1.74803,2024-05-17 00:20:00,,,,,12.0,1006.0,2101.970680691927,11.0,2.0,170.0,10000.0,99999,,1.0,0.0,11160017021012020110300604101951010600007000080000
3284,EGCC,53.3537,-2.27495,2024-05-17 00:20:00,,,,,14.0,1006.0,1713.4117127264276,12.0,4.0,70.0,10000.0,99999,,1.0,0.0,11160007041014020120300604713451010600007000080000
3285,EGFF,51.3967,-3.34333,2024-05-17 00:20:00,,,,,11.0,1006.0,1783.258262088669,11.0,4.0,340.0,10000.0,99999,,-0.5,0.0,11160034041011020110300604783251005600007000080000
3286,EGGD,51.3827,-2.71909,2024-05-17 00:20:00,,,,,11.0,1006.0,3516.193486722433,11.0,3.0,220.0,10000.0,99999,,-0.10000000000002274,0.0,11160022031011020110300604516151008600007000080000
3289,EGJJ,49.2079,-2.19551,2024-05-17 00:20:00,,,,,12.0,1006.0,1916.7927741102835,12.0,7.0,130.0,10000.0,99999,,-0.20000000000004547,0.0,11160013071012020120300604916751007600007000080000
3290,EGKK,51.1481,-0.19028,2024-05-17 00:20:00,,,,,12.0,1007.0,1651.115555016962,11.0,2.0,160.0,10000.0,99999,,0.10000000000002274,0.0,11160016021012020110300704651151001600007000080000
3291,EGLF,51.2758,-0.77633,2024-05-17 00:20:00,,,,,12.0,1006.0,1776.1300465275099,10.0,2.0,170.0,10000.0,99999,,-1.1000000000000227,0.0,11160017021012020100300604776151018600007000080000
3292,EGLL,51.4706,-0.46194,2024-05-17 00:20:00,,,,,13.0,1007.0,1236.622280540646,11.0,3.0,210.0,10000.0,99999,,0.5,0.0,11160021031013020110300704236651005600007000080000
3293,EGMD,50.9561,0.93917,2024-05-17 00:20:00,45.0,36.0,N,yellow,9.0,1007.0,1057.225704699562,9.0,3.0,120.0,150.0,99999,,0.0,0.0,1110001203100902090300704057251000600007450080000
3294,EGNJ,53.5744,-0.35083,2024-05-17 00:20:00,,,,,13.0,1006.0,1346.6847367036198,12.0,2.0,80.0,6000.0,99999,,0.5,0.0,11130008021013020120300604346651005600007000080000
3296,EGNM,53.8659,-1.66057,2024-05-17 00:20:00,10.0,36.0,+,yellow,11.0,1006.0,3789.240561794281,11.0,7.0,30.0,3000.0,99999,,0.0,0.0,11110003071011020110300604789251000600007100080000
3298,EGNX,52.8311,-1.32806,2024-05-17 00:20:00,,,,,13.0,1006.0,1936.7631905091062,13.0,4.0,210.0,8000.0,99999,,0.5,0.0,11140021041013020130300604936751005600007000080000
3299,EGPA,58.9578,-2.905,2024-05-17 00:20:00,61.0,36.0,^,green,10.0,1013.0,1192.2484488646535,9.0,9.0,160.0,8000.0,99999,,0.10000000000002274,0.0,1114001609101002090301304192251001600007610080000
3300,EGPB,59.8789,-1.29556,2024-05-17 00:20:00,,,,,11.0,1015.0,1078.8932154121478,9.0,5.0,140.0,10000.0,99999,,-0.10000000000002274,0.0,1116001405101102090301504078851008600007000080000
3308,EGAC,54.6181,-5.8725,2024-05-17 00:20:00,,,,,14.0,1007.0,1044.1558396921719,11.0,12.0,40.0,10000.0,99999,,-0.20000000000004547,0.0,11160004121014020110300704044151007600007000080000
3309,EGGP,53.3336,-2.84972,2024-05-17 00:20:00,,,,,14.0,1005.0,1209.2051257545559,12.0,5.0,60.0,10000.0,99999,,0.0,0.0,11160006051014020120300504209251000600007000080000
3310,EGGW,51.8747,-0.36833,2024-05-17 00:20:00,,,,,12.0,1006.0,2883.0189566512145,12.0,3.0,160.0,10000.0,99999,,0.0,0.0,11160016031012020120300604883051000600007000080000
3312,EGNT,55.0375,-1.69167,2024-05-17 00:20:00,,,,,11.0,1007.0,1967.0563124675862,10.0,6.0,30.0,10000.0,99999,,-1.0,0.0,11160003061011020100300704967051010600007000080000
3314,EGPE,57.5425,-4.0475,2024-05-17 00:20:00,,,,,12.0,1013.0,1104.0925276898,11.0,0.0,0.0,9000.0,99999,,0.8999999999999773,0.0,11150000001012020110301304104051008600007000080000
3315,EGPF,55.8719,-4.43306,2024-05-17 00:20:00,,,,,12.0,1010.0,1085.9513240110311,10.0,8.0,80.0,10000.0,99999,,0.7999999999999545,0.0,11160008081012020100301004085951007600007000080000
3316,EGPL,57.4811,-7.36278,2024-05-17 00:20:00,10.0,36.0,+,yellow,11.0,1012.0,1072.4800914201778,11.0,13.0,20.0,1900.0,99999,,-0.39999999999997726,0.0,11110002131011020110301204072451006600007100080000
3318,EGSS,51.885,0.235,2024-05-17 00:20:00,,,,,13.0,1007.0,2082.4097475509398,12.0,4.0,150.0,10000.0,99999,,0.6000000000000227,0.0,11160015041013020120300704082451006600007000080000
3320,EDMA,48.42528,10.93167,2024-05-17 00:20:00,,,,,12.0,1003.0,7096.385371176041,11.0,8.0,230.0,10000.0,99999,,0.10000000000002274,0.0,11160023081012020110300304096351001600007000080000
3323,EDAC,50.98195,12.50639,2024-05-17 00:20:00,,,,,15.0,1007.0,2828.9697968652913,8.0,4.0,80.0,10000.0,99999,,1.1000000000000227,0.0,1116000804101502080300704828951011600007000080000
3324,EDFH,49.9487,7.26389,2024-05-17 00:20:00,,,,,11.0,1005.0,8279.397416509366,11.0,6.0,290.0,10000.0,99999,,-1.2000000000000455,0.0,11160029061011020110300504279351017600007000080000
3325,EDGS,50.7077,8.08297,2024-05-17 00:20:00,,,,,11.0,1006.0,9.650583653568532,10.0,5.0,70.0,10000.0,99999,,0.10000000000002274,0.0,111600070510110201003006049651001600007000080000
3326,EDLV,51.6024,6.14217,2024-05-17 00:20:00,,,,,12.0,1007.0,1329.691692531327,12.0,1.0,240.0,350.0,99999,,0.0,0.0,11100024011012020120300704329651000600007000080000
3330,ENBS,70.6005,29.6914,2024-05-17 00:20:00,,,,,1.0,1022.0,20.020881499244066,-1.0,9.0,220.0,10000.0,99999,,-1.1000000000000227,0.0,111600220910010211030220420051018600007000080000
3331,ENHK,70.4867,22.1397,2024-05-17 00:20:00,61.0,36.0,^,green,4.0,1020.0,1209.828080045726,3.0,4.0,130.0,10000.0,99999,,-1.3999999999999773,0.0,1116001304100402030302004209851016600007610080000
3333,ESGT,58.3181,12.345,2024-05-17 00:20:00,,,,,10.0,1021.0,1543.3739531034264,3.0,4.0,50.0,10000.0,99999,,0.0,0.0,1116000504101002030302104543351000600007000080000
3334,ESKM,60.9579,14.5114,2024-05-17 00:20:00,,,,,15.0,1023.0,2854.1526447234787,5.0,4.0,200.0,10000.0,99999,,0.0,0.0,1116002004101502050302304854151000600007000080000
3335,ESMQ,56.6855,16.2876,2024-05-17 00:20:00,,,,,12.0,1022.0,1071.983663788709,5.0,9.0,90.0,10000.0,99999,,-0.8999999999999773,0.0,1116000909101202050302204071951001600007000080000
3336,ESMT,56.6911,12.8202,2024-05-17 00:20:00,,,,,13.0,1019.0,1304.2828279498312,3.0,14.0,90.0,10000.0,99999,,-0.10000000000002274,0.0,1116000914101302030301904304251008600007000080000
3337,ESNG,67.1324,20.8146,2024-05-17 00:20:00,,,,,5.0,1020.0,10.990037113059003,2.0,6.0,310.0,10000.0,99999,,-1.7000000000000455,0.0,111600310610050202030200410951012600007000080000
3338,ESNK,63.0486,17.7689,2024-05-17 00:20:00,,,,,7.0,1022.0,1197.5059842528876,6.0,1.0,,10000.0,99999,,-2.2000000000000455,0.0,1116003601100702060302204197551027600007000080000
3339,ESNL,64.5483,18.7162,2024-05-17 00:20:00,,,,,10.0,1022.0,4298.721071588589,6.0,5.0,140.0,10000.0,99999,,0.0,0.0,1116001405101002060302204298751000600007000080000
3340,ESNX,65.5903,19.2819,2024-05-17 00:20:00,10.0,36.0,+,yellow,5.0,1022.0,12.829280118173635,5.0,0.0,0.0,1100.0,99999,,0.0,0.0,111000000010050205030220412851000600007100080000
3341,ESOE,59.2237,15.038,2024-05-17 00:20:00,,,,,8.0,1024.0,1969.6966122506806,4.0,1.0,,10000.0,99999,,0.0,0.0,1116003601100802040302404969651000600007000080000
3342,ESSL,58.4062,15.6805,2024-05-17 00:20:00,,,,,6.0,1024.0,2204.840022360585,4.0,2.0,120.0,10000.0,99999,,-0.20000000000004547,0.0,1116001202100602040302404204851007600007000080000
3343,ESTA,56.2961,12.8471,2024-05-17 00:20:00,,,,,12.0,1018.0,1223.0583234900053,4.0,12.0,100.0,10000.0,99999,,-0.7000000000000455,0.0,1116001012101202040301804223051002600007000080000
3344,ESTL,56.0828,13.2125,2024-05-17 00:20:00,,,,,11.0,1018.0,1499.1605181905,5.0,5.0,130.0,10000.0,99999,,-0.8999999999999773,0.0,1116001305101102050301804499151001600007000080000
3345,ESUT,65.8061,15.0828,2024-05-17 00:20:00,,,,,-0.0,1021.0,39.0437173570075,-0.0,2.0,,10000.0,99999,,-1.2999999999999545,0.0,111600360211000210030210439051017600007000080000
3348,EBBR,50.9014,4.48444,2024-05-17 00:20:00,,,,,13.0,1007.0,1540.6507949107258,12.0,1.0,,8000.0,99999,,-0.6000000000000227,0.0,11140036011013020120300704540651003600007000080000
3349,EGPD,57.2019,-2.19778,2024-05-17 00:20:00,,,,,10.0,1013.0,1860.6897698038483,9.0,3.0,330.0,9000.0,99999,,0.20000000000004547,0.0,1115003303101002090301304860651002600007000080000
3350,EGPH,55.95,-3.3725,2024-05-17 00:20:00,,,,,10.0,1010.0,1518.621424360015,9.0,2.0,360.0,5000.0,99999,,-0.10000000000002274,0.0,1113003602101002090301004518651008600007000080000
3351,EGPK,55.5094,-4.58667,2024-05-17 00:20:00,,,,,11.0,1009.0,1221.2796260531375,10.0,9.0,70.0,10000.0,99999,,0.0,0.0,11160007091011020100300904221251000600007000080000
3352,EGPO,58.2156,-6.33111,2024-05-17 00:20:00,,,,,12.0,1012.0,1088.101722672439,11.0,7.0,340.0,3800.0,99999,,0.20000000000004547,0.0,11120034071012020110301204088151002600007000080000
3353,EKAH,56.3,10.619,2024-05-17 00:20:00,,,,,14.0,1016.0,1227.8007222099911,7.0,11.0,100.0,10000.0,99999,,0.0,0.0,1116001011101402070301604227851000600007000080000
3354,EKKA,56.2975,9.12463,2024-05-17 00:20:00,,,,,13.0,1015.0,1508.9197795172913,7.0,11.0,100.0,10000.0,99999,,-0.10000000000002274,0.0,1116001011101302070301504508951008600007000080000
3355,EKYT,57.09276,9.84924,2024-05-17 00:20:00,,,,,14.0,1017.0,1041.952148125241,7.0,13.0,100.0,10000.0,99999,,0.0,0.0,1116001013101402070301704041951000600007000080000
3356,ENAN,69.2925,16.1442,2024-05-17 00:20:00,,,,,6.0,1018.0,1279.8875434921974,3.0,4.0,40.0,10000.0,99999,,0.0,0.0,1116000404100602030301804279851000600007000080000
3357,ENBO,67.2692,14.3653,2024-05-17 00:20:00,,,,,13.0,1019.0,1134.1141567958264,6.0,13.0,110.0,10000.0,99999,,-1.6000000000000227,0.0,1116001113101302060301904134151013600007000080000
3358,ENGM,60.1939,11.1004,2024-05-17 00:20:00,,,,,8.0,1022.0,5071.144596441101,4.0,3.0,20.0,10000.0,99999,,0.0,0.0,1116000203100802040302204071151000600007000080000
3359,ENOL,63.6989,9.604,2024-05-17 00:20:00,,,,,11.0,1018.0,1108.1759737540372,10.0,3.0,130.0,10000.0,99999,,-0.2999999999999545,0.0,11160013031011020100301804108151007600007000080000
3360,ENSH,68.2433,14.6692,2024-05-17 00:20:00,,,,,9.0,1019.0,1125.7209334326424,6.0,0.0,0.0,10000.0,99999,,-0.7999999999999545,0.0,1116000000100902060301904125751002600007000080000
3361,ENTC,69.6833,18.9189,2024-05-17 00:20:00,,,,,6.0,1019.0,1205.528116020485,3.0,7.0,30.0,10000.0,99999,,-1.5,0.0,1116000307100602030301904205551015600007000080000
3362,ESSA,59.6519,17.9186,2024-05-17 00:20:00,,,,,7.0,1024.0,1796.5272805714824,5.0,4.0,180.0,10000.0,99999,,0.0,0.0,1116001804100702050302404796551000600007000080000
3374,EBAW,51.1894,4.46028,2024-05-17 00:20:00,,,,,13.0,1007.0,1112.4641609093924,12.0,3.0,10.0,10000.0,99999,,-0.6000000000000227,0.0,11160001031013020120300704112451003600007000080000
3396,EDHK,54.37944,10.14528,2024-05-17 00:20:00,,,,,17.0,1011.0,1227.1018711566703,7.0,7.0,110.0,10000.0,99999,,0.0,0.0,1116001107101702070301104227151000600007000080000
3398,EDLP,51.6141,8.61632,2024-05-17 00:20:00,,,,,13.0,1006.0,3376.0530472091973,12.0,2.0,,10000.0,99999,,-1.0,0.0,11160036021013020120300604376051010600007000080000
3433,EDAH,53.8787,14.1523,2024-05-17 00:20:00,,,,,16.0,1014.0,1223.710920633749,5.0,12.0,100.0,10000.0,99999,,-0.5,0.0,1116001012101602050301404223751005600007000080000
3434,EDHI,53.53528,9.83556,2024-05-17 00:20:00,,,,,20.0,1009.0,1048.9823829404647,8.0,5.0,90.0,10000.0,99999,,0.0,0.0,1116000905102002080300904048951000600007000080000
3435,EDHL,53.8054,10.7192,2024-05-17 00:20:00,,,,,15.0,1011.0,1136.1671666449809,7.0,5.0,100.0,10000.0,99999,,1.2000000000000455,0.0,1116001005101502070301104136151012600007000080000
3436,EDLW,51.5183,7.61224,2024-05-17 00:20:00,,,,,13.0,1006.0,2351.203812148342,13.0,3.0,20.0,350.0,99999,,-0.2999999999999545,0.0,11100002031013020130300604351251007600007000080000
3437,EDSB,48.7794,8.0805,2024-05-17 00:20:00,,,,,13.0,1005.0,2288.33287300821,13.0,8.0,220.0,10000.0,99999,,-1.1000000000000227,1.2,11160022081013020130300504288351018601107000080000
3438,EDTL,48.3693,7.82772,2024-05-17 00:20:00,,,,,12.0,1006.0,2822.1085776754585,11.0,10.0,220.0,7000.0,99999,,-0.7999999999999545,11.0,11140022101012020110300604822151002611007000080000
3439,EDVE,52.3192,10.5561,2024-05-17 00:20:00,,,,,16.0,1008.0,1720.219418769928,9.0,7.0,90.0,10000.0,99999,,-0.39999999999997726,0.0,1116000907101602090300804720251006600007000080000
3440,EDXW,54.9132,8.34047,2024-05-17 00:20:00,,,,,15.0,1010.0,1130.2143448908557,11.0,15.0,100.0,10000.0,99999,,-0.39999999999997726,0.0,11160010151015020110301004130251006600007000080000
3441,ENMS,65.784,13.2149,2024-05-17 00:20:00,,,,,7.0,1020.0,2439.0098225981756,4.0,0.0,0.0,10000.0,99999,,0.0,0.0,1116000000100702040302004439051000600007000080000
3442,ENSG,61.1561,7.13778,2024-05-17 00:20:00,,,,,11.0,1021.0,1021.0,3.0,2.0,,10000.0,99999,,1.0,0.0,1116003602101102030302104021051010600007000080000
3443,ENSK,68.57883,15.03342,2024-05-17 00:20:00,,,,,10.0,1018.0,1056.571282871794,6.0,7.0,60.0,10000.0,99999,,-1.0,0.0,1116000607101002060301804056551010600007000080000
3444,ENSS,70.3554,31.0449,2024-05-17 00:20:00,,,,,2.0,1023.0,1857.0849107514753,-2.0,4.0,250.0,10000.0,99999,,-0.20000000000004547,0.0,1116002504100202120302304857051007600007000080000
3448,LOWG,46.9911,15.4396,2024-05-17 00:20:00,,,,,13.0,1008.0,5035.326151491344,12.0,5.0,180.0,5000.0,99999,,-1.2000000000000455,3.0,11130018051013020120300804035351017603007000080000
3449,LOWK,46.6425,14.3377,2024-05-17 00:20:00,,,,,13.0,1006.0,6441.899875649745,12.0,6.0,70.0,10000.0,99999,,-1.7999999999999545,4.2,11160007061013020120300604441851012604207000080000
3450,LOWL,48.2332,14.1875,2024-05-17 00:20:00,,,,,17.0,1004.0,3558.9800528626915,9.0,15.0,90.0,10000.0,99999,,-1.5,0.0,1116000915101702090300404558951015600007000080000
3451,LOWS,47.7933,13.0043,2024-05-17 00:20:00,80.0,36.0,q,green,15.0,1003.0,5441.447455848583,10.0,3.0,190.0,10000.0,99999,,-0.5,0.0,11160019031015020100300304441451005600007800080000
3452,LOWW,48.1103,16.5697,2024-05-17 00:20:00,,,,,16.0,1009.0,2585.1656546176664,8.0,10.0,100.0,10000.0,99999,,-1.7000000000000455,0.0,1116001010101602080300904585151012600007000080000
3458,EGSH,52.6758,1.28278,2024-05-17 00:20:00,10.0,36.0,+,yellow,12.0,1007.0,1365.2030174036674,12.0,2.0,,1200.0,99999,,1.0,0.0,11100036021012020120300704365251010600007100080000
3463,LIBP,42.4317,14.1811,2024-05-17 00:20:00,,,,,19.0,1008.0,1096.6069273768762,11.0,4.0,,10000.0,99999,,2.5,0.0,11160036041019020110300804096651025600007000080000
3464,LICA,38.9054,16.2423,2024-05-17 00:20:00,,,,,19.0,1011.0,1082.967181046098,18.0,5.0,230.0,6000.0,99999,,0.0,0.0,11130023051019020180301104082951000600007000080000
3470,EHLE,52.4603,5.52722,2024-05-17 00:25:00,,,,,14.0,1007.0,975.2666633621777,14.0,3.0,10.0,10000.0,99999,,0.7999999999999545,0.0,11160001031014020140300704975251007600007000080000
3478,ETHS,52.9194,10.1975,2024-05-17 00:20:00,,,,,16.0,1008.0,1589.6631007420212,8.0,7.0,80.0,10000.0,99999,,0.2999999999999545,0.0,1116000807101602080300804589651002600007000080000
3485,LSMM,46.7433,8.11,2024-05-17 00:20:00,61.0,36.0,^,green,9.0,1009.0,11.093643472086976,9.0,0.0,0.0,10000.0,99999,,-0.7999999999999545,1.1,111600000010090209030090411051002601107610080000
3486,EFKI,64.2855,27.6924,2024-05-17 00:20:00,,,,,2.0,1023.0,12.54243121205643,-0.0,1.0,,10000.0,99999,,-0.2999999999999545,0.0,111600360110020210030230412551007600007000080000
3487,EFKU,63.0071,27.7978,2024-05-17 00:20:00,,,,,7.0,1023.0,3046.9055027012737,6.0,1.0,290.0,10000.0,99999,,0.7999999999999545,0.0,1116002901100702060302304046951007600007000080000
3495,ETHC,52.5912,10.0221,2024-05-17 00:20:00,,,,,17.0,1007.0,1282.038153673064,9.0,8.0,60.0,10000.0,99999,,-0.7000000000000455,0.0,1116000608101702090300704282051002600007000080000
3496,ETHF,51.1146,9.286,2024-05-17 00:20:00,,,,,11.0,1005.0,6904.943680680839,11.0,4.0,320.0,10000.0,99999,,-1.8999999999999773,0.0,11160032041011020110300504904951011600007000080000
3497,ETHL,48.2203,9.91002,2024-05-17 00:20:00,61.0,36.0,^,green,11.0,1003.0,8773.610256041256,11.0,11.0,250.0,10000.0,99999,,-0.8999999999999773,1.1,11160025111011020110300304773651001601107610080000
3501,ETNN,50.8312,6.65817,2024-05-17 00:20:00,,,,,13.0,1006.0,2198.785860537195,12.0,10.0,200.0,10000.0,99999,,-0.6000000000000227,0.0,11160020101013020120300604198751003600007000080000
3502,ETNW,52.4573,9.42717,2024-05-17 00:20:00,,,,,14.0,1007.0,1508.3342158329658,11.0,1.0,,10000.0,99999,,-0.10000000000002274,0.0,11160036011014020110300704508351008600007000080000
3503,ETSL,48.1855,10.8612,2024-05-17 00:20:00,61.0,36.0,^,green,11.0,1003.0,9.014318048103473,10.0,11.0,220.0,10000.0,99999,,0.20000000000004547,0.0,111600221110110201003003049051002600007610080000
3531,ETHN,49.39194,9.95889,2024-05-17 00:20:00,,,,,12.0,1003.0,6346.140846630339,11.0,8.0,50.0,10000.0,99999,,-1.8999999999999773,0.0,11160005081012020110300304346151011600007000080000
3532,ETMN,53.7677,8.6585,2024-05-17 00:20:00,,,,,17.0,1009.0,1161.60748501437,10.0,5.0,90.0,10000.0,99999,,0.10000000000002274,0.0,11160009051017020100300904161651001600007000080000
3533,ETNL,53.9182,12.2783,2024-05-17 00:20:00,,,,,14.0,1012.0,1376.1763162683426,5.0,11.0,80.0,10000.0,99999,,0.20000000000004547,0.0,1116000811101402050301204376151002600007000080000
3565,EYSA,55.8939,23.395,2024-05-17 00:20:00,,,,,7.0,1025.0,3932.6398363331286,5.0,0.0,0.0,10000.0,99999,,0.0,0.0,1116000000100702050302504932651000600007000080000
3580,EGLC,51.5053,0.05528,2024-05-17 00:20:00,,,,,13.0,1007.0,1057.8262976212336,10.0,4.0,220.0,10000.0,99999,,1.0,0.0,11160022041013020100300704057851010600007000080000
3581,EGPC,58.4589,-3.09306,2024-05-17 00:20:00,,,,,10.0,1013.0,1486.6590605047943,9.0,3.0,150.0,7000.0,99999,,-0.2999999999999545,0.0,1114001503101002090301304486651007600007000080000
3584,LIRN,40.886,14.2908,2024-05-17 00:20:00,,,,,19.0,1010.0,1599.476264445083,16.0,9.0,260.0,10000.0,99999,,-0.8999999999999773,0.0,11160026091019020160301004599451001600007000080000
3631,LTCS,37.44566,38.89559,2024-05-17 00:20:00,,,,,14.0,1018.0,10.43761561400549,6.0,6.0,360.0,10000.0,99999,,1.6000000000000227,0.0,111600360610140206030180410451016600007000080000
3635,LTFM,41.27533,28.752,2024-05-17 00:20:00,,,,,13.0,1021.0,2031.1679765370607,10.0,6.0,100.0,10000.0,99999,,0.0,0.0,11160010061013020100302104031151000600007000080000
3652,EGTE,50.7344,-3.41389,2024-05-17 00:20:00,,,,,11.0,1006.0,1345.3315609100557,10.0,3.0,170.0,6000.0,99999,,-0.5,0.0,11130017031011020100300604345351005600007000080000
3656,LTAZ,38.7719,34.5345,2024-05-17 00:20:00,,,,,12.0,1020.0,13.168026312722443,7.0,4.0,140.0,10000.0,99999,,0.0,0.0,111600140410120207030200413151000600007000080000
3657,LTBR,40.2552,29.5626,2024-05-17 00:20:00,,,,,12.0,1019.0,3929.408827105494,8.0,0.0,0.0,10000.0,99999,,-0.8999999999999773,0.0,1116000000101202080301904929451001600007000080000
3659,LTFC,37.8554,30.3684,2024-05-17 00:20:00,,,,,11.0,1020.0,13.144654221699202,7.0,6.0,320.0,10000.0,99999,,-1.0,0.0,111600320610110207030200413151010600007000080000
3660,LTFJ,40.8986,29.3092,2024-05-17 00:20:00,80.0,36.0,q,green,12.0,1020.0,2074.3458427864184,9.0,11.0,70.0,10000.0,99999,,0.0,0.0,1116000711101202090302004074351000600007800080000
3690,LFCK,43.5563,2.28918,2024-05-17 00:30:00,,,,,10.0,1011.0,4685.4329739,9.0,2.0,,10000.0,99999,,0.0,0.0,1116003602101002090301104685451000600007000080000
3691,LFLP,45.9292,6.09876,2024-05-17 00:30:00,,,,,9.0,1010.0,9.236011313904033,8.0,3.0,50.0,10000.0,99999,,0.0,0.0,11160005031009020803010049251000600007000080000
3696,LFQA,49.2087,4.15658,2024-05-17 00:30:00,,,,,12.0,1007.0,2051.6374389626762,11.0,3.0,330.0,10000.0,99999,,-0.7000000000000455,0.0,11160033031012020110300704051651002600007000080000
3728,LFJR,47.5603,-0.31222,2024-05-17 00:30:00,,,,,10.0,1007.0,1759.3882251408704,9.0,5.0,140.0,10000.0,99999,,-0.2999999999999545,0.0,1116001405101002090300704759351007600007000080000
3736,ETSN,48.711,11.2115,2024-05-17 00:20:00,,,,,14.0,1002.0,5184.226209596886,10.0,4.0,60.0,10000.0,99999,,-2.6000000000000227,2.7,11160006041014020100300204184251023602707000080000
3738,EHBK,50.9117,5.77014,2024-05-17 00:25:00,,,,,13.0,1007.0,2176.406894734055,12.0,4.0,250.0,10000.0,99999,,-0.39999999999997726,0.0,11160025041013020120300704176451006600007000080000
3739,EHDL,52.0606,5.87306,2024-05-17 00:25:00,10.0,36.0,+,yellow,11.0,1007.0,1549.2014845559188,11.0,2.0,,5000.0,99999,,0.39999999999997726,0.0,11130036021011020110300704549251003600007100080000
3740,EHGG,53.1197,6.57944,2024-05-17 00:25:00,10.0,36.0,+,yellow,13.0,1007.0,1052.4261492519286,13.0,4.0,90.0,3800.0,99999,,0.0,0.2,11120009041013020130300704052451000600207100080000
3742,EHRD,51.9569,4.43722,2024-05-17 00:25:00,,,,,13.0,1007.0,967.6343951062125,12.0,3.0,260.0,9000.0,99999,,-0.5,0.0,11150026031013020120300704967651005600007000080000
3746,EHAM,52.3086,4.76389,2024-05-17 00:25:00,,,,,14.0,1007.0,980.1201194013153,13.0,6.0,300.0,8000.0,99999,,-0.20000000000004547,0.0,11140030061014020130300704980151007600007000080000
3751,LHPR,47.6244,17.8136,2024-05-17 00:15:00,,,,,16.0,1010.0,2076.4823655282903,7.0,14.0,130.0,10000.0,99999,,-0.7000000000000455,0.0,1116001314101602070301004076451002600007000080000
3752,LHSM,46.6864,17.1591,2024-05-17 00:15:00,,,,,13.0,1008.0,2295.163717405249,12.0,9.0,90.0,10000.0,99999,,0.0,0.0,11160009091013020120300804295151000600007000080000
3756,EPBY,53.0968,17.9777,2024-05-17 00:30:00,,,,,11.0,1018.0,1863.9022239297851,2.0,8.0,90.0,10000.0,99999,,0.0,0.0,1116000908101102020301804863951000600007000080000
3760,EPRA,51.38883,21.21167,2024-05-17 00:30:00,,,,,10.0,1019.0,3858.4692700823825,1.0,10.0,120.0,10000.0,99999,,0.0,0.0,1116001210101002010301904858451000600007000080000
3762,EPSY,53.48194,20.93778,2024-05-17 00:30:00,,,,,10.0,1022.0,3056.7931801221093,1.0,3.0,90.0,10000.0,99999,,-0.5,0.0,1116000903101002010302204056751005600007000080000
3777,LTAG,37.0021,35.4259,2024-05-17 00:20:00,,,,,17.0,1017.0,1549.628351674141,15.0,2.0,40.0,10000.0,99999,,-0.7000000000000455,0.0,11160004021017020150301704549651002600007000080000
3778,LTAI,36.8987,30.8005,2024-05-17 00:20:00,,,,,19.0,1016.0,1360.3878220103302,16.0,2.0,230.0,10000.0,99999,,-3.2000000000000455,0.0,11160023021019020160301604360351037600007000080000
3780,LTAP,40.8294,35.522,2024-05-17 00:20:00,,,,,5.0,1020.0,16.375423897378514,3.0,0.0,0.0,10000.0,99999,,-2.7999999999999545,0.0,111600000010050203030200416351022600007000080000
3782,LTBA,40.9769,28.8146,2024-05-17 00:20:00,,,,,14.0,1020.0,1458.2349909719226,7.0,12.0,40.0,10000.0,99999,,-1.5,0.0,1116000412101402070302004458251015600007000080000
3786,LTCG,40.9951,39.7897,2024-05-17 00:20:00,,,,,11.0,1022.0,1373.8826909757893,10.0,4.0,200.0,10000.0,99999,,-1.7999999999999545,0.0,11160020041011020100302204373851012600007000080000
3787,LTCJ,37.929,41.1166,2024-05-17 00:20:00,,,,,12.0,1015.0,8456.046239761423,8.0,2.0,,10000.0,99999,,-0.39999999999997726,0.0,1116003602101202080301504456051006600007000080000
3791,EGVN,51.75,-1.58362,2024-05-17 00:20:00,,,,,13.0,1006.0,1876.211949080853,12.0,0.0,0.0,10000.0,99999,,-0.5,0.0,11160000001013020120300604876251005600007000080000
3792,EGVO,51.2341,-0.94283,2024-05-17 00:20:00,,,,,11.0,1006.0,2545.0710484019855,10.0,2.0,200.0,10000.0,99999,,0.0,0.0,11160020021011020100300604545051000600007000080000
3797,LBGO,43.1514,25.7129,2024-05-17 00:30:00,,,,,12.0,1018.0,1969.2807906092528,8.0,5.0,120.0,10000.0,99999,,-2.1000000000000227,0.8,1116001205101202080301804969251028600807000080000
3807,EHVK,51.6564,5.70861,2024-05-17 00:21:00,10.0,36.0,+,yellow,14.0,1006.0,1189.270728346729,14.0,4.0,280.0,4500.0,99999,,-0.5,0.2,11120028041014020140300604189251005600207100080000
3848,EGXV,53.8758,-0.435,2024-05-17 00:20:00,45.0,36.0,N,yellow,11.0,1005.0,1120.0404144793335,10.0,2.0,20.0,450.0,99999,,-0.7000000000000455,0.0,11100002021011020100300504120051002600007450080000
3895,LFPM,48.6047,2.67112,2024-05-17 00:30:00,,,,,10.0,1008.0,2240.5405117716905,9.0,4.0,220.0,10000.0,99999,,0.0,0.0,1116002204101002090300804240551000600007000080000
3902,LFYR,47.3208,1.68889,2024-05-17 00:30:00,,,,,7.0,1009.0,2767.4089354924217,7.0,1.0,40.0,10000.0,99999,,1.0,0.0,1116000401100702070300904767451010600007000080000
3923,LHPA,47.3636,17.5008,2024-05-17 00:15:00,95.0,36.0,2,red,14.0,1008.0,2383.569303538823,11.0,17.0,120.0,6000.0,99999,,-2.6000000000000227,0.0,11130012171014020110300804383551023600007950080000
3924,LYBT,44.9353,20.2575,2024-05-17 00:30:00,,,,,15.0,1010.0,1691.0349054313197,10.0,19.0,130.0,10000.0,99999,,-2.1000000000000227,0.2,11160013191015020100301004691051028600207000080000
3925,LYKV,43.8183,20.5872,2024-05-17 00:30:00,,,,,15.0,1011.0,2990.9171528994707,11.0,9.0,120.0,10000.0,99999,,-0.7000000000000455,0.0,11160012091015020110301104990951002600007000080000
3929,LYVR,45.1469,21.3099,2024-05-17 00:30:00,,,,,17.0,1012.0,1634.302737168201,5.0,16.0,150.0,10000.0,99999,,-1.6000000000000227,0.1,1116001516101702050301204634351013600107000080000
3949,LFBY,43.6892,-1.06889,2024-05-17 00:30:00,,,,,13.0,1008.0,1310.7918566026779,10.0,2.0,,10000.0,99999,,-2.2000000000000455,0.0,11160036021013020100300804310751027600007000080000
3951,LFLN,46.4125,4.01326,2024-05-17 00:30:00,,,,,6.0,1010.0,7465.825880816476,6.0,2.0,,10000.0,99999,,1.0,0.0,1116003602100602060301004465851010600007000080000
3967,EBCV,50.5758,3.831,2024-05-17 00:25:00,,,,,13.0,1007.0,1572.0859526430995,12.0,2.0,,9000.0,99999,,-0.5,0.0,11150036021013020120300704572051005600007000080000
3968,EBFS,50.2433,4.64583,2024-05-17 00:25:00,,,,,11.0,1007.0,4990.192587261407,11.0,2.0,,10000.0,99999,,0.0,0.0,11160036021011020110300704990151000600007000080000
3969,EBLB,50.4817,6.18194,2024-05-17 00:25:00,,,,,99999.0,99999.0,99999.0,99999.0,2.0,,10000.0,99999,,98991.0,0.0,11160036021099999020999990399904999051989910600007000080000
3970,EKSP,55.2256,9.26393,2024-05-17 00:20:00,,,,,14.0,1012.0,1384.580388865503,8.0,8.0,80.0,10000.0,99999,,-0.2999999999999545,0.0,1116000808101402080301204384551007600007000080000
3991,EPLL,51.7219,19.3981,2024-05-17 00:30:00,,,,,13.0,1017.0,3044.903823226911,1.0,10.0,90.0,10000.0,99999,,0.0,0.0,1116000910101302010301704044951000600007000080000
3995,LFCR,44.4079,2.48267,2024-05-17 00:30:00,,,,,5.0,1010.0,17.102008994832946,5.0,2.0,150.0,10000.0,99999,,-0.7999999999999545,0.0,111600150210050205030100417151002600007000080000
3998,LFMO,44.1405,4.86672,2024-05-17 00:30:00,,,,,9.0,1010.0,1872.109163553389,8.0,1.0,,10000.0,99999,,1.0,0.0,1116003601100902080301004872151010600007000080000
4000,LHDC,47.4889,21.6153,2024-05-17 00:15:00,,,,,12.0,1015.0,2242.9992741912583,5.0,8.0,80.0,10000.0,99999,,-0.7000000000000455,0.0,1116000808101202050301504242951002600007000080000
4002,LHPP,45.9909,18.241,2024-05-17 00:15:00,,,,,13.0,1008.0,4573.702626532783,11.0,13.0,90.0,10000.0,99999,,-3.7000000000000455,1.7,11160009131013020110300804573751032601707000080000
4007,LZPP,48.6252,17.8284,2024-05-17 00:30:00,,,,,18.0,1010.0,2248.568261969003,6.0,9.0,120.0,10000.0,99999,,0.0,0.0,1116001209101802060301004248551000600007000080000
4008,LZZI,49.2315,18.6135,2024-05-17 00:30:00,,,,,8.0,1013.0,7226.464406883628,6.0,2.0,,10000.0,99999,,0.0,0.0,1116003602100802060301304226451000600007000080000
4019,LFOV,48.0314,-0.74299,2024-05-17 00:30:00,,,,,11.0,1007.0,2229.1409883883516,10.0,4.0,130.0,10000.0,99999,,0.0,0.0,11160013041011020100300704229151000600007000080000
4022,LFRV,47.7233,-2.71856,2024-05-17 00:30:00,58.0,36.0,[,green,11.0,1005.0,2720.7179898920003,11.0,4.0,130.0,10000.0,99999,,0.0,0.0,11160013041011020110300504720751000600007580080000
4029,LFAQ,49.9715,2.69766,2024-05-17 00:30:00,,,,,11.0,1008.0,2374.4692934101845,10.0,2.0,,6000.0,99999,,0.6000000000000227,0.0,11130036021011020100300804374451006600007000080000
4030,LFBU,45.7292,0.22146,2024-05-17 00:30:00,,,,,9.0,1009.0,3119.2751195268897,9.0,2.0,150.0,10000.0,99999,,0.0,0.0,1116001502100902090300904119251000600007000080000
4037,LFOZ,47.8969,2.16333,2024-05-17 00:30:00,,,,,7.0,1009.0,3527.998344086238,7.0,1.0,130.0,10000.0,99999,,1.0,0.0,1116001301100702070300904527951010600007000080000
4038,LFPT,49.0966,2.04083,2024-05-17 00:30:00,,,,,9.0,1008.0,2516.5630989979127,8.0,1.0,30.0,10000.0,99999,,0.20000000000004547,0.0,1116000301100902080300804516551002600007000080000
4048,LTAC,40.1281,32.9951,2024-05-17 00:20:00,,,,,7.0,1019.0,18.949997720372608,4.0,1.0,,10000.0,99999,,-0.7000000000000455,0.0,111600360110070204030190418951002600007000080000
4049,LTAF,36.9822,35.2804,2024-05-17 00:20:00,,,,,18.0,1017.0,1145.7503909346292,17.0,1.0,,10000.0,99999,,-1.2999999999999545,0.0,11160036011018020170301704145751017600007000080000
4050,LTAJ,36.9472,37.4787,2024-05-17 00:20:00,,,,,16.0,1018.0,8128.267729520676,9.0,4.0,300.0,10000.0,99999,,5.7999999999999545,0.0,1116003004101602090301804128251057600007000080000
4051,LTAT,38.4353,38.091,2024-05-17 00:20:00,,,,,7.0,1019.0,17.862506357095455,5.0,2.0,,10000.0,99999,,0.0,0.0,111600360210070205030190417851000600007000080000
4052,LTAU,38.7704,35.4954,2024-05-17 00:20:00,,,,,9.0,1020.0,17.349966952472627,5.0,8.0,50.0,10000.0,99999,,0.8999999999999773,0.0,111600050810090205030200417351008600007000080000
4053,LTBJ,38.2924,27.157,2024-05-17 00:20:00,,,,,16.0,1017.0,2056.958098255854,12.0,9.0,10.0,10000.0,99999,,-2.2999999999999545,0.0,11160001091016020120301704056951027600007000080000
4054,LTBS,36.7131,28.7925,2024-05-17 00:20:00,,,,,16.0,1017.0,1060.8351302015415,14.0,4.0,50.0,10000.0,99999,,-1.3999999999999773,0.0,11160005041016020140301704060851016600007000080000
4055,LTBU,41.1382,27.9191,2024-05-17 00:20:00,,,,,12.0,1020.0,3122.5827394023054,9.0,8.0,40.0,10000.0,99999,,-1.7000000000000455,2.4,1116000408101202090302004122551012602307000080000
4056,LTCC,37.8939,40.201,2024-05-17 00:20:00,,,,,14.0,1017.0,8907.647765648633,5.0,9.0,300.0,10000.0,99999,,2.6000000000000227,0.0,1116003009101402050301704907651026600007000080000
4057,LTCE,39.9565,41.1702,2024-05-17 00:20:00,,,,,1.0,1020.0,36.41237988498382,-0.0,2.0,230.0,10000.0,99999,,1.6000000000000227,0.0,111600230210010210030200436451016600007000080000
4058,LTFE,37.2506,27.6643,2024-05-17 00:20:00,,,,,15.0,1017.0,1066.14810269671,13.0,2.0,20.0,10000.0,99999,,0.0,0.0,11160002021015020130301704066151000600007000080000
4078,EPWR,51.1027,16.8858,2024-05-17 00:30:00,,,,,13.0,1013.0,2292.255109028936,4.0,8.0,80.0,10000.0,99999,,-0.20000000000004547,0.0,1116000808101302040301304292251007600007000080000
4081,LQMO,43.2829,17.8459,2024-05-17 00:30:00,,,,,22.0,1008.0,1264.4487442054592,13.0,7.0,140.0,10000.0,99999,,0.0,0.0,11160014071022020130300804264451000600007000080000
4088,LJCE,45.9,15.5302,2024-05-17 00:30:00,,,,,15.0,1007.0,2414.6165585201466,14.0,3.0,90.0,8000.0,99999,,0.0,0.0,11140009031015020140300704414651000600007000080000
4112,LEMI,37.803,-1.125,2024-05-17 00:30:00,,,,,15.0,1009.0,2811.846505235489,10.0,3.0,70.0,10000.0,99999,,0.0,0.0,11160007031015020100300904811851000600007000080000
4114,LECH,40.21417,0.07333,2024-05-17 00:30:00,,,,,13.0,1008.0,5304.502873555932,8.0,3.0,190.0,10000.0,99999,,-1.0,0.0,1116001903101302080300804304551010600007000080000
4120,UUBC,54.55,36.36667,2024-05-17 00:30:00,,,,,12.0,1017.0,3458.6656270767644,10.0,3.0,290.0,10000.0,99999,,0.0,0.0,11160029031012020100301704458651000600007000080000
4121,UUOB,50.6438,36.5901,2024-05-17 00:30:00,,,,,9.0,1022.0,4888.052571164255,-2.0,3.0,230.0,10000.0,99999,,-2.099999999999909,0.0,1116002303100902120302204888051029600007000080000
4122,UUOK,51.7506,36.2956,2024-05-17 00:30:00,,,,,10.0,1021.0,4194.846949648121,2.0,2.0,320.0,10000.0,99999,,-2.2999999999999545,0.0,1116003202101002020302104194851027600007000080000
4125,UWPS,54.12513,45.21226,2024-05-17 00:30:00,,,,,4.0,1017.0,9.300023273505348,2.0,4.0,220.0,10000.0,99999,,-2.3999999999999773,0.0,11160022041004020203017049351026600007000080000
4139,UUDL,57.5607,40.1574,2024-05-17 00:30:00,10.0,36.0,+,yellow,10.0,1015.0,2186.9903363052113,10.0,2.0,360.0,3400.0,99999,,-0.6000000000000227,0.0,11120036021010020100301504186951003600007100080000
4142,UUMO,55.5117,37.5072,2024-05-17 00:30:00,80.0,36.0,q,green,12.0,1016.0,3085.3619450181695,12.0,2.0,230.0,10000.0,99999,,-2.2000000000000455,0.0,11160023021012020120301604085351027600007800080000
4145,URMG,43.3883,45.6986,2024-05-17 00:30:00,80.0,36.0,q,green,10.0,1021.0,1021.0,9.0,4.0,260.0,10000.0,99999,,-0.10000000000002274,2.1,1116002604101002090302104021051008602107800080000
4148,URMO,43.2051,44.6066,2024-05-17 00:30:00,,,,,8.0,1021.0,11.163484492603915,6.0,5.0,230.0,10000.0,99999,,0.0,1.0,111600230510080206030210411151000601007000080000
4150,URRP,47.50083,39.93361,2024-05-17 00:30:00,,,,,8.0,1021.0,2507.764139790312,6.0,3.0,330.0,10000.0,99999,,0.0,0.0,1116003303100802060302104507751000600007000080000
4158,UWKS,56.0903,47.3473,2024-05-17 00:30:00,,,,,12.0,1012.0,3031.8406860740356,4.0,5.0,260.0,10000.0,99999,,-3.2999999999999545,0.0,1116002605101202040301204031851037600007000080000
4162,ULPB,61.8852,34.1547,2024-05-17 00:30:00,,,,,2.0,1023.0,4566.5558345823665,1.0,0.0,0.0,10000.0,99999,,1.0,0.0,1116000000100202010302304566551010600007000080000
4166,UUBW,55.5533,38.15,2024-05-17 00:30:00,61.0,36.0,^,green,13.0,1016.0,2202.9314839444496,11.0,2.0,280.0,10000.0,99999,,-1.3999999999999773,0.0,11160028021013020110301604202951016600007610080000
4167,UUOL,52.7028,39.5378,2024-05-17 00:30:00,,,,,8.0,1018.0,4412.933098168297,6.0,5.0,250.0,10000.0,99999,,0.0,0.0,1116002505100802060301804412951000600007000080000
4173,EGXC,53.093,-0.16601,2024-05-17 00:28:00,10.0,36.0,+,yellow,12.0,1006.0,1078.6981322249433,11.0,3.0,150.0,2000.0,99999,,0.7999999999999545,0.2,11110015031012020110300604078651007600207100080000
4181,LEHC,42.0761,-0.31667,2024-05-17 00:30:00,,,,,11.0,1009.0,8834.785038209084,6.0,2.0,,10000.0,99999,,0.0,0.0,1116003602101102060300904834751000600007000080000
4184,LESB,39.5989,2.70278,2024-05-17 00:30:00,,,,,16.0,1010.0,1371.7116571843144,11.0,2.0,,10000.0,99999,,-1.0,0.0,11160036021016020110301004371751010600007000080000
4185,LEBG,42.3576,-3.62076,2024-05-17 00:30:00,61.0,36.0,^,green,7.0,1008.0,18.1062027570814,6.0,6.0,180.0,10000.0,99999,,0.0,0.0,111600180610070206030080418151000600007610080000
4207,LRBM,47.6584,23.47,2024-05-17 00:30:00,,,,,15.0,1018.0,2745.563253342969,3.0,9.0,70.0,10000.0,99999,,-1.1000000000000227,0.0,1116000709101502030301804745551018600007000080000
4209,LROD,47.0253,21.9025,2024-05-17 00:30:00,,,,,14.0,1015.0,2396.760947432485,4.0,5.0,90.0,10000.0,99999,,-0.5,0.0,1116000905101402040301504396751005600007000080000
4211,LRSB,45.7856,24.0913,2024-05-17 00:30:00,,,,,14.0,1018.0,6194.46961961519,2.0,12.0,150.0,10000.0,99999,,-0.20000000000004547,0.0,1116001512101402020301804194451007600007000080000
4239,LFBE,44.8253,0.51861,2024-05-17 00:30:00,,,,,8.0,1009.0,1847.9167171113747,8.0,4.0,60.0,10000.0,99999,,0.0,0.0,1116000604100802080300904847951000600007000080000
4240,LFBG,45.6583,-0.3175,2024-05-17 00:30:00,,,,,9.0,1009.0,1430.20955687985,8.0,3.0,160.0,10000.0,99999,,0.0,0.0,1116001603100902080300904430251000600007000080000
4243,LFBX,45.1981,0.81556,2024-05-17 00:30:00,45.0,36.0,N,yellow,7.0,1009.0,3040.5187188370414,7.0,0.0,0.0,800.0,99999,,-0.7000000000000455,0.0,1110000000100702070300904040551002600007450080000
4245,LFLW,44.8914,2.42194,2024-05-17 00:30:00,,,,,4.0,1010.0,20.504038495240973,4.0,6.0,90.0,10000.0,99999,,-0.7000000000000455,0.0,111600090610040204030100420551002600007000080000
4247,LFMK,43.216,2.30632,2024-05-17 00:30:00,,,,,11.0,1010.0,2677.167318416185,11.0,2.0,,10000.0,99999,,-0.8999999999999773,0.0,11160036021011020110301004677151001600007000080000
4248,LFMU,43.3235,3.3539,2024-05-17 00:30:00,,,,,11.0,1010.0,1192.0776767548543,10.0,2.0,,10000.0,99999,,0.2999999999999545,0.0,11160036021011020100301004192051002600007000080000
4249,LFMY,43.6064,5.10925,2024-05-17 00:30:00,,,,,9.0,1010.0,1862.4289104045295,8.0,1.0,,10000.0,99999,,1.0,0.0,1116003601100902080301004862451010600007000080000
4257,LFRL,48.2817,-4.44502,2024-05-17 00:30:00,,,,,11.0,1005.0,2047.9011455377713,11.0,5.0,110.0,10000.0,99999,,0.20000000000004547,0.0,11160011051011020110300504047951002600007000080000
4264,LUKK,46.9277,28.931,2024-05-17 00:30:00,,,,,5.0,1023.0,4793.977972784077,4.0,3.0,280.0,10000.0,99999,,-1.0,0.0,1116002803100502040302304793951010600007000080000
4285,LRBC,46.5219,26.9103,2024-05-17 00:30:00,,,,,8.0,1022.0,4581.8845423278935,4.0,2.0,90.0,10000.0,99999,,-1.2000000000000455,0.0,1116000902100802040302204581851017600007000080000
4287,LRCL,46.7852,23.6862,2024-05-17 00:30:00,,,,,11.0,1018.0,5528.891711763692,4.0,5.0,120.0,10000.0,99999,,-0.5,0.0,1116001205101102040301804528851005600007000080000
4288,LRCV,44.3181,23.8886,2024-05-17 00:30:00,,,,,13.0,1018.0,3132.521845865809,8.0,13.0,70.0,10000.0,99999,,0.20000000000004547,0.0,1116000713101302080301804132551002600007000080000
4289,LRIA,47.1785,27.6206,2024-05-17 00:30:00,,,,,10.0,1022.0,2725.3871799272138,3.0,6.0,90.0,10000.0,99999,,-1.1000000000000227,0.0,1116000906101002030302204725351018600007000080000
4290,LRSM,47.7033,22.8857,2024-05-17 00:30:00,,,,,14.0,1017.0,2201.811747197902,3.0,9.0,120.0,10000.0,99999,,-1.0,0.0,1116001209101402030301704201851010600007000080000
4291,LRSV,47.6875,26.3541,2024-05-17 00:30:00,,,,,8.0,1022.0,9.482190739648582,3.0,6.0,130.0,10000.0,99999,,-1.3999999999999773,0.0,11160013061008020303022049451016600007000080000
4294,GEML,35.2798,-2.95626,2024-05-17 00:30:00,,,,,18.0,1011.0,1328.530097375949,12.0,14.0,280.0,10000.0,99999,,-0.8999999999999773,0.0,11160028141018020120301104328551001600007000080000
4295,EPGD,54.3776,18.4662,2024-05-17 00:30:00,,,,,11.0,1020.0,2953.9367195888813,2.0,9.0,120.0,10000.0,99999,,0.0,0.0,1116001209101102020302004953951000600007000080000
4296,EPKK,50.0777,19.7848,2024-05-17 00:30:00,,,,,11.0,1015.0,4342.881279816662,2.0,12.0,50.0,10000.0,99999,,-1.0,0.0,1116000512101102020301504342851010600007000080000
4297,EPKT,50.4743,19.08,2024-05-17 00:30:00,,,,,12.0,1015.0,4920.283648798641,1.0,10.0,80.0,10000.0,99999,,-0.2999999999999545,0.0,1116000810101202010301504920251007600007000080000
4298,EPLB,51.24028,22.71361,2024-05-17 00:30:00,,,,,6.0,1021.0,6141.520829900837,2.0,5.0,70.0,10000.0,99999,,0.0,0.0,1116000705100602020302104141551000600007000080000
4299,EPMO,52.4511,20.6518,2024-05-17 00:30:00,,,,,7.0,1020.0,3166.854364406402,1.0,8.0,60.0,10000.0,99999,,0.0,0.0,1116000608100702010302004166851000600007000080000
4300,EPPO,52.421,16.8263,2024-05-17 00:30:00,,,,,15.0,1015.0,1822.2899611762343,2.0,13.0,100.0,10000.0,99999,,0.0,0.0,1116001013101502020301504822251000600007000080000
4301,EPRZ,50.11,22.019,2024-05-17 00:30:00,,,,,10.0,1018.0,4125.083636573185,1.0,11.0,90.0,10000.0,99999,,-1.0,0.0,1116000911101002010301804125051010600007000080000
4302,EPSC,53.5847,14.9022,2024-05-17 00:30:00,,,,,16.0,1015.0,1371.1465476321707,3.0,13.0,90.0,10000.0,99999,,1.0,0.0,1116000913101602030301504371151010600007000080000
4303,EPWA,52.1657,20.9671,2024-05-17 00:30:00,,,,,12.0,1020.0,2265.6636641659375,0.0,10.0,110.0,10000.0,99999,,-0.6000000000000227,0.0,1116001110101202000302004265651003600007000080000
4305,LBBG,42.5696,27.5152,2024-05-17 00:30:00,,,,,13.0,1021.0,1409.3211539996958,10.0,3.0,100.0,10000.0,99999,,-0.7000000000000455,0.0,11160010031013020100302104409351002600007000080000
4306,LBPD,42.0678,24.8508,2024-05-17 00:30:00,,,,,11.0,1019.0,3445.3563862942215,9.0,5.0,70.0,10000.0,99999,,-1.0,0.0,1116000705101102090301904445351010600007000080000
4307,LBSF,42.69669,23.41144,2024-05-17 00:30:00,,,,,11.0,1019.0,8808.002492020794,9.0,7.0,120.0,10000.0,99999,,0.20000000000004547,0.0,1116001207101102090301904808051002600007000080000
4308,LBWN,43.2321,27.8251,2024-05-17 00:30:00,,,,,11.0,1021.0,1849.4759810000628,9.0,0.0,0.0,10000.0,99999,,-0.6000000000000227,0.0,1116000000101102090302104849451003600007000080000
4309,LHBP,47.4369,19.2556,2024-05-17 00:30:00,80.0,36.0,q,green,16.0,1012.0,2283.530044446726,7.0,8.0,100.0,10000.0,99999,,-1.6000000000000227,0.0,1116001008101602070301204283551013600007800080000
4310,LRAR,46.1766,21.262,2024-05-17 00:30:00,81.0,36.0,r,green,13.0,1013.0,2108.7484767056453,8.0,8.0,100.0,10000.0,99999,,-1.6000000000000227,0.0,1116001008101302080301304108751013600007810080000
4311,LRBS,44.5032,26.1021,2024-05-17 00:30:00,,,,,12.0,1021.0,2019.91254319039,4.0,5.0,60.0,10000.0,99999,,0.0,0.0,1116000605101202040302104019951000600007000080000
4312,LRCK,44.3622,28.4883,2024-05-17 00:30:00,,,,,8.0,1022.0,2943.351196479627,7.0,3.0,40.0,10000.0,99999,,0.0,0.0,1116000403100802070302204943351000600007000080000
4313,LROP,44.5722,26.1022,2024-05-17 00:30:00,,,,,12.0,1021.0,2083.943950764273,3.0,8.0,60.0,10000.0,99999,,-1.6000000000000227,0.0,1116000608101202030302104083951013600007000080000
4314,LRTC,45.0625,28.7143,2024-05-17 00:30:00,,,,,6.0,1022.0,2418.9311963876353,5.0,3.0,330.0,8000.0,99999,,-1.0,0.0,1114003303100602050302204418951010600007000080000
4315,LRTM,46.4677,24.4125,2024-05-17 00:30:00,,,,,10.0,1018.0,5640.439753631273,4.0,2.0,,10000.0,99999,,-2.3999999999999773,0.0,1116003602101002040301804640451026600007000080000
4317,LDDU,42.5614,18.2682,2024-05-17 00:30:00,,,,,20.0,1011.0,2071.7819476122418,15.0,23.0,130.0,10000.0,99999,,1.1000000000000227,0.3,11160013231020020150301104071751011600307000080000
4318,LDOS,45.4627,18.8102,2024-05-17 00:30:00,,,,,15.0,1008.0,1758.2910002594278,11.0,18.0,120.0,10000.0,99999,,-1.7000000000000455,1.2,11160012181015020110300804758251012601107000080000
4319,LDPL,44.8935,13.9222,2024-05-17 00:30:00,,,,,15.0,1007.0,1711.29179512292,14.0,1.0,260.0,10000.0,99999,,1.7999999999999545,1.0,11160026011015020140300704711251017601007000080000
4320,LDRI,45.2169,14.5703,2024-05-17 00:30:00,,,,,17.0,1006.0,1629.4938390464067,16.0,5.0,320.0,10000.0,99999,,1.0,2.7,11160032051017020160300604629451010602707000080000
4321,LDSP,43.5389,16.298,2024-05-17 00:30:00,,,,,20.0,1007.0,1146.7721788899914,16.0,6.0,120.0,10000.0,99999,,0.0,1.0,11160012061020020160300704146751000601007000080000
4322,LDZA,45.7429,16.0688,2024-05-17 00:30:00,63.0,36.0,',green,15.0,1006.0,1936.5378102895722,14.0,5.0,,10000.0,99999,,0.5,4.9,11160036051015020140300604936551005604907630080000
4323,LDZD,44.1083,15.3467,2024-05-17 00:30:00,,,,,18.0,1008.0,1620.3815751489387,17.0,4.0,210.0,10000.0,99999,,1.7000000000000455,1.0,11160021041018020170300804620351017601007000080000
4324,LJLJ,46.2237,14.4576,2024-05-17 00:30:00,,,,,12.0,1006.0,6081.457713884122,12.0,5.0,110.0,10000.0,99999,,-1.3999999999999773,7.1,11160011051012020120300604081451016607007000080000
4325,LJMB,46.4799,15.6861,2024-05-17 00:30:00,,,,,13.0,1008.0,4078.600734002014,12.0,99999.0,,3600.0,99999,,0.20000000000004547,1.6,11120036999991013020120300804078651002601607000080000
4326,LJPZ,45.4734,13.615,2024-05-17 00:30:00,,,,,15.0,1006.0,1022.0967943211383,14.0,4.0,120.0,10000.0,99999,,1.0,1.5,11160012041015020140300604022051010601507000080000
4327,LKMT,49.6963,18.1111,2024-05-17 00:30:00,,,,,10.0,1012.0,4983.508811986493,6.0,4.0,50.0,10000.0,99999,,-1.1000000000000227,0.0,1116000504101002060301204983551018600007000080000
4328,LKPR,50.1008,14.26,2024-05-17 00:30:00,,,,,13.0,1008.0,5565.384976871411,7.0,13.0,90.0,10000.0,99999,,0.0,0.0,1116000913101302070300804565351000600007000080000
4329,LKTB,49.1513,16.6944,2024-05-17 00:30:00,,,,,13.0,1010.0,3698.543534346231,7.0,9.0,90.0,10000.0,99999,,-1.7000000000000455,0.0,1116000909101302070301004698551012600007000080000
4330,LQSA,43.8246,18.3315,2024-05-17 00:30:00,,,,,20.0,1008.0,5016.040400595606,10.0,13.0,150.0,10000.0,99999,,0.0,0.0,11160015131020020100300804016051000600007000080000
4331,LYBE,44.8184,20.3091,2024-05-17 00:30:00,,,,,15.0,1010.0,1891.5178796984344,10.0,20.0,130.0,10000.0,99999,,-2.2000000000000455,0.0,11160013201015020100301004891551027600007000080000
4332,LYNI,43.3373,21.8537,2024-05-17 00:30:00,,,,,14.0,1015.0,3030.1758152452526,11.0,2.0,,10000.0,99999,,-2.1000000000000227,0.0,11160036021014020110301504030151028600007000080000
4333,LYPG,42.3594,19.2519,2024-05-17 00:30:00,,,,,17.0,1011.0,1314.1708746777304,15.0,0.0,0.0,10000.0,99999,,0.0,0.0,11160000001017020150301104314151000600007000080000
4334,LYTV,42.4047,18.7233,2024-05-17 00:30:00,,,,,18.0,1011.0,1049.6960785657018,15.0,0.0,0.0,10000.0,99999,,-1.3999999999999773,0.0,11160000001018020150301104049651016600007000080000
4335,LZIB,48.1702,17.2127,2024-05-17 00:30:00,,,,,15.0,1010.0,2192.9709581871853,9.0,10.0,80.0,10000.0,99999,,-1.0,0.0,1116000810101502090301004192951010600007000080000
4336,LZKZ,48.6631,21.2411,2024-05-17 00:30:00,,,,,12.0,1017.0,3882.8238661845608,5.0,4.0,,10000.0,99999,,0.0,0.0,1116003604101202050301704882851000600007000080000
4337,LZTT,49.0736,20.2411,2024-05-17 00:30:00,,,,,4.0,1017.0,21.89120067177251,2.0,2.0,,10000.0,99999,,0.0,0.0,111600360210040202030170421851000600007000080000
4342,LFAT,50.5174,1.62059,2024-05-17 00:30:00,,,,,10.0,1007.0,1134.082452329478,10.0,3.0,160.0,10000.0,99999,,0.0,0.0,11160016031010020100300704134051000600007000080000
4343,LFBD,44.8283,-0.71556,2024-05-17 00:30:00,,,,,11.0,1009.0,1567.1691539957249,9.0,5.0,120.0,10000.0,99999,,-0.5,0.0,1116001205101102090300904567151005600007000080000
4344,LFBH,46.1792,-1.19528,2024-05-17 00:30:00,,,,,14.0,1007.0,1195.7284778625142,11.0,11.0,200.0,10000.0,99999,,0.0,0.2,11160020111014020110300704195751000600207000080000
4345,LFBI,46.5877,0.30667,2024-05-17 00:30:00,,,,,9.0,1008.0,3044.57029227007,9.0,4.0,150.0,10000.0,99999,,-0.7999999999999545,0.0,1116001504100902090300804044551002600007000080000
4346,LFBO,43.6291,1.36382,2024-05-17 00:30:00,,,,,11.0,1009.0,2966.7819675359497,9.0,2.0,130.0,10000.0,99999,,-1.7000000000000455,0.0,1116001302101102090300904966751012600007000080000
4347,LFBP,43.38,-0.41861,2024-05-17 00:30:00,,,,,11.0,1008.0,3495.5255491136486,10.0,0.0,0.0,10000.0,99999,,-1.0,0.0,11160000001011020100300804495551010600007000080000
4348,LFBT,43.1787,-0.00644,2024-05-17 00:30:00,,,,,9.0,1008.0,7816.8848601190375,9.0,3.0,160.0,10000.0,99999,,-2.2000000000000455,0.0,1116001603100902090300804816851027600007000080000
4349,LFBZ,43.4684,-1.52332,2024-05-17 00:30:00,,,,,12.0,1008.0,1804.7007217658006,10.0,3.0,,10000.0,99999,,-1.0,0.0,11160036031012020100300804804751010600007000080000
4350,LFGJ,47.039,5.42725,2024-05-17 00:30:00,,,,,12.0,1009.0,3385.150341393303,11.0,4.0,190.0,10000.0,99999,,1.0,0.0,11160019041012020110300904385151010600007000080000
4351,LFKB,42.5527,9.48373,2024-05-17 00:30:00,,,,,13.0,1009.0,1078.9571193242518,7.0,8.0,210.0,10000.0,99999,,-0.39999999999997726,0.0,1116002108101302070300904078951006600007000080000
4352,LFKC,42.5308,8.79319,2024-05-17 00:30:00,,,,,14.0,1010.0,1576.99544843537,7.0,13.0,200.0,10000.0,99999,,1.0,0.0,1116002013101402070301004576951010600007000080000
4353,LFKJ,41.9236,8.80292,2024-05-17 00:30:00,,,,,13.0,1011.0,1059.315924770423,11.0,7.0,50.0,10000.0,99999,,-0.20000000000004547,0.0,11160005071013020110301104059351007600007000080000
4354,LFLB,45.6381,5.88023,2024-05-17 00:30:00,,,,,10.0,1010.0,4633.785165838881,9.0,5.0,200.0,10000.0,99999,,1.0,0.0,1116002005101002090301004633751010600007000080000
4355,LFLC,45.7867,3.16917,2024-05-17 00:30:00,,,,,9.0,1009.0,6873.175544920865,7.0,7.0,180.0,10000.0,99999,,-0.8999999999999773,0.0,1116001807100902070300904873151001600007000080000
4356,LFLL,45.7264,5.09083,2024-05-17 00:30:00,,,,,10.0,1010.0,4853.323909415743,9.0,6.0,130.0,10000.0,99999,,0.5,0.0,1116001306101002090301004853351005600007000080000
4357,LFLS,45.3629,5.32937,2024-05-17 00:30:00,,,,,7.0,1010.0,10.021459236230353,6.0,7.0,80.0,10000.0,99999,,-0.10000000000002274,0.0,111600080710070206030100410051008600007000080000
4358,LFLY,45.7272,4.94427,2024-05-17 00:30:00,,,,,9.0,1010.0,4389.823637865963,8.0,3.0,150.0,10000.0,99999,,0.0,0.0,1116001503100902080301004389851000600007000080000
4359,LFMD,43.542,6.95348,2024-05-17 00:30:00,,,,,15.0,1008.0,1038.0404294330924,6.0,10.0,270.0,10000.0,99999,,-0.7000000000000455,0.0,1116002710101502060300804038051002600007000080000
4360,LFMH,45.5406,4.29639,2024-05-17 00:30:00,,,,,7.0,1010.0,10.169935993265433,7.0,3.0,150.0,10000.0,99999,,0.0,0.0,111600150310070207030100410151000600007000080000
4361,LFML,43.43927,5.22142,2024-05-17 00:30:00,,,,,12.0,1009.0,1230.9078410668158,10.0,5.0,130.0,10000.0,99999,,-0.39999999999997726,0.0,11160013051012020100300904230951006600007000080000
4362,LFMN,43.6584,7.21587,2024-05-17 00:30:00,,,,,13.0,1007.0,1038.976996613585,10.0,7.0,310.0,10000.0,99999,,-0.2999999999999545,0.0,11160031071013020100300704038951007600007000080000
4363,LFMP,42.7404,2.87067,2024-05-17 00:30:00,,,,,12.0,1010.0,1458.192846180703,9.0,5.0,240.0,10000.0,99999,,-0.6000000000000227,0.0,1116002405101202090301004458151003600007000080000
4364,LFMT,43.5762,3.96301,2024-05-17 00:30:00,,,,,10.0,1010.0,1069.3959865879401,9.0,2.0,30.0,10000.0,99999,,-0.10000000000002274,0.0,1116000302101002090301004069351008600007000080000
4365,LFOB,49.4544,2.11278,2024-05-17 00:30:00,,,,,8.0,1008.0,2939.8209734453526,7.0,2.0,,10000.0,99999,,-0.10000000000002274,0.0,1116003602100802070300804939851008600007000080000
4366,LFOH,49.5339,0.08806,2024-05-17 00:30:00,,,,,11.0,1007.0,2158.591402072113,9.0,4.0,90.0,10000.0,99999,,0.0,0.0,1116000904101102090300704158551000600007000080000
4367,LFOT,47.4322,0.72761,2024-05-17 00:30:00,,,,,10.0,1008.0,2497.097157121338,9.0,4.0,170.0,10000.0,99999,,-0.39999999999997726,0.0,1116001704101002090300804497051006600007000080000
4370,LFPN,48.7519,2.10619,2024-05-17 00:30:00,,,,,9.0,1008.0,3687.7277449904786,9.0,2.0,,10000.0,99999,,0.0,0.0,1116003602100902090300804687751000600007000080000
4371,LFPO,48.7253,2.35944,2024-05-17 00:30:00,,,,,11.0,1008.0,2070.3285269751505,9.0,3.0,230.0,10000.0,99999,,-0.5,0.0,1116002303101102090300804070351005600007000080000
4375,LFRD,48.5877,-2.07996,2024-05-17 00:30:00,,,,,11.0,1006.0,1779.368973509083,10.0,5.0,160.0,10000.0,99999,,1.0,0.0,11160016051011020100300604779351010600007000080000
4376,LFRG,49.3653,0.15431,2024-05-17 00:30:00,,,,,9.0,1007.0,3351.8773696226917,8.0,5.0,160.0,10000.0,99999,,-0.10000000000002274,0.0,1116001605100902080300704351851008600007000080000
4378,LFRN,48.0695,-1.73479,2024-05-17 00:30:00,,,,,11.0,1006.0,1423.560677568536,10.0,3.0,130.0,10000.0,99999,,-0.2999999999999545,0.0,11160013031011020100300604423551007600007000080000
4380,LFRS,47.1532,-1.61073,2024-05-17 00:30:00,,,,,11.0,1006.0,1303.3763629803254,11.0,6.0,140.0,10000.0,99999,,-0.6000000000000227,0.0,11160014061011020110300604303351003600007000080000
4383,LFSB,47.5896,7.52991,2024-05-17 00:30:00,61.0,36.0,^,green,11.0,1007.0,4753.114072108511,10.0,8.0,250.0,9000.0,99999,,-0.6000000000000227,0.8,11150025081011020100300704753151003600807610080000
4386,LFTW,43.7574,4.41635,2024-05-17 00:30:00,,,,,9.0,1010.0,2437.4904767386633,8.0,2.0,,10000.0,99999,,0.0,0.0,1116003602100902080301004437451000600007000080000
4387,LFBA,44.1747,0.59056,2024-05-17 00:30:00,10.0,36.0,+,yellow,11.0,1009.0,1726.50355519242,11.0,6.0,110.0,5000.0,99999,,-1.0,0.0,11130011061011020110300904726551010600007100080000
4388,LFBC,44.5333,-1.125,2024-05-17 00:30:00,,,,,12.0,1008.0,1261.012646699579,10.0,1.0,110.0,10000.0,99999,,-1.6000000000000227,0.0,11160011011012020100300804261051013600007000080000
4389,LFBL,45.8628,1.17944,2024-05-17 00:30:00,,,,,8.0,1009.0,8919.354047968398,8.0,4.0,130.0,10000.0,99999,,-0.8999999999999773,0.0,1116001304100802080300904919351001600007000080000
4390,LFBM,43.9117,-0.5075,2024-05-17 00:30:00,,,,,11.0,1009.0,1722.6484867247032,10.0,3.0,90.0,10000.0,99999,,0.0,0.0,11160009031011020100300904722651000600007000080000
4391,LFKF,41.5006,9.09778,2024-05-17 00:30:00,,,,,15.0,1010.0,1218.4172658773232,13.0,4.0,250.0,10000.0,99999,,-1.1000000000000227,0.0,11160025041015020130301004218451018600007000080000
4392,LFOE,49.0287,1.21986,2024-05-17 00:30:00,,,,,9.0,1008.0,3271.472289332828,8.0,2.0,,10000.0,99999,,0.20000000000004547,0.0,1116003602100902080300804271451002600007000080000
4393,LFOP,49.3842,1.1748,2024-05-17 00:30:00,,,,,10.0,1008.0,3253.6564594846336,8.0,2.0,130.0,10000.0,99999,,0.5,0.0,1116001302101002080300804253651005600007000080000
4394,LFPB,48.9694,2.44139,2024-05-17 00:30:00,,,,,12.0,1008.0,1708.7648217568192,9.0,0.0,0.0,10000.0,99999,,0.0,0.0,1116000000101202090300804708751000600007000080000
4395,LFPG,49.0128,2.55,2024-05-17 00:30:00,,,,,13.0,1008.0,2238.419754799478,8.0,4.0,260.0,10000.0,99999,,-0.2999999999999545,0.0,1116002604101302080300804238451007600007000080000
4396,LFPV,48.7744,2.20154,2024-05-17 00:30:00,,,,,11.0,1008.0,3348.5957950214215,8.0,4.0,230.0,10000.0,99999,,-0.10000000000002274,0.0,1116002304101102080300804348551008600007000080000
4397,LFQB,48.3221,4.0167,2024-05-17 00:30:00,,,,,12.0,1008.0,2343.0449250728043,10.0,5.0,310.0,10000.0,99999,,0.10000000000002274,0.0,11160031051012020100300804343051001600007000080000
4398,LFQQ,50.5619,3.08944,2024-05-17 00:30:00,,,,,13.0,1007.0,1456.9293781065091,12.0,0.0,0.0,10000.0,99999,,-0.39999999999997726,0.0,11160000001013020120300704456951006600007000080000
4400,LFSD,47.2689,5.09,2024-05-17 00:30:00,,,,,12.0,1009.0,3728.3284875361805,10.0,1.0,,10000.0,99999,,0.6000000000000227,0.0,11160036011012020100300904728351006600007000080000
4401,LFSI,48.636,4.89942,2024-05-17 00:30:00,,,,,13.0,1007.0,2472.4707986409644,11.0,4.0,220.0,10000.0,99999,,0.0,0.0,11160022041013020110300704472451000600007000080000
4402,LFSL,45.03967,1.4855,2024-05-17 00:30:00,10.0,36.0,+,yellow,6.0,1010.0,9.251686616512188,6.0,0.0,0.0,2000.0,99999,,0.0,0.0,11110000001006020603010049251000600007100080000
4405,LFTH,43.0973,6.14603,2024-05-17 00:30:00,,,,,15.0,1009.0,1025.1447966898893,12.0,5.0,280.0,10000.0,99999,,0.0,0.0,11160028051015020120300904025151000600007000080000
4408,LPFR,37.0144,-7.96591,2024-05-17 00:30:00,,,,,16.0,1012.0,1064.4372352731914,16.0,10.0,260.0,10000.0,99999,,-1.0,0.0,11160026101016020160301204064451010600007000080000
4409,LPMA,32.6979,-16.7745,2024-05-17 00:30:00,,,,,18.0,1018.0,1416.3745765836302,14.0,7.0,10.0,10000.0,99999,,-0.7999999999999545,0.0,11160001071018020140301804416351002600007000080000
4411,LPPS,33.0734,-16.35,2024-05-17 00:30:00,,,,,18.0,1018.0,1759.0084911164126,13.0,11.0,350.0,10000.0,99999,,-0.6000000000000227,0.0,11160035111018020130301804759051003600007000080000
4413,ULAA,64.6003,40.7167,2024-05-17 00:30:00,,,,,3.0,1021.0,1838.880915697977,0.0,4.0,350.0,10000.0,99999,,0.39999999999997726,0.0,1116003504100302000302104838851003600007000080000
4417,ULMM,68.7817,32.7508,2024-05-17 00:30:00,,,,,1.0,1023.0,13.500254685456563,-0.0,2.0,170.0,10000.0,99999,,-1.099999999999909,0.0,111600170210010210030230413551019600007000080000
4418,UUDD,55.4088,37.9063,2024-05-17 00:30:00,61.0,36.0,^,green,12.0,1016.0,3168.762575544094,11.0,3.0,300.0,10000.0,99999,,-2.1000000000000227,0.0,11160030031012020110301604168751028600007610080000
4422,URKK,45.0347,39.1705,2024-05-17 00:30:00,,,,,8.0,1021.0,1586.7508876573481,7.0,2.0,270.0,10000.0,99999,,-1.1000000000000227,0.0,1116002702100802070302104586751018600007000080000
4424,URMT,45.1092,42.1128,2024-05-17 00:30:00,,,,,7.0,1020.0,11.28933186018861,5.0,3.0,310.0,10000.0,99999,,-1.0,0.0,111600310310070205030200411251010600007000080000
4426,URWA,46.2833,48.0063,2024-05-17 00:30:00,,,,,9.0,1019.0,781.3612106166352,7.0,0.0,0.0,10000.0,99999,,-1.7000000000000455,0.0,1116000000100902070301904781351012600007000080000
4427,URWI,46.3739,44.3309,2024-05-17 00:30:00,,,,,9.0,1020.0,3520.0519275416273,4.0,0.0,0.0,10000.0,99999,,-1.2000000000000455,0.0,1116000000100902040302004520051017600007000080000
4428,URWW,48.7825,44.3455,2024-05-17 00:30:00,,,,,4.0,1020.0,6916.560026376008,-6.0,1.0,,10000.0,99999,,-2.1000000000000227,0.0,1116003601100402160302004916551028600007000080000
4430,UUOO,51.8142,39.2296,2024-05-17 00:30:00,,,,,8.0,1019.0,3959.7332661330784,5.0,3.0,230.0,10000.0,99999,,-2.0,0.4,1116002303100802050301904959751020600407000080000
4431,UUWW,55.5915,37.2615,2024-05-17 00:30:00,,,,,12.0,1016.0,3578.668528071947,11.0,3.0,290.0,10000.0,99999,,0.0,0.5,11160029031012020110301604578651000600507000080000
4433,UWGG,56.2301,43.784,2024-05-17 00:30:00,61.0,36.0,^,green,10.0,1014.0,2044.1472437131338,8.0,3.0,220.0,10000.0,99999,,0.0,0.0,1116002203101002080301404044151000600007610080000
4434,UWKD,55.6062,49.2787,2024-05-17 00:30:00,,,,,9.0,1013.0,2993.5339009024497,-1.0,3.0,210.0,10000.0,99999,,-3.6000000000000227,0.0,1116002103100902110301304993551033600007000080000
4435,UWKE,55.5647,52.0925,2024-05-17 00:30:00,,,,,6.0,1014.0,6186.24685532389,-3.0,5.0,210.0,10000.0,99999,,-1.0,0.0,1116002105100602130301404186251010600007000080000
4436,UWWW,53.5049,50.1643,2024-05-17 00:30:00,,,,,5.0,1016.0,5582.066898940146,0.0,1.0,,10000.0,99999,,-1.0,0.0,1116003601100502000301604582051010600007000080000
4437,LEAL,38.2822,-0.55816,2024-05-17 00:30:00,,,,,15.0,1009.0,1356.878070192141,11.0,0.0,0.0,10000.0,99999,,-0.8999999999999773,0.0,11160000001015020110300904356851001600007000080000
4438,LEAM,36.8439,-2.3701,2024-05-17 00:30:00,,,,,17.0,1009.0,1155.1606632388628,13.0,6.0,50.0,10000.0,99999,,0.0,0.0,11160005061017020130300904155151000600007000080000
4439,LEAS,43.5636,-6.03462,2024-05-17 00:30:00,,,,,12.0,1008.0,2448.3393073255106,11.0,4.0,200.0,10000.0,99999,,-0.7999999999999545,0.3,11160020041012020110300804448351002600307000080000
4440,LEBB,43.3011,-2.91061,2024-05-17 00:30:00,61.0,36.0,^,green,13.0,1008.0,1400.4434472283406,11.0,0.0,0.0,10000.0,99999,,-1.0,0.0,11160000001013020110300804400451010600007610080000
4441,LEBL,41.2971,2.07846,2024-05-17 00:30:00,,,,,15.0,1009.0,1036.743770905619,13.0,2.0,340.0,10000.0,99999,,-1.3999999999999773,0.0,11160034021015020130300904036751016600007000080000
4442,LECO,43.3021,-8.37726,2024-05-17 00:30:00,,,,,11.0,1009.0,2216.8773699421404,9.0,5.0,250.0,9000.0,99999,,0.0,0.0,1115002505101102090300904216851000600007000080000
4443,LEDA,41.72819,0.53502,2024-05-17 00:30:00,,,,,14.0,1009.0,4925.421813492203,9.0,5.0,50.0,10000.0,99999,,0.7999999999999545,0.0,1116000505101402090300904925451007600007000080000
4444,LEGE,41.901,2.76055,2024-05-17 00:30:00,,,,,12.0,1009.0,2657.025599043965,9.0,3.0,340.0,10000.0,99999,,-0.8999999999999773,0.0,1116003403101202090300904657051001600007000080000
4445,LEGR,37.1887,-3.77736,2024-05-17 00:30:00,,,,,13.0,1012.0,8000.701436551296,9.0,4.0,240.0,10000.0,99999,,0.7999999999999545,0.0,1116002404101302090301204000751007600007000080000
4446,LEIB,38.8729,1.37312,2024-05-17 00:30:00,,,,,17.0,1009.0,1058.175386725766,14.0,5.0,230.0,10000.0,99999,,-1.1000000000000227,0.0,11160023051017020140300904058151018600007000080000
4447,LEJR,36.7446,-6.06011,2024-05-17 00:30:00,,,,,15.0,1012.0,1235.8195471021331,13.0,3.0,150.0,6000.0,99999,,-1.0,0.0,11130015031015020130301204235851010600007000080000
4448,LELC,37.775,-0.81239,2024-05-17 00:30:00,,,,,16.0,1009.0,1032.8229009112756,14.0,3.0,280.0,9000.0,99999,,-0.7999999999999545,0.0,11150028031016020140300904032851002600007000080000
4449,LELL,41.5209,2.10508,2024-05-17 00:30:00,,,,,13.0,1010.0,2578.540396572382,11.0,0.0,0.0,10000.0,99999,,0.10000000000002274,0.0,11160000001013020110301004578551001600007000080000
4450,LEMD,40.4936,-3.56676,2024-05-17 00:30:00,,,,,14.0,1009.0,7969.657088780389,5.0,5.0,180.0,10000.0,99999,,0.39999999999997726,0.0,1116001805101402050300904969651003600007000080000
4451,LEMG,36.6749,-4.49911,2024-05-17 00:30:00,,,,,18.0,1010.0,1113.779433469557,10.0,11.0,290.0,10000.0,99999,,-0.7000000000000455,0.0,11160029111018020100301004113751002600007000080000
4453,LEPA,39.5517,2.73881,2024-05-17 00:30:00,,,,,14.0,1010.0,1077.4913833808662,12.0,4.0,50.0,10000.0,99999,,-0.6000000000000227,0.0,11160005041014020120301004077451003600007000080000
4454,LEPP,42.77,-1.64633,2024-05-17 00:30:00,,,,,8.0,1008.0,10.0919423978142,7.0,3.0,170.0,8000.0,99999,,-1.0,0.0,111400170310080207030080410051010600007000080000
4455,LERS,41.1474,1.16717,2024-05-17 00:30:00,,,,,16.0,1009.0,1560.415463610818,13.0,7.0,10.0,10000.0,99999,,-1.0,0.0,11160001071016020130300904560451010600007000080000
4456,LESO,43.3565,-1.79061,2024-05-17 00:30:00,,,,,12.0,1008.0,1054.3713661997715,11.0,3.0,170.0,10000.0,99999,,-1.0,0.0,11160017031012020110300804054351010600007000080000
4457,LEST,42.8963,-8.41514,2024-05-17 00:30:00,,,,,8.0,1009.0,8395.930135427368,8.0,0.0,0.0,8000.0,99999,,0.0,0.1,1114000000100802080300904395951000600107000080000
4458,LEVC,39.4893,-0.48162,2024-05-17 00:30:00,,,,,17.0,1008.0,1540.705579100825,3.0,2.0,,10000.0,99999,,0.0,0.0,1116003602101702030300804540751000600007000080000
4459,LEVD,41.7061,-4.85194,2024-05-17 00:30:00,61.0,36.0,^,green,8.0,1008.0,16.043004490399355,7.0,4.0,90.0,10000.0,99999,,-1.0,3.3,111600090410080207030080416051010603207610080000
4460,LEVT,42.8828,-2.72447,2024-05-17 00:30:00,,,,,9.0,1008.0,10.041810056734283,7.0,1.0,160.0,10000.0,99999,,0.0,0.0,111600160110090207030080410051000600007000080000
4461,LEVX,42.2318,-8.62677,2024-05-17 00:30:00,,,,,10.0,1010.0,5036.459981679976,9.0,7.0,330.0,10000.0,99999,,1.0,1.4,1116003307101002090301004036451010601307000080000
4462,LEXJ,43.4271,-3.82001,2024-05-17 00:30:00,,,,,12.0,1008.0,1054.3713661997715,10.0,7.0,130.0,10000.0,99999,,-1.0,0.0,11160013071012020100300804054351010600007000080000
4463,LEZG,41.6662,-1.04155,2024-05-17 00:30:00,,,,,14.0,1008.0,3783.1302924628058,5.0,4.0,210.0,10000.0,99999,,-1.0,0.0,1116002104101402050300804783151010600007000080000
4464,LEZL,37.418,-5.89311,2024-05-17 00:30:00,,,,,16.0,1011.0,1264.765660529042,13.0,5.0,180.0,10000.0,99999,,-1.2999999999999545,0.0,11160018051016020130301104264751017600007000080000
4470,LELN,42.589,-5.65556,2024-05-17 00:30:00,,,,,7.0,1008.0,18.327107755574012,5.0,1.0,,10000.0,99999,,0.0,0.2,111600360110070205030080418351000600207000080000
4471,LESA,40.9521,-5.50199,2024-05-17 00:30:00,,,,,10.0,1008.0,13.057472598914169,9.0,10.0,270.0,10000.0,99999,,-1.0,1.1,111600271010100209030080413051010601107000080000
4472,LFLX,46.8622,1.73067,2024-05-17 00:30:00,,,,,8.0,1009.0,4017.5590001025257,7.0,3.0,140.0,10000.0,99999,,0.0,0.0,1116001403100802070300904017551000600007000080000
4474,LFMV,43.9073,4.90183,2024-05-17 00:30:00,,,,,9.0,1010.0,1529.9098270706334,9.0,3.0,100.0,10000.0,99999,,0.5,0.0,1116001003100902090301004529951005600007000080000
4475,LFOA,47.0533,2.6325,2024-05-17 00:30:00,,,,,8.0,1009.0,4347.920412356874,7.0,2.0,,10000.0,99999,,0.0,0.0,1116003602100802070300904347951000600007000080000
4476,LFOJ,47.9878,1.76056,2024-05-17 00:30:00,,,,,9.0,1008.0,2984.231578633369,9.0,5.0,170.0,10000.0,99999,,1.0,0.0,1116001705100902090300804984251010600007000080000
4477,LFOK,48.7761,4.18449,2024-05-17 00:30:00,,,,,12.0,1008.0,3139.6645642228464,9.0,7.0,270.0,10000.0,99999,,0.0,0.0,1116002707101202090300804139651000600007000080000
4478,UMKK,54.89,20.5926,2024-05-17 00:30:00,,,,,8.0,1023.0,1213.3863979282135,2.0,3.0,110.0,10000.0,99999,,0.0,0.0,1116001103100802020302304213351000600007000080000
4479,URML,42.8168,47.6523,2024-05-17 00:30:00,,,,,12.0,1019.0,1054.073998712592,10.0,3.0,300.0,10000.0,99999,,0.0,0.0,11160030031012020100301904054051000600007000080000
4480,UWLL,54.2683,48.2267,2024-05-17 00:30:00,,,,,4.0,1015.0,6637.867064113166,-2.0,2.0,170.0,10000.0,99999,,-2.7999999999999545,0.0,1116001702100402120301504637851022600007000080000
4482,EGDR,50.0861,-5.25571,2024-05-17 00:20:00,10.0,36.0,+,yellow,12.0,1006.0,1880.3971435107424,11.0,4.0,310.0,2800.0,99999,,-0.20000000000004547,0.0,11110031041012020110300604880351007600007100080000
4483,EGDY,51.0094,-2.63882,2024-05-17 00:20:00,10.0,36.0,+,yellow,10.0,1006.0,1277.4171019963592,10.0,5.0,130.0,4100.0,99999,,-0.20000000000004547,0.0,11120013051010020100300604277451007600007100080000
4491,EGVP,51.1394,-1.56861,2024-05-17 00:20:00,,,,,11.0,1006.0,2090.7154118686703,10.0,3.0,160.0,10000.0,99999,,0.0,0.0,11160016031011020100300604090751000600007000080000
4493,EGWU,51.553,-0.41817,2024-05-17 00:20:00,,,,,13.0,1006.0,1355.6287563354465,11.0,4.0,190.0,10000.0,99999,,0.0,0.0,11160019041013020110300604355651000600007000080000
4500,EGYM,52.6484,0.55069,2024-05-17 00:20:00,45.0,36.0,N,yellow,12.0,1006.0,1230.3602436104761,12.0,3.0,130.0,6000.0,99999,,0.39999999999997726,0.0,11130013031012020120300604230351003600007450080000
4504,LFRB,48.4479,-4.41854,2024-05-17 00:30:00,,,,,12.0,1005.0,2092.383212116883,11.0,4.0,120.0,10000.0,99999,,0.0,0.0,11160012041012020110300504092351000600007000080000
4505,LPPT,38.7813,-9.13592,2024-05-17 00:30:00,,,,,14.0,1012.0,2090.2670538682937,12.0,3.0,280.0,10000.0,99999,,-0.7000000000000455,0.0,11160028031014020120301204090251002600007000080000
4506,LXGB,36.1512,-5.34966,2024-05-17 00:20:00,,,,,18.0,1012.0,1040.9926706548517,14.0,12.0,270.0,10000.0,99999,,-1.0,0.0,11160027121018020140301204040951010600007000080000
4509,EBBE,50.7586,4.76833,2024-05-17 00:35:00,,,,,13.0,1007.0,2158.9091659082533,13.0,2.0,,4700.0,99999,,0.0,0.0,11120036021013020130300704158951000600007000080000
4510,EGDM,51.1522,-1.74741,2024-05-17 00:20:00,10.0,36.0,+,yellow,10.0,1006.0,2730.881172713322,9.0,2.0,150.0,10000.0,99999,,-0.2999999999999545,0.0,1116001502101002090300604730851007600007100080000
4511,EGOM,55.05,-2.55,2024-05-17 00:20:00,10.0,36.0,+,yellow,11.0,1007.0,5611.203397585838,10.0,11.0,50.0,8000.0,99999,,0.0,0.0,11140005111011020100300704611251000600007100080000
4512,EGOS,52.7982,-2.66804,2024-05-17 00:20:00,,,,,13.0,1005.0,1745.4304407062923,13.0,2.0,170.0,10000.0,99999,,0.0,1.0,11160017021013020130300504745451000601007000080000
4513,EGOV,53.2481,-4.53534,2024-05-17 00:20:00,,,,,12.0,1005.0,1113.2410071995835,12.0,5.0,60.0,1500.0,99999,,-0.20000000000004547,0.0,11100006051012020120300504113251007600007000080000
4514,EGQK,57.6494,-3.56064,2024-05-17 00:20:00,10.0,36.0,+,yellow,12.0,1012.0,1076.2421435969288,11.0,8.0,230.0,7000.0,99999,,0.6000000000000227,0.0,11140023081012020110301204076251006600007100080000
4515,EGQS,57.7052,-3.33917,2024-05-17 00:20:00,10.0,36.0,+,yellow,11.0,1012.0,1147.6563648957322,10.0,6.0,230.0,4000.0,99999,,0.7999999999999545,0.0,11120023061011020100301204147651007600007100080000
4516,EGUB,51.6164,-1.09583,2024-05-17 00:20:00,,,,,12.0,1006.0,1733.560766216319,11.0,4.0,180.0,10000.0,99999,,1.0,0.0,11160018041012020110300604733551010600007000080000
4517,EGUW,52.1273,0.95626,2024-05-17 00:20:00,10.0,36.0,+,yellow,13.0,1006.0,1862.8394074232995,12.0,3.0,150.0,4600.0,99999,,0.0,0.0,11120015031013020120300604862851000600007100080000
4518,EGWC,52.64,-2.30558,2024-05-17 00:20:00,,,,,99999.0,99999.0,99999.0,99999.0,3.0,150.0,10000.0,99999,,98993.7,0.2,11160015031099999020999990399904999051989936600207000080000
4519,EGXE,54.2924,-1.5354,2024-05-17 00:20:00,10.0,36.0,+,yellow,12.0,1006.0,1412.7949959846767,11.0,10.0,20.0,5000.0,99999,,-0.39999999999997726,0.0,11130002101012020110300604412751006600007100080000
4520,EGXT,52.6126,-0.47645,2024-05-17 00:20:00,,,,,11.0,1005.0,1991.2783619177324,11.0,3.0,190.0,100.0,99999,,-0.10000000000002274,0.0,11100019031011020110300504991251008600007000080000
4521,EGXW,53.1662,-0.52381,2024-05-17 00:20:00,,,,,13.0,1005.0,1686.9671181384729,13.0,6.0,210.0,4000.0,99999,,0.0,0.0,11120021061013020130300504686951000600007000080000
4522,EGXZ,54.2055,-1.38209,2024-05-17 00:20:00,10.0,36.0,+,yellow,12.0,1006.0,1283.7438428078092,11.0,10.0,340.0,6000.0,99999,,0.0,0.0,11130034101012020110300604283751000600007100080000
4523,EGYD,53.0303,-0.48324,2024-05-17 00:20:00,10.0,36.0,+,yellow,12.0,1006.0,1705.3744153644445,11.0,6.0,180.0,1000.0,99999,,1.0,0.2,11100018061012020110300604705351010600207100080000
4524,EGYE,52.9622,-0.56163,2024-05-17 00:20:00,,,,,12.0,1006.0,2253.695727317262,12.0,4.0,210.0,10000.0,99999,,0.0,0.0,11160021041012020120300604253651000600007000080000
4525,EIDW,53.4213,-6.27007,2024-05-17 00:30:00,80.0,36.0,q,green,14.0,1006.0,1668.3697893823569,12.0,11.0,360.0,10000.0,99999,,-0.7000000000000455,0.3,11160036111014020120300604668351002600307800080000
4526,EINN,52.702,-8.92482,2024-05-17 00:30:00,,,,,14.0,1008.0,1123.8520844286188,12.0,12.0,330.0,10000.0,99999,,-1.3999999999999773,0.2,11160033121014020120300804123851016600207000080000
4528,LQBK,44.9414,17.2975,2024-05-17 00:30:00,,,,,14.0,1006.0,2161.7555062617366,14.0,3.0,40.0,10000.0,99999,,-1.0,0.0,11160004031014020140300604161751010600007000080000
4529,LQTZ,44.4587,18.7248,2024-05-17 00:30:00,,,,,15.0,1007.0,3303.8736090979805,13.0,12.0,90.0,10000.0,99999,,-1.0,0.0,11160009121015020130300704303851010600007000080000
4530,UUYY,61.647,50.8451,2024-05-17 00:30:00,,,,,5.0,1013.0,4151.581090107851,2.0,3.0,20.0,10000.0,99999,,1.0,0.0,1116000203100502020301304151551010600007000080000
4535,LFKS,41.9244,9.406,2024-05-17 00:30:00,,,,,15.0,1009.0,1074.2316968959997,5.0,3.0,220.0,10000.0,99999,,-1.3999999999999773,0.0,1116002203101502050300904074251016600007000080000
4536,LFMC,43.3847,6.38714,2024-05-17 00:30:00,,,,,11.0,1009.0,1966.9388231201312,8.0,3.0,210.0,10000.0,99999,,0.0,0.0,1116002103101102080300904966951000600007000080000
4537,LFMI,43.5227,4.92384,2024-05-17 00:30:00,,,,,12.0,1009.0,1255.9674920153923,9.0,6.0,60.0,10000.0,99999,,-0.6000000000000227,0.0,1116000606101202090300904255951003600007000080000
4538,LFRC,49.6501,-1.47028,2024-05-17 00:30:00,,,,,10.0,1006.0,2984.3214784185175,9.0,6.0,170.0,10000.0,99999,,0.0,0.0,1116001706101002090300604984351000600007000080000
4539,LFRH,47.7606,-3.44,2024-05-17 00:30:00,,,,,10.0,1005.0,1613.2620221923144,9.0,3.0,80.0,10000.0,99999,,0.0,0.0,1116000803101002090300504613251000600007000080000
4541,LFRJ,48.5303,-4.15164,2024-05-17 00:30:00,,,,,11.0,1005.0,2299.953031674908,11.0,4.0,140.0,10000.0,99999,,0.0,0.0,11160014041011020110300504299951000600007000080000
4542,LFRK,49.1733,-0.45,2024-05-17 00:30:00,,,,,9.0,1007.0,2158.132433697962,8.0,5.0,130.0,10000.0,99999,,-0.10000000000002274,0.0,1116001305100902080300704158151008600007000080000
4544,LFRQ,47.975,-4.16779,2024-05-17 00:30:00,,,,,11.0,1005.0,2088.637165932419,11.0,4.0,50.0,10000.0,99999,,-0.20000000000004547,0.0,11160005041011020110300504088651007600007000080000
4545,LFRT,48.5378,-2.85444,2024-05-17 00:30:00,,,,,11.0,1005.0,2751.418335901818,10.0,3.0,190.0,10000.0,99999,,-0.5,0.0,11160019031011020100300504751451005600007000080000
4549,LEAB,38.9485,-1.86352,2024-05-17 00:30:00,,,,,12.0,1011.0,10.294491331384439,4.0,5.0,180.0,10000.0,99999,,-1.0,0.0,111600180510120204030110410251010600007000080000
4550,LEBA,37.842,-4.84888,2024-05-17 00:30:00,,,,,17.0,1011.0,1684.4430051564389,13.0,8.0,230.0,10000.0,99999,,-1.0,0.0,11160023081017020130301104684451010600007000080000
4551,LEGT,40.2941,-3.72383,2024-05-17 00:30:00,,,,,13.0,1009.0,8618.949931404873,7.0,5.0,210.0,10000.0,99999,,-1.0,0.0,1116002105101302070300904618951010600007000080000
4552,LELO,42.46095,-2.32224,2024-05-17 00:30:00,,,,,11.0,1008.0,6065.678899566455,8.0,0.0,0.0,10000.0,99999,,-0.6000000000000227,0.0,1116000000101102080300804065651003600007000080000
4553,LEMH,39.8626,4.21865,2024-05-17 00:30:00,,,,,15.0,1010.0,1796.0808153307287,14.0,2.0,260.0,10000.0,99999,,-1.0,0.0,11160026021015020140301004796051010600007000080000
4560,LPPR,41.2481,-8.68139,2024-05-17 00:30:00,,,,,13.0,1010.0,1685.633866438529,11.0,0.0,0.0,10000.0,99999,,0.0,0.0,11160000001013020110301004685651000600007000080000
4561,LRTR,45.8099,21.3379,2024-05-17 00:30:00,,,,,13.0,1012.0,2092.749418591411,9.0,10.0,100.0,10000.0,99999,,-2.1000000000000227,0.0,1116001010101302090301204092751028600007000080000
4562,LEMO,37.1749,-5.61594,2024-05-17 00:30:00,,,,,14.0,1012.0,1809.2917344848947,12.0,5.0,200.0,10000.0,99999,,-1.0,0.0,11160020051014020120301204809251010600007000080000
4563,LERT,36.6452,-6.34946,2024-05-17 00:30:00,,,,,17.0,1012.0,1193.2495316499042,15.0,8.0,280.0,10000.0,99999,,-1.0,0.0,11160028081017020150301204193251010600007000080000
4564,ULLI,59.8003,30.2625,2024-05-17 00:30:00,,,,,11.0,1020.0,1279.5017054460002,7.0,3.0,280.0,10000.0,99999,,-0.7999999999999545,0.0,1116002803101102070302004279551002600007000080000
4565,UMMS,53.8825,28.0307,2024-05-17 00:30:00,,,,,6.0,1024.0,6483.3746616928875,2.0,3.0,320.0,10000.0,99999,,-1.7000000000000455,0.0,1116003203100602020302404483351012600007000080000
4566,URKA,45.0021,37.3473,2024-05-17 00:30:00,10.0,36.0,+,yellow,5.0,1021.0,2486.273562125688,5.0,1.0,120.0,8000.0,99999,,-1.5,0.0,1114001201100502050302104486251015600007100080000
4567,URMM,44.2251,43.0819,2024-05-17 00:30:00,,,,,8.0,1020.0,7493.169788218032,7.0,1.0,,10000.0,99999,,-1.8999999999999773,0.9,1116003601100802070302004493151011600907000080000
4568,URSS,43.4499,39.9566,2024-05-17 00:30:00,,,,,9.0,1021.0,1389.6699202280552,7.0,4.0,30.0,10000.0,99999,,-1.7000000000000455,0.0,1116000304100902070302104389651012600007000080000
4569,UUEE,55.9726,37.4146,2024-05-17 00:30:00,,,,,12.0,1016.0,3311.477324349191,11.0,3.0,250.0,10000.0,99999,,-1.0,0.0,11160025031012020110301604311451010600007000080000
4570,LFRM,47.9486,0.20167,2024-05-17 00:30:00,,,,,10.0,1008.0,1761.135383259183,10.0,3.0,130.0,10000.0,99999,,1.0,0.0,11160013031010020100300804761151010600007000080000
4571,LKCV,49.9397,15.3818,2024-05-17 00:30:00,,,,,14.0,1009.0,3535.2552105076097,7.0,9.0,80.0,10000.0,99999,,-1.0,0.0,1116000809101402070300904535251010600007000080000
4572,LKPD,50.0134,15.7386,2024-05-17 00:30:00,,,,,12.0,1010.0,3796.1373619173723,7.0,4.0,80.0,10000.0,99999,,-0.10000000000002274,0.0,1116000804101202070301004796151008600007000080000
4574,ETAR,49.4369,7.60028,2024-05-17 00:35:00,,,,,13.0,29.65,3762.4753638569177,12.0,0.0,0.0,9000.0,99999,,-976.95,0.7,11150000001013020120329647624519760600707000080000
4578,EICK,51.8413,-8.49111,2024-05-17 00:30:00,63.0,36.0,',green,12.0,1008.0,2791.237172113709,11.0,9.0,280.0,3000.0,99999,,-0.2999999999999545,0.5,11110028091012020110300804791251007600507630080000
4579,ETSH,51.7678,13.1677,2024-05-17 00:20:00,,,,,19.0,1009.0,1535.2949348623638,6.0,13.0,100.0,10000.0,99999,,0.10000000000002274,0.0,1116001013101902060300904535251001600007000080000
4589,LFRI,46.7019,-1.37863,2024-05-17 00:30:00,,,,,11.0,1007.0,2100.985674747987,11.0,6.0,170.0,10000.0,99999,,0.0,0.2,11160017061011020110300704100951000600207000080000
4596,LHKE,46.9175,19.7492,2024-05-17 00:27:00,80.0,36.0,q,green,13.0,1013.0,2192.8998521032277,9.0,11.0,130.0,10000.0,99999,,-0.2999999999999545,0.0,1116001311101302090301304192851007600007800080000
4597,LHSN,47.1229,20.2355,2024-05-17 00:25:00,80.0,36.0,q,green,13.0,1013.0,2004.9439516617142,7.0,6.0,80.0,10000.0,99999,,-0.5,0.0,1116000806101302070301304004951005600007800080000
4598,LFRZ,47.3122,-2.14918,2024-05-17 00:30:00,,,,,12.0,1006.0,1043.5345885882687,11.0,8.0,150.0,10000.0,99999,,0.0,0.4,11160015081012020110300604043551000600407000080000
4599,LFSN,48.6921,6.23046,2024-05-17 00:30:00,63.0,36.0,',green,13.0,1007.0,3581.798339516633,12.0,2.0,280.0,8000.0,99999,,-0.39999999999997726,0.2,11140028021013020120300704581751006600207630080000
4600,LFST,48.5383,7.62823,2024-05-17 00:30:00,,,,,12.0,1005.0,2795.0427874065867,12.0,8.0,210.0,5000.0,99999,,-1.3999999999999773,1.8,11130021081012020120300504795051016601807000080000
4601,LFSO,48.5831,5.955,2024-05-17 00:30:00,61.0,36.0,^,green,12.0,1007.0,5364.098064683293,11.0,4.0,230.0,8000.0,99999,,0.0,0.2,11140023041012020110300704364051000600207610080000
4602,LFSX,47.7831,6.36406,2024-05-17 00:30:00,61.0,36.0,^,green,11.0,1008.0,4890.701831299014,11.0,5.0,270.0,10000.0,99999,,-0.7999999999999545,2.0,11160027051011020110300804890751002602007610080000
4605,LFJL,48.9821,6.25132,2024-05-17 00:30:00,61.0,36.0,^,green,13.0,1007.0,4050.740771572422,12.0,5.0,250.0,7000.0,99999,,0.0,0.2,11140025051013020120300704050751000600207610080000
4606,LKNA,49.1658,16.1249,2024-05-17 00:30:00,,,,,14.0,1010.0,6338.142319303339,7.0,9.0,110.0,10000.0,99999,,-0.5,0.0,1116001109101402070301004338151005600007000080000
4610,EHGR,51.5674,4.93183,2024-05-17 00:38:00,10.0,36.0,+,yellow,13.0,1007.0,1140.2109035698084,13.0,5.0,300.0,3900.0,99999,,0.0,0.0,11120030051013020130300704140251000600007100080000
4612,EHWO,51.4491,4.34203,2024-05-17 00:38:00,10.0,36.0,+,yellow,12.0,1007.0,1194.408702554947,12.0,1.0,210.0,6000.0,99999,,0.0,0.0,11130021011012020120300704194451000600007100080000
4616,ETHB,52.2785,9.08217,2024-05-17 00:20:00,,,,,15.0,1007.0,1588.943642868553,11.0,6.0,70.0,10000.0,99999,,0.5,0.0,11160007061015020110300704588951005600007000080000
4617,LIME,45.6739,9.70417,2024-05-17 00:20:00,,,,,12.0,1006.0,3956.312722584885,9.0,4.0,10.0,10000.0,99999,,-1.0,0.2,1116000104101202090300604956351010600207000080000
4621,LETO,40.4967,-3.44587,2024-05-17 00:30:00,,,,,14.0,1009.0,8057.725826826015,6.0,9.0,210.0,10000.0,99999,,0.0,0.0,1116002109101402060300904057751000600007000080000
4623,ETAD,49.9727,6.6925,2024-05-17 00:40:00,,,,,12.0,29.68,5888.691084639923,10.0,4.0,320.0,10000.0,99999,,-976.9200000000001,0.0,11160032041012020100329648886519760600007000080000
