,station,lat,lon,time,weather,weatherfont,weathersymbol,weathercolour,temperature,pressure,sl_pressure,dewpoint,windspeed,winddir,visibility,visual_range,cloudcover,pressure3h_change,rain,wwletter
8,EHEH,51.4501,5.37453,2024-05-02 23:45:00,10.0,36.0,+,yellow,13.0,1003.0,(1205.9854289230145+0j),12.0,12.0,240.0,4500.0,99999,,(202.18542892301457+0j),0.8,11120024121013020120300304000051000600807100080000
343,EEEI,59.2603,24.2085,2024-05-02 23:50:00,,,,,3.0,1022.0,(1884.5567786469596+0j),1.0,1.0,80.0,10000.0,99999,,(861.7567786469597+0j),0.0,1116000801100302010302204000051000600007000080000
750,EGBB,52.4539,-1.74803,2024-05-02 23:50:00,,,,,12.0,1005.0,(2099.8812466156924+0j),10.0,4.0,30.0,10000.0,99999,,(1094.8812466156924+0j),0.0,11160003041012020100300504000051000600007000080000
756,EGJB,49.435,-2.60197,2024-05-02 23:50:00,,,,,10.0,1011.0,(2405.4077472337017+0j),8.0,10.0,250.0,10000.0,99999,,(1395.6077472337017+0j),0.0,1116002510101002080301104000051000600007000080000
765,EGNS,54.0833,-4.62389,2024-05-02 23:50:00,,,,,12.0,1006.0,(1159.5840968647326+0j),9.0,13.0,60.0,10000.0,99999,,(152.98409686473258+0j),0.0,1116000613101202090300604000051000600007000080000
802,ETNG,50.9608,6.04242,2024-05-02 23:50:00,61.0,36.0,^,green,12.0,1004.0,(1982.5951583577366+0j),11.0,11.0,240.0,10000.0,99999,,(978.0951583577366+0j),6.1,11160024111012020110300404000051000606007610080000
823,LGLM,39.9171,25.2363,2024-05-02 23:50:00,,,,,13.0,1009.0,(1046.4220349577668+0j),11.0,0.0,0.0,10000.0,99999,,(35.52203495776678+0j),0.0,11160000001013020110300904000051000600007000080000
837,LGAL,40.8559,25.9563,2024-05-02 23:50:00,,,,,15.0,1009.0,(1064.8070211692013+0j),12.0,0.0,0.0,10000.0,99999,,(53.70702116920131+0j),0.0,11160000001015020120300904000051000600007000080000
839,LGMK,37.4351,25.3481,2024-05-02 23:50:00,,,,,16.0,1010.0,(2023.2289450580347+0j),10.0,5.0,270.0,10000.0,99999,,(1011.7289450580347+0j),0.0,11160027051016020100301004000051000600007000080000
1005,LGBL,39.2196,22.7943,2024-05-02 23:50:00,,,,,14.0,1010.0,(1223.2178606911552+0j),11.0,4.0,320.0,10000.0,99999,,(212.41786069115528+0j),0.0,11160032041014020110301004000051000600007000080000
1006,LGLR,39.65628,22.34,2024-05-02 23:50:00,,,,,12.0,1010.0,(1793.9305829761925+0j),12.0,0.0,0.0,10000.0,99999,,(783.0305829761925+0j),0.0,11160000001012020120301004000051000600007000080000
1008,LGTG,38.3398,23.565,2024-05-02 23:50:00,,,,,15.0,1010.0,(2343.8100241375446+0j),11.0,0.0,0.0,10000.0,99999,,(1332.4100241375445+0j),0.0,11160000001015020110301004000051000600007000080000
1009,LGRX,38.1511,21.4256,2024-05-02 23:50:00,,,,,16.0,1013.0,(1114.5837140893618+0j),16.0,0.0,0.0,10000.0,99999,,(100.38371408936177+0j),0.0,11160000001016020160301304000051000600007000080000
1093,LTAY,37.7856,29.7013,2024-05-02 23:50:00,,,,,9.0,1011.0,(14.92215264761244+0j),5.0,5.0,280.0,10000.0,99999,,(-995.3778473523876+0j),0.0,1116002805100902050301104000051000600007000080000
1094,LTBD,37.815,27.8953,2024-05-02 23:50:00,,,,,15.0,1009.0,(1254.7097540626132+0j),13.0,4.0,210.0,10000.0,99999,,(245.1097540626132+0j),0.0,11160021041015020130300904000051000600007000080000
1096,LTBH,40.1377,26.4268,2024-05-02 23:50:00,,,,,12.0,1010.0,(1077.0691149763497+0j),11.0,0.0,0.0,10000.0,99999,,(66.56911497634974+0j),0.0,11160000001012020110301004000051000600007000080000
1098,LTBY,39.8099,30.5194,2024-05-02 23:50:00,,,,,10.0,1010.0,(13.056724376846995+0j),7.0,4.0,220.0,10000.0,99999,,0j,0.0,1116002204101002070301004000051000600007000080000
1100,LTCB,40.96667,38.08,2024-05-02 23:50:00,,,,,14.0,1007.0,(1051.655653219656+0j),12.0,1.0,,10000.0,99999,,(47.55565321965594+0j),1.9,11160036011014020120300704000051000601907000080000
1103,LTCT,39.97663,43.87665,2024-05-02 23:50:00,,,,,15.0,1004.0,(10.875063023557281+0j),14.0,1.0,,10000.0,99999,,0j,0.0,11160036011015020140300404000051000600007000080000
1104,LTDA,36.36278,36.28222,2024-05-02 23:50:00,,,,,19.0,1005.0,(1537.7554375877135+0j),16.0,8.0,260.0,10000.0,99999,,(531.9554375877135+0j),0.0,11160026081019020160300504000051000600007000080000
1105,LTFD,39.5546,27.0138,2024-05-02 23:50:00,,,,,11.0,1010.0,(1171.974946680647+0j),11.0,4.0,130.0,10000.0,99999,,(160.87494668064699+0j),0.0,11160013041011020110301004000051000600007000080000
1106,LTFG,36.29922,32.3006,2024-05-02 23:50:00,,,,,18.0,1005.0,(1174.676107047264+0j),16.0,1.0,,10000.0,99999,,(170.27610704726396+0j),0.0,11160036011018020160300504000051000600007000080000
1150,LTCI,38.4682,43.3323,2024-05-02 23:50:00,80.0,36.0,q,green,10.0,1007.0,(20.91796991910826+0j),9.0,4.0,60.0,10000.0,99999,,(-980.6820300808918+0j),0.5,1116000604101002090300704000051000600507800080000
1180,LBPG,42.2904,24.714,2024-05-03 00:00:00,,,,,13.0,1009.0,(1562.581959031737+0j),7.0,2.0,120.0,10000.0,99999,,(551.1819590317369+0j),0.0,1116001202101302070300904000051000600007000080000
1227,EGQL,56.3729,-2.86844,2024-05-02 23:50:00,,,,,11.0,1011.0,(1133.3098048366203+0j),7.0,8.0,60.0,10000.0,99999,,(120.80980483662029+0j),0.0,1116000608101102070301104000051000600007000080000
1228,EGQS,57.7052,-3.33917,2024-05-02 23:50:00,,,,,10.0,1014.0,(1163.9065400438294+0j),7.0,8.0,50.0,10000.0,99999,,(148.9065400438294+0j),0.0,1116000508101002070301404000051000600007000080000
1278,ETEK,49.6503,7.30007,2024-05-02 23:55:00,61.0,36.0,^,green,8.7,29.72,(1029.72+0j),8.2,12.0,250.0,10000.0,99999,,(23.720000000000027+0j),0.0,111600251210086208632974000051000600007610080000
1288,ETIC,49.6987,11.9402,2024-05-02 23:55:00,,,,,12.4,29.7,(6427.387818223248+0j),9.9,0.0,0.0,10000.0,99999,,(5422.987818223249+0j),0.0,111600000010124209432964000051000600007000080000
1818,LTCN,37.53883,36.95352,2024-05-02 23:50:00,,,,,16.0,1007.0,(6170.464240244952+0j),14.0,3.0,220.0,10000.0,99999,,(5165.1642402449515+0j),0.0,11160022031016020140300704000051000600007000080000
1909,LTAE,40.0789,32.5656,2024-05-02 23:50:00,,,,,11.0,1009.0,(12.765078354087178+0j),7.0,2.0,,10000.0,99999,,(-995.4349216459128+0j),0.0,1116003602101102070300904000051000600007000080000
2053,URMN,43.5129,43.6366,2024-05-03 00:00:00,,,,,13.0,1005.0,(6399.958334322207+0j),10.0,1.0,280.0,10000.0,99999,,(5393.058334322207+0j),0.0,11160028011013020100300504000051000600007000080000
2065,UWLW,54.401,48.8027,2024-05-03 00:00:00,,,,,5.0,1007.0,(3210.445824419032+0j),-2.0,4.0,300.0,10000.0,99999,,(2201.5458244190318+0j),0.0,1116003004100502120300704000051000600007000080000
2099,EGUL,52.4093,0.561,2024-05-02 23:55:00,,,,,11.0,29.64,(1134.1414943157906+0j),9.1,7.0,310.0,10000.0,99999,,(131.14149431579062+0j),0.0,111600310710110209032964000051000600007000080000
2101,EGVA,51.6822,-1.79003,2024-05-02 23:55:00,,,,,9.7,29.68,(2255.212441321597+0j),8.3,12.0,260.0,10000.0,99999,,(1249.912441321597+0j),0.0,111600261210096208632964000051000600007000080000
2172,EGXC,53.093,-0.16601,2024-05-02 23:50:00,,,,,11.0,1004.0,(1083.255124902729+0j),9.0,9.0,360.0,9000.0,99999,,(79.65512490272897+0j),0.0,1115003609101102090300404000051000600007000080000
2221,LGSO,37.4228,24.9509,2024-05-02 23:50:00,,,,,18.0,1011.0,(1504.3566630650218+0j),12.0,9.0,270.0,10000.0,99999,,0j,0.0,11160027091018020120301104000051000600007000080000
2224,LKKB,50.1214,14.5436,2024-05-03 00:00:00,,,,,13.0,1005.0,(4316.744650967017+0j),10.0,7.0,70.0,10000.0,99999,,0j,0.0,11160007071013020100300504000051000600007000080000
2225,LKKV,50.203,12.915,2024-05-03 00:00:00,,,,,11.0,1005.0,(9.736651958564105+0j),9.0,0.0,0.0,10000.0,99999,,(-994.2633480414358+0j),0.0,1116000000101102090300504000051000600007000080000
2230,LOXZ,47.2028,14.7442,2024-05-02 23:50:00,,,,,8.0,1008.0,(13.725877082184008+0j),6.0,2.0,,10000.0,99999,,(-995.174122917816+0j),0.0,1116003602100802060300804000051000600007000080000
2243,LTFH,41.2545,36.5671,2024-05-02 23:50:00,80.0,36.0,q,green,14.0,1007.0,(1051.655653219656+0j),13.0,1.0,,7000.0,99999,,0j,0.0,11140036011014020130300704000051000600007800080000
2248,ULOO,57.7839,28.3956,2024-05-03 00:00:00,,,,,5.0,1022.0,(2299.6634973630703+0j),1.0,1.0,120.0,10000.0,99999,,(1277.4634973630702+0j),0.0,1116001201100502010302204000051000600007000080000
2272,EIME,53.3017,-6.45133,2024-05-03 00:00:00,,,,,10.0,1006.0,(2314.439750521854+0j),10.0,8.0,250.0,10000.0,99999,,(1308.439750521854+0j),1.0,11160025081010020100300604000051000601007000080000
2273,LBPL,43.4514,24.5028,2024-05-03 00:00:00,,,,,14.0,1012.0,(1949.7721733484889+0j),10.0,2.0,180.0,10000.0,99999,,(937.9721733484889+0j),0.0,11160018021014020100301204000051000600007000080000
2291,LPBJ,38.0789,-7.9324,2024-05-03 00:00:00,,,,,9.0,1022.0,(4307.481735810584+0j),7.0,2.0,,10000.0,99999,,(3286.5817358105837+0j),0.0,1116003602100902070302204000051000600007000080000
2320,LICT,37.9114,12.488,2024-05-02 23:55:00,,,,,15.0,1018.0,(1076.678683055841+0j),14.0,8.0,290.0,10000.0,99999,,(58.378683055841066+0j),0.0,11160029081015020140301804000051000600007000080000
2323,LIBA,41.5414,15.7181,2024-05-02 23:55:00,,,,,11.0,1011.0,(1649.430086742109+0j),7.0,7.0,260.0,10000.0,99999,,(637.0300867421091+0j),0.0,1116002607101102070301104000051000600007000080000
2325,LIBN,40.2392,18.1333,2024-05-02 23:55:00,,,,,15.0,1013.0,(1398.8852262540831+0j),13.0,7.0,240.0,10000.0,99999,,(385.98522625408316+0j),0.0,11160024071015020130301304000051000600007000080000
2327,LIBV,40.7678,16.9333,2024-05-02 23:55:00,,,,,7.0,1012.0,(9.28121895972009+0j),5.0,6.0,220.0,10000.0,99999,,(-1003.41878104028+0j),0.0,1116002206100702050301204000051000600007000080000
2331,LIED,39.3542,8.97248,2024-05-02 23:55:00,,,,,11.0,1017.0,(1352.937002106528+0j),9.0,4.0,30.0,10000.0,99999,,(334.73700210652805+0j),0.0,1116000304101102090301704000051000600007000080000
2333,LIPC,44.2242,12.3072,2024-05-02 23:55:00,,,,,8.0,1010.0,(1088.9188484194915+0j),6.0,3.0,260.0,10000.0,99999,,(79.01884841949152+0j),0.0,1116002603100802060301004000051000600007000080000
2335,LIPI,45.9787,13.0493,2024-05-02 23:55:00,,,,,12.0,1009.0,(1574.9448513398697+0j),10.0,3.0,10.0,10000.0,99999,,(565.8448513398697+0j),0.5,11160001031012020100300904000051000600507000080000
2337,LIPL,45.4322,10.2677,2024-05-02 23:55:00,,,,,9.0,1008.0,(2558.780341844414+0j),9.0,2.0,80.0,10000.0,99999,,(1550.1803418444142+0j),0.0,1116000802100902090300804000051000600007000080000
2339,LIPS,45.6849,12.0829,2024-05-02 23:55:00,,,,,11.0,1009.0,(1474.947644728392+0j),10.0,5.0,10.0,10000.0,99999,,(465.74764472839206+0j),0.4,11160001051011020100300904000051000600407000080000
2342,LIRS,42.7597,11.0719,2024-05-02 23:55:00,61.0,36.0,^,green,12.0,1010.0,(1059.396771454595+0j),10.0,1.0,,8000.0,99999,,(47.596771454595+0j),0.0,11140036011012020100301004000051000600007610080000
2346,LICZ,37.4017,14.9224,2024-05-02 23:55:00,,,,,18.0,1017.0,(1174.3131785575627+0j),8.0,10.0,270.0,10000.0,99999,,(157.81317855756265+0j),0.0,1116002710101802080301704000051000600007000080000
2350,LIRM,41.0608,14.0819,2024-05-02 23:55:00,,,,,8.0,1013.0,(1141.749520167899+0j),7.0,3.0,340.0,10000.0,99999,,(126.94952016789898+0j),0.0,1116003403100802070301304000051000600007000080000
2357,LTAB,39.935,32.7408,2024-05-02 23:50:00,,,,,12.0,1009.0,(11.656813771910711+0j),9.0,6.0,270.0,10000.0,99999,,(-996.5431862280893+0j),0.0,1116002706101202090300904000051000600007000080000
2358,LTAD,39.9498,32.6886,2024-05-02 23:50:00,,,,,12.0,1010.0,(11.55032520524472+0j),8.0,5.0,240.0,10000.0,99999,,(-996.9496747947553+0j),0.0,1116002405101202080301004000051000600007000080000
2359,LTAN,37.979,32.5619,2024-05-02 23:50:00,,,,,10.0,1011.0,(15.814995584608177+0j),6.0,4.0,60.0,10000.0,99999,,(-990.7850044153919+0j),0.0,1116000604101002060301104000051000600007000080000
2360,LTAR,39.8138,36.9035,2024-05-02 23:50:00,,,,,8.0,1008.0,(22.78660546850371+0j),6.0,12.0,250.0,10000.0,99999,,(-982.5133945314963+0j),0.0,1116002512100802060300804000051000600007000080000
2361,LTBF,39.6193,27.926,2024-05-02 23:50:00,,,,,10.0,1010.0,(2421.810053729243+0j),10.0,0.0,0.0,10000.0,99999,,(1410.910053729243+0j),0.0,11160000001010020100301004000051000600007000080000
2362,LTBG,40.318,27.9777,2024-05-02 23:50:00,,,,,12.0,1010.0,(1545.7642284745841+0j),11.0,2.0,,10000.0,99999,,(534.3642284745841+0j),0.0,11160036021012020110301004000051000600007000080000
2363,LTBI,39.7841,30.5821,2024-05-02 23:50:00,,,,,10.0,1010.0,(13.030022100189672+0j),7.0,5.0,240.0,10000.0,99999,,(-998.3699778998104+0j),0.0,1116002405101002070301004000051000600007000080000
2364,LTBL,38.513,27.0101,2024-05-02 23:50:00,,,,,14.0,1010.0,(1049.7713840559134+0j),13.0,0.0,0.0,10000.0,99999,,(39.671384055913336+0j),0.0,11160000001014020130301004000051000600007000080000
2365,LTBQ,40.735,30.0833,2024-05-02 23:50:00,,,,,11.0,1010.0,(1644.0022402484294+0j),10.0,0.0,0.0,10000.0,99999,,(632.7022402484295+0j),0.0,11160000001011020100301004000051000600007000080000
2366,LTCA,38.6069,39.2914,2024-05-02 23:50:00,,,,,12.0,1005.0,(12.417113884606293+0j),12.0,4.0,220.0,10000.0,99999,,(-990.8828861153937+0j),0.0,11160022041012020120300504000051000600007000080000
2367,LTCD,39.7102,39.527,2024-05-02 23:50:00,10.0,36.0,+,yellow,8.0,1007.0,(19.34555939978099+0j),8.0,0.0,0.0,4800.0,99999,,(-986.054440600219+0j),0.2,1112000000100802080300704000051000600207100080000
2368,LTCF,40.5622,43.115,2024-05-02 23:50:00,80.0,36.0,q,green,9.0,1006.0,(22.7388011625399+0j),9.0,2.0,,10000.0,99999,,(-981.4611988374602+0j),0.2,1116003602100902090300604000051000600207800080000
2384,UMGG,52.527,31.0167,2024-05-03 00:00:00,,,,,10.0,1016.0,(3078.708473080732+0j),6.0,5.0,40.0,10000.0,99999,,(2062.808473080732+0j),0.0,1116000405101002060301604000051000600007000080000
2393,EHVK,51.6564,5.70861,2024-05-03 00:01:00,61.0,36.0,^,green,13.0,1003.0,(1200.298364345424+0j),12.0,9.0,230.0,4600.0,99999,,(196.79836434542403+0j),0.8,11120023091013020120300304000051000600807610080000
2401,LPMR,39.8312,-8.88726,2024-05-03 00:00:00,,,,,10.0,1020.0,(1751.957502380752+0j),8.0,3.0,160.0,10000.0,99999,,(730.657502380752+0j),0.0,1116001603101002080302004000051000600007000080000
2402,LPMT,38.7039,-9.03592,2024-05-03 00:00:00,,,,,13.0,1021.0,(1147.593145199077+0j),9.0,3.0,210.0,10000.0,99999,,(126.09314519907707+0j),0.0,1116002103101302090302104000051000600007000080000
2407,LIRE,41.6545,12.4452,2024-05-02 23:55:00,,,,,13.0,1013.0,(1124.6522325892047+0j),10.0,15.0,250.0,10000.0,99999,,(111.05223258920466+0j),0.0,11160025151013020100301304000051000600007000080000
2409,EGUN,52.3619,0.48641,2024-05-02 23:55:00,10.0,36.0,+,yellow,11.0,29.65,(1137.4863190470269+0j),9.0,6.0,330.0,8000.0,99999,,(134.38631904702686+0j),0.0,111400330610110209032964000051000600007100080000
2417,EBFS,50.2433,4.64583,2024-05-03 00:13:00,61.0,36.0,^,green,9.0,1006.0,(5967.909043385823+0j),8.0,14.0,250.0,10000.0,99999,,(4961.309043385822+0j),0.2,1116002514100902080300604000051000600207610080000
2424,LATI,41.4147,19.7206,2024-05-03 00:20:00,,,,,14.0,1012.0,(1342.755725787761+0j),14.0,3.0,120.0,10000.0,99999,,(329.7557257877611+0j),1.0,11160012031014020140301204000051000601007000080000
2425,LMML,35.8575,14.4775,2024-05-03 00:15:00,,,,,16.0,1018.0,(1750.6654799664248+0j),10.0,10.0,310.0,10000.0,99999,,(732.3654799664248+0j),0.0,11160031101016020100301804000051000600007000080000
2426,LWSK,41.9616,21.6214,2024-05-03 00:20:00,,,,,12.0,1010.0,(3967.7425545282067+0j),11.0,1.0,,10000.0,99999,,(2956.142554528207+0j),0.0,11160036011012020110301004000051000600007000080000
2429,EVGA,56.7783,24.8539,2024-05-03 00:20:00,,,,,9.0,1019.0,(1903.4715200492242+0j),2.0,5.0,100.0,10000.0,99999,,(882.9715200492242+0j),0.0,1116001005100902020301904000051000600007000080000
2463,EVVA,57.3578,21.5442,2024-05-03 00:20:00,,,,,9.0,1018.0,(1092.5607973536908+0j),4.0,5.0,70.0,10000.0,99999,,0j,0.0,1116000705100902040301804000051000600007000080000
2473,LSZC,46.97444,8.39694,2024-05-03 00:20:00,53.0,36.0,V,green,9.0,1012.0,(9.01211872125923+0j),7.0,4.0,60.0,10000.0,99999,,(-1002.4878812787408+0j),0.9,1116000604100902070301204000051000600907530080000
2482,EKRS,55.4258,11.8067,2024-05-03 00:20:00,,,,,13.0,1009.0,(1326.8904943844227+0j),8.0,12.0,90.0,10000.0,99999,,(317.19049438442266+0j),0.0,1116000912101302080300904000051000600007000080000
2492,LSMA,46.9439,8.28417,2024-05-03 00:20:00,,,,,11.0,1012.0,(7483.662621509228+0j),6.0,2.0,,10000.0,99999,,(6471.662621509228+0j),0.7,1116003602101102060301204000051000600707000080000
2493,LSMD,47.3986,8.64823,2024-05-03 00:20:00,80.0,36.0,q,green,9.0,1012.0,(8985.642767458754+0j),7.0,4.0,270.0,10000.0,99999,,(7974.742767458754+0j),0.5,1116002704100902070301204000051000600507800080000
2494,LSME,47.0924,8.30512,2024-05-03 00:20:00,,,,,11.0,1012.0,(7207.792411538107+0j),5.0,9.0,250.0,10000.0,99999,,(6196.192411538107+0j),0.7,1116002509101102050301204000051000600707000080000
2495,LSMM,46.7433,8.11,2024-05-03 00:20:00,,,,,8.0,1012.0,(12.222178519449502+0j),8.0,1.0,,10000.0,99999,,(-1000.6778214805505+0j),0.8,1116003601100802080301204000051000600807000080000
2496,LSMP,46.8432,6.91506,2024-05-03 00:20:00,,,,,8.0,1013.0,(9.920028408364923+0j),6.0,8.0,210.0,10000.0,99999,,(-1003.879971591635+0j),0.6,1116002108100802060301304000051000600607000080000
2571,EGHQ,50.4406,-4.99541,2024-05-03 00:20:00,,,,,8.0,1010.0,(3137.586438982367+0j),7.0,2.0,,10000.0,99999,,(2128.186438982367+0j),0.0,1116003602100802070301004000051000600007000080000
2586,ESOH,60.0201,13.5789,2024-05-03 00:20:00,,,,,3.0,1021.0,(8807.617302966451+0j),0.0,0.0,0.0,10000.0,99999,,(7785.317302966451+0j),0.0,1116000000100302000302104000051000600007000080000
2591,ESIB,58.4264,12.7144,2024-05-03 00:20:00,,,,,9.0,1018.0,(1809.3438638968819+0j),3.0,7.0,50.0,10000.0,99999,,(791.4438638968819+0j),0.0,1116000507100902030301804000051000600007000080000
2628,ESNZ,63.1944,14.5003,2024-05-03 00:20:00,,,,,9.0,1020.0,(7759.024619302536+0j),2.0,3.0,300.0,10000.0,99999,,(6737.724619302536+0j),0.0,1116003003100902020302004000051000600007000080000
2714,EFET,68.3626,23.4243,2024-05-03 00:20:00,45.0,36.0,N,yellow,1.0,1021.0,(27.210526409798494+0j),1.0,1.0,,900.0,99999,,0j,0.0,1110003601100102010302104000051000600007450080000
2715,EFHA,61.856,24.7866,2024-05-03 00:20:00,,,,,9.0,1021.0,(3398.4774522192333+0j),3.0,5.0,150.0,10000.0,99999,,(2376.1774522192336+0j),0.0,1116001505100902030302104000051000600007000080000
2716,EFJO,62.6629,29.6075,2024-05-03 00:20:00,,,,,2.0,1024.0,(10.749489207883128+0j),-0.0,9.0,130.0,10000.0,99999,,(-1014.3505107921168+0j),0.2,1116001309100202100302404000051000600207000080000
2721,EFKS,65.9876,29.2394,2024-05-03 00:20:00,,,,,1.0,1023.0,(25.903284839985318+0j),-3.0,4.0,150.0,10000.0,99999,,(-1000.4967151600148+0j),0.0,1116001504100102130302304000051000600007000080000
2722,EFKT,67.701,24.8468,2024-05-03 00:20:00,10.0,36.0,+,yellow,2.0,1022.0,(15.467003198112678+0j),2.0,1.0,,4200.0,99999,,(-1010.0329968018873+0j),0.0,1112003601100202020302204000051000600007100080000
2724,EFLP,61.0446,28.1444,2024-05-03 00:20:00,,,,,7.0,1022.0,(3230.783979839272+0j),-0.0,7.0,130.0,10000.0,99999,,(2207.183979839272+0j),0.0,1116001307100702100302204000051000600007000080000
2725,EFMI,61.6866,27.2018,2024-05-03 00:20:00,,,,,8.0,1022.0,(2795.1690438298388+0j),1.0,5.0,120.0,10000.0,99999,,(1771.5690438298388+0j),0.0,1116001205100802010302204000051000600007000080000
2727,EFSA,61.9431,28.9451,2024-05-03 00:20:00,,,,,6.0,1023.0,(3334.292620875219+0j),-1.0,10.0,140.0,10000.0,99999,,(2309.9926208752195+0j),0.0,1116001410100602110302304000051000600007000080000
2728,EFSI,62.6921,22.8323,2024-05-03 00:20:00,,,,,9.0,1021.0,(2427.092940329517+0j),4.0,1.0,310.0,10000.0,99999,,0j,0.0,1116003101100902040302104000051000600007000080000
2729,EFUT,60.8964,26.9384,2024-05-03 00:20:00,,,,,6.0,1022.0,(3569.7788932590433+0j),1.0,1.0,,10000.0,99999,,(2546.7788932590433+0j),0.0,1116003601100602010302204000051000600007000080000
2736,ESCF,58.4023,15.5257,2024-05-03 00:20:00,,,,,7.0,1019.0,(2928.5222818112775+0j),3.0,6.0,60.0,10000.0,99999,,(1908.2222818112775+0j),0.0,1116000606100702030301904000051000600007000080000
2739,ESPE,65.8753,20.1499,2024-05-03 00:20:00,,,,,-1.0,1021.0,(90.56988124445621+0j),-2.0,1.0,310.0,10000.0,99999,,(-932.7301187555438+0j),0.0,1116003101110102120302104000051000600007000080000
2740,ESIA,58.5138,14.5071,2024-05-03 00:20:00,,,,,6.0,1019.0,(3295.9144536413287+0j),3.0,7.0,70.0,10000.0,99999,,(2275.214453641329+0j),0.0,1116000707100602030301904000051000600007000080000
2741,ESCM,59.8973,17.5886,2024-05-03 00:20:00,,,,,3.0,1021.0,(1926.8759489878034+0j),2.0,2.0,360.0,10000.0,99999,,(904.4759489878035+0j),0.0,1116003602100302020302104000051000600007000080000
2744,ESNV,64.5791,16.8336,2024-05-03 00:20:00,,,,,-1.0,1020.0,(57.89088469419426+0j),-3.0,0.0,0.0,10000.0,99999,,(-964.2091153058058+0j),0.0,1116000000110102130302004000051000600007000080000
2746,ESST,60.1576,12.9913,2024-05-03 00:20:00,,,,,5.0,1021.0,(4721.214601928864+0j),2.0,3.0,320.0,10000.0,99999,,0j,0.0,1116003203100502020302104000051000600007000080000
2747,ESUP,67.2456,23.0689,2024-05-03 00:20:00,10.0,36.0,+,yellow,2.0,1022.0,(13.675291457998988+0j),2.0,2.0,,1900.0,99999,,(-1011.1247085420009+0j),0.0,1111003602100202020302204000051000600007100080000
2748,ESND,62.0478,14.4229,2024-05-03 00:20:00,,,,,2.0,1020.0,(21.95577648496358+0j),1.0,3.0,200.0,10000.0,99999,,(-1000.4442235150364+0j),0.0,1116002003100202010302004000051000600007000080000
2778,LIMZ,44.547,7.62322,2024-05-03 00:20:00,,,,,9.0,1010.0,(7871.016952866429+0j),8.0,5.0,220.0,10000.0,99999,,0j,0.0,1116002205100902080301004000051000600007000080000
2787,LICB,36.9946,14.60718,2024-05-03 00:20:00,,,,,14.0,1017.0,(2947.4980808419623+0j),12.0,2.0,,10000.0,99999,,(1929.6980808419623+0j),0.0,11160036021014020120301704000051000600007000080000
2789,LIPO,45.4289,10.3306,2024-05-03 00:20:00,,,,,9.0,1009.0,(2678.4072210117115+0j),9.0,2.0,100.0,7000.0,99999,,0j,0.0,1114001002100902090300904000051000600007000080000
2790,EEKE,58.2299,22.5095,2024-05-03 00:20:00,,,,,11.0,1020.0,(1064.7710841591463+0j),4.0,7.0,90.0,10000.0,99999,,(43.27108415914631+0j),0.0,1116000907101102040302004000051000600007000080000
2792,EEPU,58.419,24.4728,2024-05-03 00:20:00,,,,,8.0,1021.0,(1234.5170743436547+0j),2.0,6.0,90.0,10000.0,99999,,0j,0.0,1116000906100802020302104000051000600007000080000
2821,EDBC,51.8564,11.4203,2024-05-03 00:20:00,,,,,15.0,1004.0,(2672.590566840136+0j),11.0,9.0,140.0,10000.0,99999,,(1670.4905668401361+0j),0.0,11160014091015020110300404000051000600007000080000
2991,EDJA,47.9888,10.2395,2024-05-03 00:20:00,,,,,9.0,1010.0,(11.950885417797055+0j),6.0,10.0,230.0,10000.0,99999,,0j,0.0,1116002310100902060301004000051000600007000080000
2998,EDTY,49.11833,9.78389,2024-05-03 00:20:00,,,,,11.0,1008.0,(6712.064268028064+0j),9.0,8.0,240.0,10000.0,99999,,(5705.664268028065+0j),0.0,1116002408101102090300804000051000600007000080000
3002,EDWE,53.39111,7.2275,2024-05-03 00:20:00,,,,,16.0,1001.0,(1007.4222310868707+0j),12.0,7.0,60.0,10000.0,99999,,(4.622231086870784+0j),0.0,11160006071016020120300104000051000600007000080000
3005,EKBI,55.7403,9.15178,2024-05-03 00:20:00,,,,,14.0,1009.0,(1688.358109877512+0j),8.0,15.0,70.0,10000.0,99999,,(679.3581098775121+0j),0.0,1116000715101402080300904000051000600007000080000
3006,EKCH,55.6179,12.656,2024-05-03 00:20:00,,,,,13.0,1010.0,(1055.5614803817753+0j),8.0,16.0,70.0,10000.0,99999,,(44.66148038177528+0j),0.0,1116000716101302080301004000051000600007000080000
3007,EKEB,55.5259,8.5534,2024-05-03 00:20:00,,,,,14.0,1007.0,(1257.0671165306865+0j),8.0,17.0,70.0,10000.0,99999,,(248.46711653068644+0j),0.0,1116000717101402080300704000051000600007000080000
3009,EKRK,55.5856,12.1314,2024-05-03 00:20:00,,,,,14.0,1010.0,(1395.8661657923938+0j),7.0,11.0,80.0,10000.0,99999,,(384.6661657923937+0j),0.0,1116000811101402070301004000051000600007000080000
3010,EKRN,55.0633,14.7596,2024-05-03 00:20:00,,,,,13.0,1009.0,(1150.8709352677627+0j),7.0,9.0,60.0,10000.0,99999,,(139.97093526776268+0j),0.0,1116000609101302070300904000051000600007000080000
3011,EKSB,54.9644,9.79173,2024-05-03 00:20:00,,,,,13.0,1007.0,(1071.3776217612794+0j),8.0,17.0,90.0,10000.0,99999,,(64.6776217612794+0j),0.0,1116000917101302080300704000051000600007000080000
3014,EKVD,55.4363,9.33092,2024-05-03 00:20:00,,,,,14.0,1008.0,(1384.6990518858097+0j),8.0,12.0,70.0,10000.0,99999,,(376.7990518858097+0j),0.0,1116000712101402080300804000051000600007000080000
3016,LOWG,46.9911,15.4396,2024-05-03 00:20:00,61.0,36.0,^,green,12.0,1007.0,(5403.2034653692845+0j),10.0,5.0,30.0,10000.0,99999,,(4395.903465369284+0j),0.0,11160003051012020100300704000051000600007610080000
3017,LOWI,47.2602,11.344,2024-05-03 00:20:00,,,,,11.0,1008.0,(9.417431594186823+0j),5.0,1.0,,10000.0,99999,,(-995.7825684058132+0j),0.0,1116003601101102050300804000051000600007000080000
3018,LOWK,46.6425,14.3377,2024-05-03 00:20:00,,,,,10.0,1008.0,(8161.955152766137+0j),7.0,2.0,,10000.0,99999,,(7153.255152766137+0j),0.0,1116003602101002070300804000051000600007000080000
3019,LOWL,48.2332,14.1875,2024-05-03 00:20:00,,,,,14.0,1007.0,(4202.346560444954+0j),9.0,11.0,260.0,10000.0,99999,,(3198.446560444954+0j),0.0,1116002611101402090300704000051000600007000080000
3020,LOWS,47.7933,13.0043,2024-05-03 00:20:00,,,,,13.0,1008.0,(6220.597689962537+0j),7.0,14.0,300.0,10000.0,99999,,(5215.397689962537+0j),0.0,1116003014101302070300804000051000600007000080000
3021,LOWW,48.1103,16.5697,2024-05-03 00:20:00,,,,,13.0,1006.0,(2996.8136695974576+0j),11.0,5.0,130.0,10000.0,99999,,(1989.7136695974577+0j),0.0,11160013051013020110300604000051000600007000080000
3024,EFIV,68.6073,27.4053,2024-05-03 00:20:00,71.0,36.0,h,magenta,0.0,1023.0,(39.120198683857666+0j),-0.0,2.0,,10000.0,99999,,(-986.7798013161424+0j),0.0,1116003602100002100302304000051000600007710080000
3025,EFJY,62.3995,25.6783,2024-05-03 00:20:00,,,,,6.0,1021.0,(4610.366849175431+0j),4.0,1.0,,10000.0,99999,,(3587.4668491754305+0j),0.0,1116003601100602040302104000051000600007000080000
3026,EFKE,65.7787,24.5821,2024-05-03 00:20:00,,,,,5.0,1022.0,(1483.6180388627158+0j),3.0,4.0,110.0,10000.0,99999,,(459.4180388627158+0j),0.0,1116001104100502030302204000051000600007000080000
3027,EFKK,63.7212,23.1431,2024-05-03 00:20:00,,,,,3.0,1022.0,(2169.8123838025713+0j),1.0,1.0,,10000.0,99999,,(1147.1123838025712+0j),0.0,1116003601100302010302204000051000600007000080000
3029,EFMA,60.1222,19.8982,2024-05-03 00:20:00,,,,,6.0,1021.0,(1121.8728332613184+0j),2.0,2.0,,10000.0,99999,,(99.37283326131842+0j),0.0,1116003602100602020302104000051000600007000080000
3030,EFOU,64.9301,25.3546,2024-05-03 00:20:00,,,,,5.0,1022.0,(1371.7349271571081+0j),2.0,7.0,120.0,10000.0,99999,,(348.1349271571081+0j),0.0,1116001207100502020302204000051000600007000080000
3031,EFPO,61.4617,21.8,2024-05-03 00:20:00,,,,,8.0,1021.0,(1220.3935494400255+0j),3.0,3.0,300.0,10000.0,99999,,(197.39354944002548+0j),0.0,1116003003100802030302104000051000600007000080000
3032,EFRO,66.5648,25.8304,2024-05-03 00:20:00,45.0,36.0,N,yellow,2.0,1022.0,(15.434012897031998+0j),2.0,4.0,90.0,550.0,99999,,(-1010.2659871029681+0j),0.0,1110000904100202020302204000051000600007450080000
3033,EFTP,61.4141,23.6044,2024-05-03 00:20:00,,,,,8.0,1021.0,(3171.7581724762344+0j),3.0,3.0,190.0,10000.0,99999,,(2149.3581724762344+0j),0.0,1116001903100802030302104000051000600007000080000
3034,EFTU,60.5141,22.2628,2024-05-03 00:20:00,,,,,5.0,1021.0,(2363.058556379866+0j),3.0,0.0,0.0,10000.0,99999,,(1340.3585563798658+0j),0.0,1116000000100502030302104000051000600007000080000
3035,EFVA,63.0507,21.7622,2024-05-03 00:20:00,,,,,7.0,1021.0,(1117.5542991435984+0j),3.0,2.0,160.0,10000.0,99999,,(94.75429914359847+0j),0.0,1116001602100702030302104000051000600007000080000
3037,ENBR,60.2934,5.21814,2024-05-03 00:20:00,,,,,12.0,1017.0,(1556.4774458996553+0j),5.0,0.0,0.0,10000.0,99999,,0j,0.0,1116000000101202050301704000051000600007000080000
3038,ENCN,58.2042,8.08537,2024-05-03 00:20:00,,,,,14.0,1016.0,(1161.476935773591+0j),2.0,13.0,60.0,10000.0,99999,,(145.27693577359105+0j),0.0,1116000613101402020301604000051000600007000080000
3040,ENHD,59.3453,5.20836,2024-05-03 00:20:00,,,,,16.0,1015.0,(1208.556050938332+0j),-1.0,14.0,80.0,10000.0,99999,,(191.85605093833192+0j),0.0,1116000814101602110301504000051000600007000080000
3043,ENVA,63.4578,10.924,2024-05-03 00:20:00,,,,,7.0,1020.0,(1314.4757948795925+0j),4.0,5.0,100.0,10000.0,99999,,(293.4757948795925+0j),0.0,1116001005100702040302004000051000600007000080000
3044,ENZV,58.8767,5.63778,2024-05-03 00:20:00,,,,,16.0,1015.0,(1078.690981130233+0j),2.0,7.0,50.0,10000.0,99999,,0j,0.0,1116000507101602020301504000051000600007000080000
3047,LGIR,35.3397,25.1803,2024-05-03 00:20:00,,,,,16.0,1012.0,(1273.1357930568627+0j),14.0,4.0,170.0,10000.0,99999,,(261.13579305686267+0j),0.0,11160017041016020140301204000051000600007000080000
3048,LGKL,37.0683,22.0255,2024-05-03 00:20:00,,,,,17.0,1014.0,(1067.5823228083523+0j),15.0,7.0,20.0,10000.0,99999,,(53.78232280835232+0j),0.0,11160002071017020150301404000051000600007000080000
3049,LGKR,39.6019,19.9117,2024-05-03 00:20:00,,,,,16.0,1012.0,(1025.0033910538837+0j),14.0,0.0,0.0,10000.0,99999,,(11.703391053883706+0j),0.0,11160000001016020140301204000051000600007000080000
3050,LGRP,36.4054,28.0862,2024-05-03 00:20:00,,,,,19.0,1008.0,(1039.0196834309231+0j),16.0,12.0,250.0,10000.0,99999,,(30.519683430923124+0j),0.0,11160025121019020160300804000051000600007000080000
3053,LGTS,40.5197,22.9709,2024-05-03 00:20:00,,,,,14.0,1009.0,(1063.799309013131+0j),14.0,2.0,,10000.0,99999,,(53.399309013131074+0j),0.0,11160036021014020140300904000051000600007000080000
3064,LIMJ,44.4133,8.8375,2024-05-03 00:20:00,,,,,12.0,1009.0,(1046.6465207609972+0j),9.0,4.0,30.0,10000.0,99999,,(36.746520760997214+0j),0.0,1116000304101202090300904000051000600007000080000
3066,LIPE,44.5354,11.2887,2024-05-03 00:20:00,,,,,11.0,1009.0,(1424.2032187763532+0j),6.0,7.0,200.0,10000.0,99999,,(414.8032187763532+0j),0.0,1116002007101102060300904000051000600007000080000
3069,LIPR,44.0203,12.6117,2024-05-03 00:20:00,,,,,9.0,1010.0,(1168.2674674771306+0j),7.0,3.0,190.0,10000.0,99999,,(158.46746747713064+0j),0.0,1116001903100902070301004000051000600007000080000
3071,LIPZ,45.5053,12.3519,2024-05-03 00:20:00,,,,,12.0,1009.0,(1029.1981092264994+0j),11.0,7.0,10.0,10000.0,99999,,(19.8981092264994+0j),0.0,11160001071012020110300904000051000600007000080000
3077,LICD,35.4979,12.6181,2024-05-03 00:20:00,,,,,17.0,1018.0,(1165.464375795007+0j),13.0,8.0,360.0,10000.0,99999,,(145.96437579500707+0j),0.0,11160036081017020130301804000051000600007000080000
3080,LIRZ,43.0959,12.5132,2024-05-03 00:20:00,,,,,11.0,1011.0,(3882.9408357882994+0j),9.0,8.0,150.0,10000.0,99999,,(2871.1408357882992+0j),1.1,1116001508101102090301104000051000601107000080000
3081,ENAL,62.5625,6.1197,2024-05-03 00:20:00,,,,,8.0,1019.0,(1337.421002575528+0j),6.0,10.0,70.0,10000.0,99999,,(317.6210025755281+0j),0.0,1116000710100802060301904000051000600007000080000
3087,ENDU,69.0558,18.5404,2024-05-03 00:20:00,45.0,36.0,N,yellow,4.0,1021.0,(3902.429472966842+0j),3.0,0.0,0.0,900.0,99999,,0j,0.0,1110000000100402030302104000051000600007450080000
3102,ENRO,62.5784,11.3423,2024-05-03 00:20:00,,,,,-0.0,1021.0,(39.0437173570075+0j),-1.0,0.0,0.0,10000.0,99999,,(-982.9562826429925+0j),0.0,1116000000110002110302104000051000600007000080000
3104,ENRY,59.3789,10.7856,2024-05-03 00:20:00,,,,,12.0,1019.0,(1573.2960530018138+0j),1.0,5.0,50.0,10000.0,99999,,0j,0.0,1116000505101202010301904000051000600007000080000
3110,ENTO,59.1867,10.2586,2024-05-03 00:20:00,,,,,10.0,1019.0,(2191.0054972383828+0j),2.0,4.0,20.0,10000.0,99999,,0j,0.0,1116000204101002020301904000051000600007000080000
3113,ESGG,57.6628,12.2798,2024-05-03 00:20:00,,,,,10.0,1015.0,(3246.017616805136+0j),-2.0,10.0,60.0,10000.0,99999,,(2229.817616805136+0j),0.0,1116000610101002120301504000051000600007000080000
3114,ESGJ,57.7576,14.0687,2024-05-03 00:20:00,,,,,5.0,1017.0,(8294.084469634612+0j),2.0,7.0,20.0,10000.0,99999,,(7276.1844696346125+0j),0.0,1116000207100502020301704000051000600007000080000
3115,ESGP,57.7747,11.8704,2024-05-03 00:20:00,,,,,10.0,1015.0,(1228.2006584444928+0j),-0.0,6.0,50.0,10000.0,99999,,(212.60065844449275+0j),0.0,1116000506101002100301504000051000600007000080000
3116,ESKN,58.7886,16.9122,2024-05-03 00:20:00,,,,,6.0,1020.0,(1954.5819903474858+0j),1.0,5.0,60.0,10000.0,99999,,(932.8819903474857+0j),0.0,1116000605100602010302004000051000600007000080000
3117,ESMK,55.9217,14.0855,2024-05-03 00:20:00,,,,,13.0,1012.0,(1222.5558049172598+0j),8.0,8.0,30.0,10000.0,99999,,(209.55580491725982+0j),0.0,1116000308101302080301204000051000600007000080000
3118,ESMS,55.53631,13.3762,2024-05-03 00:20:00,,,,,12.0,1010.0,(1776.0451367915728+0j),7.0,17.0,70.0,10000.0,99999,,(764.6451367915728+0j),0.0,1116000717101202070301004000051000600007000080000
3119,ESMX,56.9291,14.728,2024-05-03 00:20:00,,,,,8.0,1015.0,(4570.163393040844+0j),3.0,8.0,30.0,10000.0,99999,,(3553.863393040844+0j),0.0,1116000308100802030301504000051000600007000080000
3120,ESNN,62.5281,17.4439,2024-05-03 00:20:00,,,,,4.0,1021.0,(1164.5582010984992+0j),2.0,2.0,,10000.0,99999,,(142.75820109849928+0j),0.0,1116003602100402020302104000051000600007000080000
3121,ESNO,63.4083,18.99,2024-05-03 00:20:00,,,,,0.0,1020.0,(39.00547669358242+0j),-1.0,3.0,300.0,10000.0,99999,,(-982.8945233064176+0j),0.0,1116003003100002110302004000051000600007000080000
3122,ESNQ,67.822,20.3368,2024-05-03 00:20:00,,,,,1.0,1020.0,(30.40338814135481+0j),0.0,2.0,290.0,10000.0,99999,,(-993.0966118586452+0j),0.0,1116002902100102000302004000051000600007000080000
3123,ESNS,64.6248,21.0769,2024-05-03 00:20:00,,,,,2.0,1021.0,(4715.933504236548+0j),2.0,0.0,0.0,10000.0,99999,,(3693.533504236548+0j),0.0,1116000000100202020302104000051000600007000080000
3124,ESNU,63.7918,20.2828,2024-05-03 00:20:00,,,,,1.0,1021.0,(1986.2620221352122+0j),-0.0,3.0,160.0,10000.0,99999,,(963.5620221352121+0j),0.0,1116001603100102100302104000051000600007000080000
3125,ESOK,59.4447,13.3374,2024-05-03 00:20:00,,,,,9.0,1020.0,(2691.3920350745166+0j),2.0,4.0,70.0,10000.0,99999,,(1670.2920350745167+0j),0.0,1116000704100902020302004000051000600007000080000
3126,ESOW,59.5894,16.6336,2024-05-03 00:20:00,,,,,4.0,1021.0,(1211.014186006555+0j),1.0,5.0,20.0,10000.0,99999,,(188.41418600655504+0j),0.0,1116000205100402010302104000051000600007000080000
3129,ESSB,59.3544,17.9417,2024-05-03 00:20:00,,,,,7.0,1021.0,(1266.361641754221+0j),1.0,2.0,,10000.0,99999,,(244.561641754221+0j),0.0,1116003602100702010302104000051000600007000080000
3130,ESSD,60.422,15.5152,2024-05-03 00:20:00,,,,,5.0,1021.0,(5883.83603655902+0j),2.0,2.0,240.0,10000.0,99999,,(4861.93603655902+0j),0.0,1116002402100502020302104000051000600007000080000
3131,ESSP,58.5863,16.2506,2024-05-03 00:20:00,,,,,4.0,1019.0,(1313.1870931199066+0j),1.0,2.0,50.0,10000.0,99999,,(292.18709311990665+0j),0.0,1116000502100402010301904000051000600007000080000
3132,ESSV,57.6628,18.3462,2024-05-03 00:20:00,,,,,9.0,1017.0,(1726.3901565049084+0j),3.0,12.0,100.0,10000.0,99999,,(707.2901565049084+0j),0.0,1116001012100902030301704000051000600007000080000
3133,LSGC,47.0839,6.79284,2024-05-03 00:20:00,61.0,36.0,^,green,4.0,1012.0,(25.36101085791148+0j),4.0,12.0,280.0,3300.0,99999,,(-987.3389891420886+0j),1.7,1112002812100402040301204000051000601707610080000
3134,LSGG,46.2381,6.10895,2024-05-03 00:20:00,61.0,36.0,^,green,8.0,1014.0,(9.618222447023015+0j),7.0,3.0,,10000.0,99999,,(-1005.3817775529769+0j),2.0,1116003603100802070301404000051000602007610080000
3135,LSGS,46.2196,7.32676,2024-05-03 00:20:00,61.0,36.0,^,green,9.0,1013.0,(9.59647475045283+0j),7.0,5.0,250.0,10000.0,99999,,(-1002.8035252495472+0j),0.7,1116002505100902070301304000051000600707610080000
3136,LSZA,46.0043,8.91058,2024-05-03 00:20:00,61.0,36.0,^,green,10.0,1010.0,(5345.20819149382+0j),9.0,4.0,20.0,10000.0,99999,,(4334.80819149382+0j),0.0,1116000204101002090301004000051000600007610080000
3137,LSZB,46.9141,7.49715,2024-05-03 00:20:00,,,,,9.0,1013.0,(10.051225946833018+0j),5.0,5.0,230.0,10000.0,99999,,(-1002.848774053167+0j),0.8,1116002305100902050301304000051000600807000080000
3138,LSZG,47.1816,7.41719,2024-05-03 00:20:00,53.0,36.0,V,green,8.0,1012.0,(9.599251594070306+0j),8.0,13.0,230.0,10000.0,99999,,(-1003.3007484059297+0j),1.8,1116002313100802080301204000051000601807530080000
3139,LSZH,47.4647,8.54917,2024-05-03 00:20:00,53.0,36.0,V,green,9.0,1012.0,(8697.832595222133+0j),7.0,8.0,250.0,10000.0,99999,,(7686.032595222133+0j),1.0,1116002508100902070301204000051000601007530080000
3140,LSZL,46.1608,8.87861,2024-05-03 00:20:00,80.0,36.0,q,green,9.0,1010.0,(4337.776329421926+0j),9.0,0.0,0.0,10000.0,99999,,(3326.8763294219257+0j),0.0,1116000000100902090301004000051000600007800080000
3141,LSZR,47.485,9.56077,2024-05-03 00:20:00,61.0,36.0,^,green,10.0,1011.0,(7369.048262184242+0j),9.0,2.0,,10000.0,99999,,(6360.048262184242+0j),0.0,1116003602101002090301104000051000600007610080000
3142,LSZS,46.5341,9.88411,2024-05-03 00:20:00,71.0,36.0,h,magenta,1.0,1009.0,(35.94909569451701+0j),1.0,1.0,310.0,10000.0,99999,,(-973.050904305483+0j),0.8,1116003101100102010300904000051000600807710080000
3143,EGAA,54.6575,-6.21583,2024-05-03 00:20:00,,,,,9.0,1007.0,(2218.9570198954802+0j),8.0,13.0,70.0,10000.0,99999,,(1211.6570198954803+0j),0.0,1116000713100902080300704000051000600007000080000
3144,EGCC,53.3537,-2.27495,2024-05-03 00:20:00,,,,,10.0,1005.0,(2030.458706545684+0j),8.0,6.0,50.0,10000.0,99999,,(1024.858706545684+0j),0.0,1116000506101002080300504000051000600007000080000
3145,EGFF,51.3967,-3.34333,2024-05-03 00:20:00,,,,,10.0,1008.0,(1873.2385890354885+0j),7.0,13.0,280.0,10000.0,99999,,(866.1385890354885+0j),0.0,1116002813101002070300804000051000600007000080000
3146,EGGD,51.3827,-2.71909,2024-05-03 00:20:00,,,,,9.0,1007.0,(4163.751064088693+0j),9.0,13.0,260.0,10000.0,99999,,(3156.651064088693+0j),0.0,1116002613100902090300704000051000600007000080000
3150,EGKK,51.1481,-0.19028,2024-05-03 00:20:00,,,,,10.0,1006.0,(1791.8245616906609+0j),8.0,9.0,250.0,10000.0,99999,,(786.1245616906608+0j),0.3,1116002509101002080300604000051000600307000080000
3151,EGLF,51.2758,-0.77633,2024-05-03 00:20:00,,,,,10.0,1006.0,(1948.2684421256533+0j),7.0,11.0,250.0,10000.0,99999,,(943.6684421256533+0j),0.0,1116002511101002070300604000051000600007000080000
3152,EGLL,51.4706,-0.46194,2024-05-03 00:20:00,,,,,10.0,1006.0,(1307.8966486332542+0j),8.0,11.0,260.0,10000.0,99999,,(302.5966486332543+0j),0.0,1116002611101002080300604000051000600007000080000
3153,EGMD,50.9561,0.93917,2024-05-03 00:20:00,,,,,12.0,1006.0,(1043.5345885882687+0j),9.0,12.0,260.0,10000.0,99999,,0j,0.0,1116002612101202090300604000051000600007000080000
3154,EGNJ,53.5744,-0.35083,2024-05-03 00:20:00,,,,,10.0,1005.0,(1454.9547512167314+0j),8.0,9.0,350.0,10000.0,99999,,(450.3547512167314+0j),0.0,1116003509101002080300504000051000600007000080000
3155,EGNM,53.8659,-1.66057,2024-05-03 00:20:00,,,,,8.0,1005.0,(4986.790919200887+0j),7.0,10.0,360.0,8000.0,99999,,(3980.3909192008873+0j),0.0,1114003610100802070300504000051000600007000080000
3157,EGNX,52.8311,-1.32806,2024-05-03 00:20:00,,,,,11.0,1005.0,(2125.5018579053963+0j),9.0,7.0,360.0,10000.0,99999,,(1121.1018579053962+0j),0.0,1116003607101102090300504000051000600007000080000
3158,EGPA,58.9578,-2.905,2024-05-03 00:20:00,61.0,36.0,^,green,8.0,1016.0,(1242.590464719924+0j),7.0,3.0,10.0,10000.0,99999,,(226.19046471992408+0j),0.0,1116000103100802070301604000051000600007610080000
3159,EGPB,59.8789,-1.29556,2024-05-03 00:20:00,,,,,10.0,1016.0,(1086.442451172884+0j),7.0,17.0,50.0,10000.0,99999,,(69.3424511728839+0j),0.0,1116000517101002070301604000051000600007000080000
3161,EGPD,57.2019,-2.19778,2024-05-03 00:20:00,,,,,10.0,1012.0,(1858.852958579955+0j),6.0,6.0,350.0,10000.0,99999,,(844.8529585799549+0j),0.0,1116003506101002060301204000051000600007000080000
3165,EGTE,50.7344,-3.41389,2024-05-03 00:20:00,,,,,8.0,1009.0,(1486.8212358361882+0j),6.0,4.0,220.0,10000.0,99999,,(478.8212358361882+0j),0.0,1116002204100802060300904000051000600007000080000
3166,EGAC,54.6181,-5.8725,2024-05-03 00:20:00,,,,,9.0,1007.0,(1065.0446304884401+0j),8.0,4.0,50.0,10000.0,99999,,(57.544630488440134+0j),0.0,1116000504100902080300704000051000600007000080000
3167,EGGP,53.3336,-2.84972,2024-05-03 00:20:00,,,,,10.0,1006.0,(1296.4339702439902+0j),8.0,6.0,50.0,10000.0,99999,,0j,0.0,1116000506101002080300604000051000600007000080000
3168,EGGW,51.8747,-0.36833,2024-05-03 00:20:00,61.0,36.0,^,green,10.0,1005.0,(3314.010785590788+0j),10.0,9.0,240.0,4100.0,99999,,(2310.010785590788+0j),0.2,11120024091010020100300504000051000600207610080000
3169,EGLC,51.5053,0.05528,2024-05-03 00:20:00,,,,,11.0,1006.0,(1066.121513803062+0j),9.0,7.0,100.0,10000.0,99999,,(62.22151380306207+0j),0.1,1116001007101102090300604000051000600107000080000
3170,EGNT,55.0375,-1.69167,2024-05-03 00:20:00,,,,,7.0,1007.0,(2603.8946740948822+0j),7.0,7.0,360.0,8000.0,99999,,(1595.2946740948823+0j),0.0,1114003607100702070300704000051000600007000080000
3172,EGPE,57.5425,-4.0475,2024-05-03 00:20:00,,,,,9.0,1014.0,(1136.3055415914919+0j),7.0,2.0,50.0,10000.0,99999,,(121.4055415914919+0j),0.0,1116000502100902070301404000051000600007000080000
3173,EGPF,55.8719,-4.43306,2024-05-03 00:20:00,,,,,9.0,1010.0,(1111.7819997931288+0j),6.0,6.0,80.0,10000.0,99999,,(101.18199979312874+0j),0.0,1116000806100902060301004000051000600007000080000
3176,EGSS,51.885,0.235,2024-05-03 00:20:00,,,,,11.0,1005.0,(2299.953031674908+0j),11.0,8.0,270.0,2100.0,99999,,(1295.1530316749079+0j),0.2,11110027081011020110300504000051000600207000080000
3183,EDGS,50.7077,8.08297,2024-05-03 00:20:00,,,,,11.0,1004.0,(9.631397602567402+0j),11.0,6.0,270.0,10000.0,99999,,(-993.5686023974326+0j),0.7,11160027061011020110300404000051000600707000080000
3184,EDLV,51.6024,6.14217,2024-05-03 00:20:00,,,,,13.0,1003.0,(1298.4237430178434+0j),13.0,7.0,220.0,4500.0,99999,,0j,0.0,11120022071013020130300304000051000600007000080000
3190,ESGT,58.3181,12.345,2024-05-03 00:20:00,,,,,7.0,1018.0,(1786.0007535368838+0j),4.0,8.0,360.0,10000.0,99999,,(767.3007535368838+0j),0.0,1116003608100702040301804000051000600007000080000
3192,ESMQ,56.6855,16.2876,2024-05-03 00:20:00,,,,,7.0,1015.0,(1100.7114486485866+0j),4.0,7.0,350.0,10000.0,99999,,(83.91144864858666+0j),0.0,1116003507100702040301504000051000600007000080000
3193,ESMT,56.6911,12.8202,2024-05-03 00:20:00,,,,,12.0,1013.0,(1321.496703920301+0j),5.0,14.0,50.0,10000.0,99999,,(307.5967039203009+0j),0.0,1116000514101202050301304000051000600007000080000
3194,ESNG,67.1324,20.8146,2024-05-03 00:20:00,,,,,2.0,1021.0,(20.508825945248294+0j),-0.0,2.0,90.0,10000.0,99999,,(-1002.9911740547517+0j),0.0,1116000902100202100302104000051000600007000080000
3195,ESNK,63.0486,17.7689,2024-05-03 00:20:00,,,,,3.0,1021.0,(1447.21898669408+0j),2.0,1.0,180.0,10000.0,99999,,(425.8189866940801+0j),0.0,1116001801100302020302104000051000600007000080000
3196,ESNL,64.5483,18.7162,2024-05-03 00:20:00,,,,,-1.0,1020.0,(77.51928578448657+0j),-2.0,0.0,0.0,10000.0,99999,,0j,0.0,1116000000110102120302004000051000600007000080000
3197,ESNX,65.5903,19.2819,2024-05-03 00:20:00,,,,,-0.0,1020.0,(39.00547669358242+0j),-1.0,2.0,310.0,10000.0,99999,,0j,0.0,1116003102110002110302004000051000600007000080000
3198,ESOE,59.2237,15.038,2024-05-03 00:20:00,,,,,6.0,1020.0,(2320.086702426678+0j),3.0,8.0,10.0,10000.0,99999,,(1298.186702426678+0j),0.0,1116000108100602030302004000051000600007000080000
3199,ESSL,58.4062,15.6805,2024-05-03 00:20:00,,,,,5.0,1019.0,(2462.3779016962862+0j),2.0,3.0,90.0,10000.0,99999,,(1441.4779016962862+0j),0.0,1116000903100502020301904000051000600007000080000
3200,ESTA,56.2961,12.8471,2024-05-03 00:20:00,,,,,13.0,1011.0,(1198.4398998050608+0j),6.0,18.0,90.0,10000.0,99999,,(185.9398998050608+0j),0.0,1116000918101302060301104000051000600007000080000
3201,ESTL,56.0828,13.2125,2024-05-03 00:20:00,,,,,13.0,1012.0,(1412.0815470380655+0j),6.0,6.0,70.0,10000.0,99999,,(399.58154703806554+0j),0.0,1116000706101302060301204000051000600007000080000
3202,ESUT,65.8061,15.0828,2024-05-03 00:20:00,,,,,-2.0,1020.0,(73.71396701513456+0j),-2.0,2.0,150.0,10000.0,99999,,(-948.1860329848654+0j),0.0,1116001502110202120302004000051000600007000080000
3206,EETN,59.4133,24.8328,2024-05-03 00:20:00,,,,,5.0,1021.0,(2085.457828296475+0j),-1.0,5.0,90.0,10000.0,99999,,(1062.9578282964749+0j),0.0,1116000905100502110302104000051000600007000080000
3207,EETU,58.3075,26.6904,2024-05-03 00:20:00,,,,,5.0,1022.0,(2927.2183565882815+0j),2.0,2.0,100.0,10000.0,99999,,(1905.6183565882816+0j),0.0,1116001002100502020302204000051000600007000080000
3208,EFHK,60.3172,24.9633,2024-05-03 00:20:00,,,,,2.0,1022.0,(5302.832679483072+0j),1.0,0.0,0.0,10000.0,99999,,(4280.032679483072+0j),0.0,1116000000100202010302204000051000600007000080000
3210,EVLA,56.5175,21.0969,2024-05-03 00:20:00,,,,,9.0,1016.0,(1078.5169837741942+0j),4.0,8.0,70.0,10000.0,99999,,(61.51698377419416+0j),0.0,1116000708100902040301604000051000600007000080000
3211,EVRA,56.9236,23.9711,2024-05-03 00:20:00,,,,,10.0,1019.0,(1147.5968410364826+0j),2.0,5.0,100.0,10000.0,99999,,0j,0.0,1116001005101002020301904000051000600007000080000
3212,EYKA,54.9639,24.0848,2024-05-03 00:20:00,,,,,10.0,1016.0,(2048.1790923200633+0j),4.0,8.0,90.0,10000.0,99999,,0j,0.0,1116000908101002040301604000051000600007000080000
3213,EYPA,55.9732,21.0939,2024-05-03 00:20:00,,,,,13.0,1015.0,(1104.6588326917276+0j),3.0,9.0,90.0,10000.0,99999,,(88.75883269172766+0j),0.0,1116000909101302030301504000051000600007000080000
3214,EYVI,54.6341,25.2858,2024-05-03 00:20:00,,,,,11.0,1017.0,(3666.582894527839+0j),2.0,6.0,100.0,10000.0,99999,,(2649.382894527839+0j),0.0,1116001006101102020301704000051000600007000080000
3234,ENAT,69.9761,23.3717,2024-05-03 00:20:00,,,,,4.0,1022.0,(1101.8564981036834+0j),1.0,4.0,150.0,10000.0,99999,,(77.8564981036834+0j),0.0,1116001504100402010302204000051000600007000080000
3235,ENBS,70.6005,29.6914,2024-05-03 00:20:00,,,,,-3.0,1025.0,(4335082.9303106945+0j),-5.0,7.0,170.0,10000.0,99999,,(4334055.230310694+0j),0.0,1116001707110302150302504000051000600007000080000
3236,ENHF,70.6797,23.6686,2024-05-03 00:20:00,,,,,3.0,1021.0,(5253.559826357046+0j),1.0,4.0,260.0,10000.0,99999,,0j,0.0,1116002604100302010302104000051000600007000080000
3237,ENKR,69.7258,29.8913,2024-05-03 00:20:00,,,,,-2.0,1025.0,(-162307957.35073122-169646385.02447024j),-6.0,6.0,130.0,10000.0,99999,,0j,0.0,1116001306110202160302504000051000600007000080000
3238,ENMS,65.784,13.2149,2024-05-03 00:20:00,,,,,4.0,1021.0,(3708.0018679970763+0j),1.0,3.0,210.0,10000.0,99999,,0j,0.0,1116002103100402010302104000051000600007000080000
3239,ENOV,62.18,6.0741,2024-05-03 00:20:00,,,,,7.0,1018.0,(2474.892110268939+0j),5.0,0.0,0.0,10000.0,99999,,0j,0.0,1116000000100702050301804000051000600007000080000
3240,ENRS,67.5278,12.1033,2024-05-03 00:20:00,,,,,6.0,1020.0,(1061.0089465641909+0j),5.0,4.0,240.0,10000.0,99999,,0j,0.0,1116002404100602050302004000051000600007000080000
3241,ENSD,61.83,6.10583,2024-05-03 00:20:00,,,,,12.0,1018.0,(1648.1076389009572+0j),6.0,0.0,0.0,10000.0,99999,,0j,0.0,1116000000101202060301804000051000600007000080000
3242,ENSG,61.1561,7.13778,2024-05-03 00:20:00,,,,,8.0,1019.0,(1019+0j),4.0,4.0,80.0,10000.0,99999,,(0.7000000000000455+0j),0.0,1116000804100802040301904000051000600007000080000
3243,ENSR,69.7868,20.9594,2024-05-03 00:20:00,,,,,5.0,1021.0,(1135.2173061648602+0j),2.0,11.0,150.0,10000.0,99999,,(113.11730616486022+0j),0.2,1116001511100502020302104000051000600207000080000
3244,ENSS,70.3554,31.0449,2024-05-03 00:20:00,,,,,-0.0,1025.0,(39.19668001070782+0j),-6.0,4.0,140.0,10000.0,99999,,(-988.6033199892921+0j),0.0,1116001404110002160302504000051000600007000080000
3245,ENVD,70.0653,29.8447,2024-05-03 00:20:00,,,,,-0.0,1025.0,(39.19668001070782+0j),-5.0,8.0,140.0,10000.0,99999,,0j,0.0,1116001408110002150302504000051000600007000080000
3248,ENRM,64.8383,11.1461,2024-05-03 00:20:00,,,,,2.0,1020.0,(1276.024702017431+0j),2.0,2.0,50.0,8000.0,99999,,(254.52470201743108+0j),0.0,1114000502100202020302004000051000600007000080000
3249,ENSK,68.57883,15.03342,2024-05-03 00:20:00,,,,,4.0,1019.0,(1116.6574592917918+0j),3.0,5.0,50.0,10000.0,99999,,(95.75745929179186+0j),0.0,1116000505100402030301904000051000600007000080000
3250,LGSA,35.5317,24.1497,2024-05-03 00:20:00,,,,,17.0,1011.0,(2184.0175124962634+0j),13.0,16.0,250.0,10000.0,99999,,(1171.7175124962635+0j),0.0,11160025161017020130301104000051000600007000080000
3251,LIBD,41.1389,16.7606,2024-05-03 00:20:00,,,,,13.0,1011.0,(1524.8150037490893+0j),6.0,10.0,220.0,10000.0,99999,,(512.1150037490893+0j),0.0,1116002210101302060301104000051000600007000080000
3253,LIBR,40.6576,17.947,2024-05-03 00:20:00,,,,,13.0,1012.0,(1140.27278174552+0j),10.0,4.0,270.0,10000.0,99999,,(127.47278174552002+0j),0.0,11160027041013020100301204000051000600007000080000
3255,LICC,37.4668,15.0664,2024-05-03 00:20:00,,,,,16.0,1016.0,(1102.1167141260917+0j),9.0,9.0,240.0,10000.0,99999,,(85.51671412609164+0j),0.0,1116002409101602090301604000051000600007000080000
3256,LICJ,38.176,13.091,2024-05-03 00:20:00,,,,,15.0,1017.0,(1172.2634458364146+0j),10.0,9.0,220.0,10000.0,99999,,(154.46344583641462+0j),0.0,11160022091015020100301704000051000600007000080000
3258,LIEA,40.6321,8.29077,2024-05-03 00:20:00,,,,,12.0,1016.0,(1280.553880467222+0j),9.0,3.0,240.0,10000.0,99999,,(263.65388046722194+0j),0.0,1116002403101202090301604000051000600007000080000
3259,LIEE,39.2515,9.05428,2024-05-03 00:20:00,,,,,11.0,1017.0,(1058.4238553442692+0j),9.0,5.0,30.0,10000.0,99999,,(40.423855344269214+0j),0.0,1116000305101102090301704000051000600007000080000
3260,LIEO,40.8987,9.51763,2024-05-03 00:20:00,,,,,14.0,1013.0,(1106.230233615905+0j),9.0,25.0,240.0,10000.0,99999,,(91.13023361590501+0j),0.0,1116002425101402090301304000051000600007000080000
3261,LIMC,45.6306,8.72811,2024-05-03 00:20:00,51.0,36.0,T,green,11.0,1009.0,(4208.67244997117+0j),10.0,1.0,,10000.0,99999,,(3198.67244997117+0j),0.0,11160036011011020100300904000051000600007510080000
3262,LIME,45.6739,9.70417,2024-05-03 00:20:00,,,,,11.0,1009.0,(4274.71240752179+0j),10.0,2.0,,10000.0,99999,,(3264.8124075217897+0j),0.0,11160036021011020100300904000051000600007000080000
3263,LIMF,45.2008,7.64963,2024-05-03 00:20:00,,,,,10.0,1010.0,(5731.8173878921025+0j),10.0,3.0,300.0,10000.0,99999,,(4721.717387892102+0j),0.0,11160030031010020100301004000051000600007000080000
3264,LIML,45.4451,9.27674,2024-05-03 00:20:00,,,,,9.0,1009.0,(2667.711368368543+0j),9.0,3.0,240.0,10000.0,99999,,(1658.711368368543+0j),0.0,1116002403100902090300904000051000600007000080000
3265,LIPH,45.6484,12.1944,2024-05-03 00:20:00,,,,,11.0,1009.0,(1200.9905828335286+0j),11.0,2.0,360.0,10000.0,99999,,(192.79058283352856+0j),0.0,11160036021011020110300904000051000600007000080000
3266,LIPQ,45.8275,13.4722,2024-05-03 00:20:00,,,,,10.0,1009.0,(1147.229806888431+0j),10.0,2.0,40.0,10000.0,99999,,(137.62980688843106+0j),1.1,11160004021010020100300904000051000601107000080000
3267,LIPX,45.3957,10.8885,2024-05-03 00:20:00,42.0,36.0,K,yellow,8.0,1009.0,(2227.8268009964218+0j),8.0,2.0,200.0,9000.0,99999,,(1217.6268009964217+0j),0.0,1115002002100802080300904000051000600007420080000
3269,LIRA,41.7994,12.5949,2024-05-03 00:20:00,,,,,12.0,1013.0,(2503.93901984056+0j),10.0,6.0,200.0,10000.0,99999,,(1489.83901984056+0j),0.0,11160020061012020100301304000051000600007000080000
3270,LIRF,41.8045,12.2508,2024-05-03 00:20:00,,,,,15.0,1012.0,(1046.8330585840463+0j),8.0,15.0,250.0,10000.0,99999,,(33.73305858404626+0j),0.0,1116002515101502080301204000051000600007000080000
3272,LIRP,43.6839,10.3927,2024-05-03 00:15:00,61.0,36.0,^,green,11.0,1010.0,(1028.9000633864957+0j),11.0,9.0,100.0,10000.0,99999,,(17.200063386495685+0j),0.5,11160010091011020110301004000051000600507610080000
3273,LIRQ,43.81,11.2051,2024-05-03 00:20:00,,,,,10.0,1010.0,(1547.1259125461268+0j),9.0,2.0,,10000.0,99999,,(535.0259125461267+0j),0.0,1116003602101002090301004000051000600007000080000
3279,EDDF,50.0264,8.54313,2024-05-03 00:20:00,,,,,12.0,1005.0,(2239.9837796627744+0j),11.0,8.0,180.0,10000.0,99999,,(1234.7837796627744+0j),0.5,11160018081012020110300504000051000600507000080000
3281,EDDH,53.6304,9.98823,2024-05-03 00:20:00,,,,,13.0,1004.0,(1147.958095531202+0j),10.0,10.0,60.0,10000.0,99999,,(143.95809553120193+0j),0.0,11160006101013020100300404000051000600007000080000
3282,EDDK,50.8659,7.14274,2024-05-03 00:20:00,61.0,36.0,^,green,12.0,1004.0,(2004.7374586511935+0j),11.0,12.0,250.0,10000.0,99999,,(1002.3374586511935+0j),0.7,11160025121012020110300404000051000600707610080000
3283,EDDL,51.2895,6.76678,2024-05-03 00:20:00,61.0,36.0,^,green,13.0,1003.0,(1420.69376931615+0j),12.0,14.0,260.0,10000.0,99999,,(418.6937693161501+0j),0.3,11160026141013020120300304000051000600307610080000
3284,EDDM,48.3538,11.7861,2024-05-03 00:20:00,,,,,11.0,1009.0,(7584.515671581585+0j),7.0,13.0,240.0,10000.0,99999,,(6578.615671581585+0j),0.0,1116002413101102070300904000051000600007000080000
3285,EDDN,49.4987,11.0669,2024-05-03 00:20:00,,,,,13.0,1007.0,(4753.478594094687+0j),9.0,10.0,230.0,10000.0,99999,,(3748.4785940946867+0j),0.0,1116002310101302090300704000051000600007000080000
3288,EDDS,48.6899,9.22196,2024-05-03 00:20:00,,,,,10.0,1008.0,(7195.851379054089+0j),8.0,7.0,190.0,10000.0,99999,,(6189.251379054089+0j),0.0,1116001907101002080300804000051000600007000080000
3289,EDDV,52.4611,9.68508,2024-05-03 00:20:00,,,,,17.0,1002.0,(1397.9509531778713+0j),11.0,5.0,100.0,10000.0,99999,,(395.5509531778713+0j),0.0,11160010051017020110300204000051000600007000080000
3292,EDFM,49.47306,8.51417,2024-05-03 00:20:00,,,,,12.0,1007.0,(2033.0112086728466+0j),11.0,8.0,190.0,5000.0,99999,,(1027.1112086728467+0j),0.0,11130019081012020110300704000051000600007000080000
3321,ESDF,56.2667,15.265,2024-05-03 00:20:00,,,,,10.0,1013.0,(1757.0201210389282+0j),5.0,13.0,50.0,10000.0,99999,,(742.1201210389282+0j),0.0,1116000513101002050301304000051000600007000080000
3322,ESKM,60.9579,14.5114,2024-05-03 00:20:00,,,,,3.0,1021.0,(11.259252375649085+0j),2.0,3.0,340.0,10000.0,99999,,(-1011.4407476243509+0j),0.0,1116003403100302020302104000051000600007000080000
3323,ESPA,65.5438,22.122,2024-05-03 00:20:00,,,,,-0.0,1021.0,(39.0437173570075+0j),-1.0,3.0,10.0,10000.0,99999,,(-983.7562826429925+0j),0.0,1116000103110002110302104000051000600007000080000
3326,EBCI,50.4592,4.45382,2024-05-03 00:20:00,61.0,36.0,^,green,9.0,1006.0,(4113.716742368027+0j),8.0,13.0,240.0,6000.0,99999,,(3107.2167423680266+0j),0.5,1113002413100902080300604000051000600507610080000
3327,EBLG,50.6374,5.44322,2024-05-03 00:20:00,61.0,36.0,^,green,10.0,1005.0,(3990.0628624240608+0j),9.0,12.0,240.0,8000.0,99999,,(2984.7628624240606+0j),0.5,1114002412101002090300504000051000600507610080000
3328,EBOS,51.1989,2.86222,2024-05-03 00:20:00,61.0,36.0,^,green,12.0,1005.0,(1042.497277864026+0j),10.0,15.0,250.0,7000.0,99999,,(37.59727786402607+0j),0.1,11140025151012020100300504000051000600107610080000
3329,EDAC,50.98195,12.50639,2024-05-03 00:20:00,,,,,13.0,1004.0,(3142.780328472959+0j),10.0,4.0,150.0,10000.0,99999,,(2135.9803284729587+0j),0.0,11160015041013020100300404000051000600007000080000
3330,EDAH,53.8787,14.1523,2024-05-03 00:20:00,,,,,18.0,1007.0,(1191.331514065386+0j),9.0,8.0,90.0,10000.0,99999,,(184.23151406538602+0j),0.0,1116000908101802090300704000051000600007000080000
3331,EDDB,52.36217,13.50067,2024-05-03 00:20:00,,,,,15.0,1005.0,(1387.837761486035+0j),10.0,6.0,80.0,10000.0,99999,,(383.53776148603515+0j),0.0,11160008061015020100300504000051000600007000080000
3332,EDDC,51.1328,13.7672,2024-05-03 00:20:00,,,,,16.0,1004.0,(3041.7295213132443+0j),10.0,9.0,140.0,10000.0,99999,,(2037.8295213132442+0j),0.0,11160014091016020100300404000051000600007000080000
3333,EDDE,50.9798,10.9581,2024-05-03 00:20:00,,,,,12.0,1004.0,(5044.692802956472+0j),11.0,6.0,200.0,10000.0,99999,,(4041.5928029564725+0j),0.0,11160020061012020110300404000051000600007000080000
3334,EDDG,52.1346,7.68483,2024-05-03 00:20:00,16.0,36.0,1,,15.0,1001.0,(1392.7219559530588+0j),13.0,10.0,240.0,8000.0,99999,,(390.52195595305875+0j),0.0,11140024101015020130300104000051000600007160080000
3335,EDDP,51.4324,12.2416,2024-05-03 00:20:00,,,,,13.0,1003.0,(2487.9698958675863+0j),11.0,6.0,90.0,10000.0,99999,,(1484.8698958675864+0j),0.0,11160009061013020110300304000051000600007000080000
3336,EDDR,49.2146,7.10951,2024-05-03 00:20:00,61.0,36.0,^,green,9.0,1008.0,(6684.655041902919+0j),9.0,15.0,250.0,10000.0,99999,,(5676.255041902919+0j),0.0,1116002515100902090300804000051000600007610080000
3337,EDDW,53.0475,8.78667,2024-05-03 00:20:00,,,,,18.0,1001.0,(1027.7549511795892+0j),11.0,9.0,80.0,10000.0,99999,,(25.154951179589148+0j),0.0,11160008091018020110300104000051000600007000080000
3338,EDFH,49.9487,7.26389,2024-05-03 00:20:00,61.0,36.0,^,green,9.0,1005.0,(9.846101717336134+0j),9.0,14.0,260.0,6000.0,99999,,(-996.5538982826638+0j),0.1,1113002614100902090300504000051000600107610080000
3339,EDHI,53.53528,9.83556,2024-05-03 00:20:00,,,,,16.0,1003.0,(1052.7832177000214+0j),11.0,6.0,70.0,10000.0,99999,,(49.58321770002135+0j),0.0,11160007061016020110300304000051000600007000080000
3340,EDHK,54.37944,10.14528,2024-05-03 00:20:00,,,,,10.0,1006.0,(1381.3932261428113+0j),7.0,11.0,70.0,10000.0,99999,,(375.6932261428112+0j),0.0,1116000711101002070300604000051000600007000080000
3341,EDLP,51.6141,8.61632,2024-05-03 00:20:00,,,,,14.0,1003.0,(3174.2671634175585+0j),12.0,4.0,270.0,10000.0,99999,,(2171.6671634175586+0j),0.0,11160027041014020120300304000051000600007000080000
3342,EDLW,51.5183,7.61224,2024-05-03 00:20:00,,,,,14.0,1002.0,(2234.385839662235+0j),13.0,4.0,250.0,7000.0,99999,,(1231.385839662235+0j),0.0,11140025041014020130300204000051000600007000080000
3345,EDVK,51.40833,9.3775,2024-05-03 00:20:00,,,,,14.0,1003.0,(3932.3123959327518+0j),12.0,4.0,200.0,10000.0,99999,,(2930.512395932752+0j),0.0,11160020041014020120300304000051000600007000080000
3346,EGJJ,49.2079,-2.19551,2024-05-03 00:20:00,,,,,10.0,1011.0,(2132.822981998753+0j),8.0,12.0,250.0,10000.0,99999,,(1122.8229819987532+0j),0.0,1116002512101002080301104000051000600007000080000
3347,EKSP,55.2256,9.26393,2024-05-03 00:20:00,,,,,13.0,1007.0,(1408.133912616155+0j),8.0,10.0,80.0,10000.0,99999,,(400.0339126161549+0j),0.0,1116000810101302080300704000051000600007000080000
3348,ELLX,49.6266,6.21152,2024-05-03 00:20:00,61.0,36.0,^,green,9.0,1007.0,(7665.666445503543+0j),8.0,15.0,250.0,7000.0,99999,,(6658.266445503544+0j),0.0,1114002515100902080300704000051000600007610080000
3355,EDSB,48.7794,8.0805,2024-05-03 00:20:00,,,,,11.0,1009.0,(2565.65056820436+0j),11.0,11.0,200.0,10000.0,99999,,(1557.6505682043598+0j),0.0,11160020111011020110300904000051000600007000080000
3359,ENBL,61.3911,5.75694,2024-05-03 00:20:00,,,,,13.0,1018.0,(4805.403385092742+0j),5.0,3.0,10.0,10000.0,99999,,(3786.6033850927415+0j),0.0,1116000103101302050301804000051000600007000080000
3360,ENBN,65.4611,12.2175,2024-05-03 00:20:00,,,,,6.0,1021.0,(1170.7095400617243+0j),4.0,2.0,,10000.0,99999,,0j,0.0,1116003602100602040302104000051000600007000080000
3361,ENBV,70.8714,29.0342,2024-05-03 00:20:00,,,,,-1.0,1025.0,(86.25271946981502+0j),-5.0,8.0,170.0,10000.0,99999,,(-940.5472805301849+0j),0.0,1116001708110102150302504000051000600007000080000
3362,ENEV,68.4913,16.6781,2024-05-03 00:20:00,,,,,4.0,1020.0,(1851.6389139457526+0j),2.0,0.0,0.0,10000.0,99999,,0j,0.0,1116000000100402020302004000051000600007000080000
3363,ENFL,61.5836,5.02472,2024-05-03 00:20:00,,,,,12.0,1017.0,(1126.5334371362949+0j),7.0,1.0,,10000.0,99999,,(108.53343713629488+0j),0.0,1116003601101202070301704000051000600007000080000
3364,ENHK,70.4867,22.1397,2024-05-03 00:20:00,,,,,4.0,1021.0,(1211.014186006555+0j),3.0,3.0,130.0,10000.0,99999,,(188.91418600655504+0j),0.0,1116001303100402030302104000051000600007000080000
3365,ENHV,71.0097,25.9836,2024-05-03 00:20:00,,,,,2.0,1023.0,(1901.1141632770882+0j),-2.0,7.0,150.0,10000.0,99999,,(876.5141632770883+0j),0.0,1116001507100202120302304000051000600007000080000
3366,ENML,62.7447,7.2625,2024-05-03 00:20:00,,,,,9.0,1019.0,(1058.0022789895647+0j),7.0,5.0,20.0,10000.0,99999,,(38.40227898956471+0j),0.0,1116000205100902070301904000051000600007000080000
3367,ENNA,70.0688,24.9735,2024-05-03 00:20:00,61.0,36.0,^,green,1.0,1023.0,(2035.1467580777796+0j),-0.0,8.0,180.0,10000.0,99999,,(1010.8467580777797+0j),0.0,1116001808100102100302304000051000600007610080000
3368,ENNM,64.4722,11.5786,2024-05-03 00:20:00,,,,,4.0,1021.0,(1082.8308106445675+0j),2.0,4.0,60.0,10000.0,99999,,(61.13081064456742+0j),0.0,1116000604100402020302104000051000600007000080000
3369,ENRA,66.3639,14.3014,2024-05-03 00:20:00,,,,,1.0,1021.0,(12.007498529920237+0j),-0.0,0.0,0.0,10000.0,99999,,0j,0.0,1116000000100102100302104000051000600007000080000
3371,EHWO,51.4491,4.34203,2024-05-03 00:21:00,61.0,36.0,^,green,12.0,1004.0,(1190.8503846724598+0j),11.0,12.0,250.0,4300.0,99999,,(187.4503846724598+0j),0.2,11120025121012020110300404000051000600207610080000
3373,EBAW,51.1894,4.46028,2024-05-03 00:20:00,61.0,36.0,^,green,12.0,1005.0,(1119.2235817875553+0j),10.0,10.0,250.0,9000.0,99999,,(114.62358178755528+0j),1.1,11150025101012020100300504000051000601107610080000
3374,EBBR,50.9014,4.48444,2024-05-03 00:20:00,61.0,36.0,^,green,11.0,1005.0,(1643.4217759073413+0j),10.0,13.0,250.0,7000.0,99999,,(639.2217759073412+0j),0.0,11140025131011020100300504000051000600007610080000
3375,EGPK,55.5094,-4.58667,2024-05-03 00:20:00,,,,,9.0,1009.0,(1270.6778445899533+0j),7.0,2.0,,10000.0,99999,,(261.67784458995334+0j),0.0,1116003602100902070300904000051000600007000080000
3376,EGPO,58.2156,-6.33111,2024-05-03 00:20:00,,,,,11.0,1013.0,(1096.2173766735993+0j),9.0,9.0,40.0,10000.0,99999,,(82.0173766735993+0j),0.0,1116000409101102090301304000051000600007000080000
3377,EKAH,56.3,10.619,2024-05-03 00:20:00,,,,,14.0,1011.0,(1221.7583958211624+0j),7.0,11.0,80.0,10000.0,99999,,(209.55839582116232+0j),0.0,1116000811101402070301104000051000600007000080000
3378,EKKA,56.2975,9.12463,2024-05-03 00:20:00,,,,,15.0,1010.0,(1431.627009364369+0j),7.0,15.0,90.0,10000.0,99999,,(420.7270093643691+0j),0.0,1116000915101502070301004000051000600007000080000
3379,EKYT,57.09276,9.84924,2024-05-03 00:20:00,,,,,12.0,1013.0,(1042.021319538898+0j),6.0,13.0,80.0,10000.0,99999,,(28.721319538898115+0j),0.0,1116000813101202060301304000051000600007000080000
3380,ENAN,69.2925,16.1442,2024-05-03 00:20:00,,,,,7.0,1019.0,(1242.2070235472245+0j),4.0,13.0,190.0,10000.0,99999,,0j,0.0,1116001913100702040301904000051000600007000080000
3381,ENBO,67.2692,14.3653,2024-05-03 00:20:00,,,,,9.0,1020.0,(1188.0780518566785+0j),2.0,11.0,110.0,10000.0,99999,,(166.87805185667844+0j),0.0,1116001111100902020302004000051000600007000080000
3382,ENGM,60.1939,11.1004,2024-05-03 00:20:00,,,,,5.0,1020.0,(7718.65514072967+0j),0.0,4.0,360.0,10000.0,99999,,0j,0.0,1116003604100502000302004000051000600007000080000
3383,ENOL,63.6989,9.604,2024-05-03 00:20:00,,,,,7.0,1020.0,(1163.4175956126046+0j),6.0,4.0,100.0,10000.0,99999,,(142.31759561260458+0j),0.0,1116001004100702060302004000051000600007000080000
3384,ENSH,68.2433,14.6692,2024-05-03 00:20:00,,,,,9.0,1020.0,(1126.8256644762466+0j),3.0,2.0,,10000.0,99999,,(105.92566447624665+0j),0.0,1116003602100902030302004000051000600007000080000
3385,ENTC,69.6833,18.9189,2024-05-03 00:20:00,61.0,36.0,^,green,5.0,1021.0,(1246.8100371455316+0j),4.0,2.0,190.0,5000.0,99999,,(224.91003714553165+0j),0.0,1113001902100502040302104000051000600007610080000
3386,ESSA,59.6519,17.9186,2024-05-03 00:20:00,,,,,4.0,1021.0,(2460.072107718769+0j),0.0,5.0,50.0,10000.0,99999,,(1438.2721077187691+0j),0.0,1116000505100402000302104000051000600007000080000
3426,EDHL,53.8054,10.7192,2024-05-03 00:20:00,,,,,11.0,1005.0,(1176.1574520598226+0j),9.0,4.0,40.0,10000.0,99999,,(171.0574520598226+0j),0.0,1116000404101102090300504000051000600007000080000
3427,EDLN,51.23028,6.50444,2024-05-03 00:20:00,,,,,13.0,1003.0,(1354.563589220238+0j),12.0,6.0,250.0,10000.0,99999,,(350.6635892202381+0j),0.6,11160025061013020120300304000051000600607000080000
3428,EDMA,48.42528,10.93167,2024-05-03 00:20:00,,,,,11.0,1008.0,(7708.489985728975+0j),7.0,10.0,250.0,10000.0,99999,,(6701.6899857289745+0j),0.5,1116002510101102070300804000051000600507000080000
3429,EDMO,48.0814,11.2831,2024-05-03 00:20:00,,,,,10.0,1009.0,(10.401910439516838+0j),6.0,10.0,250.0,10000.0,99999,,(-995.9980895604831+0j),0.0,1116002510101002060300904000051000600007000080000
3430,EDNY,47.6713,9.51149,2024-05-03 00:20:00,,,,,10.0,1011.0,(7675.563683889469+0j),8.0,10.0,230.0,10000.0,99999,,(6665.9636838894685+0j),0.6,1116002310101002080301104000051000600607000080000
3431,EDQM,50.28861,11.85639,2024-05-03 00:20:00,,,,,10.0,1005.0,(10.413706834424742+0j),10.0,10.0,210.0,10000.0,99999,,(-993.3862931655752+0j),0.0,11160021101010020100300504000051000600007000080000
3432,EDTL,48.3693,7.82772,2024-05-03 00:20:00,,,,,11.0,1010.0,(3023.5997864630804+0j),10.0,10.0,190.0,10000.0,99999,,(2013.9997864630805+0j),0.0,11160019101011020100301004000051000600007000080000
3433,EDVE,52.3192,10.5561,2024-05-03 00:20:00,,,,,17.0,1002.0,(1664.5390029218913+0j),11.0,6.0,80.0,10000.0,99999,,(661.9390029218913+0j),0.0,11160008061017020110300204000051000600007000080000
3434,EDXW,54.9132,8.34047,2024-05-03 00:20:00,,,,,14.0,1005.0,(1133.3777004611732+0j),9.0,18.0,90.0,10000.0,99999,,(126.97770046117319+0j),0.0,1116000918101402090300504000051000600007000080000
3442,EGSH,52.6758,1.28278,2024-05-03 00:20:00,,,,,11.0,1004.0,(1395.7081975998533+0j),9.0,8.0,280.0,6000.0,99999,,(392.10819759985327+0j),0.0,1113002808101102090300404000051000600007000080000
3445,ENKB,63.1118,7.82452,2024-05-03 00:20:00,,,,,9.0,1019.0,(1923.1014613306286+0j),5.0,9.0,10.0,10000.0,99999,,0j,0.0,1116000109100902050301904000051000600007000080000
3446,ENMH,71.0297,27.8267,2024-05-03 00:20:00,,,,,-0.0,1024.0,(39.158439347282744+0j),-4.0,8.0,150.0,10000.0,99999,,(-987.0415606527173+0j),0.0,1116001508110002140302404000051000600007000080000
3457,LGSR,36.3992,25.4793,2024-05-03 00:20:00,,,,,18.0,1010.0,(1265.6182204842005+0j),14.0,3.0,,10000.0,99999,,(253.71822048420051+0j),0.0,11160036031018020140301004000051000600007000080000
3458,LGAV,37.9364,23.9445,2024-05-03 00:20:00,,,,,18.0,1010.0,(1667.6732711306863+0j),12.0,6.0,250.0,10000.0,99999,,0j,0.0,11160025061018020120301004000051000600007000080000
3459,LIBP,42.4317,14.1811,2024-05-03 00:20:00,,,,,15.0,1010.0,(1122.9867573227314+0j),4.0,14.0,230.0,10000.0,99999,,(111.68675732273141+0j),0.0,1116002314101502040301004000051000600007000080000
3460,LICA,38.9054,16.2423,2024-05-03 00:20:00,,,,,16.0,1015.0,(1101.0319535806918+0j),12.0,11.0,220.0,10000.0,99999,,(84.23195358069188+0j),0.0,11160022111016020120301504000051000600007000080000
3461,LICR,38.0712,15.6516,2024-05-03 00:20:00,,,,,16.0,1016.0,(1233.1706242286618+0j),8.0,8.0,350.0,10000.0,99999,,(215.77062422866186+0j),0.0,1116003508101602080301604000051000600007000080000
3462,LIPY,43.6163,13.3623,2024-05-03 00:20:00,,,,,10.0,1009.0,(1183.8526656391966+0j),6.0,3.0,210.0,10000.0,99999,,(172.85266563919663+0j),0.0,1116002103101002060300904000051000600007000080000
3466,EHLE,52.4603,5.52722,2024-05-03 00:25:00,10.0,36.0,+,yellow,14.0,1002.0,(970.4242270992077+0j),12.0,10.0,280.0,4400.0,99999,,(-31.575772900792344+0j),0.0,11120028101014020120300204000051000600007100080000
3471,ETHF,51.1146,9.286,2024-05-03 00:20:00,,,,,14.0,1003.0,(5545.473982258883+0j),13.0,4.0,190.0,10000.0,99999,,(4542.1739822588825+0j),0.0,11160019041014020130300304000051000600007000080000
3472,ETHL,48.2203,9.91002,2024-05-03 00:20:00,,,,,9.0,1009.0,(10.469426574880561+0j),6.0,9.0,230.0,10000.0,99999,,(-997.2305734251195+0j),0.4,1116002309100902060300904000051000600407000080000
3473,ETHS,52.9194,10.1975,2024-05-03 00:20:00,,,,,16.0,1003.0,(1581.7778671073881+0j),10.0,7.0,90.0,10000.0,99999,,(578.7778671073881+0j),0.0,11160009071016020100300304000051000600007000080000
3475,ETNN,50.8312,6.65817,2024-05-03 00:20:00,63.0,36.0,',green,12.0,1004.0,(2306.758353332108+0j),11.0,12.0,240.0,8000.0,99999,,(1302.758353332108+0j),0.5,11140024121012020110300404000051000600507630080000
3478,ETSL,48.1855,10.8612,2024-05-03 00:20:00,,,,,10.0,1009.0,(9.838636498193086+0j),6.0,10.0,230.0,10000.0,99999,,(-997.261363501807+0j),0.5,1116002310101002060300904000051000600507000080000
3480,EFKI,64.2855,27.6924,2024-05-03 00:20:00,61.0,36.0,^,green,2.0,1022.0,(12.530170770988924+0j),1.0,7.0,130.0,10000.0,99999,,(-1012.069829229011+0j),0.4,1116001307100202010302204000051000600407610080000
3481,EFKU,63.0071,27.7978,2024-05-03 00:20:00,80.0,36.0,q,green,4.0,1022.0,(4839.546403216222+0j),1.0,6.0,110.0,10000.0,99999,,(3815.5464032162217+0j),0.0,1116001106100402010302204000051000600007800080000
3509,ETIH,49.2181,11.8361,2024-05-03 00:25:00,,,,,12.0,29.74,(7021.688318916062+0j),8.0,9.0,260.0,10000.0,99999,,(6016.8883189160615+0j),0.0,111600260910120208032974000051000600007000080000
3511,ETOU,50.0498,8.3254,2024-05-03 00:25:00,61.0,36.0,^,green,12.0,29.67,(2682.881142648599+0j),11.0,12.0,250.0,10000.0,99999,,(1677.981142648599+0j),0.5,1116002512101202011032964000051000600507610080000
3513,ETMN,53.7677,8.6585,2024-05-03 00:20:00,,,,,14.0,1003.0,(1188.3503314470627+0j),10.0,8.0,80.0,10000.0,99999,,(184.4503314470627+0j),0.0,11160008081014020100300304000051000600007000080000
3565,EYSA,55.8939,23.395,2024-05-03 00:20:00,,,,,8.0,1017.0,(3494.802099262775+0j),4.0,8.0,70.0,10000.0,99999,,0j,0.0,1116000708100802040301704000051000600007000080000
3566,ETAR,49.4369,7.60028,2024-05-03 00:25:00,61.0,36.0,^,green,11.0,29.72,(4333.599996833934+0j),9.0,10.0,240.0,10000.0,99999,,(3326.7999968339336+0j),0.0,111600241010110209032974000051000600007610080000
3580,EGPC,58.4589,-3.09306,2024-05-03 00:20:00,,,,,8.0,1015.0,(1618.8894087238505+0j),7.0,7.0,30.0,10000.0,99999,,(602.9894087238505+0j),0.0,1116000307100802070301504000051000600007000080000
3582,EGPL,57.4811,-7.36278,2024-05-03 00:20:00,,,,,12.0,1011.0,(1066.328593405507+0j),7.0,15.0,80.0,10000.0,99999,,(54.52859340550708+0j),0.0,1116000815101202070301104000051000600007000080000
3585,LIRN,40.886,14.2908,2024-05-03 00:20:00,,,,,11.0,1014.0,(2094.985837587623+0j),9.0,4.0,230.0,10000.0,99999,,(1080.185837587623+0j),0.0,1116002304101102090301404000051000600007000080000
3615,LTCS,37.44566,38.89559,2024-05-03 00:20:00,,,,,14.0,1005.0,(10.304325827186165+0j),12.0,8.0,290.0,10000.0,99999,,(-992.2956741728138+0j),0.0,11160029081014020120300504000051000600007000080000
3618,LTFM,41.27533,28.752,2024-05-03 00:20:00,,,,,11.0,1010.0,(2214.9031430620166+0j),10.0,4.0,190.0,10000.0,99999,,0j,0.0,11160019041011020100301004000051000600007000080000
3639,LTAZ,38.7719,34.5345,2024-05-03 00:20:00,,,,,11.0,1009.0,(13.895587197988897+0j),9.0,2.0,,10000.0,99999,,0j,0.0,1116003602101102090300904000051000600007000080000
3640,LTBR,40.2552,29.5626,2024-05-03 00:20:00,,,,,7.0,1010.0,(6264.237060494434+0j),7.0,0.0,0.0,7000.0,99999,,(5252.737060494434+0j),0.0,1114000000100702070301004000051000600007000080000
3642,LTFC,37.8554,30.3684,2024-05-03 00:20:00,,,,,11.0,1011.0,(13.028671978566562+0j),6.0,8.0,340.0,10000.0,99999,,(-996.2713280214334+0j),0.0,1116003408101102060301104000051000600007000080000
3643,LTFJ,40.8986,29.3092,2024-05-03 00:20:00,10.0,36.0,+,yellow,13.0,1009.0,(1962.9171207976779+0j),12.0,2.0,,5000.0,99999,,(951.5171207976779+0j),0.0,11130036021013020120300904000051000600007100080000
3646,ETHC,52.5912,10.0221,2024-05-03 00:20:00,,,,,19.0,1002.0,(1245.6108053553355+0j),10.0,7.0,80.0,10000.0,99999,,(243.11080535533551+0j),0.0,11160008071019020100300204000051000600007000080000
3647,ETNW,52.4573,9.42717,2024-05-03 00:20:00,,,,,17.0,1001.0,(1405.7731520682519+0j),11.0,4.0,110.0,10000.0,99999,,(403.57315206825183+0j),0.0,11160011041017020110300104000051000600007000080000
3651,EGPH,55.95,-3.3725,2024-05-03 00:20:00,,,,,7.0,1010.0,(1759.7448809377008+0j),6.0,0.0,0.0,10000.0,99999,,(748.3448809377009+0j),0.0,1116000000100702060301004000051000600007000080000
3659,LBGO,43.1514,25.7129,2024-05-03 00:30:00,,,,,13.0,1009.0,(1871.744814860156+0j),11.0,0.0,0.0,10000.0,99999,,(859.7448148601561+0j),0.0,11160000001013020110300904000051000600007000080000
3663,EHAM,52.3086,4.76389,2024-05-03 00:25:00,,,,,14.0,1002.0,(975.25358454828+0j),13.0,13.0,260.0,4000.0,99999,,(-27.9464154517201+0j),0.0,11120026131014020130300204000051000600007000080000
3664,EHBK,50.9117,5.77014,2024-05-03 00:25:00,,,,,11.0,1005.0,(2414.073601453226+0j),10.0,11.0,230.0,7000.0,99999,,(1409.7736014532259+0j),1.9,11140023111011020100300504000051000601907000080000
3665,EHGG,53.1197,6.57944,2024-05-03 00:25:00,10.0,36.0,+,yellow,13.0,1002.0,(1047.2005973688504+0j),13.0,7.0,270.0,2100.0,99999,,(44.80059736885039+0j),0.0,11110027071013020130300204000051000600007100080000
3666,EHRD,51.9569,4.43722,2024-05-03 00:25:00,,,,,13.0,1002.0,(962.8298549120407+0j),12.0,14.0,240.0,3400.0,99999,,(-40.570145087959304+0j),0.0,11120024141013020120300204000051000600007000080000
3667,ETSH,51.7678,13.1677,2024-05-03 00:20:00,,,,,16.0,1004.0,(1634.9432493868824+0j),10.0,8.0,100.0,10000.0,99999,,(631.2432493868823+0j),0.0,11160010081016020100300404000051000600007000080000
3668,EPBY,53.0968,17.9777,2024-05-03 00:30:00,,,,,12.0,1009.0,(1770.720256761173+0j),5.0,6.0,90.0,10000.0,99999,,0j,0.0,1116000906101202050300904000051000600007000080000
3672,EPRA,51.38883,21.21167,2024-05-03 00:30:00,,,,,11.0,1010.0,(3534.7964423716344+0j),5.0,3.0,130.0,10000.0,99999,,(2522.9964423716347+0j),0.0,1116001303101102050301004000051000600007000080000
3674,EPSY,53.48194,20.93778,2024-05-03 00:30:00,,,,,9.0,1012.0,(3284.454322227006+0j),5.0,2.0,,10000.0,99999,,(2271.354322227006+0j),0.0,1116003602100902050301204000051000600007000080000
3686,LHKE,46.9175,19.7492,2024-05-03 00:15:00,,,,,14.0,1009.0,(2090.5074388539033+0j),12.0,3.0,190.0,10000.0,99999,,(1080.4074388539034+0j),1.1,11160019031014020120300904000051000601107000080000
3687,LHPA,47.3636,17.5008,2024-05-03 00:15:00,,,,,13.0,1007.0,(2501.5289794732657+0j),11.0,6.0,170.0,10000.0,99999,,(1492.7289794732658+0j),0.3,11160017061013020110300704000051000600307000080000
3689,LHPR,47.6244,17.8136,2024-05-03 00:15:00,,,,,13.0,1007.0,(2349.961284948363+0j),11.0,2.0,,10000.0,99999,,(1341.4612849483628+0j),0.2,11160036021013020110300704000051000600207000080000
3690,LHSM,46.6864,17.1591,2024-05-03 00:15:00,,,,,13.0,1007.0,(2292.8867692729027+0j),12.0,6.0,200.0,10000.0,99999,,0j,0.0,11160020061013020120300704000051000600007000080000
3691,LHSN,47.1229,20.2355,2024-05-03 00:15:00,,,,,16.0,1009.0,(1793.9444413172314+0j),11.0,8.0,190.0,10000.0,99999,,(783.8444413172314+0j),0.0,11160019081016020110300904000051000600007000080000
3738,LFCK,43.5563,2.28918,2024-05-03 00:30:00,,,,,5.0,1018.0,(8762.340647081346+0j),5.0,2.0,,10000.0,99999,,0j,0.0,1116003602100502050301804000051000600007000080000
3739,LFLP,45.9292,6.09876,2024-05-03 00:30:00,61.0,36.0,^,green,7.0,1015.0,(11.447234925696781+0j),6.0,3.0,,10000.0,99999,,(-1004.4527650743032+0j),1.1,1116003603100702060301504000051000601107610080000
3743,LFQA,49.2087,4.15658,2024-05-03 00:30:00,,,,,11.0,1009.0,(2162.8785746680855+0j),8.0,7.0,250.0,10000.0,99999,,(1153.8785746680855+0j),0.0,1116002507101102080300904000051000600007000080000
3759,LFJR,47.5603,-0.31222,2024-05-03 00:30:00,,,,,6.0,1013.0,(2350.771836090428+0j),5.0,0.0,0.0,10000.0,99999,,(1338.4718360904283+0j),0.0,1116000000100602050301304000051000600007000080000
3763,EGDR,50.0861,-5.25571,2024-05-03 00:20:00,,,,,9.0,1009.0,(2218.266929446649+0j),7.0,5.0,280.0,10000.0,99999,,(1208.9669294466491+0j),0.0,1116002805100902070300904000051000600007000080000
3764,EGDY,51.0094,-2.63882,2024-05-03 00:20:00,,,,,9.0,1008.0,(1311.7754288627623+0j),6.0,8.0,240.0,10000.0,99999,,(304.3754288627623+0j),0.0,1116002408100902060300804000051000600007000080000
3765,EGVN,51.75,-1.58362,2024-05-03 00:20:00,53.0,36.0,V,green,9.0,1006.0,(2319.0712377323307+0j),9.0,7.0,240.0,2500.0,99999,,(1313.4712377323308+0j),0.0,1111002407100902090300604000051000600007530080000
3766,EGVO,51.2341,-0.94283,2024-05-03 00:20:00,,,,,9.0,1006.0,(2940.116793156521+0j),7.0,14.0,250.0,10000.0,99999,,(1934.016793156521+0j),0.0,1116002514100902070300604000051000600007000080000
3768,LTAC,40.1281,32.9951,2024-05-03 00:20:00,,,,,10.0,1008.0,(14.94272819202123+0j),7.0,2.0,,10000.0,99999,,(-992.6572718079788+0j),0.0,1116003602101002070300804000051000600007000080000
3769,LTAF,36.9822,35.2804,2024-05-03 00:20:00,95.0,36.0,2,red,20.0,1004.0,(1118.109926482294+0j),19.0,5.0,90.0,10000.0,99999,,(111.90992648229394+0j),1.6,11160009051020020190300404000051000601607950080000
3776,LTCJ,37.929,41.1166,2024-05-03 00:20:00,95.0,36.0,2,red,16.0,1003.0,(6463.543819359815+0j),16.0,5.0,80.0,10000.0,99999,,(5459.343819359815+0j),0.7,11160008051016020160300304000051000600707950080000
3777,LTCR,37.2233,40.6317,2024-05-03 00:32:00,,,,,14.0,1004.0,(6960.266418932935+0j),14.0,4.0,40.0,10000.0,99999,,(5956.866418932936+0j),0.2,11160004041014020140300404000051000600207000080000
3788,LYBT,44.9353,20.2575,2024-05-03 00:30:00,61.0,36.0,^,green,14.0,1007.0,(1739.3273261699294+0j),12.0,9.0,130.0,10000.0,99999,,(730.3273261699294+0j),0.0,11160013091014020120300704000051000600007610080000
3789,LYKV,43.8183,20.5872,2024-05-03 00:30:00,,,,,12.0,1008.0,(3554.723342716725+0j),12.0,0.0,0.0,7000.0,99999,,(2545.623342716725+0j),0.0,11140000001012020120300804000051000600007000080000
3793,LYVR,45.1469,21.3099,2024-05-03 00:30:00,,,,,17.0,1008.0,(1627.843042554888+0j),4.0,13.0,140.0,10000.0,99999,,(617.6430425548879+0j),0.1,1116001413101702040300804000051000600107000080000
3813,EGXV,53.8758,-0.435,2024-05-03 00:20:00,10.0,36.0,+,yellow,10.0,1004.0,(1130.7038551527266+0j),8.0,7.0,340.0,9000.0,99999,,(125.70385515272665+0j),0.0,1115003407101002080300404000051000600007100080000
3845,LTAG,37.0021,35.4259,2024-05-03 00:20:00,95.0,36.0,2,red,19.0,1004.0,(1470.5054689343656+0j),16.0,3.0,50.0,10000.0,99999,,(465.2054689343656+0j),0.2,11160005031019020160300404000051000600207950080000
3846,LTAI,36.8987,30.8005,2024-05-03 00:20:00,,,,,20.0,1007.0,(1330.3341410578855+0j),10.0,10.0,350.0,10000.0,99999,,(324.03414105788556+0j),0.0,11160035101020020100300704000051000600007000080000
3847,LTAJ,36.9472,37.4787,2024-05-03 00:20:00,,,,,17.0,1005.0,(7603.974857187698+0j),9.0,10.0,330.0,10000.0,99999,,(6601.974857187698+0j),0.0,1116003310101702090300504000051000600007000080000
3848,LTAP,40.8294,35.522,2024-05-03 00:20:00,80.0,36.0,q,green,11.0,1006.0,(8765.162323320059+0j),11.0,0.0,0.0,10000.0,99999,,(7757.162323320059+0j),0.5,11160000001011020110300604000051000600507800080000
3849,LTAT,38.4353,38.091,2024-05-03 00:20:00,,,,,10.0,1006.0,(13.889424032143582+0j),9.0,3.0,140.0,10000.0,99999,,(-989.5105759678564+0j),0.0,1116001403101002090300604000051000600007000080000
3850,LTAU,38.7704,35.4954,2024-05-03 00:20:00,,,,,12.0,1008.0,(14.122765634748957+0j),9.0,5.0,250.0,10000.0,99999,,(-990.8772343652511+0j),0.0,1116002505101202090300804000051000600007000080000
3851,LTBA,40.9769,28.8146,2024-05-03 00:20:00,,,,,12.0,1009.0,(1520.4978319275087+0j),10.0,0.0,0.0,10000.0,99999,,(508.59783192750876+0j),0.0,11160000001012020100300904000051000600007000080000
3852,LTBJ,38.2924,27.157,2024-05-03 00:20:00,,,,,14.0,1009.0,(2207.355605685671+0j),10.0,0.0,0.0,10000.0,99999,,(1196.455605685671+0j),0.0,11160000001014020100300904000051000600007000080000
3853,LTBS,36.7131,28.7925,2024-05-03 00:20:00,,,,,17.0,1008.0,(1048.8699239682282+0j),13.0,4.0,330.0,10000.0,99999,,(40.96992396822827+0j),0.0,11160033041017020130300804000051000600007000080000
3854,LTBU,41.1382,27.9191,2024-05-03 00:20:00,,,,,8.0,1009.0,(4308.94335706473+0j),8.0,2.0,350.0,10000.0,99999,,(3297.24335706473+0j),0.0,1116003502100802080300904000051000600007000080000
3855,LTCC,37.8939,40.201,2024-05-03 00:20:00,,,,,14.0,1004.0,(8793.784028231295+0j),14.0,2.0,,10000.0,99999,,(7791.484028231295+0j),0.0,11160036021014020140300404000051000600007000080000
3856,LTCE,39.9565,41.1702,2024-05-03 00:20:00,,,,,7.0,1007.0,(25.02374058152071+0j),6.0,7.0,260.0,10000.0,99999,,(-977.7762594184793+0j),0.1,1116002607100702060300704000051000600107000080000
3857,LTCG,40.9951,39.7897,2024-05-03 00:20:00,80.0,36.0,q,green,14.0,1007.0,(1275.9765013640147+0j),13.0,8.0,310.0,7000.0,99999,,(267.7765013640146+0j),0.2,11140031081014020130300704000051000600207800080000
3858,LTFE,37.2506,27.6643,2024-05-03 00:20:00,,,,,13.0,1009.0,(1065.3498019542599+0j),13.0,2.0,100.0,10000.0,99999,,0j,0.0,11160010021013020130300904000051000600007000080000
3870,LFBY,43.6892,-1.06889,2024-05-03 00:30:00,,,,,7.0,1017.0,(1608.6840677795697+0j),6.0,1.0,120.0,10000.0,99999,,(591.4840677795696+0j),0.0,1116001201100702060301704000051000600007000080000
3908,LFYR,47.3208,1.68889,2024-05-03 00:30:00,,,,,8.0,1014.0,(2532.204855978697+0j),6.0,4.0,230.0,10000.0,99999,,(1519.804855978697+0j),0.0,1116002304100802060301404000051000600007000080000
3952,LFRL,48.2817,-4.44502,2024-05-03 00:30:00,,,,,9.0,1011.0,(2325.425918731365+0j),7.0,5.0,210.0,10000.0,99999,,(1314.225918731365+0j),0.0,1116002105100902070301104000051000600007000080000
3995,EPLL,51.7219,19.3981,2024-05-03 00:30:00,,,,,13.0,1009.0,(3020.951777419816+0j),4.0,7.0,80.0,10000.0,99999,,(2010.9517774198162+0j),0.0,1116000807101302040300904000051000600007000080000
3996,EPWR,51.1027,16.8858,2024-05-03 00:30:00,,,,,14.0,1008.0,(2179.0692007308817+0j),10.0,4.0,110.0,10000.0,99999,,(1171.4692007308818+0j),0.0,11160011041014020100300804000051000600007000080000
3998,LFBG,45.6583,-0.3175,2024-05-03 00:30:00,,,,,7.0,1016.0,(1571.609176201902+0j),6.0,5.0,180.0,10000.0,99999,,(556.409176201902+0j),0.0,1116001805100702060301604000051000600007000080000
3999,LFCR,44.4079,2.48267,2024-05-03 00:30:00,,,,,5.0,1017.0,(17.220537770044658+0j),5.0,3.0,260.0,10000.0,99999,,(-999.4794622299554+0j),0.0,1116002603100502050301704000051000600007000080000
4000,LFJL,48.9821,6.25132,2024-05-03 00:30:00,,,,,9.0,1009.0,(5609.702312083713+0j),8.0,14.0,260.0,10000.0,99999,,(4601.102312083713+0j),0.0,1116002614100902080300904000051000600007000080000
4001,LFMK,43.216,2.30632,2024-05-03 00:30:00,,,,,7.0,1017.0,(3827.987203075133+0j),5.0,5.0,240.0,10000.0,99999,,(2810.787203075133+0j),0.0,1116002405100702050301704000051000600007000080000
4002,LFMO,44.1405,4.86672,2024-05-03 00:30:00,,,,,9.0,1015.0,(1881.3770306996928+0j),8.0,6.0,300.0,10000.0,99999,,(865.9770306996928+0j),0.0,1116003006100902080301504000051000600007000080000
4004,LHDC,47.4889,21.6153,2024-05-03 00:15:00,,,,,15.0,1011.0,(1963.8544720706784+0j),11.0,9.0,200.0,10000.0,99999,,(953.4544720706784+0j),0.0,11160020091015020110301104000051000600007000080000
4005,LHPP,45.9909,18.241,2024-05-03 00:15:00,63.0,36.0,',green,13.0,1008.0,(4573.702626532783+0j),13.0,4.0,300.0,10000.0,99999,,(3564.6026265327832+0j),0.0,11160030041013020130300804000051000600007630080000
4006,LKCV,49.9397,15.3818,2024-05-03 00:30:00,,,,,14.0,1006.0,(3524.744045362394+0j),11.0,3.0,100.0,10000.0,99999,,(2519.344045362394+0j),0.0,11160010031014020110300604000051000600007000080000
4007,LKNA,49.1658,16.1249,2024-05-03 00:30:00,,,,,12.0,1007.0,(7259.345221366598+0j),11.0,8.0,100.0,10000.0,99999,,(6252.445221366598+0j),0.0,11160010081012020110300704000051000600007000080000
4008,LKPD,50.0134,15.7386,2024-05-03 00:30:00,,,,,13.0,1006.0,(3539.2212455185186+0j),10.0,4.0,80.0,10000.0,99999,,(2533.2212455185186+0j),0.0,11160008041013020100300604000051000600007000080000
4012,LZPP,48.6252,17.8284,2024-05-03 00:30:00,,,,,17.0,1008.0,(2326.4127125334116+0j),10.0,6.0,170.0,10000.0,99999,,0j,0.0,11160017061017020100300804000051000600007000080000
4013,LZZI,49.2315,18.6135,2024-05-03 00:30:00,,,,,11.0,1009.0,(5404.040808466664+0j),8.0,2.0,,10000.0,99999,,0j,0.0,1116003602101102080300904000051000600007000080000
4036,LFOV,48.0314,-0.74299,2024-05-03 00:30:00,,,,,8.0,1012.0,(2773.8993334367474+0j),6.0,5.0,220.0,10000.0,99999,,(1762.2993334367475+0j),0.0,1116002205100802060301204000051000600007000080000
4039,LFRV,47.7233,-2.71856,2024-05-03 00:30:00,,,,,9.0,1012.0,(3184.070447040566+0j),7.0,2.0,,10000.0,99999,,(2171.8704470405655+0j),0.0,1116003602100902070301204000051000600007000080000
4055,LJCE,45.9,15.5302,2024-05-03 00:30:00,,,,,11.0,1008.0,(3013.124128472949+0j),10.0,2.0,230.0,10000.0,99999,,0j,0.0,11160023021011020100300804000051000600007000080000
4057,LFAQ,49.9715,2.69766,2024-05-03 00:30:00,,,,,10.0,1008.0,(2530.2645263618865+0j),8.0,13.0,250.0,10000.0,99999,,(1523.0645263618865+0j),0.0,1116002513101002080300804000051000600007000080000
4058,LFBU,45.7292,0.22146,2024-05-03 00:30:00,,,,,8.0,1016.0,(3446.7790724034094+0j),6.0,5.0,160.0,10000.0,99999,,(2431.5790724034096+0j),0.0,1116001605100802060301604000051000600007000080000
4063,URMG,43.3883,45.6986,2024-05-03 00:30:00,80.0,36.0,q,green,13.0,1005.0,(1005+0j),12.0,2.0,320.0,10000.0,99999,,(-1.2999999999999545+0j),0.0,11160032021013020120300504000051000600007800080000
4066,URMO,43.2051,44.6066,2024-05-03 00:30:00,61.0,36.0,^,green,12.0,1006.0,(7772.490276680825+0j),11.0,1.0,,9000.0,99999,,(6765.890276680825+0j),0.0,11150036011012020110300604000051000600007610080000
4068,URRP,47.50083,39.93361,2024-05-03 00:30:00,,,,,12.0,1008.0,(1938.9201026842636+0j),9.0,2.0,330.0,10000.0,99999,,0j,0.0,1116003302101202090300804000051000600007000080000
4073,LFOZ,47.8969,2.16333,2024-05-03 00:30:00,,,,,9.0,1012.0,(2908.4048569116903+0j),7.0,8.0,240.0,10000.0,99999,,(1897.1048569116904+0j),0.0,1116002408100902070301204000051000600007000080000
4074,LFPT,49.0966,2.04083,2024-05-03 00:30:00,,,,,10.0,1010.0,(2351.5793524944943+0j),7.0,8.0,240.0,10000.0,99999,,(1342.1793524944942+0j),0.0,1116002408101002070301004000051000600007000080000
4080,UUDL,57.5607,40.1574,2024-05-03 00:30:00,,,,,-1.0,1018.0,(427.85414817308157+0j),-9.0,4.0,360.0,10000.0,99999,,(-589.9458518269184+0j),0.0,1116003604110102190301804000051000600007000080000
4083,UUMO,55.5117,37.5072,2024-05-03 00:30:00,,,,,5.0,1016.0,(6533.062483056769+0j),-1.0,6.0,30.0,10000.0,99999,,(5516.962483056769+0j),0.0,1116000306100502110301604000051000600007000080000
4086,ULPB,61.8852,34.1547,2024-05-03 00:30:00,,,,,-3.0,1026.0,(30.942102018345405+0j),-6.0,1.0,20.0,10000.0,99999,,(-995.2578979816547+0j),0.0,1116000201110302160302604000051000600007000080000
4114,LEMI,37.803,-1.125,2024-05-03 00:30:00,,,,,13.0,1018.0,(3159.5410873514047+0j),3.0,2.0,,10000.0,99999,,0j,0.0,1116003602101302030301804000051000600007000080000
4117,UWKS,56.0903,47.3473,2024-05-03 00:30:00,,,,,0.0,1007.0,(38.50834806905637+0j),0.0,7.0,340.0,10000.0,99999,,(-969.2916519309435+0j),0.2,1116003407100002000300704000051000600207000080000
4120,LECH,40.21417,0.07333,2024-05-03 00:30:00,,,,,9.0,1018.0,(7457.326978926814+0j),2.0,2.0,,10000.0,99999,,(6439.526978926814+0j),0.0,1116003602100902020301804000051000600007000080000
4121,UUBC,54.55,36.36667,2024-05-03 00:30:00,,,,,6.0,1016.0,(6311.368632488614+0j),2.0,3.0,300.0,10000.0,99999,,0j,0.0,1116003003100602020301604000051000600007000080000
4122,UUOB,50.6438,36.5901,2024-05-03 00:30:00,,,,,9.0,1012.0,(4840.224268119595+0j),4.0,4.0,50.0,10000.0,99999,,(3827.024268119595+0j),0.0,1116000504100902040301204000051000600007000080000
4123,UUOK,51.7506,36.2956,2024-05-03 00:30:00,,,,,7.0,1014.0,(5707.377328481975+0j),3.0,3.0,30.0,10000.0,99999,,(4691.977328481976+0j),0.0,1116000303100702030301404000051000600007000080000
4126,UWPS,54.12513,45.21226,2024-05-03 00:30:00,,,,,4.0,1009.0,(9.226866748246701+0j),-3.0,4.0,350.0,10000.0,99999,,(-1002.8731332517533+0j),0.0,1116003504100402130300904000051000600007000080000
4127,UUBW,55.5533,38.15,2024-05-03 00:30:00,,,,,5.0,1016.0,(4530.062389705143+0j),-2.0,4.0,340.0,10000.0,99999,,(3514.1623897051427+0j),0.0,1116003404100502120301604000051000600007000080000
4128,UUOL,52.7028,39.5378,2024-05-03 00:30:00,,,,,2.0,1014.0,(14.327696859080442+0j),-1.0,3.0,350.0,10000.0,99999,,0j,0.0,1116003503100202110301404000051000600007000080000
4155,LFBE,44.8253,0.51861,2024-05-03 00:30:00,,,,,4.0,1017.0,(2861.160345802458+0j),4.0,4.0,80.0,9000.0,99999,,(1844.2603458024578+0j),0.0,1115000804100402040301704000051000600007000080000
4158,LFLN,46.4125,4.01326,2024-05-03 00:30:00,,,,,9.0,1014.0,(5205.865484408122+0j),7.0,3.0,,10000.0,99999,,(4191.165484408122+0j),0.0,1116003603100902070301404000051000600007000080000
4175,LFBX,45.1981,0.81556,2024-05-03 00:30:00,,,,,4.0,1017.0,(4881.693873752703+0j),4.0,0.0,0.0,8000.0,99999,,(3865.8938737527033+0j),0.0,1114000000100402040301704000051000600007000080000
4177,LFMU,43.3235,3.3539,2024-05-03 00:30:00,,,,,8.0,1017.0,(1272.271688187968+0j),6.0,4.0,240.0,10000.0,99999,,(256.171688187968+0j),0.0,1116002404100802060301704000051000600007000080000
4194,LEHC,42.0761,-0.31667,2024-05-03 00:30:00,,,,,4.0,1017.0,(18.804441752866722+0j),1.0,0.0,0.0,10000.0,99999,,(-997.5955582471332+0j),0.0,1116000000100402010301704000051000600007000080000
4197,LESB,39.5989,2.70278,2024-05-03 00:30:00,,,,,11.0,1018.0,(1562.3763603032046+0j),8.0,4.0,360.0,10000.0,99999,,(544.0763603032046+0j),0.0,1116003604101102080301804000051000600007000080000
4210,LQMO,43.2829,17.8459,2024-05-03 00:30:00,,,,,14.0,1008.0,(1421.2502891374018+0j),11.0,2.0,,10000.0,99999,,(409.8502891374018+0j),0.7,11160036021014020110300804000051000600707000080000
4213,LRBC,46.5219,26.9103,2024-05-03 00:30:00,,,,,10.0,1010.0,(3742.272381225596+0j),5.0,3.0,20.0,10000.0,99999,,(2728.972381225596+0j),0.0,1116000203101002050301004000051000600007000080000
4214,LRBM,47.6584,23.47,2024-05-03 00:30:00,,,,,14.0,1010.0,(2864.1619785408943+0j),7.0,1.0,,10000.0,99999,,(1851.9619785408943+0j),0.0,1116003601101402070301004000051000600007000080000
4217,LRCV,44.3181,23.8886,2024-05-03 00:30:00,,,,,12.0,1009.0,(3305.4086047941582+0j),8.0,3.0,350.0,10000.0,99999,,(2293.3086047941583+0j),0.0,1116003503101202080300904000051000600007000080000
4218,LRIA,47.1785,27.6206,2024-05-03 00:30:00,,,,,12.0,1010.0,(2378.8261375895772+0j),7.0,4.0,250.0,10000.0,99999,,(1366.1261375895772+0j),0.0,1116002504101202070301004000051000600007000080000
4219,LROD,47.0253,21.9025,2024-05-03 00:30:00,,,,,15.0,1010.0,(2281.907652238938+0j),10.0,2.0,,10000.0,99999,,(1271.2076522389382+0j),0.0,11160036021015020100301004000051000600007000080000
4221,LRSB,45.7856,24.0913,2024-05-03 00:30:00,,,,,13.0,1010.0,(6570.544520711181+0j),7.0,3.0,50.0,10000.0,99999,,(5558.344520711181+0j),0.0,1116000503101302070301004000051000600007000080000
4222,LRSM,47.7033,22.8857,2024-05-03 00:30:00,,,,,14.0,1010.0,(2186.656700757012+0j),6.0,5.0,110.0,10000.0,99999,,(1175.456700757012+0j),0.0,1116001105101402060301004000051000600007000080000
4223,LRSV,47.6875,26.3541,2024-05-03 00:30:00,,,,,16.0,1011.0,(5059.127613022252+0j),4.0,7.0,330.0,10000.0,99999,,(4045.727613022252+0j),0.0,1116003307101602040301104000051000600007000080000
4249,LRCL,46.7852,23.6862,2024-05-03 00:30:00,,,,,13.0,1010.0,(4727.428532796763+0j),7.0,3.0,140.0,10000.0,99999,,(3715.328532796763+0j),0.0,1116001403101302070301004000051000600007000080000
4251,LUKK,46.9277,28.931,2024-05-03 00:30:00,,,,,11.0,1010.0,(2529.234326153766+0j),7.0,1.0,,10000.0,99999,,(1517.0343261537657+0j),0.0,1116003601101102070301004000051000600007000080000
4260,GEML,35.2798,-2.95626,2024-05-03 00:30:00,,,,,17.0,1019.0,(1358.9459400025457+0j),6.0,4.0,270.0,10000.0,99999,,(338.94594000254574+0j),0.0,1116002704101702060301904000051000600007000080000
4261,EBCV,50.5758,3.831,2024-05-03 00:25:00,,,,,11.0,1006.0,(1683.0656526785497+0j),10.0,12.0,240.0,9000.0,99999,,(677.4656526785496+0j),1.2,11150024121011020100300604000051000601107000080000
4262,EBFN,51.0903,2.65278,2024-05-03 00:25:00,,,,,12.0,1005.0,(1062.9293482034582+0j),10.0,10.0,240.0,10000.0,99999,,(59.0293482034582+0j),0.0,11160024101012020100300504000051000600007000080000
4263,EPGD,54.3776,18.4662,2024-05-03 00:30:00,,,,,14.0,1011.0,(2467.997440550142+0j),8.0,1.0,120.0,10000.0,99999,,(1455.797440550142+0j),0.0,1116001201101402080301104000051000600007000080000
4264,EPKK,50.0777,19.7848,2024-05-03 00:30:00,,,,,9.0,1009.0,(5151.149077873722+0j),6.0,3.0,40.0,10000.0,99999,,(4140.949077873722+0j),0.0,1116000403100902060300904000051000600007000080000
4265,EPKT,50.4743,19.08,2024-05-03 00:30:00,,,,,9.0,1009.0,(6331.047120838181+0j),6.0,3.0,100.0,10000.0,99999,,(5321.147120838182+0j),0.0,1116001003100902060300904000051000600007000080000
4266,EPLB,51.24028,22.71361,2024-05-03 00:30:00,,,,,8.0,1011.0,(4702.431550354027+0j),6.0,2.0,40.0,10000.0,99999,,0j,0.0,1116000402100802060301104000051000600007000080000
4267,EPMO,52.4511,20.6518,2024-05-03 00:30:00,,,,,11.0,1011.0,(2284.1669667461056+0j),6.0,7.0,80.0,10000.0,99999,,(1272.0669667461057+0j),0.0,1116000807101102060301104000051000600007000080000
4268,EPPO,52.421,16.8263,2024-05-03 00:30:00,,,,,14.0,1008.0,(1873.2385890354885+0j),8.0,4.0,100.0,10000.0,99999,,(865.0385890354885+0j),0.0,1116001004101402080300804000051000600007000080000
4269,EPRZ,50.11,22.019,2024-05-03 00:30:00,,,,,10.0,1010.0,(4092.6664763643585+0j),6.0,4.0,60.0,10000.0,99999,,(3081.1664763643585+0j),0.0,1116000604101002060301004000051000600007000080000
4270,EPSC,53.5847,14.9022,2024-05-03 00:30:00,,,,,16.0,1007.0,(1360.3394812468925+0j),9.0,6.0,100.0,10000.0,99999,,(353.0394812468926+0j),0.0,1116001006101602090300704000051000600007000080000
4271,EPWA,52.1657,20.9671,2024-05-03 00:30:00,,,,,13.0,1010.0,(2137.346449540301+0j),5.0,4.0,90.0,10000.0,99999,,(1125.746449540301+0j),0.0,1116000904101302050301004000051000600007000080000
4273,LBBG,42.5696,27.5152,2024-05-03 00:30:00,,,,,10.0,1009.0,(1517.1178387913417+0j),9.0,5.0,240.0,10000.0,99999,,(505.3178387913417+0j),0.0,1116002405101002090300904000051000600007000080000
4274,LBPD,42.0678,24.8508,2024-05-03 00:30:00,,,,,13.0,1008.0,(2991.391998306732+0j),12.0,3.0,60.0,10000.0,99999,,(1979.191998306732+0j),0.0,11160006031013020120300804000051000600007000080000
4275,LBSF,42.69669,23.41144,2024-05-03 00:30:00,,,,,10.0,1009.0,(9.4699218767121+0j),9.0,0.0,0.0,10000.0,99999,,(-1001.630078123288+0j),0.0,1116000000101002090300904000051000600007000080000
4276,LBWN,43.2321,27.8251,2024-05-03 00:30:00,,,,,12.0,1008.0,(1751.186762316157+0j),12.0,4.0,270.0,10000.0,99999,,(739.586762316157+0j),0.2,11160027041012020120300804000051000600207000080000
4277,LHBP,47.4369,19.2556,2024-05-03 00:30:00,,,,,13.0,1008.0,(2610.158557299603+0j),12.0,2.0,,10000.0,99999,,(1600.0585572996033+0j),0.1,11160036021013020120300804000051000600107000080000
4278,LRAR,46.1766,21.262,2024-05-03 00:30:00,,,,,15.0,1009.0,(1939.374843247332+0j),10.0,0.0,0.0,10000.0,99999,,(928.7748432473319+0j),0.0,11160000001015020100300904000051000600007000080000
4279,LRBS,44.5032,26.1021,2024-05-03 00:30:00,,,,,12.0,1009.0,(1996.172141115674+0j),10.0,5.0,310.0,10000.0,99999,,(983.5721411156741+0j),0.0,11160031051012020100300904000051000600007000080000
4280,LRCK,44.3622,28.4883,2024-05-03 00:30:00,,,,,10.0,1008.0,(2478.1940620553296+0j),10.0,10.0,290.0,10000.0,99999,,(1466.1940620553296+0j),0.0,11160029101010020100300804000051000600007000080000
4281,LROP,44.5722,26.1022,2024-05-03 00:30:00,,,,,11.0,1009.0,(2167.0187631452122+0j),11.0,4.0,310.0,10000.0,99999,,(1153.9187631452123+0j),0.4,11160031041011020110300904000051000600407000080000
4282,LRTC,45.0625,28.7143,2024-05-03 00:30:00,,,,,10.0,1008.0,(1786.8035071425231+0j),8.0,0.0,0.0,9000.0,99999,,(775.7035071425231+0j),0.0,1115000000101002080300804000051000600007000080000
4283,LRTM,46.4677,24.4125,2024-05-03 00:30:00,,,,,99999.0,1010.0,(99999+0j),99999.0,1.0,,10000.0,99999,,(98986.1+0j),0.0,11160036011099999020999990301004000051000600007000080000
4284,LRTR,45.8099,21.3379,2024-05-03 00:30:00,,,,,13.0,1009.0,(2086.5456159671285+0j),12.0,5.0,40.0,10000.0,99999,,(1076.2456159671285+0j),0.0,11160004051013020120300904000051000600007000080000
4285,LDDU,42.5614,18.2682,2024-05-03 00:30:00,,,,,13.0,1010.0,(2733.915293886438+0j),11.0,4.0,90.0,10000.0,99999,,(1721.6152938864382+0j),1.1,11160009041013020110301004000051000601107000080000
4286,LDOS,45.4627,18.8102,2024-05-03 00:30:00,61.0,36.0,^,green,14.0,1007.0,(1815.717182515976+0j),13.0,6.0,10.0,10000.0,99999,,(807.317182515976+0j),0.0,11160001061014020130300704000051000600007610080000
4287,LDPL,44.8935,13.9222,2024-05-03 00:30:00,,,,,11.0,1009.0,(2003.2483169232285+0j),10.0,2.0,,10000.0,99999,,(993.1483169232284+0j),0.0,11160036021011020100300904000051000600007000080000
4288,LDRI,45.2169,14.5703,2024-05-03 00:30:00,,,,,13.0,1009.0,(1848.3339042682248+0j),12.0,5.0,310.0,10000.0,99999,,(838.3339042682248+0j),0.0,11160031051013020120300904000051000600007000080000
4289,LDSP,43.5389,16.298,2024-05-03 00:30:00,63.0,36.0,',green,11.0,1010.0,(1270.404178956884+0j),9.0,9.0,320.0,10000.0,99999,,(260.3041789568839+0j),0.0,1116003209101102090301004000051000600007630080000
4290,LDZA,45.7429,16.0688,2024-05-03 00:30:00,,,,,12.0,1008.0,(2204.623313633637+0j),10.0,5.0,240.0,10000.0,99999,,(1196.023313633637+0j),0.2,11160024051012020100300804000051000600207000080000
4291,LDZD,44.1083,15.3467,2024-05-03 00:30:00,,,,,11.0,1009.0,(2064.2123750512856+0j),11.0,3.0,140.0,10000.0,99999,,(1053.9123750512856+0j),0.0,11160014031011020110300904000051000600007000080000
4292,LJLJ,46.2237,14.4576,2024-05-03 00:30:00,42.0,36.0,K,yellow,8.0,1008.0,(8749.412114873263+0j),7.0,1.0,,10000.0,99999,,(7740.3121148732625+0j),0.0,1116003601100802070300804000051000600007420080000
4293,LJMB,46.4799,15.6861,2024-05-03 00:30:00,,,,,11.0,1007.0,(4710.4713406389255+0j),9.0,4.0,190.0,10000.0,99999,,(3702.6713406389254+0j),0.0,1116001904101102090300704000051000600007000080000
4294,LJPZ,45.4734,13.615,2024-05-03 00:30:00,,,,,11.0,1009.0,(1031.0427790259105+0j),9.0,3.0,,10000.0,99999,,(21.742779025910522+0j),0.5,1116003603101102090300904000051000600507000080000
4295,LKMT,49.6963,18.1111,2024-05-03 00:30:00,,,,,13.0,1008.0,(3951.632205594173+0j),10.0,3.0,290.0,10000.0,99999,,(2942.632205594173+0j),0.0,11160029031013020100300804000051000600007000080000
4296,LKPR,50.1008,14.26,2024-05-03 00:30:00,,,,,12.0,1005.0,(5963.413806041482+0j),10.0,7.0,130.0,10000.0,99999,,(4959.113806041481+0j),0.0,11160013071012020100300504000051000600007000080000
4297,LKTB,49.1513,16.6944,2024-05-03 00:30:00,,,,,13.0,1007.0,(3687.5577614719355+0j),10.0,3.0,90.0,10000.0,99999,,(2680.1577614719354+0j),0.0,11160009031013020100300704000051000600007000080000
4298,LQSA,43.8246,18.3315,2024-05-03 00:30:00,61.0,36.0,^,green,11.0,1009.0,(8572.720011886535+0j),11.0,2.0,,10000.0,99999,,(7563.220011886535+0j),1.5,11160036021011020110300904000051000601507610080000
4299,LYBE,44.8184,20.3091,2024-05-03 00:30:00,63.0,36.0,',green,14.0,1008.0,(1957.8167275446347+0j),10.0,16.0,130.0,10000.0,99999,,(948.1167275446346+0j),0.0,11160013161014020100300804000051000600007630080000
4300,LYNI,43.3373,21.8537,2024-05-03 00:30:00,,,,,13.0,1009.0,(3189.139059005586+0j),12.0,3.0,120.0,10000.0,99999,,(2177.9390590055864+0j),1.9,11160012031013020120300904000051000601907000080000
4301,LYPG,42.3594,19.2519,2024-05-03 00:30:00,,,,,14.0,1010.0,(1381.8440639863222+0j),14.0,4.0,190.0,10000.0,99999,,0j,0.0,11160019041014020140301004000051000600007000080000
4302,LYTV,42.4047,18.7233,2024-05-03 00:30:00,,,,,13.0,1010.0,(1063.690222712558+0j),12.0,4.0,160.0,10000.0,99999,,(50.79022271255792+0j),3.9,11160016041013020120301004000051000603907000080000
4303,LZIB,48.1702,17.2127,2024-05-03 00:30:00,,,,,14.0,1007.0,(2281.7207535069906+0j),12.0,5.0,30.0,10000.0,99999,,(1273.4207535069906+0j),0.0,11160003051014020120300704000051000600007000080000
4304,LZKZ,48.6631,21.2411,2024-05-03 00:30:00,,,,,12.0,1010.0,(3856.0984315107244+0j),7.0,6.0,360.0,10000.0,99999,,0j,0.0,1116003606101202070301004000051000600007000080000
4305,LZTT,49.0736,20.2411,2024-05-03 00:30:00,,,,,5.0,1011.0,(19.38415178705841+0j),4.0,3.0,290.0,10000.0,99999,,(-992.0158482129416+0j),0.0,1116002903100502040301104000051000600007000080000
4310,LFAT,50.5174,1.62059,2024-05-03 00:30:00,,,,,11.0,1007.0,(1122.2693506275511+0j),9.0,11.0,260.0,10000.0,99999,,(115.66935062755113+0j),0.4,1116002611101102090300704000051000600407000080000
4311,LFBD,44.8283,-0.71556,2024-05-03 00:30:00,,,,,7.0,1016.0,(1938.4804311541673+0j),6.0,4.0,200.0,10000.0,99999,,(921.3804311541672+0j),0.0,1116002004100702060301604000051000600007000080000
4312,LFBH,46.1792,-1.19528,2024-05-03 00:30:00,,,,,12.0,1015.0,(1238.2274119750427+0j),7.0,10.0,230.0,10000.0,99999,,(223.82741197504276+0j),0.0,1116002310101202070301504000051000600007000080000
4313,LFBI,46.5877,0.30667,2024-05-03 00:30:00,,,,,6.0,1015.0,(4269.277776577708+0j),6.0,7.0,200.0,10000.0,99999,,(3254.777776577708+0j),0.0,1116002007100602060301504000051000600007000080000
4314,LFBO,43.6291,1.36382,2024-05-03 00:30:00,,,,,6.0,1017.0,(4943.149076889632+0j),4.0,3.0,180.0,10000.0,99999,,(3925.649076889632+0j),0.0,1116001803100602040301704000051000600007000080000
4315,LFBP,43.38,-0.41861,2024-05-03 00:30:00,,,,,7.0,1017.0,(5197.846132253959+0j),6.0,3.0,140.0,10000.0,99999,,(4180.846132253959+0j),0.0,1116001403100702060301704000051000600007000080000
4316,LFBT,43.1787,-0.00644,2024-05-03 00:30:00,,,,,5.0,1017.0,(12.884038790583867+0j),4.0,5.0,170.0,10000.0,99999,,(-1005.0159612094161+0j),0.0,1116001705100502040301704000051000600007000080000
4317,LFBZ,43.4684,-1.52332,2024-05-03 00:30:00,,,,,8.0,1017.0,(2280.2749060665737+0j),6.0,3.0,,10000.0,99999,,(1263.0749060665737+0j),0.0,1116003603100802060301704000051000600007000080000
4319,LFKB,42.5527,9.48373,2024-05-03 00:30:00,,,,,10.0,1010.0,(1101.419369093543+0j),9.0,3.0,210.0,10000.0,99999,,(89.41936909354308+0j),0.1,1116002103101002090301004000051000600107000080000
4322,LFLB,45.6381,5.88023,2024-05-03 00:30:00,61.0,36.0,^,green,8.0,1015.0,(5680.224495315201+0j),8.0,6.0,190.0,10000.0,99999,,(4663.924495315201+0j),0.5,1116001906100802080301504000051000600507610080000
4323,LFLC,45.7867,3.16917,2024-05-03 00:30:00,,,,,8.0,1015.0,(7683.330830217872+0j),5.0,8.0,260.0,10000.0,99999,,(6668.030830217872+0j),0.0,1116002608100802050301504000051000600007000080000
4324,LFLL,45.7264,5.09083,2024-05-03 00:30:00,61.0,36.0,^,green,9.0,1015.0,(5357.066790912172+0j),8.0,5.0,160.0,9000.0,99999,,(4341.766790912172+0j),0.5,1115001605100902080301504000051000600507610080000
4325,LFLS,45.3629,5.32937,2024-05-03 00:30:00,,,,,8.0,1015.0,(8984.365982011517+0j),7.0,6.0,60.0,10000.0,99999,,(7968.265982011517+0j),0.6,1116000606100802070301504000051000600607000080000
4327,LFMD,43.542,6.95348,2024-05-03 00:30:00,,,,,10.0,1010.0,(1055.2909761461112+0j),8.0,2.0,,10000.0,99999,,(46.290976146111234+0j),0.0,1116003602101002080301004000051000600007000080000
4328,LFMH,45.5406,4.29639,2024-05-03 00:30:00,,,,,8.0,1015.0,(9.121625375472588+0j),7.0,4.0,150.0,10000.0,99999,,(-1006.4783746245274+0j),0.0,1116001504100802070301504000051000600007000080000
4329,LFML,43.43927,5.22142,2024-05-03 00:30:00,,,,,11.0,1015.0,(1259.4121307421235+0j),9.0,14.0,290.0,10000.0,99999,,(244.61213074212355+0j),0.0,1116002914101102090301504000051000600007000080000
4330,LFMN,43.6584,7.21587,2024-05-03 00:30:00,,,,,11.0,1010.0,(1047.9494221708208+0j),9.0,9.0,330.0,10000.0,99999,,(39.6494221708208+0j),0.0,1116003309101102090301004000051000600007000080000
4331,LFMP,42.7404,2.87067,2024-05-03 00:30:00,,,,,10.0,1017.0,(1566.0843890359838+0j),5.0,6.0,230.0,10000.0,99999,,(549.1843890359838+0j),0.0,1116002306101002050301704000051000600007000080000
4332,LFMT,43.5762,3.96301,2024-05-03 00:30:00,,,,,10.0,1016.0,(1075.7488340330171+0j),6.0,11.0,270.0,10000.0,99999,,(60.0488340330171+0j),0.0,1116002711101002060301604000051000600007000080000
4333,LFOB,49.4544,2.11278,2024-05-03 00:30:00,,,,,10.0,1009.0,(2509.048990141524+0j),8.0,8.0,240.0,10000.0,99999,,(1500.6489901415239+0j),0.0,1116002408101002080300904000051000600007000080000
4334,LFOH,49.5339,0.08806,2024-05-03 00:30:00,,,,,10.0,1010.0,(2295.7961574663905+0j),9.0,13.0,240.0,10000.0,99999,,(1286.6961574663906+0j),0.0,1116002413101002090301004000051000600007000080000
4335,LFOT,47.4322,0.72761,2024-05-03 00:30:00,,,,,8.0,1013.0,(2942.0685603668317+0j),6.0,6.0,230.0,10000.0,99999,,(1929.0685603668317+0j),0.0,1116002306100802060301304000051000600007000080000
4338,LFPN,48.7519,2.10619,2024-05-03 00:30:00,,,,,9.0,1011.0,(3698.703125183903+0j),8.0,6.0,250.0,10000.0,99999,,(2688.603125183903+0j),0.0,1116002506100902080301104000051000600007000080000
4339,LFPO,48.7253,2.35944,2024-05-03 00:30:00,,,,,10.0,1011.0,(2196.668636714625+0j),8.0,8.0,250.0,10000.0,99999,,(1186.4686367146248+0j),0.0,1116002508101002080301104000051000600007000080000
4344,LFRG,49.3653,0.15431,2024-05-03 00:30:00,,,,,8.0,1010.0,(3700.01975228554+0j),7.0,8.0,220.0,10000.0,99999,,(2690.61975228554+0j),0.0,1116002208100802070301004000051000600007000080000
4349,LFRZ,47.3122,-2.14918,2024-05-03 00:30:00,,,,,9.0,1013.0,(1063.524964111873+0j),8.0,5.0,230.0,10000.0,99999,,(50.92496411187301+0j),0.0,1116002305100902080301304000051000600007000080000
4350,LFSB,47.5896,7.52991,2024-05-03 00:30:00,,,,,10.0,1011.0,(5193.373853534331+0j),8.0,14.0,250.0,10000.0,99999,,(4181.973853534331+0j),0.0,1116002514101002080301104000051000600007000080000
4351,LFSN,48.6921,6.23046,2024-05-03 00:30:00,51.0,36.0,T,green,10.0,1010.0,(4487.666336741356+0j),9.0,7.0,250.0,10000.0,99999,,(3477.466336741356+0j),0.0,1116002507101002090301004000051000600007510080000
4352,LFST,48.5383,7.62823,2024-05-03 00:30:00,,,,,12.0,1010.0,(2808.948472916072+0j),9.0,10.0,250.0,10000.0,99999,,(1799.6484729160723+0j),0.0,1116002510101202090301004000051000600007000080000
4353,LFTW,43.7574,4.41635,2024-05-03 00:30:00,,,,,7.0,1015.0,(2924.072144943629+0j),5.0,5.0,280.0,10000.0,99999,,(1909.172144943629+0j),0.0,1116002805100702050301504000051000600007000080000
4354,LFBA,44.1747,0.59056,2024-05-03 00:30:00,,,,,5.0,1017.0,(2765.6214299248854+0j),4.0,0.0,0.0,10000.0,99999,,(1748.7214299248853+0j),0.0,1116000000100502040301704000051000600007000080000
4355,LFBC,44.5333,-1.125,2024-05-03 00:30:00,,,,,8.0,1016.0,(1406.9859803444854+0j),7.0,4.0,150.0,10000.0,99999,,(390.5859803444854+0j),0.0,1116001504100802070301604000051000600007000080000
4356,LFBL,45.8628,1.17944,2024-05-03 00:30:00,,,,,6.0,1016.0,(11.432223195200136+0j),6.0,3.0,230.0,10000.0,99999,,(-1004.2677768048+0j),0.0,1116002303100602060301604000051000600007000080000
4357,LFBM,43.9117,-0.5075,2024-05-03 00:30:00,,,,,4.0,1017.0,(3259.9823389629437+0j),3.0,3.0,70.0,10000.0,99999,,(2242.782338962944+0j),0.0,1116000703100402030301704000051000600007000080000
4358,LFKF,41.5006,9.09778,2024-05-03 00:30:00,,,,,14.0,1011.0,(1235.1345434644625+0j),7.0,29.0,270.0,10000.0,99999,,(220.8345434644625+0j),0.0,1116002729101402070301104000051000600007000080000
4359,LFOE,49.0287,1.21986,2024-05-03 00:30:00,,,,,9.0,1011.0,(3281.2088140034616+0j),6.0,6.0,240.0,10000.0,99999,,(2271.2088140034616+0j),0.0,1116002406100902060301104000051000600007000080000
4360,LFOP,49.3842,1.1748,2024-05-03 00:30:00,,,,,9.0,1010.0,(3547.64023953239+0j),8.0,9.0,240.0,10000.0,99999,,(2538.34023953239+0j),0.0,1116002409100902080301004000051000600007000080000
4361,LFPB,48.9694,2.44139,2024-05-03 00:30:00,,,,,11.0,1011.0,(1784.306961343196+0j),8.0,8.0,240.0,10000.0,99999,,(774.606961343196+0j),0.0,1116002408101102080301104000051000600007000080000
4362,LFPG,49.0128,2.55,2024-05-03 00:30:00,,,,,10.0,1010.0,(2669.2851931837295+0j),8.0,11.0,250.0,10000.0,99999,,(1659.1851931837296+0j),0.0,1116002511101002080301004000051000600007000080000
4363,LFPV,48.7744,2.20154,2024-05-03 00:30:00,,,,,9.0,1011.0,(3961.6272846712186+0j),7.0,7.0,250.0,10000.0,99999,,(2951.5272846712187+0j),0.0,1116002507100902070301104000051000600007000080000
4364,LFQB,48.3221,4.0167,2024-05-03 00:30:00,,,,,10.0,1011.0,(2657.4774372796655+0j),9.0,10.0,230.0,10000.0,99999,,(1646.4774372796655+0j),0.0,1116002310101002090301104000051000600007000080000
4365,LFQQ,50.5619,3.08944,2024-05-03 00:30:00,,,,,12.0,1006.0,(1495.7982583195487+0j),9.0,15.0,250.0,10000.0,99999,,(489.49825831954877+0j),0.7,1116002515101202090300604000051000600707000080000
4367,LFSD,47.2689,5.09,2024-05-03 00:30:00,,,,,9.0,1013.0,(4792.557950586082+0j),8.0,4.0,200.0,10000.0,99999,,(3779.3579505860826+0j),0.0,1116002004100902080301304000051000600007000080000
4368,LFSI,48.636,4.89942,2024-05-03 00:30:00,,,,,10.0,1011.0,(2994.211376570212+0j),9.0,8.0,230.0,10000.0,99999,,(1983.611376570212+0j),0.0,1116002308101002090301104000051000600007000080000
4369,LFSL,45.03967,1.4855,2024-05-03 00:30:00,,,,,4.0,1017.0,(12.961904998585478+0j),3.0,0.0,0.0,8000.0,99999,,(-996.4380950014145+0j),0.0,1114000000100402030301704000051000600007000080000
4370,LFSO,48.5831,5.955,2024-05-03 00:30:00,,,,,9.0,1010.0,(6970.720394628178+0j),7.0,12.0,260.0,10000.0,99999,,(5961.120394628178+0j),0.0,1116002612100902070301004000051000600007000080000
4371,LFSX,47.7831,6.36406,2024-05-03 00:30:00,,,,,9.0,1012.0,(5876.0484265350915+0j),8.0,7.0,250.0,10000.0,99999,,(4864.848426535092+0j),0.5,1116002507100902080301204000051000600507000080000
4372,LFTH,43.0973,6.14603,2024-05-03 00:30:00,,,,,13.0,1012.0,(1030.6937514222834+0j),6.0,12.0,280.0,10000.0,99999,,(18.193751422283412+0j),0.0,1116002812101302060301204000051000600007000080000
4378,LPMA,32.6979,-16.7745,2024-05-03 00:30:00,,,,,16.0,1022.0,(1475.5179096996817+0j),12.0,5.0,330.0,10000.0,99999,,(453.71790969968174+0j),0.0,11160033051016020120302204000051000600007000080000
4382,ULAA,64.6003,40.7167,2024-05-03 00:30:00,,,,,-7.0,1025.0,(735.8868231664283+0j),-10.0,2.0,10.0,10000.0,99999,,(-290.4131768335717+0j),0.0,11160001021107021100302504000051000600007000080000
4385,ULLI,59.8003,30.2625,2024-05-03 00:30:00,,,,,5.0,1023.0,(1625.3562246869196+0j),0.0,3.0,110.0,10000.0,99999,,(601.3562246869196+0j),0.0,1116001103100502000302304000051000600007000080000
4386,ULMM,68.7817,32.7508,2024-05-03 00:30:00,,,,,-7.0,1026.0,(126.92561710904388+0j),-8.0,2.0,130.0,10000.0,99999,,(-900.8743828909561+0j),0.0,1116001302110702180302604000051000600007000080000
4387,UUDD,55.4088,37.9063,2024-05-03 00:30:00,,,,,5.0,1016.0,(6740.002060932758+0j),-2.0,6.0,20.0,10000.0,99999,,(5724.102060932758+0j),0.0,1116000206100502120301604000051000600007000080000
4390,URKA,45.0021,37.3473,2024-05-03 00:30:00,,,,,11.0,1005.0,(1605.7526157471254+0j),8.0,4.0,70.0,10000.0,99999,,(598.7526157471254+0j),0.0,1116000704101102080300504000051000600007000080000
4391,URKK,45.0347,39.1705,2024-05-03 00:30:00,,,,,12.0,1005.0,(1365.731176373851+0j),8.0,3.0,40.0,10000.0,99999,,(359.53117637385094+0j),0.0,1116000403101202080300504000051000600007000080000
4392,URMM,44.2251,43.0819,2024-05-03 00:30:00,,,,,13.0,1005.0,(4776.055261197345+0j),9.0,0.0,0.0,10000.0,99999,,(3769.255261197345+0j),0.0,1116000000101302090300504000051000600007000080000
4393,URMT,45.1092,42.1128,2024-05-03 00:30:00,,,,,12.0,1006.0,(6991.039825730777+0j),0.0,2.0,60.0,10000.0,99999,,(5983.439825730777+0j),0.0,1116000602101202000300604000051000600007000080000
4394,URSS,43.4499,39.9566,2024-05-03 00:30:00,80.0,36.0,q,green,14.0,1005.0,(1233.1392366803243+0j),14.0,1.0,200.0,9000.0,99999,,(226.03923668032428+0j),1.0,11150020011014020140300504000051000601007800080000
4395,URWA,46.2833,48.0063,2024-05-03 00:30:00,,,,,15.0,1006.0,(861.8842352645266+0j),3.0,6.0,60.0,10000.0,99999,,(-145.41576473547332+0j),0.0,1116000606101502030300604000051000600007000080000
4396,URWI,46.3739,44.3309,2024-05-03 00:30:00,,,,,12.0,1007.0,(2784.425033763259+0j),3.0,5.0,120.0,10000.0,99999,,(1775.9250337632589+0j),0.0,1116001205101202030300704000051000600007000080000
4397,URWW,48.7825,44.3455,2024-05-03 00:30:00,,,,,11.0,1008.0,(2888.0091578086353+0j),4.0,1.0,,10000.0,99999,,(1877.9091578086354+0j),0.0,1116003601101102040300804000051000600007000080000
4398,UUEE,55.9726,37.4146,2024-05-03 00:30:00,,,,,4.0,1017.0,(8651.751674165775+0j),-2.0,4.0,350.0,10000.0,99999,,(7635.051674165775+0j),0.0,1116003504100402120301704000051000600007000080000
4399,UUOO,51.8142,39.2296,2024-05-03 00:30:00,,,,,7.0,1013.0,(4413.639835774946+0j),1.0,3.0,40.0,10000.0,99999,,(3398.939835774946+0j),0.0,1116000403100702010301304000051000600007000080000
4400,UUWW,55.5915,37.2615,2024-05-03 00:30:00,,,,,5.0,1016.0,(7728.597071775859+0j),-0.0,4.0,340.0,10000.0,99999,,(6712.297071775859+0j),0.0,1116003404100502100301604000051000600007000080000
4402,UWGG,56.2301,43.784,2024-05-03 00:30:00,,,,,-1.0,1013.0,(740.8337821113868+0j),-4.0,4.0,330.0,10000.0,99999,,(-270.9662178886132+0j),0.2,1116003304110102140301304000051000600207000080000
4403,UWKD,55.6062,49.2787,2024-05-03 00:30:00,,,,,3.0,1005.0,(7644.921316077499+0j),-1.0,2.0,280.0,10000.0,99999,,(6636.8213160774985+0j),0.0,1116002802100302110300504000051000600007000080000
4404,UWKE,55.5647,52.0925,2024-05-03 00:30:00,85.0,36.0,v,magenta,1.0,1004.0,(22.51567209219374+0j),-0.0,2.0,240.0,10000.0,99999,,(-984.8843279078062+0j),0.0,1116002402100102100300404000051000600007850080000
4405,UWWW,53.5049,50.1643,2024-05-03 00:30:00,,,,,4.0,1006.0,(6757.913049551192+0j),-3.0,2.0,250.0,10000.0,99999,,(5750.213049551192+0j),0.0,1116002502100402130300604000051000600007000080000
4410,LEBL,41.2971,2.07846,2024-05-03 00:30:00,,,,,11.0,1017.0,(1055.2124379680442+0j),7.0,6.0,330.0,10000.0,99999,,(37.812437968044264+0j),0.0,1116003306101102070301704000051000600007000080000
4411,LECO,43.3021,-8.37726,2024-05-03 00:30:00,,,,,9.0,1016.0,(2541.8452059606525+0j),6.0,6.0,200.0,10000.0,99999,,(1525.1452059606524+0j),0.0,1116002006100902060301604000051000600007000080000
4412,LEDA,41.72819,0.53502,2024-05-03 00:30:00,,,,,9.0,1017.0,(7382.298583870035+0j),3.0,7.0,270.0,10000.0,99999,,(6366.498583870035+0j),0.0,1116002707100902030301704000051000600007000080000
4416,LEJR,36.7446,-6.06011,2024-05-03 00:30:00,,,,,9.0,1020.0,(1405.9050833832764+0j),8.0,2.0,,7000.0,99999,,(385.3050833832764+0j),0.0,1114003602100902080302004000051000600007000080000
4418,LELL,41.5209,2.10508,2024-05-03 00:30:00,,,,,8.0,1017.0,(3764.338548140983+0j),4.0,0.0,0.0,10000.0,99999,,(2746.938548140983+0j),0.0,1116000000100802040301704000051000600007000080000
4419,LEMD,40.4936,-3.56676,2024-05-03 00:30:00,,,,,9.0,1019.0,(11.705890216730278+0j),3.0,6.0,210.0,10000.0,99999,,(-1006.5941097832697+0j),0.0,1116002106100902030301904000051000600007000080000
4420,LEMG,36.6749,-4.49911,2024-05-03 00:30:00,,,,,15.0,1019.0,(1145.1576091110144+0j),2.0,11.0,280.0,10000.0,99999,,(126.15760911101438+0j),0.0,1116002811101502020301904000051000600007000080000
4421,LEMH,39.8626,4.21865,2024-05-03 00:30:00,,,,,13.0,1018.0,(1946.196352086295+0j),10.0,5.0,250.0,10000.0,99999,,(927.996352086295+0j),0.0,11160025051013020100301804000051000600007000080000
4422,LEPA,39.5517,2.73881,2024-05-03 00:30:00,,,,,10.0,1018.0,(1113.7543566749237+0j),8.0,3.0,40.0,10000.0,99999,,(95.25435667492366+0j),0.0,1116000403101002080301804000051000600007000080000
4423,LEPP,42.77,-1.64633,2024-05-03 00:30:00,,,,,5.0,1017.0,(14.677597952646481+0j),4.0,2.0,,10000.0,99999,,(-1002.4224020473536+0j),0.0,1116003602100502040301704000051000600007000080000
4424,LERS,41.1474,1.16717,2024-05-03 00:30:00,,,,,9.0,1017.0,(2063.2262047135714+0j),4.0,3.0,20.0,10000.0,99999,,(1046.4262047135715+0j),0.0,1116000203100902040301704000051000600007000080000
4425,LESO,43.3565,-1.79061,2024-05-03 00:30:00,,,,,9.0,1017.0,(1079.578516238539+0j),8.0,3.0,210.0,10000.0,99999,,(61.77851623853894+0j),0.0,1116002103100902080301704000051000600007000080000
4426,LEST,42.8963,-8.41514,2024-05-03 00:30:00,,,,,9.0,1016.0,(7616.772656870106+0j),7.0,7.0,210.0,10000.0,99999,,(6599.172656870106+0j),0.2,1116002107100902070301604000051000600207000080000
4428,LEVD,41.7061,-4.85194,2024-05-03 00:30:00,,,,,3.0,1018.0,(26.390300887829177+0j),2.0,5.0,250.0,10000.0,99999,,(-992.2096991121708+0j),0.0,1116002505100302020301804000051000600007000080000
4429,LEVT,42.8828,-2.72447,2024-05-03 00:30:00,,,,,4.0,1017.0,(18.262327464954527+0j),3.0,3.0,70.0,10000.0,99999,,(-999.7376725350455+0j),0.7,1116000703100402030301704000051000600707000080000
4432,LEZG,41.6662,-1.04155,2024-05-03 00:30:00,,,,,11.0,1018.0,(4699.683331019011+0j),2.0,2.0,100.0,10000.0,99999,,(3682.9833310190115+0j),0.0,1116001002101102020301804000051000600007000080000
4433,LEZL,37.418,-5.89311,2024-05-03 00:30:00,,,,,12.0,1020.0,(1366.4323508380278+0j),8.0,3.0,300.0,10000.0,99999,,(346.33235083802776+0j),0.0,1116003003101202080302004000051000600007000080000
4440,LESA,40.9521,-5.50199,2024-05-03 00:30:00,,,,,4.0,1020.0,(22.966689777690974+0j),3.0,6.0,280.0,10000.0,99999,,(-997.2333102223091+0j),0.0,1116002806100402030302004000051000600007000080000
4442,LFMI,43.5227,4.92384,2024-05-03 00:30:00,,,,,9.0,1015.0,(1351.0635402488963+0j),7.0,9.0,300.0,10000.0,99999,,(336.26354024889633+0j),0.0,1116003009100902070301504000051000600007000080000
4443,LFMV,43.9073,4.90183,2024-05-03 00:30:00,,,,,10.0,1015.0,(1481.5171600200708+0j),9.0,2.0,320.0,10000.0,99999,,(466.7171600200709+0j),0.0,1116003202101002090301504000051000600007000080000
4446,LFOK,48.7761,4.18449,2024-05-03 00:30:00,,,,,10.0,1010.0,(3639.953179198523+0j),8.0,10.0,250.0,10000.0,99999,,0j,0.0,1116002510101002080301004000051000600007000080000
4447,UMKK,54.89,20.5926,2024-05-03 00:30:00,,,,,13.0,1013.0,(1127.4363501807381+0j),9.0,5.0,90.0,10000.0,99999,,(113.43635018073815+0j),0.0,1116000905101302090301304000051000600007000080000
4448,URML,42.8168,47.6523,2024-05-03 00:30:00,,,,,14.0,1005.0,(1034.6198542330897+0j),10.0,2.0,270.0,10000.0,99999,,(28.3198542330897+0j),0.0,11160027021014020100300504000051000600007000080000
4449,UWLL,54.2683,48.2267,2024-05-03 00:30:00,,,,,4.0,1007.0,(6585.548900061042+0j),-2.0,3.0,270.0,10000.0,99999,,(5575.948900061042+0j),0.0,1116002703100402120300704000051000600007000080000
4451,LEAM,36.8439,-2.3701,2024-05-03 00:30:00,,,,,14.0,1018.0,(1198.1331894809648+0j),10.0,0.0,0.0,10000.0,99999,,(179.43318948096476+0j),0.0,11160000001014020100301804000051000600007000080000
4452,LEAS,43.5636,-6.03462,2024-05-03 00:30:00,,,,,10.0,1016.0,(2801.9714481627934+0j),8.0,3.0,220.0,10000.0,99999,,(1785.3714481627935+0j),0.0,1116002203101002080301604000051000600007000080000
4453,LEBA,37.842,-4.84888,2024-05-03 00:30:00,,,,,11.0,1020.0,(2119.8108549761864+0j),9.0,0.0,0.0,10000.0,99999,,(1100.2108549761865+0j),0.0,1116000000101102090302004000051000600007000080000
4454,LEBB,43.3011,-2.91061,2024-05-03 00:30:00,,,,,9.0,1017.0,(1604.7226264124315+0j),8.0,3.0,110.0,10000.0,99999,,(587.4226264124316+0j),0.7,1116001103100902080301704000051000600707000080000
4455,LEBG,42.3576,-3.62076,2024-05-03 00:30:00,,,,,5.0,1018.0,(21.912725942836197+0j),2.0,13.0,210.0,10000.0,99999,,(-996.2872740571638+0j),0.0,1116002113100502020301804000051000600007000080000
4456,LEGE,41.901,2.76055,2024-05-03 00:30:00,,,,,6.0,1017.0,(4671.159416336452+0j),5.0,0.0,0.0,9000.0,99999,,(3654.2594163364515+0j),0.0,1115000000100602050301704000051000600007000080000
4457,LEGR,37.1887,-3.77736,2024-05-03 00:30:00,,,,,7.0,1021.0,(13.46304466614407+0j),5.0,2.0,,10000.0,99999,,(-1006.736955333856+0j),0.0,1116003602100702050302104000051000600007000080000
4458,LEGT,40.2941,-3.72383,2024-05-03 00:30:00,,,,,9.0,1019.0,(11.845494251177161+0j),4.0,7.0,250.0,10000.0,99999,,(-1006.9545057488228+0j),0.0,1116002507100902040301904000051000600007000080000
4459,LEIB,38.8729,1.37312,2024-05-03 00:30:00,,,,,14.0,1018.0,(1078.3756615110867+0j),11.0,5.0,240.0,10000.0,99999,,(60.17566151108667+0j),0.0,11160024051014020110301804000051000600007000080000
4460,LELC,37.775,-0.81239,2024-05-03 00:30:00,,,,,12.0,1019.0,(1051.1318587054566+0j),9.0,1.0,,10000.0,99999,,(32.53185870545656+0j),0.0,1116003601101202090301904000051000600007000080000
4461,LELN,42.589,-5.65556,2024-05-03 00:30:00,,,,,4.0,1017.0,(24.384961694534528+0j),2.0,4.0,230.0,8000.0,99999,,(-994.2150383054654+0j),0.1,1114002304100402020301704000051000600107000080000
4462,LELO,42.46095,-2.32224,2024-05-03 00:30:00,,,,,6.0,1017.0,(10.430570348284744+0j),5.0,4.0,280.0,10000.0,99999,,(-1006.9694296517152+0j),0.0,1116002804100602050301704000051000600007000080000
4465,LEVC,39.4893,-0.48162,2024-05-03 00:30:00,,,,,14.0,1018.0,(1682.225053581207+0j),-1.0,3.0,330.0,10000.0,99999,,(664.125053581207+0j),0.0,1116003303101402110301804000051000600007000080000
4466,LEVX,42.2318,-8.62677,2024-05-03 00:30:00,,,,,9.0,1018.0,(5577.8416738037195+0j),8.0,7.0,190.0,10000.0,99999,,(4559.241673803719+0j),0.4,1116001907100902080301804000051000600407000080000
4467,LEXJ,43.4271,-3.82001,2024-05-03 00:30:00,,,,,10.0,1016.0,(1072.19418583539+0j),9.0,1.0,,10000.0,99999,,(55.09418583539002+0j),4.3,1116003601101002090301604000051000604207000080000
4472,LPFR,37.0144,-7.96591,2024-05-03 00:30:00,,,,,13.0,1021.0,(1086.272643315061+0j),6.0,6.0,300.0,10000.0,99999,,(65.57264331506099+0j),0.0,1116003006101302060302104000051000600007000080000
4473,LPPR,41.2481,-8.68139,2024-05-03 00:30:00,,,,,11.0,1019.0,(1837.9205155147374+0j),9.0,7.0,160.0,10000.0,99999,,(818.1205155147375+0j),0.2,1116001607101102090301904000051000600207000080000
4474,LPPS,33.0734,-16.35,2024-05-03 00:30:00,,,,,17.0,1022.0,(1814.178365199968+0j),12.0,6.0,110.0,10000.0,99999,,(792.8783651999681+0j),0.0,11160011061017020120302204000051000600007000080000
4476,EGDM,51.1522,-1.74741,2024-05-03 00:20:00,,,,,9.0,1007.0,(2953.9523706879477+0j),6.0,11.0,260.0,10000.0,99999,,(1947.3523706879478+0j),0.0,1116002611100902060300704000051000600007000080000
4477,EGOM,55.05,-2.55,2024-05-03 00:20:00,10.0,36.0,+,yellow,5.0,1007.0,(11.184322048658478+0j),5.0,8.0,90.0,5000.0,99999,,(-997.8156779513415+0j),0.0,1113000908100502050300704000051000600007100080000
4478,EGOS,52.7982,-2.66804,2024-05-03 00:20:00,,,,,12.0,1005.0,(1813.6467488108985+0j),11.0,4.0,340.0,9000.0,99999,,(808.3467488108986+0j),0.0,11150034041012020110300504000051000600007000080000
4479,EGOV,53.2481,-4.53534,2024-05-03 00:20:00,10.0,36.0,+,yellow,11.0,1006.0,(1124.4279277677874+0j),10.0,10.0,190.0,6000.0,99999,,(118.62792776778747+0j),0.0,11130019101011020100300604000051000600007100080000
4480,EGQK,57.6494,-3.56064,2024-05-03 00:20:00,,,,,7.0,1014.0,(1125.3645609407326+0j),6.0,2.0,30.0,6000.0,99999,,(110.36456094073264+0j),0.0,1113000302100702060301404000051000600007000080000
4481,EGUB,51.6164,-1.09583,2024-05-03 00:20:00,53.0,36.0,V,green,9.0,1006.0,(2006.2620842189888+0j),9.0,7.0,240.0,1600.0,99999,,(1001.0620842189887+0j),0.0,1110002407100902090300604000051000600007530080000
4482,EGUW,52.1273,0.95626,2024-05-03 00:20:00,10.0,36.0,+,yellow,10.0,1004.0,(2149.68993136527+0j),9.0,9.0,280.0,3900.0,99999,,(1146.4899313652697+0j),0.0,1112002809101002090300404000051000600007100080000
4483,EGVP,51.1394,-1.56861,2024-05-03 00:20:00,,,,,9.0,1007.0,(2367.874372150436+0j),7.0,9.0,250.0,10000.0,99999,,(1361.374372150436+0j),0.0,1116002509100902070300704000051000600007000080000
4484,EGWC,52.64,-2.30558,2024-05-03 00:20:00,,,,,99999.0,99999.0,(99999+0j),99999.0,1.0,310.0,10000.0,99999,,(98994.4+0j),0.0,11160031011099999020999990399904000051000600007000080000
4485,EGWU,51.553,-0.41817,2024-05-03 00:20:00,51.0,36.0,T,green,10.0,1006.0,(1468.380554660287+0j),9.0,9.0,250.0,6000.0,99999,,(462.68055466028704+0j),0.0,1113002509101002090300604000051000600007510080000
4486,EGXE,54.2924,-1.5354,2024-05-03 00:20:00,10.0,36.0,+,yellow,9.0,1006.0,(1560.0316460076353+0j),7.0,10.0,360.0,8000.0,99999,,(552.1316460076354+0j),0.0,1114003610100902070300604000051000600007100080000
4487,EGXT,52.6126,-0.47645,2024-05-03 00:20:00,10.0,36.0,+,yellow,11.0,1004.0,(1989.2969904133365+0j),9.0,5.0,350.0,6000.0,99999,,(984.3969904133365+0j),0.0,1113003505101102090300404000051000600007100080000
4488,EGXW,53.1662,-0.52381,2024-05-03 00:20:00,10.0,36.0,+,yellow,10.0,1005.0,(1915.616850134176+0j),8.0,9.0,360.0,9000.0,99999,,(910.7168501341761+0j),0.0,1115003609101002080300504000051000600007100080000
4489,EGXZ,54.2055,-1.38209,2024-05-03 00:20:00,10.0,36.0,+,yellow,9.0,1006.0,(1382.261896178177+0j),8.0,17.0,350.0,10000.0,99999,,(375.4618961781771+0j),0.0,1116003517100902080300604000051000600007100080000
4490,EGYD,53.0303,-0.48324,2024-05-03 00:20:00,10.0,36.0,+,yellow,10.0,1005.0,(1858.9864370093082+0j),8.0,8.0,350.0,8000.0,99999,,(853.4864370093082+0j),0.0,1114003508101002080300504000051000600007100080000
4491,EGYE,52.9622,-0.56163,2024-05-03 00:20:00,,,,,10.0,1005.0,(2536.939580277123+0j),8.0,8.0,360.0,10000.0,99999,,(1532.6395802771228+0j),0.0,1116003608101002080300504000051000600007000080000
4492,EGYM,52.6484,0.55069,2024-05-03 00:20:00,10.0,36.0,+,yellow,10.0,1004.0,(1274.877505372112+0j),9.0,7.0,310.0,5000.0,99999,,(271.1775053721119+0j),0.0,1113003107101002090300404000051000600007100080000
4493,EICK,51.8413,-8.49111,2024-05-03 00:30:00,,,,,8.0,1008.0,(3839.9067865161423+0j),6.0,5.0,280.0,10000.0,99999,,(2831.3067865161424+0j),0.0,1116002805100802060300804000051000600007000080000
4501,LFRB,48.4479,-4.41854,2024-05-03 00:30:00,,,,,7.0,1011.0,(3025.307115942094+0j),6.0,5.0,210.0,10000.0,99999,,(2013.7071159420939+0j),0.0,1116002105100702060301104000051000600007000080000
4502,LPPT,38.7813,-9.13592,2024-05-03 00:30:00,,,,,10.0,1021.0,(2611.0804665330375+0j),7.0,4.0,220.0,10000.0,99999,,(1589.6804665330374+0j),0.0,1116002204101002070302104000051000600007000080000
4503,LXGB,36.1512,-5.34966,2024-05-03 00:20:00,,,,,15.0,1020.0,(1055.1084187309557+0j),9.0,10.0,270.0,10000.0,99999,,(35.208418730955714+0j),0.0,1116002710101502090302004000051000600007000080000
4505,LQBK,44.9414,17.2975,2024-05-03 00:30:00,,,,,12.0,1009.0,(2388.1620128719414+0j),12.0,7.0,210.0,10000.0,99999,,(1379.4620128719414+0j),1.3,11160021071012020120300904000051000601307000080000
4506,LQTZ,44.4587,18.7248,2024-05-03 00:30:00,61.0,36.0,^,green,12.0,1008.0,(3972.7646795316437+0j),12.0,5.0,300.0,7000.0,99999,,(2964.964679531644+0j),0.0,11140030051012020120300804000051000600007610080000
4507,UUYY,61.647,50.8451,2024-05-03 00:30:00,,,,,-4.0,1013.0,(-0.4888830148571864-0.5109868765778811j),-7.0,5.0,30.0,10000.0,99999,,(-1013.7888830148571-0.5109868765778811j),0.2,1116000305110402170301304000051000600207000080000
4509,ETSN,48.711,11.2115,2024-05-03 00:33:00,,,,,12.0,1008.0,(5989.862628308187+0j),8.0,9.0,240.0,10000.0,99999,,(4983.962628308187+0j),0.0,1116002409101202080300804000051000600007000080000
4510,LEAL,38.2822,-0.55816,2024-05-03 00:32:00,,,,,14.0,1018.0,(1395.611671689499+0j),6.0,4.0,330.0,10000.0,99999,,(377.211671689499+0j),0.0,1116003304101402060301804000051000600007000080000
4512,LFGJ,47.039,5.42725,2024-05-03 00:30:00,,,,,10.0,1014.0,(3953.2441269158453+0j),9.0,10.0,200.0,10000.0,99999,,(2940.344126915845+0j),0.6,1116002010101002090301404000051000600607000080000
4513,LFKC,42.5308,8.79319,2024-05-03 00:30:00,,,,,13.0,1011.0,(1626.093177286399+0j),9.0,13.0,220.0,10000.0,99999,,(613.3931772863989+0j),0.7,1116002213101302090301104000051000600707000080000
4514,LFKJ,41.9236,8.80292,2024-05-03 00:30:00,,,,,15.0,1014.0,(1055.9425444665944+0j),10.0,19.0,260.0,10000.0,99999,,(40.64254446659447+0j),0.7,11160026191015020100301404000051000600707000080000
4516,LFLX,46.8622,1.73067,2024-05-03 00:30:00,,,,,7.0,1015.0,(4534.58857663765+0j),6.0,7.0,230.0,10000.0,99999,,(3520.4885766376497+0j),0.0,1116002307100702060301504000051000600007000080000
4517,LFLY,45.7272,4.94427,2024-05-03 00:30:00,61.0,36.0,^,green,10.0,1015.0,(4029.764980458131+0j),9.0,2.0,,10000.0,99999,,(3014.4649804581313+0j),0.5,1116003602101002090301504000051000600507610080000
4518,LFMC,43.3847,6.38714,2024-05-03 00:30:00,,,,,12.0,1011.0,(1882.45456639907+0j),6.0,18.0,280.0,10000.0,99999,,(871.25456639907+0j),0.0,1116002818101202060301104000051000600007000080000
4519,LFMY,43.6064,5.10925,2024-05-03 00:30:00,,,,,9.0,1015.0,(1871.648855505542+0j),8.0,5.0,260.0,10000.0,99999,,(856.6488555055421+0j),0.0,1116002605100902080301504000051000600007000080000
4520,LFOA,47.0533,2.6325,2024-05-03 00:30:00,,,,,8.0,1014.0,(4369.466103201061+0j),6.0,8.0,250.0,10000.0,99999,,(3356.866103201061+0j),0.0,1116002508100802060301404000051000600007000080000
4521,LFOJ,47.9878,1.76056,2024-05-03 00:30:00,,,,,9.0,1012.0,(2996.0737674374695+0j),7.0,9.0,230.0,10000.0,99999,,(1984.7737674374696+0j),0.0,1116002309100902070301204000051000600007000080000
4522,LFRC,49.6501,-1.47028,2024-05-03 00:30:00,,,,,9.0,1010.0,(3250.0783818692767+0j),8.0,12.0,250.0,10000.0,99999,,(2241.278381869277+0j),0.0,1116002512100902080301004000051000600007000080000
4523,LFRD,48.5877,-2.07996,2024-05-03 00:30:00,,,,,7.0,1012.0,(2299.6790950173213+0j),5.0,5.0,200.0,10000.0,99999,,(1288.2790950173212+0j),0.0,1116002005100702050301204000051000600007000080000
4526,LFRJ,48.5303,-4.15164,2024-05-03 00:30:00,,,,,7.0,1011.0,(3188.8626276494506+0j),5.0,6.0,180.0,10000.0,99999,,(2177.6626276494508+0j),0.0,1116001806100702050301104000051000600007000080000
4527,LFRK,49.1733,-0.45,2024-05-03 00:30:00,,,,,8.0,1011.0,(2330.597436727024+0j),8.0,8.0,230.0,10000.0,99999,,(1320.697436727024+0j),0.0,1116002308100802080301104000051000600007000080000
4529,LFRN,48.0695,-1.73479,2024-05-03 00:30:00,,,,,7.0,1012.0,(1696.3950700442745+0j),5.0,4.0,180.0,10000.0,99999,,(684.4950700442745+0j),0.0,1116001804100702050301204000051000600007000080000
4531,LFRS,47.1532,-1.61073,2024-05-03 00:30:00,,,,,8.0,1013.0,(1432.5616112511575+0j),7.0,4.0,170.0,10000.0,99999,,(419.26161125115755+0j),0.0,1116001704100802070301304000051000600007000080000
4532,LFRT,48.5378,-2.85444,2024-05-03 00:30:00,,,,,8.0,1011.0,(3537.7178609586513+0j),5.0,6.0,220.0,10000.0,99999,,(2526.517860958651+0j),0.0,1116002206100802050301104000051000600007000080000
4533,EIDW,53.4213,-6.27007,2024-05-03 00:30:00,,,,,11.0,1006.0,(1869.5218458032753+0j),10.0,5.0,250.0,6000.0,99999,,(863.3218458032752+0j),0.4,11130025051011020100300604000051000600407000080000
4534,EINN,52.702,-8.92482,2024-05-03 00:30:00,,,,,9.0,1007.0,(1189.2818359153182+0j),9.0,11.0,250.0,10000.0,99999,,(181.58183591531815+0j),0.2,1116002511100902090300704000051000600207000080000
4536,LEMO,37.1749,-5.61594,2024-05-03 00:30:00,,,,,10.0,1020.0,(2188.5503975869156+0j),8.0,4.0,180.0,10000.0,99999,,(1168.1503975869155+0j),0.0,1116001804101002080302004000051000600007000080000
4537,LERT,36.6452,-6.34946,2024-05-03 00:30:00,,,,,14.0,1020.0,(1243.4260687126289+0j),8.0,3.0,40.0,10000.0,99999,,(223.22606871262883+0j),0.0,1116000403101402080302004000051000600007000080000
4538,UMMS,53.8825,28.0307,2024-05-03 00:30:00,,,,,8.0,1017.0,(4973.882129554678+0j),3.0,3.0,50.0,10000.0,99999,,(3956.182129554678+0j),0.0,1116000503100802030301704000051000600007000080000
4539,LEAB,38.9485,-1.86352,2024-05-03 00:30:00,,,,,6.0,1020.0,(17.318577348031408+0j),1.0,4.0,240.0,10000.0,99999,,(-1001.9814226519685+0j),0.0,1116002404100602010302004000051000600007000080000
4542,LFRI,46.7019,-1.37863,2024-05-03 00:30:00,,,,,7.0,1014.0,(2850.9692961633364+0j),6.0,4.0,190.0,10000.0,99999,,(1836.9692961633364+0j),0.0,1116001904100702060301404000051000600007000080000
4543,LFRM,47.9486,0.20167,2024-05-03 00:30:00,,,,,9.0,1013.0,(1863.1124556786078+0j),7.0,5.0,220.0,10000.0,99999,,(851.1124556786078+0j),0.0,1116002205100902070301304000051000600007000080000
4550,ETIK,49.4739,10.3881,2024-05-03 00:40:00,,,,,11.0,29.72,(5800.695051520982+0j),9.0,11.0,230.0,10000.0,99999,,(4795.495051520982+0j),0.0,111600231110110209032974000051000600007000080000
4551,LFKS,41.9244,9.406,2024-05-03 00:30:00,,,,,14.0,1010.0,(1080.026452445485+0j),8.0,6.0,290.0,10000.0,99999,,(68.32645244548485+0j),1.1,1116002906101402080301004000051000601107000080000
4552,LFRH,47.7606,-3.44,2024-05-03 00:30:00,,,,,10.0,1012.0,(1624.4986730931562+0j),8.0,4.0,220.0,10000.0,99999,,(611.9986730931562+0j),0.0,1116002204101002080301204000051000600007000080000
4553,LFRQ,47.975,-4.16779,2024-05-03 00:30:00,,,,,7.0,1012.0,(2831.373772109176+0j),7.0,1.0,,10000.0,99999,,(1819.173772109176+0j),0.0,1116003601100702070301204000051000600007000080000
4554,LETO,40.4967,-3.44587,2024-05-03 00:30:00,,,,,5.0,1019.0,(17.894770141796908+0j),3.0,1.0,,10000.0,99999,,(-1001.005229858203+0j),0.0,1116003601100502030301904000051000600007000080000
4556,ETAD,49.9727,6.6925,2024-05-03 00:40:00,,,,,10.0,29.69,(6940.541787966686+0j),9.0,10.0,240.0,8000.0,99999,,(5934.941787966685+0j),0.0,111400241010100209032964000051000600007000080000
