,station,lat,lon,time,weather,weatherfont,weathersymbol,weathercolour,temperature,pressure,sl_pressure,dewpoint,windspeed,winddir,visibility,visual_range,cloudcover,pressure3h_change,rain,wwletter
608,LGRP,36.4053993225,28.0862007141,2023-09-11 23:50:00,,,,,26.0,1006.0,1028.5838729770417,20.0,3.0,,10000.0,99999,1.0,21.983872977041642,0.0,11160136031026020200300604028551219600007000081000
675,ESKN,58.7886009216,16.9122009277,2023-09-11 23:50:00,45.0,36.0,N,yellow,16.0,1009.0,1329.1157667831064,16.0,5.0,150.0,150.0,99999,8.0,318.9157667831064,0.0,111008150510160201603009043291513189600007450088000
708,EGJB,49.4350013733,-2.6019699574,2023-09-11 23:50:00,51.0,36.0,T,green,18.0,1015.0,1741.945383634877,17.0,4.0,280.0,4000.0,99999,3.0,727.0453836348771,0.0,111203280410180201703015047419517270600007510083000
771,LGAL,40.8558998108,25.9563007355,2023-09-11 23:50:00,,,,,18.0,1016.0,1062.7393929156428,13.0,3.0,10.0,10000.0,99999,,46.23939291564284,0.0,11160001031018020130301604062751462600007000080000
772,LGEL,38.0638008118,23.5559997559,2023-09-11 23:50:00,,,,,22.0,1014.0,1249.5741997631878,11.0,9.0,340.0,10000.0,99999,1.0,235.57419976318783,0.0,111601340910220201103014042495512355600007000081000
870,LGLM,39.917098999,25.2362995148,2023-09-11 23:50:00,,,,,19.0,1015.0,1040.6936860113133,16.0,9.0,30.0,10000.0,99999,,26.093686011313252,0.0,11160003091019020160301504040651260600007000080000
891,LGKL,37.0682983398,22.0254993439,2023-09-11 23:50:00,,,,,19.0,1014.0,1061.8869724127267,7.0,3.0,,10000.0,99999,,48.58697241272671,0.0,1116003603101902070301404061851485600007000080000
920,ETNG,50.9608001709,6.0424199104,2023-09-11 23:50:00,80.0,36.0,q,green,18.0,1014.0,1646.2818382882451,17.0,2.0,290.0,10000.0,99999,3.0,633.0818382882451,5.0,111603290210180201703014046462516330605007800083000
931,LGSM,37.6899986267,26.911699295,2023-09-11 23:50:00,,,,,25.0,1009.0,1035.348959360041,15.0,10.0,10.0,10000.0,99999,,26.648959360040863,0.0,11160001101025020150300904035351266600007000080000
983,LGBL,39.2196006775,22.7943000793,2023-09-11 23:50:00,,,,,18.0,1016.0,1181.3639295062326,11.0,5.0,270.0,10000.0,99999,,165.36392950623258,0.0,111600270510180201103016041813511653600007000080000
984,LGLR,39.6562825886,22.3400008678,2023-09-11 23:50:00,,,,,17.0,1017.0,1556.8806719070199,13.0,0.0,0.0,10000.0,99999,1.0,540.0806719070199,0.0,111601000010170201303017045568515400600007000081000
988,LGTG,38.3398017883,23.5650005341,2023-09-11 23:50:00,,,,,18.0,1016.0,2108.9742881090397,11.0,7.0,300.0,10000.0,99999,1.0,1092.9742881090397,0.0,1116013007101802011030160410895110929600007000081000
1015,LGPZ,38.9254989624,20.7653007507,2023-09-11 23:50:00,,,,,20.0,1014.0,1033.133671027011,13.0,4.0,20.0,10000.0,99999,,18.633671027010905,0.0,11160002041020020130301404033151186600007000080000
1016,LGRX,38.1511001587,21.4256000519,2023-09-11 23:50:00,,,,,20.0,1014.0,1095.0205965093621,11.0,3.0,,10000.0,99999,,81.02059650936212,0.0,11160036031020020110301404095051810600007000080000
1085,LTAY,37.7855987549,29.7012996674,2023-09-11 23:50:00,,,,,11.0,1014.0,12.927189093873851,2.0,2.0,240.0,10000.0,99999,,-998.4728109061261,0.0,1116002402101102020301404129519985600007000080000
1088,LTBH,40.1376991272,26.4267997742,2023-09-11 23:50:00,,,,,19.0,1015.0,1057.3553869584593,14.0,9.0,90.0,10000.0,99999,,42.255386958459326,0.0,11160009091019020140301504057351422600007000080000
1090,LTBY,39.8098983765,30.5193996429,2023-09-11 23:50:00,,,,,12.0,1016.0,11.389672915319606,9.0,7.0,250.0,10000.0,99999,,0.0,0.0,111600250710120209030160411351000600007000080000
1092,LTCB,40.966667,38.08,2023-09-11 23:50:00,,,,,17.0,1014.0,1050.9706037176582,11.0,6.0,210.0,10000.0,99999,3.0,39.270603717658105,0.0,11160321061017020110301404050951392600007000083000
1096,LTCN,37.5388259888,36.9535217285,2023-09-11 23:50:00,,,,,19.0,1007.0,5286.780751320208,12.0,7.0,50.0,10000.0,99999,2.0,4279.780751320208,0.0,1116020507101902012030070428675142797600007000082000
1097,LTCT,39.9766273499,43.8766479492,2023-09-11 23:50:00,,,,,16.0,1013.0,10.403518297957723,7.0,0.0,0.0,10000.0,99999,3.0,0.0,0.0,111603000010160207030130410451000600007000083000
1098,LTDA,36.36277771,36.2822227478,2023-09-11 23:50:00,,,,,25.0,1005.0,1401.95158459885,19.0,5.0,260.0,10000.0,99999,3.0,395.65158459885015,0.0,111603260510250201903005044019513956600007000083000
1099,LTFD,39.554599762,27.0137996674,2023-09-11 23:50:00,,,,,20.0,1013.0,1101.1026339802943,14.0,18.0,70.0,10000.0,99999,1.0,87.10263398029429,0.0,11160107181020020140301304101151871600007000081000
1100,LTFG,36.2992172241,32.3005981445,2023-09-11 23:50:00,,,,,27.0,1006.0,1118.0067877804036,7.0,2.0,,10000.0,99999,4.0,111.80678778040351,0.0,11160436021027020703006041180511118600007000084000
1102,LTBD,37.8149986267,27.8952999115,2023-09-11 23:50:00,,,,,16.0,1009.0,1238.7174161766395,13.0,3.0,90.0,10000.0,99999,,229.21741617663952,0.0,111600090310160201303009042387512292600007000080000
1178,LBPG,42.2904014587,24.7140007019,2023-09-12 00:00:00,,,,,13.0,1018.0,1576.5197564859347,7.0,4.0,300.0,10000.0,99999,,558.5197564859347,0.0,11160030041013020703018045765515585600007000080000
1179,LBIA,42.4548988342,26.3521995544,2023-09-12 00:00:00,,,,,16.0,1018.0,2337.948577787562,12.0,0.0,0.0,10000.0,99999,,0.0,0.0,11160000001016020120301804337951000600007000080000
1219,ETEK,49.6502990723,7.300069809,2023-09-11 23:55:00,,,,,20.8,29.98,1029.98,14.9,3.0,300.0,10000.0,99999,8.0,14.980000000000018,0.0,1116083003102082014832994029951149600007000088000
1231,EGNS,54.0833015442,-4.6238899231,2023-09-11 23:50:00,,,,,14.0,1013.0,1145.0015033655409,12.0,11.0,350.0,10000.0,99999,2.0,131.80150336554084,0.0,111602351110140201203013041450511318600007000082000
1233,EGQS,57.7052001953,-3.3391699791,2023-09-11 23:50:00,,,,,10.0,1013.0,1162.7587032193285,8.0,8.0,230.0,10000.0,99999,2.0,150.25870321932848,0.0,11160223081010020803013041627511502600007000082000
1241,ETIC,49.6986999512,11.940199852,2023-09-11 23:55:00,,,,,14.4,29.93,5618.785466123854,13.8,0.0,0.0,10000.0,99999,,4604.785466123854,0.0,111600000010144201343299461875146047600007000080000
1406,LTAD,39.949798584,32.6885986328,2023-09-11 23:50:00,,,,,14.0,1017.0,10.25013296747096,5.0,1.0,,10000.0,99999,,-1004.2498670325291,0.0,11160036011014020503017041025110047600007000080000
1411,LTAN,37.9790000916,32.5619010925,2023-09-11 23:50:00,,,,,13.0,1016.0,13.183167979720395,2.0,8.0,330.0,10000.0,99999,,-998.7168320202795,0.0,1116003308101302020301604131519982600007000080000
1413,LTBG,40.3180007935,27.9776992798,2023-09-11 23:50:00,,,,,20.0,1015.0,1327.3296185749946,15.0,12.0,60.0,10000.0,99999,,312.12961857499454,0.0,111600061210200201503015043273513121600007000080000
1414,LTBI,39.7840995789,30.5820999146,2023-09-11 23:50:00,,,,,12.0,1016.0,11.364805028260704,11.0,6.0,240.0,10000.0,99999,,-1005.6351949717393,0.0,111600240610120201103016041135110053600007000080000
1415,LTBL,38.5130004883,27.010099411,2023-09-11 23:50:00,,,,,21.0,1011.0,1037.467720324737,12.0,8.0,350.0,10000.0,99999,,26.467720324737,0.0,11160035081021020120301104037451264600007000080000
1512,LTAE,40.0788993835,32.5656013489,2023-09-11 23:50:00,,,,,12.0,1016.0,12.013891577633405,4.0,2.0,,10000.0,99999,,-1002.8861084223665,0.0,11160036021012020403016041205110021600007000080000
1629,LTAB,39.9350013733,32.7407989502,2023-09-11 23:50:00,,,,,15.0,1016.0,9.765329291361436,6.0,5.0,90.0,10000.0,99999,,-1006.2346707086385,0.0,1116000905101502060301604975110067600007000080000
1630,LTAR,39.8138008118,36.9034996033,2023-09-11 23:50:00,,,,,4.0,1018.0,29.305262872991626,3.0,4.0,350.0,10000.0,99999,,-983.9947371270083,0.0,1116003504100402030301804293519830600007000080000
1631,LTBF,39.6193008423,27.9260005951,2023-09-11 23:50:00,,,,,17.0,1015.0,1799.211864831013,14.0,1.0,,10000.0,99999,,784.911864831013,0.0,111600360110170201403015047992517849600007000080000
1632,LTBQ,40.7350006104,30.0832996368,2023-09-11 23:50:00,,,,,11.0,1016.0,1653.7685901904993,10.0,0.0,0.0,10000.0,99999,,637.2685901904993,0.0,111600000010110201003016046537516372600007000080000
1633,LTCA,38.6068992615,39.2914009094,2023-09-11 23:50:00,,,,,18.0,1010.0,8933.489769409418,1.0,8.0,240.0,10000.0,99999,,7926.489769409418,0.0,111600240810180201030100493345179264600007000080000
1635,LTCI,38.4682006836,43.3322982788,2023-09-11 23:50:00,,,,,19.0,1016.0,14.229073226415085,6.0,9.0,190.0,10000.0,99999,4.0,-991.0709267735849,0.0,1116041909101902060301604142519919600007000084000
2001,LPMR,39.831199646,-8.887260437,2023-09-12 00:00:00,,,,,17.0,1016.0,1426.8386838175263,17.0,1.0,,10000.0,99999,,409.8386838175263,0.0,111600360110170201703016044268514098600007000080000
2002,LPMT,38.7038993835,-9.0359201431,2023-09-12 00:00:00,,,,,18.0,1016.0,1106.362338970226,17.0,4.0,330.0,10000.0,99999,1.0,90.36233897022589,0.0,11160133041018020170301604106351903600007000081000
2017,URMN,43.5129013062,43.6366004944,2023-09-12 00:00:00,,,,,14.0,1014.0,6039.805553648435,8.0,3.0,220.0,10000.0,99999,6.0,5024.305553648435,0.0,111606220310140208030140403985150243600007000086000
2052,UWLW,54.4010009766,48.8027000427,2023-09-12 00:00:00,,,,,9.0,1016.0,2157.0737592401297,7.0,4.0,40.0,10000.0,99999,,1141.9737592401298,0.0,111600040410090207030160415705111419600007000080000
2089,EGVA,51.6822013855,-1.7900300026,2023-09-11 23:55:00,,,,,17.3,29.89,1675.7961709185179,17.1,6.0,250.0,10000.0,99999,6.0,662.8961709185179,0.0,11160625061017320173329846757516628600007000086000
2125,EGWC,52.6399993896,-2.3055799007,2023-09-11 23:50:00,,,,,99999.0,99999.0,99999.0,99999.0,1.0,240.0,10000.0,99999,,98985.8,0.0,11160024011099999020999990399904999051989858600007000080000
2127,EGXC,53.0929985046,-0.1660140008,2023-09-11 23:50:00,,,,,16.0,1012.0,1066.6464769343356,16.0,1.0,10.0,10000.0,99999,4.0,54.34647693433567,0.5,11160401011016020160301204066651543600507000084000
2178,LGHI,38.3432006836,26.1406002045,2023-09-11 23:50:00,,,,,24.0,1009.0,1030.6473740971312,16.0,13.0,30.0,10000.0,99999,,20.34737409713125,0.0,11160003131024020160300904030651203600007000080000
2181,LKKB,50.1213989258,14.5436000824,2023-09-12 00:00:00,,,,,20.0,1013.0,3057.1869518402646,15.0,6.0,200.0,10000.0,99999,,0.0,0.0,11160020061020020150301304057151000600007000080000
2182,LKKV,50.202999115,12.9149999619,2023-09-12 00:00:00,,,,,15.0,1015.0,7499.416912540441,13.0,3.0,100.0,10000.0,99999,,6485.616912540441,0.0,1116001003101502013030150449945164856600007000080000
2183,LKLN,49.675201416,13.274600029,2023-09-12 00:00:00,,,,,17.0,1014.0,4232.872329048688,15.0,0.0,0.0,10000.0,99999,1.0,3218.872329048688,0.0,1116010000101702015030140423285132188600007000081000
2188,LOXZ,47.2028007507,14.7441997528,2023-09-11 23:50:00,,,,,13.0,1017.0,9.383674763973186,11.0,0.0,0.0,10000.0,99999,,-1007.2163252360268,0.0,11160000001013020110301704935110077600007000080000
2198,LTCD,39.7102012634,39.5270004272,2023-09-11 23:50:00,,,,,15.0,1014.0,12.853813739064806,4.0,10.0,260.0,10000.0,99999,,-999.6461862609352,0.0,1116002610101502040301404128519993600007000080000
2199,LTCF,40.5621986389,43.1150016785,2023-09-11 23:50:00,80.0,36.0,q,green,9.0,1017.0,22.98743616531121,6.0,7.0,40.0,10000.0,99999,3.0,-991.5125638346888,0.0,1116030407100902060301704229519914600007800083000
2202,LTFH,41.2545013428,36.5671005249,2023-09-11 23:50:00,,,,,16.0,1015.0,1054.3387201714202,12.0,3.0,150.0,10000.0,99999,6.0,0.0,0.0,11160615031016020120301504054351000600007000086000
2212,UMGG,52.5270004272,31.0167007446,2023-09-12 00:00:00,10.0,36.0,+,yellow,11.0,1018.0,2871.807428029568,10.0,2.0,120.0,1700.0,99999,,1853.2074280295683,0.0,1111001202101102010030180487185118532600007100080000
2244,EIME,53.301700592,-6.4513301849,2023-09-12 00:00:00,58.0,36.0,[,green,13.0,1014.0,1996.6203449275806,12.0,9.0,10.0,3000.0,99999,5.0,983.6203449275806,0.2,111105010910130201203014049966519836600207580085000
2290,LPBJ,38.0788993835,-7.9324002266,2023-09-12 00:00:00,,,,,18.0,1016.0,2499.448623352154,17.0,7.0,280.0,10000.0,99999,,1482.4486233521538,0.0,1116002807101802017030160449945114824600007000080000
2384,LICT,37.9113998413,12.4879999161,2023-09-11 23:55:00,,,,,20.0,1015.0,1058.748925422384,16.0,3.0,90.0,10000.0,99999,,43.948925422384036,0.0,11160009031020020160301504058751439600007000080000
2387,LIBA,41.5414009094,15.7180995941,2023-09-11 23:55:00,,,,,18.0,1014.0,1391.065484711525,15.0,4.0,250.0,10000.0,99999,,376.06548471152496,0.0,111600250410180201503014043910513760600007000080000
2389,LIBN,40.239200592,18.1333007813,2023-09-11 23:55:00,,,,,19.0,1015.0,1316.1440919611882,18.0,1.0,190.0,10000.0,99999,,301.6440919611882,0.0,111600190110190201803015043161513016600007000080000
2391,LIBV,40.7677993774,16.9333000183,2023-09-11 23:55:00,,,,,18.0,1015.0,4032.072726157936,16.0,2.0,70.0,10000.0,99999,,3017.072726157936,0.0,1116000702101802016030150403205130170600007000080000
2393,LIED,39.3541984558,8.9724798203,2023-09-11 23:55:00,,,,,20.0,1015.0,1194.602345111178,16.0,3.0,30.0,10000.0,99999,,179.602345111178,0.0,111600030310200201603015041946511796600007000080000
2395,LIPC,44.2242012024,12.3072004318,2023-09-11 23:55:00,,,,,19.0,1014.0,1047.052418393962,14.0,2.0,300.0,10000.0,99999,,33.05241839396194,0.0,11160030021019020140301404047051330600007000080000
2397,LIPI,45.9786987305,13.0493001938,2023-09-11 23:55:00,,,,,17.0,1014.0,1405.3789350601285,16.0,99999.0,,10000.0,99999,,391.37893506012847,0.0,111600369999910170201603014044053513913600007000080000
2399,LIPL,45.4322013855,10.2677001953,2023-09-11 23:55:00,,,,,20.0,1014.0,1654.8965109217218,20.0,4.0,120.0,10000.0,99999,,641.4965109217218,0.0,111600120410200202003014046548516414600007000080000
2401,LIPS,45.6848983765,12.0829000473,2023-09-11 23:55:00,,,,,18.0,1014.0,1291.8254856407325,15.0,0.0,0.0,10000.0,99999,,277.8254856407325,0.0,111600000010180201503014042918512778600007000080000
2403,LIRE,41.654499054,12.4451999664,2023-09-11 23:55:00,,,,,20.0,1015.0,1087.1579453309325,18.0,4.0,30.0,10000.0,99999,,71.55794533093251,0.0,11160003041020020180301504087151715600007000080000
2405,LIRS,42.7597007751,11.0719003677,2023-09-11 23:55:00,,,,,18.0,1015.0,1047.9822049102122,14.0,2.0,10.0,10000.0,99999,,32.88220491021218,0.0,11160001021018020140301504047951328600007000080000
2421,ETIH,49.2181015015,11.8360996246,2023-09-11 23:55:00,,,,,14.1,29.96,6073.061695459834,12.5,0.0,0.0,10000.0,99999,,5058.061695459834,0.0,111600000010140201203299407305150580600007000080000
2422,ETIK,49.4738998413,10.3880996704,2023-09-11 23:55:00,,,,,13.1,29.94,4963.351953921451,11.7,0.0,0.0,10000.0,99999,,3949.3519539214512,0.0,111600000010130201103299496335139493600007000080000
2424,ETAD,49.9726982117,6.6925001144,2023-09-11 23:55:00,,,,,19.8,29.91,3803.2177855717077,16.4,3.0,270.0,10000.0,99999,3.0,2790.2177855717077,0.0,111603270310198201683299480325127902600007000083000
2425,ETAR,49.4369010925,7.600279808,2023-09-11 23:55:00,,,,,15.7,29.91,3233.861373470724,15.2,0.0,0.0,10000.0,99999,,2220.861373470724,0.0,111600000010156201563299423385122208600007000080000
2426,ETOU,50.0498008728,8.3254003525,2023-09-11 23:55:00,,,,,18.3,29.91,2057.5923190005597,15.5,0.0,0.0,10000.0,99999,1.0,1044.5923190005597,0.0,111601000010183201533299405755110445600007000081000
2429,LBPL,43.4514007568,24.5027999878,2023-09-12 00:00:00,,,,,14.0,1016.0,1957.478782729313,9.0,2.0,220.0,10000.0,99999,,940.6787827293131,0.0,11160022021014020903016049574519406600007000080000
2443,EGUN,52.3619003296,0.4864059985,2023-09-11 23:55:00,,,,,18.0,29.89,1095.2678075781039,18.0,5.0,280.0,10000.0,99999,4.0,83.46780757810393,0.0,1116042805101802018032984095251834600007000084000
2461,EVGA,56.778301239,24.8539009094,2023-09-12 00:20:00,,,,,16.0,1013.0,1482.6264739689555,15.0,3.0,120.0,10000.0,99999,,468.7264739689555,0.0,111600120310160201503013044826514687600007000080000
2466,LATI,41.4146995544,19.7206001282,2023-09-12 00:20:00,,,,,16.0,1014.0,1301.941185533582,15.0,3.0,150.0,10000.0,99999,,287.241185533582,0.0,111600150310160201503014043019512872600007000080000
2503,EVVA,57.35779953,21.5442008972,2023-09-12 00:20:00,45.0,36.0,N,yellow,15.0,1013.0,1057.2501769106675,15.0,1.0,180.0,400.0,99999,,0.0,0.0,11100018011015020150301304057251000600007450080000
2513,LSZC,46.9744444444,8.3969444444,2023-09-12 00:20:00,,,,,19.0,1015.0,4642.63773854203,15.0,4.0,230.0,10000.0,99999,,3627.63773854203,0.0,1116002304101902015030150464265136276600007000080000
2558,LSMA,46.943901062,8.2841701508,2023-09-12 00:20:00,,,,,18.0,1015.0,4825.374836964706,16.0,3.0,,10000.0,99999,,3810.3748369647064,0.0,1116003603101802016030150482535138103600007000080000
2559,LSMD,47.398601532,8.648229599,2023-09-12 00:20:00,,,,,17.0,1015.0,5107.182506920024,16.0,1.0,,10000.0,99999,,4092.182506920024,0.0,1116003601101702016030150410715140921600007000080000
2560,LSME,47.0923995972,8.3051204681,2023-09-12 00:20:00,,,,,18.0,1014.0,4645.728550591136,16.0,0.0,0.0,10000.0,99999,,3630.728550591136,0.0,1116000000101802016030140464575136307600007000080000
2561,LSMM,46.7433013916,8.1099996567,2023-09-12 00:20:00,,,,,14.0,1016.0,7645.964930988463,13.0,0.0,0.0,10000.0,99999,,6629.964930988463,0.0,1116000000101402013030160464595166299600007000080000
2562,LSMP,46.8432006836,6.9150600433,2023-09-12 00:20:00,,,,,18.0,1015.0,4839.973207759501,14.0,3.0,210.0,10000.0,99999,3.0,3826.373207759501,0.0,1116032103101802014030150483995138263600007000083000
2624,ESTA,56.2961006165,12.8471002579,2023-09-12 00:20:00,10.0,36.0,+,yellow,14.0,1011.0,1184.6169765945883,14.0,3.0,110.0,3400.0,99999,6.0,173.71697659458835,0.0,111206110310140201403011041846511737600007100086000
2625,ESTL,56.0828018188,13.2124996185,2023-09-12 00:20:00,,,,,14.0,1011.0,1380.4114790157562,14.0,7.0,110.0,2300.0,99999,,369.4114790157562,0.0,111100110710140201403011043804513694600007000080000
2627,EGHQ,50.4406013489,-4.9954099655,2023-09-12 00:20:00,,,,,17.0,1014.0,1925.7618712966569,16.0,4.0,230.0,10000.0,99999,8.0,910.7618712966569,0.0,111608230410170201603014049257519107600007000088000
2629,EGCK,53.1041984558,-4.340280056,2023-09-12 00:20:00,53.0,36.0,V,green,15.0,1013.0,1015.3087915082899,15.0,8.0,40.0,2300.0,99999,6.0,2.3087915082899144,1.8,11110604081015020150301304015351023601807530086000
2667,ESOH,60.0200996399,13.5789003372,2023-09-12 00:20:00,,,,,18.0,1007.0,2062.837656207984,17.0,10.0,200.0,10000.0,99999,8.0,1055.8376562079839,0.1,1116082010101802017030070406285110558600107000088000
2675,ESNZ,63.1944007874,14.5003004074,2023-09-12 00:20:00,,,,,13.0,1003.0,5481.904305626984,10.0,16.0,290.0,10000.0,99999,8.0,4479.904305626984,0.0,1116082916101302010030030448195144799600007000088000
2677,ESCF,58.4023017883,15.5256996155,2023-09-12 00:20:00,,,,,14.0,1009.0,1875.0969606515953,14.0,4.0,190.0,6000.0,99999,,864.8969606515952,0.0,111300190410140201403009048750518648600007000080000
2679,ESIB,58.426399231,12.7144002914,2023-09-12 00:20:00,,,,,16.0,1008.0,1427.9664921058236,16.0,6.0,170.0,10000.0,99999,6.0,419.0664921058236,0.0,111606170610160201603008044279514190600007000086000
2680,ESMV,57.2921981812,14.1372003555,2023-09-12 00:20:00,10.0,36.0,+,yellow,16.0,1010.0,2457.127853531602,16.0,4.0,200.0,3600.0,99999,8.0,1446.327853531602,0.0,1112082004101602016030100445715114463600007100088000
2681,ESPE,65.8752975464,20.1499004364,2023-09-12 00:20:00,,,,,17.0,1000.0,2449.9887058515587,14.0,5.0,190.0,10000.0,99999,8.0,1448.0887058515586,0.0,1116081905101702014030000444995114480600007000088000
2683,ESIA,58.5138015747,14.5071001053,2023-09-12 00:20:00,,,,,16.0,1009.0,1756.4784911848649,15.0,1.0,,10000.0,99999,3.0,747.0784911848649,0.0,111603360110160201503009047564517470600007000083000
2684,ESCM,59.8973007202,17.5886001587,2023-09-12 00:20:00,,,,,16.0,1008.0,1158.8447581851142,16.0,7.0,170.0,10000.0,99999,8.0,149.64475818511414,0.0,111608170710160201603008041588511496600007000088000
2719,EFET,68.3626022339,23.4242992401,2023-09-12 00:20:00,10.0,36.0,+,yellow,10.0,998.0,5746.142217881505,10.0,10.0,190.0,4600.0,99999,8.0,0.0,0.0,11120819101010020100399804746151000600007100088000
2720,EFHA,61.8559989929,24.7866001129,2023-09-12 00:20:00,,,,,16.0,1011.0,2235.118620236216,15.0,5.0,180.0,10000.0,99999,8.0,1224.118620236216,0.0,1116081805101602015030110423515112241600007000088000
2721,EFJO,62.6628990173,29.6075000763,2023-09-12 00:20:00,,,,,15.0,1013.0,2084.155407290796,15.0,8.0,170.0,10000.0,99999,6.0,1070.1554072907961,0.0,1116061708101502015030130408415110701600007000086000
2725,EFKS,65.9876022339,29.2394008636,2023-09-12 00:20:00,,,,,16.0,1008.0,3400.7087232281883,14.0,9.0,180.0,10000.0,99999,8.0,2391.7087232281883,0.0,1116081809101602014030080440075123917600007000088000
2726,EFKT,67.7009963989,24.8467998505,2023-09-12 00:20:00,,,,,14.0,1000.0,2971.412910349587,13.0,6.0,190.0,10000.0,99999,8.0,1967.512910349587,0.2,1116081906101402013030000497145119675600207000088000
2727,EFMI,61.6865997314,27.2017993927,2023-09-12 00:20:00,,,,,14.0,1012.0,1946.614230075868,14.0,3.0,120.0,5000.0,99999,3.0,933.4142300758679,0.0,111303120310140201403012049466519334600007000083000
2728,EFSA,61.9430999756,28.9451007843,2023-09-12 00:20:00,,,,,15.0,1013.0,1827.3612928061432,14.0,5.0,160.0,8000.0,99999,1.0,813.3612928061432,0.0,111401160510150201403013048273518133600007000081000
2731,ESGT,58.3180999756,12.345000267,2023-09-12 00:20:00,10.0,36.0,+,yellow,17.0,1008.0,1301.2603242788593,16.0,8.0,190.0,5000.0,99999,8.0,292.4603242788594,0.0,111308190810170201603008043012512924600007100088000
2732,ESMQ,56.6855010986,16.2875995636,2023-09-12 00:20:00,10.0,36.0,+,yellow,14.0,1011.0,1053.320630759663,14.0,7.0,200.0,3700.0,99999,6.0,41.620630759662845,0.0,11120620071014020140301104053351416600007100086000
2733,ESMT,56.6911010742,12.8201999664,2023-09-12 00:20:00,10.0,36.0,+,yellow,16.0,1010.0,1237.5978228012411,16.0,2.0,,3100.0,99999,1.0,226.29782280124118,0.0,111101360210160201603010042375512262600007100081000
2790,EFLP,61.0446014404,28.1443996429,2023-09-12 00:20:00,,,,,15.0,1014.0,1940.1361682715394,14.0,3.0,180.0,10000.0,99999,1.0,926.1361682715394,0.0,111601180310150201403014049401519261600007000081000
2791,EFSI,62.6921005249,22.8323001862,2023-09-12 00:20:00,,,,,17.0,1009.0,1693.490712027227,15.0,8.0,180.0,10000.0,99999,6.0,0.0,0.0,11160618081017020150300904693451000600007000086000
2792,EFUT,60.8964004517,26.9384002686,2023-09-12 00:20:00,10.0,36.0,+,yellow,15.0,1013.0,1908.8467866480544,15.0,4.0,150.0,4500.0,99999,,895.8467866480544,0.0,111200150410150201503013049088518958600007100080000
2843,LICB,36.9946010208,14.6071815491,2023-09-12 00:20:00,,,,,18.0,1016.0,2465.135424750251,13.0,4.0,60.0,10000.0,99999,,1448.7354247502508,0.0,1116000604101802013030160446515114487600007000080000
2845,LIPO,45.4289016724,10.3305997849,2023-09-12 00:20:00,,,,,21.0,1014.0,1665.5950082076304,17.0,4.0,30.0,10000.0,99999,,0.0,0.0,11160003041021020170301404665551000600007000080000
2849,LIMZ,44.547000885,7.6232199669,2023-09-12 00:20:00,,,,,18.0,1016.0,4267.678601261485,16.0,6.0,210.0,10000.0,99999,,0.0,0.0,11160021061018020160301604267651000600007000080000
2854,ESNV,64.5791015625,16.8335990906,2023-09-12 00:20:00,,,,,16.0,1001.0,4249.014978191581,14.0,8.0,200.0,10000.0,99999,3.0,3248.0149781915807,0.0,1116032008101602014030010424905132480600007000083000
2856,ESST,60.1576004028,12.9912996292,2023-09-12 00:20:00,,,,,18.0,1006.0,1862.2828844224105,16.0,7.0,170.0,10000.0,99999,8.0,0.0,0.0,11160817071018020160300604862251000600007000088000
2857,ESUP,67.2455978394,23.0688991547,2023-09-12 00:20:00,,,,,14.0,1000.0,2619.7241620196114,14.0,12.0,180.0,9000.0,99999,8.0,1617.7241620196114,0.7,1115081812101402014030000461975116177600707000088000
2858,ESND,62.0477981567,14.4229001999,2023-09-12 00:20:00,,,,,17.0,1004.0,4160.783339144682,15.0,3.0,,10000.0,99999,8.0,3156.783339144682,0.0,1116083603101702015030040416075131567600007000088000
2892,EEKE,58.2299003601,22.5095005035,2023-09-12 00:20:00,45.0,36.0,N,yellow,16.0,1012.0,1042.4514660322898,16.0,3.0,290.0,600.0,99999,,29.651466032289818,0.0,11100029031016020160301204042451296600007450080000
2894,EEPU,58.4189987183,24.4727993011,2023-09-12 00:20:00,10.0,36.0,+,yellow,13.0,1013.0,1141.3995335061381,13.0,2.0,,3300.0,99999,,0.0,0.0,11120036021013020130301304141351000600007100080000
2921,EDBC,51.8563995361,11.42029953,2023-09-12 00:20:00,,,,,19.0,1012.0,2298.6320543884344,15.0,6.0,240.0,10000.0,99999,,1285.8320543884345,0.0,1116002406101902015030120429865112858600007000080000
3050,EDJA,47.9888000488,10.2395000458,2023-09-12 00:20:00,,,,,13.0,1015.0,8841.220692346062,12.0,2.0,190.0,10000.0,99999,,0.0,0.0,11160019021013020120301504841251000600007000080000
3057,EDTY,49.1183319092,9.7838888168,2023-09-12 00:20:00,,,,,12.0,1014.0,6242.622733146853,12.0,6.0,80.0,10000.0,99999,3.0,5228.622733146853,0.0,1116030806101202012030140424265152286600007000083000
3063,EKBI,55.7402992249,9.1517801285,2023-09-12 00:20:00,10.0,36.0,+,yellow,18.0,1011.0,1529.1622521621287,18.0,5.0,250.0,4600.0,99999,8.0,517.4622521621286,0.0,111208250510180201803011045291515174600007100088000
3064,EKCH,55.6179008484,12.6560001373,2023-09-12 00:20:00,10.0,36.0,+,yellow,18.0,1011.0,1043.8522257775612,17.0,6.0,140.0,2000.0,99999,6.0,31.95222577756124,0.0,11110614061018020170301104043851319600007100086000
3065,EKEB,55.5259017944,8.5534000397,2023-09-12 00:20:00,,,,,18.0,1011.0,1204.3092854730512,17.0,5.0,260.0,8000.0,99999,8.0,192.40928547305123,0.0,111408260510180201703011042043511924600007000088000
3067,EKRK,55.5856018066,12.1314001083,2023-09-12 00:20:00,45.0,36.0,N,yellow,16.0,1011.0,1346.2783081005264,16.0,1.0,110.0,50.0,99999,,334.5783081005263,0.0,111000110110160201603011043462513345600007450080000
3068,EKRN,55.0633010864,14.7595996857,2023-09-12 00:20:00,,,,,16.0,1011.0,1125.9055136191228,16.0,3.0,60.0,1200.0,99999,,113.40551361912276,0.0,111000060310160201603011041259511134600007000080000
3069,EKSB,54.9644012451,9.7917299271,2023-09-12 00:20:00,10.0,36.0,+,yellow,19.0,1011.0,1055.0393700112643,18.0,5.0,260.0,4300.0,99999,8.0,43.339370011264236,0.0,11120826051019020180301104055051433600007100088000
3070,EKSP,55.2256011963,9.2639303207,2023-09-12 00:20:00,10.0,36.0,+,yellow,18.0,1011.0,1296.4947542440204,18.0,7.0,250.0,5000.0,99999,4.0,284.59475424402046,0.0,111304250710180201803011042964512845600007100084000
3071,EKVD,55.4362983704,9.3309202194,2023-09-12 00:20:00,,,,,19.0,1011.0,1284.7691990468577,18.0,5.0,260.0,10000.0,99999,,273.46919904685774,0.0,111600260510190201803011042847512734600007000080000
3073,LOWG,46.9911003113,15.4395999908,2023-09-12 00:20:00,41.0,36.0,J,yellow,15.0,1015.0,4469.720839760473,14.0,0.0,0.0,500.0,99999,,3455.2208397604727,0.0,1110000000101502014030150446975134552600007410080000
3074,LOWI,47.2602005005,11.3439998627,2023-09-12 00:20:00,,,,,18.0,1016.0,6131.756242907887,16.0,1.0,,10000.0,99999,1.0,5118.656242907887,0.0,1116013601101802016030160413175151186600007000081000
3075,LOWK,46.6425018311,14.3376998901,2023-09-12 00:20:00,,,,,15.0,1016.0,5718.634482976023,14.0,3.0,310.0,10000.0,99999,,4703.434482976023,0.0,1116003103101502014030160471865147034600007000080000
3076,LOWL,48.2332000732,14.1875,2023-09-12 00:20:00,,,,,16.0,1014.0,3778.970300998902,15.0,2.0,,10000.0,99999,,2765.1703009989023,0.0,1116003602101602015030140477895127651600007000080000
3077,LOWS,47.7933006287,13.0043001175,2023-09-12 00:20:00,,,,,17.0,1015.0,4924.665038460813,15.0,3.0,160.0,10000.0,99999,,3910.765038460813,0.0,1116001603101702015030150492465139107600007000080000
3078,LOWW,48.1102981567,16.5697002411,2023-09-12 00:20:00,,,,,18.0,1013.0,2397.6294539536934,15.0,3.0,160.0,10000.0,99999,,1384.3294539536935,0.0,1116001603101802015030130439765113843600007000080000
3081,EFIV,68.6072998047,27.4053001404,2023-09-12 00:20:00,,,,,13.0,1001.0,2541.011033914939,11.0,8.0,190.0,10000.0,99999,7.0,1536.5110339149392,0.0,1116071908101302011030010454105115365600007000087000
3082,EFJY,62.3995018005,25.6783008575,2023-09-12 00:20:00,,,,,16.0,1011.0,2177.800582087903,15.0,9.0,200.0,10000.0,99999,8.0,1166.800582087903,0.0,1116082009101602015030110417785111668600007000088000
3083,EFKE,65.7787017822,24.5820999146,2023-09-12 00:20:00,61.0,36.0,^,green,16.0,1004.0,1138.3784858404174,15.0,14.0,190.0,10000.0,99999,8.0,132.3784858404174,0.0,111608191410160201503004041383511323600007610088000
3084,EFKK,63.7211990356,23.1431007385,2023-09-12 00:20:00,,,,,17.0,1006.0,1181.8462950590244,15.0,14.0,180.0,10000.0,99999,6.0,174.84629505902444,0.0,111606181410170201503006041818511748600007000086000
3086,EFMA,60.1222000122,19.8981990814,2023-09-12 00:20:00,,,,,15.0,1010.0,1049.437257306331,15.0,10.0,180.0,9000.0,99999,8.0,38.93725730633105,0.0,11150818101015020150301004049451389600007000088000
3088,EFPO,61.4617004395,21.7999992371,2023-09-12 00:20:00,,,,,17.0,1010.0,1100.998217255712,15.0,7.0,180.0,10000.0,99999,6.0,90.998217255712,0.0,11160618071017020150301004100951909600007000086000
3089,EFRO,66.5647964478,25.8304004669,2023-09-12 00:20:00,,,,,16.0,1004.0,2697.7900691046048,14.0,13.0,200.0,10000.0,99999,8.0,1691.7900691046048,0.0,1116082013101602014030040469775116917600007000088000
3090,EFTP,61.414100647,23.6044006348,2023-09-12 00:20:00,,,,,16.0,1011.0,1983.4467998278863,15.0,6.0,180.0,10000.0,99999,8.0,971.8467998278862,0.0,111608180610160201503011049834519718600007000088000
3091,EFTU,60.5140991211,22.2628002167,2023-09-12 00:20:00,,,,,17.0,1011.0,1359.7204420974253,15.0,6.0,200.0,10000.0,99999,8.0,348.1204420974253,0.0,111608200610170201503011043597513481600007000088000
3092,EFVA,63.0507011414,21.7621994019,2023-09-12 00:20:00,,,,,17.0,1007.0,1045.771523123229,16.0,15.0,190.0,10000.0,99999,8.0,38.07152312322887,0.0,11160819151017020160300704045751380600007000088000
3094,ENBR,60.2933998108,5.2181401253,2023-09-12 00:20:00,,,,,10.0,1009.0,1661.3678237022325,10.0,2.0,120.0,10000.0,99999,2.0,0.0,0.0,11160212021010020100300904661351000600007000082000
3095,ENCN,58.2042007446,8.0853700638,2023-09-12 00:20:00,,,,,17.0,1007.0,1125.159997804887,16.0,7.0,220.0,10000.0,99999,6.0,117.25999780488712,0.0,111606220710170201603007041251511172600007000086000
3097,ENHD,59.3452987671,5.2083601952,2023-09-12 00:20:00,,,,,12.0,1009.0,1268.5722312216378,10.0,4.0,100.0,10000.0,99999,3.0,260.5722312216378,0.0,111603100410120201003009042685512605600007000083000
3100,ENVA,63.4578018188,10.9239997864,2023-09-12 00:20:00,61.0,36.0,^,green,13.0,1005.0,1157.4970477175941,11.0,4.0,330.0,10000.0,99999,4.0,154.29704771759407,0.5,111604330410130201103005041574511542600507610084000
3101,ENZV,58.876701355,5.6377801895,2023-09-12 00:20:00,,,,,13.0,1009.0,1087.1562752463822,12.0,0.0,0.0,10000.0,99999,4.0,0.0,0.0,11160400001013020120300904087151000600007000084000
3105,LGAV,37.9364013672,23.9444999695,2023-09-12 00:20:00,,,,,21.0,1014.0,1572.4374642661453,12.0,15.0,350.0,10000.0,99999,,0.0,0.0,11160035151021020120301404572451000600007000080000
3106,LGIR,35.3396987915,25.1802997589,2023-09-12 00:20:00,,,,,23.0,1012.0,1191.0715007413912,18.0,15.0,280.0,10000.0,99999,3.0,180.07150074139122,0.0,111603281510230201803012041910511800600007000083000
3108,LGKR,39.6018981934,19.911699295,2023-09-12 00:20:00,,,,,19.0,1014.0,1024.96713033634,16.0,2.0,,10000.0,99999,,11.467130336340006,0.0,11160036021019020160301404024951114600007000080000
3113,LIBR,40.6576004028,17.9470005035,2023-09-12 00:20:00,,,,,20.0,1014.0,1096.8110174248777,19.0,6.0,260.0,10000.0,99999,,82.2110174248777,0.0,11160026061020020190301404096851822600007000080000
3136,ENAL,62.5625,6.119699955,2023-09-12 00:20:00,61.0,36.0,^,green,13.0,1006.0,1195.3527159883627,8.0,11.0,250.0,10000.0,99999,7.0,190.15271598836262,0.0,11160725111013020803006041953511901600007610087000
3142,ENDU,69.0558013916,18.5403995514,2023-09-12 00:20:00,58.0,36.0,[,green,9.0,995.0,2112.4885732715834,9.0,2.0,,10000.0,99999,3.0,0.0,0.0,1116033602100902090399504112451000600007580083000
3156,ENRO,62.5783996582,11.342300415,2023-09-12 00:20:00,61.0,36.0,^,green,10.0,1004.0,10.817644374030628,9.0,6.0,350.0,10000.0,99999,7.0,-991.1823556259694,0.0,1116073506101002090300404108519918600007610087000
3158,ENRY,59.3788986206,10.7855997086,2023-09-12 00:20:00,,,,,17.0,1006.0,1382.7729751729482,16.0,11.0,200.0,7000.0,99999,7.0,0.0,0.0,11140720111017020160300604382751000600007000087000
3164,ENTO,59.1866989136,10.258600235,2023-09-12 00:20:00,10.0,36.0,+,yellow,17.0,1006.0,1649.0672754411219,17.0,13.0,190.0,4700.0,99999,6.0,0.0,0.0,11120619131017020170300604649051000600007100086000
3166,ESDF,56.2667007446,15.2650003433,2023-09-12 00:20:00,,,,,15.0,1011.0,1489.0963033946675,15.0,3.0,190.0,10000.0,99999,8.0,476.4963033946675,0.0,111608190310150201503011044890514764600007000088000
3167,ESGG,57.6627998352,12.279800415,2023-09-12 00:20:00,10.0,36.0,+,yellow,16.0,1009.0,2308.580116969699,16.0,7.0,170.0,2700.0,99999,8.0,1298.5801169696988,0.0,1111081707101602016030090430855112985600007100088000
3168,ESGJ,57.757598877,14.0686998367,2023-09-12 00:20:00,,,,,16.0,1010.0,3016.5734419308947,16.0,3.0,180.0,10000.0,99999,1.0,2006.6734419308946,0.0,1116011803101602016030100401655120066600007000081000
3169,ESGP,57.7747001648,11.8704004288,2023-09-12 00:20:00,10.0,36.0,+,yellow,18.0,1008.0,1123.5659124600536,17.0,6.0,190.0,4800.0,99999,7.0,114.5659124600536,0.0,111207190610180201703008041235511145600007100087000
3170,ESMK,55.9216995239,14.0854997635,2023-09-12 00:20:00,10.0,36.0,+,yellow,14.0,1011.0,1205.7841103643705,14.0,0.0,0.0,500.0,99999,8.0,193.58411036437042,0.0,111008000010140201403011042057511935600007100088000
3171,ESMS,55.536305364,13.3761978149,2023-09-12 00:20:00,45.0,36.0,N,yellow,17.0,1011.0,1535.686381569817,17.0,3.0,110.0,150.0,99999,,523.586381569817,0.0,111000110310170201703011045356515235600007450080000
3172,ESMX,56.9291000366,14.7279996872,2023-09-12 00:20:00,,,,,16.0,1011.0,2620.2331703416353,16.0,6.0,180.0,700.0,99999,8.0,1608.4331703416353,0.0,1110081806101602016030110462025116084600007000088000
3173,ESNN,62.5280990601,17.4438991547,2023-09-12 00:20:00,,,,,16.0,1004.0,1038.5576984371367,15.0,7.0,140.0,10000.0,99999,,33.15769843713667,0.0,11160014071016020150300404038551331600007000080000
3174,ESNO,63.4082984924,18.9899997711,2023-09-12 00:20:00,,,,,16.0,1004.0,1871.2294235040795,16.0,6.0,190.0,10000.0,99999,7.0,866.2294235040795,0.0,111607190610160201603004048712518662600007000087000
3175,ESNQ,67.8219985962,20.3367996216,2023-09-12 00:20:00,61.0,36.0,^,green,10.0,997.0,8256.403415382272,10.0,8.0,190.0,7000.0,99999,8.0,7257.403415382272,0.2,1114081908101002010039970425645172574600207610088000
3176,ESNS,64.6248016357,21.0769004822,2023-09-12 00:20:00,,,,,16.0,1003.0,1362.2047447087796,16.0,7.0,190.0,10000.0,99999,8.0,358.2047447087796,0.0,111608190710160201603003043622513582600007000088000
3177,ESNU,63.7918014526,20.2828006744,2023-09-12 00:20:00,,,,,17.0,1004.0,1052.9317029461538,16.0,12.0,190.0,10000.0,99999,8.0,47.93170294615379,0.0,11160819121017020160300404052951479600007000088000
3182,ESSD,60.422000885,15.5151996613,2023-09-12 00:20:00,,,,,17.0,1007.0,2210.281095326873,16.0,3.0,,10000.0,99999,2.0,1203.2810953268731,0.0,1116023603101702016030070421025112032600007000082000
3183,ESSP,58.5862998962,16.2506008148,2023-09-12 00:20:00,45.0,36.0,N,yellow,15.0,1009.0,1083.691238387648,15.0,2.0,,150.0,99999,,73.6912383876479,0.0,11100036021015020150300904083651736600007450080000
3185,LSGC,47.0839004517,6.792840004,2023-09-12 00:20:00,,,,,16.0,1018.0,11.190195211613602,13.0,1.0,130.0,10000.0,99999,,-1006.8098047883864,0.0,111600130110160201303018041115110061600007000080000
3186,LSGG,46.2380981445,6.1089501381,2023-09-12 00:20:00,,,,,19.0,1015.0,4466.0458030967775,13.0,1.0,,10000.0,99999,1.0,3453.0458030967775,0.0,1116013601101902013030150446605134530600007000081000
3187,LSGS,46.2196006775,7.3267598152,2023-09-12 00:20:00,,,,,17.0,1016.0,5468.253595609133,15.0,0.0,0.0,10000.0,99999,,4454.853595609134,0.0,1116000000101702015030160446825144548600007000080000
3188,LSZA,46.0042991638,8.9105796814,2023-09-12 00:20:00,,,,,18.0,1016.0,3260.978863407379,18.0,1.0,,10000.0,99999,,2244.978863407379,0.0,1116003601101802018030160426095122449600007000080000
3189,LSZB,46.914100647,7.4971499443,2023-09-12 00:20:00,,,,,16.0,1015.0,6059.751265002645,15.0,1.0,,10000.0,99999,1.0,5044.751265002645,0.0,1116013601101602015030150405975150447600007000081000
3190,LSZG,47.1815986633,7.4171900749,2023-09-12 00:20:00,,,,,16.0,1015.0,5197.485739874812,14.0,0.0,0.0,10000.0,99999,,4182.485739874812,0.0,1116000000101602014030150419745141824600007000080000
3191,LSZH,47.4646987915,8.5491695404,2023-09-12 00:20:00,,,,,16.0,1015.0,5213.9213267431705,16.0,1.0,30.0,10000.0,99999,,4200.12132674317,0.0,1116000301101602016030150421395142001600007000080000
3192,LSZL,46.1608009338,8.8786096573,2023-09-12 00:20:00,,,,,17.0,1016.0,2638.510700006228,16.0,0.0,0.0,8000.0,99999,,1622.510700006228,0.0,1114000000101702016030160463855116225600007000080000
3193,LSZR,47.4850006104,9.5607700348,2023-09-12 00:20:00,,,,,16.0,1014.0,4847.602080930602,15.0,1.0,210.0,10000.0,99999,,3832.602080930602,0.0,1116002101101602015030140484765138326600007000080000
3194,LSZS,46.5340995789,9.8841104507,2023-09-12 00:20:00,,,,,6.0,1023.0,26.5987511149897,5.0,2.0,,10000.0,99999,,-996.4012488850103,0.0,1116003602100602050302304265519965600007000080000
3195,EGAA,54.6575012207,-6.2158298492,2023-09-12 00:20:00,,,,,8.0,1015.0,2410.2120981159896,7.0,2.0,340.0,10000.0,99999,,1395.9120981159897,0.0,111600340210080207030150441025113959600007000080000
3196,EGBB,52.4538993835,-1.7480299473,2023-09-12 00:20:00,,,,,16.0,1013.0,1814.553456997347,16.0,3.0,160.0,10000.0,99999,6.0,801.553456997347,0.0,111606160310160201603013048145518015600007000086000
3198,EGFF,51.3967018127,-3.3433299065,2023-09-12 00:20:00,,,,,17.0,1013.0,1500.4474906706794,16.0,4.0,260.0,10000.0,99999,6.0,486.4474906706794,0.0,111606260410170201603013045004514864600007000086000
3199,EGGD,51.3827018738,-2.7190899849,2023-09-12 00:20:00,,,,,17.0,1014.0,2554.31642778049,16.0,4.0,240.0,10000.0,99999,6.0,1540.31642778049,0.0,1116062404101702016030140455435115403600007000086000
3203,EGKK,51.1481018066,-0.1902779937,2023-09-12 00:20:00,,,,,16.0,1013.0,1487.667835375074,16.0,3.0,210.0,10000.0,99999,,474.56783537507397,0.0,111600210310160201603013044876514745600007000080000
3204,EGLF,51.2757987976,-0.7763329744,2023-09-12 00:20:00,,,,,17.0,1013.0,1543.5334515692277,16.0,5.0,240.0,10000.0,99999,1.0,529.5334515692277,0.0,111601240510170201603013045435515295600007000081000
3207,EGNJ,53.5744018555,-0.3508329988,2023-09-12 00:20:00,61.0,36.0,^,green,16.0,1013.0,1288.693281179222,15.0,3.0,70.0,10000.0,99999,8.0,276.1932811792219,0.2,111608070310160201503013042886512761600207610088000
3208,EGNM,53.8658981323,-1.6605700254,2023-09-12 00:20:00,61.0,36.0,^,green,13.0,1013.0,3329.5133085365064,13.0,4.0,30.0,9000.0,99999,4.0,2316.7133085365067,0.6,1115040304101302013030130432955123167600607610084000
3210,EGNX,52.8311004639,-1.3280600309,2023-09-12 00:20:00,,,,,18.0,1013.0,1667.9540192372265,17.0,4.0,230.0,10000.0,99999,3.0,655.2540192372264,0.2,111603230410180201703013046679516552600207000083000
3211,EGPA,58.9578018188,-2.9049999714,2023-09-12 00:20:00,,,,,10.0,1011.0,1189.894552618129,7.0,6.0,270.0,10000.0,99999,,179.29455261812893,0.0,11160027061010020703011041898511792600007000080000
3212,EGPB,59.8788986206,-1.2955600023,2023-09-12 00:20:00,,,,,12.0,1010.0,1068.2175539159132,9.0,12.0,290.0,10000.0,99999,3.0,58.717553915913186,0.0,1116032912101202090301004068251587600007000083000
3214,EGPD,57.2019004822,-2.1977798939,2023-09-12 00:20:00,,,,,10.0,1013.0,1860.6897698038483,8.0,4.0,290.0,10000.0,99999,,848.6897698038483,0.0,11160029041010020803013048606518486600007000080000
3219,EGTE,50.7344017029,-3.4138898849,2023-09-12 00:20:00,,,,,17.0,1014.0,1230.7431229998654,16.0,2.0,,10000.0,99999,1.0,216.74312299986536,0.0,111601360210170201603014042307512167600007000081000
3220,EGAC,54.6180992126,-5.8724999428,2023-09-12 00:20:00,,,,,13.0,1015.0,1055.3557678025836,9.0,5.0,350.0,10000.0,99999,,40.65576780258357,0.0,1116003505101302090301504055351406600007000080000
3221,EGGP,53.3335990906,-2.8497200012,2023-09-12 00:20:00,61.0,36.0,^,green,15.0,1013.0,1204.6240818631084,15.0,3.0,80.0,7000.0,99999,5.0,0.0,0.0,11140508031015020150301304204651000600007610085000
3224,EGNT,55.0374984741,-1.6916699409,2023-09-12 00:20:00,,,,,13.0,1013.0,1815.5930779808032,13.0,5.0,290.0,10000.0,99999,,802.4930779808032,0.4,111600290510130201303013048155518024600407000080000
3225,EGPC,58.4589004517,-3.0930600166,2023-09-12 00:20:00,,,,,9.0,1012.0,1542.0097265429995,6.0,4.0,230.0,10000.0,99999,,530.6097265429995,0.0,11160023041009020603012045420515306600007000080000
3226,EGPE,57.5424995422,-4.0475001335,2023-09-12 00:20:00,,,,,7.0,1014.0,1172.309794802912,5.0,7.0,220.0,10000.0,99999,,159.1097948029119,0.0,11160022071007020503014041723511591600007000080000
3227,EGPF,55.8718986511,-4.4330601692,2023-09-12 00:20:00,,,,,9.0,1015.0,1117.2858710792334,7.0,5.0,220.0,10000.0,99999,,103.7858710792334,0.0,11160022051009020703015041172511037600007000080000
3228,EGPL,57.481098175,-7.3627800941,2023-09-12 00:20:00,,,,,13.0,1015.0,1066.2300815149474,7.0,10.0,310.0,10000.0,99999,,51.93008151494746,0.0,1116003110101302070301504066251519600007000080000
3231,EGSS,51.8849983215,0.2349999994,2023-09-12 00:20:00,,,,,19.0,1013.0,1723.575883419513,15.0,3.0,270.0,10000.0,99999,,710.875883419513,0.0,111600270310190201503013047235517108600007000080000
3238,EDGS,50.707698822,8.0829696655,2023-09-12 00:20:00,,,,,22.0,1015.0,5259.3408197285,14.0,5.0,210.0,10000.0,99999,8.0,4245.5408197285,0.0,1116082105102202014030150425935142455600007000088000
3239,EDLV,51.6024017334,6.1421699524,2023-09-12 00:20:00,,,,,19.0,1014.0,1214.9741059364344,19.0,3.0,,4800.0,99999,4.0,0.0,0.0,11120436031019020190301404214951000600007000084000
3242,EGPI,55.6819000244,-6.2566699982,2023-09-12 00:20:00,,,,,8.0,1015.0,1269.769678968326,7.0,0.0,0.0,10000.0,99999,1.0,255.76967896832593,0.0,11160100001008020703015042697512557600007000081000
3248,ESNG,67.1324005127,20.8145999908,2023-09-12 00:20:00,,,,,13.0,998.0,4635.510946981472,12.0,8.0,180.0,10000.0,99999,8.0,3635.5109469814724,0.1,1116081808101302012039980463555136355600107000088000
3249,ESNK,63.0485992432,17.7688999176,2023-09-12 00:20:00,,,,,16.0,1003.0,1076.9527124296537,15.0,6.0,180.0,10000.0,99999,1.0,72.95271242965373,0.0,11160118061016020150300304076951729600007000081000
3250,ESNL,64.5483016968,18.7161998749,2023-09-12 00:20:00,,,,,16.0,1002.0,2882.708184103797,14.0,6.0,140.0,10000.0,99999,2.0,0.0,0.0,11160214061016020140300204882751000600007000082000
3251,ESNX,65.5903015137,19.2819004059,2023-09-12 00:20:00,,,,,15.0,1000.0,4851.8867373998155,14.0,10.0,190.0,10000.0,99999,7.0,0.0,0.0,11160719101015020140300004851851000600007000087000
3252,ESOE,59.2237014771,15.0380001068,2023-09-12 00:20:00,,,,,14.0,1008.0,1512.7221565152765,14.0,4.0,190.0,2700.0,99999,1.0,503.6221565152765,0.0,111101190410140201403008045127515036600007000081000
3253,ESSL,58.4062004089,15.6805000305,2023-09-12 00:20:00,,,,,15.0,1009.0,1435.5029364102588,15.0,4.0,130.0,9000.0,99999,,425.5029364102588,0.0,111500130410150201503009044355514255600007000080000
3254,ESUT,65.806098938,15.0827999115,2023-09-12 00:20:00,,,,,13.0,1000.0,6532.9163726048655,13.0,4.0,260.0,10000.0,99999,4.0,5533.9163726048655,1.3,1116042604101302013030000453295155339601307000084000
3256,EETN,59.4132995605,24.8327999115,2023-09-12 00:20:00,,,,,14.0,1013.0,1357.983296403588,14.0,0.0,0.0,10000.0,99999,,344.7832964035879,0.0,111600000010140201403013043579513447600007000080000
3257,EETU,58.3074989319,26.6903991699,2023-09-12 00:20:00,41.0,36.0,J,yellow,14.0,1014.0,1612.838192066915,12.0,0.0,0.0,10000.0,99999,,598.2381920669151,0.0,111600000010140201203014046128515982600007410080000
3258,EFHK,60.317199707,24.963300705,2023-09-12 00:20:00,42.0,36.0,K,yellow,13.0,1012.0,1532.5908766251962,13.0,4.0,130.0,3500.0,99999,1.0,519.6908766251962,0.0,111201130410130201303012045325515196600007420081000
3260,EVLA,56.5175018311,21.0969009399,2023-09-12 00:20:00,45.0,36.0,N,yellow,16.0,1013.0,1047.8674786024098,16.0,1.0,110.0,400.0,99999,,34.267478602409824,0.0,11100011011016020160301304047851342600007450080000
3261,EVRA,56.9235992432,23.9710998535,2023-09-12 00:20:00,42.0,36.0,K,yellow,15.0,1013.0,1097.5192254333851,14.0,0.0,0.0,10000.0,99999,,0.0,0.0,11160000001015020140301304097551000600007420080000
3262,EYKA,54.9639015198,24.0848007202,2023-09-12 00:20:00,,,,,14.0,1014.0,1723.9977855723864,12.0,2.0,100.0,10000.0,99999,3.0,0.0,0.0,11160310021014020120301404723951000600007000083000
3263,EYPA,55.9732017517,21.0939006805,2023-09-12 00:20:00,45.0,36.0,N,yellow,16.0,1013.0,1085.4612815047665,16.0,3.0,130.0,200.0,99999,,71.46128150476648,0.0,11100013031016020160301304085451714600007450080000
3264,EYVI,54.6341018677,25.2858009338,2023-09-12 00:20:00,,,,,14.0,1015.0,3023.0782846938346,12.0,3.0,150.0,10000.0,99999,,2008.0782846938346,0.0,1116001503101402012030150402305120080600007000080000
3265,EFKI,64.2854995728,27.6923999786,2023-09-12 00:20:00,,,,,16.0,1009.0,2242.188273129935,15.0,8.0,190.0,10000.0,99999,8.0,1232.1882731299352,0.0,1116081908101602015030090424215112321600007000088000
3266,EFKU,63.0070991516,27.7978000641,2023-09-12 00:20:00,,,,,16.0,1011.0,1800.191797138028,15.0,8.0,180.0,10000.0,99999,8.0,788.191797138028,0.0,111608180810160201503011048001517881600007000088000
3267,EFOU,64.9300994873,25.3546009064,2023-09-12 00:20:00,,,,,17.0,1006.0,1102.9370961102761,14.0,8.0,170.0,10000.0,99999,8.0,95.93709611027612,0.0,11160817081017020140300604102951959600007000088000
3281,ENBL,61.3911018372,5.756939888,2023-09-12 00:20:00,,,,,9.0,1008.0,6616.316671769055,8.0,0.0,0.0,10000.0,99999,,5609.616671769055,0.0,111600000010090208030080461635156096600007000080000
3282,ENEV,68.4913024902,16.6781005859,2023-09-12 00:20:00,61.0,36.0,^,green,10.0,995.0,1297.3833195117347,10.0,8.0,360.0,5000.0,99999,,0.0,0.0,11130036081010020100399504297351000600007610080000
3283,ENHV,71.0096969604,25.9836006165,2023-09-12 00:20:00,51.0,36.0,T,green,10.0,997.0,1151.6215637955725,9.0,6.0,160.0,10000.0,99999,4.0,149.62156379557246,0.7,11160416061010020903997041516511496600707510084000
3284,ENMH,71.0297012329,27.8267002106,2023-09-12 00:20:00,,,,,10.0,998.0,1134.7228416993598,9.0,7.0,190.0,10000.0,99999,5.0,131.5228416993598,0.5,11160519071010020903998041347511315600507000085000
3285,ENNM,64.4721984863,11.5785999298,2023-09-12 00:20:00,,,,,13.0,1003.0,1021.5275026448126,11.0,8.0,240.0,10000.0,99999,6.0,19.927502644812535,0.4,11160624081013020110300304021551199600407000086000
3286,ENSR,69.7867965698,20.959400177,2023-09-12 00:20:00,,,,,9.0,996.0,1057.2863344873006,8.0,0.0,0.0,10000.0,99999,6.0,59.18633448730054,0.1,1116060000100902080399604057251591600107000086000
3287,ENVD,70.0652999878,29.8446998596,2023-09-12 00:20:00,,,,,11.0,1001.0,1427.2278508511629,9.0,9.0,170.0,10000.0,99999,4.0,0.0,0.0,1116041709101102090300104427251000600007000084000
3288,LGAD,37.9207000732,21.2926006317,2023-09-12 00:20:00,,,,,14.0,1014.0,1153.9597837416275,9.0,0.0,0.0,10000.0,99999,,140.6597837416275,0.0,11160000001014020903014041539511406600007000080000
3289,LGMK,37.4351005554,25.3481006622,2023-09-12 00:20:00,,,,,21.0,1010.0,1759.7448809377008,18.0,21.0,10.0,10000.0,99999,,748.7448809377008,0.0,111600012110210201803010047597517487600007000080000
3290,LGSA,35.5317001343,24.1497001648,2023-09-12 00:20:00,,,,,20.0,1012.0,1990.9700714548812,18.0,4.0,280.0,10000.0,99999,3.0,979.1700714548813,0.0,111603280410200201803012049909519791600007000083000
3291,LGSR,36.3992004395,25.4792995453,2023-09-12 00:20:00,,,,,23.0,1010.0,1208.0535040158225,18.0,14.0,330.0,10000.0,99999,,198.2535040158225,0.0,111600331410230201803010042080511982600007000080000
3292,LIBD,41.1389007568,16.7605991364,2023-09-12 00:20:00,,,,,17.0,1014.0,1400.7306662990718,12.0,3.0,200.0,10000.0,99999,,385.93066629907185,0.0,111600200310170201203014044007513859600007000080000
3293,LICC,37.4668006897,15.0663995743,2023-09-12 00:20:00,,,,,20.0,1015.0,1083.5895210091328,18.0,4.0,240.0,10000.0,99999,,68.5895210091328,0.0,11160024041020020180301504083551685600007000080000
3294,LICJ,38.1759986877,13.0909996033,2023-09-12 00:20:00,,,,,22.0,1015.0,1119.65832125283,17.0,2.0,,10000.0,99999,,104.65832125283009,0.0,111600360210220201703015041196511046600007000080000
3295,LIPE,44.5354003906,11.2887001038,2023-09-12 00:20:00,,,,,21.0,1014.0,1225.3837916544596,13.0,7.0,200.0,10000.0,99999,,211.68379165445958,0.0,111600200710210201303014042253512116600007000080000
3296,LIPH,45.648399353,12.1943998337,2023-09-12 00:20:00,,,,,19.0,1014.0,1124.0037950156996,17.0,2.0,,10000.0,99999,,110.00379501569955,0.0,111600360210190201703014041240511100600007000080000
3297,LIPQ,45.8274993896,13.4722003937,2023-09-12 00:20:00,,,,,16.0,1014.0,1099.9471930352922,16.0,2.0,30.0,10000.0,99999,,85.94719303529223,0.0,11160003021016020160301404099951859600007000080000
3298,LIPR,44.0203018188,12.611700058,2023-09-12 00:20:00,,,,,19.0,1013.0,1086.9860061378977,15.0,3.0,210.0,10000.0,99999,,72.88600613789765,0.0,11160021031019020150301304086951728600007000080000
3299,LIPX,45.3956985474,10.8885002136,2023-09-12 00:20:00,,,,,19.0,1014.0,1487.276502794186,15.0,3.0,350.0,10000.0,99999,,472.6765027941859,0.0,111600350310190201503014044872514726600007000080000
3300,LIPZ,45.5052986145,12.3519001007,2023-09-12 00:20:00,,,,,20.0,1014.0,1026.1582683511338,17.0,2.0,70.0,10000.0,99999,,12.158268351133756,0.0,11160007021020020170301404026151121600007000080000
3309,ENFL,61.5835990906,5.024720192,2023-09-12 00:20:00,,,,,12.0,1008.0,1116.5641146837613,9.0,9.0,240.0,10000.0,99999,5.0,110.36411468376127,0.0,11160524091012020903008041165511103600007000085000
3310,ENHK,70.4867019653,22.1396999359,2023-09-12 00:20:00,,,,,10.0,996.0,1068.55982836312,8.0,2.0,,10000.0,99999,8.0,69.55982836312,0.4,1116083602101002080399604068551695600407000088000
3311,ENKR,69.7257995605,29.8913002014,2023-09-12 00:20:00,,,,,10.0,1001.0,2138.7525758374245,9.0,14.0,150.0,10000.0,99999,8.0,0.0,0.0,1116081514101002090300104138751000600007000088000
3312,ENMS,65.783996582,13.2149000168,2023-09-12 00:20:00,61.0,36.0,^,green,15.0,998.0,1593.8232304921282,12.0,8.0,170.0,10000.0,99999,3.0,0.0,0.0,11160317081015020120399804593851000600007610083000
3313,ENRM,64.8383026123,11.1461000443,2023-09-12 00:20:00,53.0,36.0,V,green,12.0,1003.0,1043.3254641214544,11.0,10.0,240.0,5000.0,99999,5.0,43.52546412145443,0.0,11130524101012020110300304043351435600007530085000
3314,ENRS,67.5278015137,12.1033000946,2023-09-12 00:20:00,61.0,36.0,^,green,10.0,998.0,1021.9937802679693,8.0,12.0,340.0,10000.0,99999,,0.0,0.0,1116003412101002080399804021951000600007610080000
3315,ENSD,61.8300018311,6.1058301926,2023-09-12 00:20:00,,,,,12.0,1007.0,1630.2990101898465,9.0,0.0,0.0,10000.0,99999,4.0,0.0,0.0,1116040000101202090300704630251000600007000084000
3316,ENSG,61.1561012268,7.1377801895,2023-09-12 00:20:00,,,,,10.0,1007.0,1007.0,7.0,13.0,280.0,10000.0,99999,6.0,3.5,0.4,1116062813101002070300704007051035600407000086000
3317,LGKO,36.7933006287,27.0916996002,2023-09-12 00:20:00,,,,,25.0,1007.0,1636.3956819766042,17.0,15.0,360.0,10000.0,99999,,628.8956819766042,0.0,111600361510250201703007046363516288600007000080000
3332,EGLC,51.5052986145,0.0552779995,2023-09-12 00:20:00,,,,,20.0,1013.0,1046.1121722541552,16.0,5.0,250.0,10000.0,99999,,33.712172254155234,0.0,11160025051020020160301304046151337600007000080000
3333,EGMD,50.9561004639,0.9391670227,2023-09-12 00:20:00,,,,,18.0,1013.0,1038.1316075580373,17.0,4.0,260.0,10000.0,99999,,0.0,0.0,11160026041018020170301304038151000600007000080000
3339,ESKM,60.957901001,14.5114002228,2023-09-12 00:20:00,,,,,99999.0,1005.0,99999.0,99999.0,6.0,190.0,10000.0,99999,8.0,98993.0,0.0,11160819061099999020999990300504999051989930600007000088000
3340,ESOK,59.4446983337,13.3374004364,2023-09-12 00:20:00,,,,,17.0,1008.0,1817.1579066810375,16.0,9.0,190.0,10000.0,99999,8.0,809.0579066810375,0.0,111608190910170201603008048171518090600007000088000
3341,ESOW,59.5894012451,16.633600235,2023-09-12 00:20:00,,,,,16.0,1009.0,1054.685282634174,15.0,3.0,140.0,9000.0,99999,6.0,45.18528263417397,0.0,11150614031016020150300904054651451600007000086000
3343,ESSB,59.3544006348,17.9416999817,2023-09-12 00:20:00,10.0,36.0,+,yellow,15.0,1009.0,1119.4723343701116,15.0,6.0,150.0,4900.0,99999,8.0,108.2723343701116,0.0,111308150610150201503009041194511082600007100088000
3344,ESSV,57.6627998352,18.346200943,2023-09-12 00:20:00,,,,,15.0,1011.0,1417.1768309150582,15.0,6.0,190.0,300.0,99999,,405.07683091505817,0.0,111000190610150201503011044171514050600007000080000
3347,EDDB,52.362167,13.500667,2023-09-12 00:20:00,,,,,16.0,1012.0,1371.981582534768,13.0,3.0,150.0,10000.0,99999,,359.481582534768,0.0,111600150310160201303012043719513594600007000080000
3350,EDDF,50.0264015198,8.543129921,2023-09-12 00:20:00,,,,,20.0,1012.0,1716.9596196288248,16.0,5.0,10.0,10000.0,99999,,704.3596196288248,0.0,111600010510200201603012047169517043600007000080000
3352,EDDH,53.6304016113,9.9882297516,2023-09-12 00:20:00,,,,,19.0,1012.0,1110.4058383301272,18.0,7.0,290.0,6000.0,99999,6.0,98.1058383301272,0.0,11130629071019020180301204110451981600007000086000
3355,EDDM,48.3538017273,11.7861003876,2023-09-12 00:20:00,41.0,36.0,J,yellow,14.0,1015.0,6142.694724747851,14.0,1.0,230.0,2200.0,99999,,5127.694724747851,0.0,1111002301101402014030150414265151276600007410080000
3358,EDDR,49.2145996094,7.1095099449,2023-09-12 00:20:00,,,,,20.0,1013.0,3355.5519823719837,16.0,4.0,90.0,10000.0,99999,,2343.1519823719836,0.0,1116000904102002016030130435555123431600007000080000
3359,EDDS,48.6898994446,9.2219600677,2023-09-12 00:20:00,,,,,17.0,1014.0,4503.283837710807,15.0,3.0,50.0,10000.0,99999,,3490.5838377108075,0.0,1116000503101702015030140450325134905600007000080000
3360,EDDV,52.461101532,9.6850795746,2023-09-12 00:20:00,,,,,20.0,1013.0,1349.9141793151427,18.0,8.0,270.0,10000.0,99999,1.0,337.51417931514277,0.0,111601270810200201803013043499513375600007000081000
3362,EDFM,49.4730567932,8.514166832,2023-09-12 00:20:00,,,,,19.0,1012.0,1633.269759840414,16.0,2.0,260.0,10000.0,99999,,620.4697598404141,0.0,111600260210190201603012046332516204600007000080000
3374,ENAT,69.9760971069,23.3717002869,2023-09-12 00:20:00,61.0,36.0,^,green,11.0,997.0,1025.0405412277146,8.0,4.0,140.0,10000.0,99999,8.0,24.540541227714584,0.1,1116081404101102080399704025051245600107610088000
3375,ENBN,65.4610977173,12.217499733,2023-09-12 00:20:00,16.0,36.0,1,,13.0,1001.0,1067.6968100177796,12.0,13.0,220.0,10000.0,99999,6.0,0.0,0.0,11160622131013020120300104067651000600007160086000
3376,ENBS,70.6005020142,29.691400528,2023-09-12 00:20:00,,,,,11.0,1000.0,2900.4403643449505,8.0,19.0,180.0,10000.0,99999,5.0,1895.8403643449506,0.2,111605181910110208030000490045118958600207000085000
3377,ENKB,63.1118011475,7.8245201111,2023-09-12 00:20:00,,,,,12.0,1005.0,1654.7816281672385,9.0,17.0,250.0,10000.0,99999,6.0,0.0,0.0,1116062517101202090300504654751000600007000086000
3378,ENML,62.7447013855,7.2624998093,2023-09-12 00:20:00,,,,,12.0,1006.0,1034.820777350574,8.0,9.0,270.0,10000.0,99999,,30.820777350573962,0.0,1116002709101202080300604034851308600007000080000
3379,ENOV,62.1800003052,6.0741000175,2023-09-12 00:20:00,,,,,10.0,1007.0,1972.2812725290446,8.0,0.0,0.0,10000.0,99999,3.0,0.0,0.0,1116030000101002080300704972251000600007000083000
3380,ENRA,66.363899231,14.3014001846,2023-09-12 00:20:00,,,,,11.0,998.0,1803.927034161643,11.0,2.0,,10000.0,99999,6.0,0.0,0.0,11160636021011020110399804803951000600007000086000
3381,ENSK,68.5788269043,15.033416748,2023-09-12 00:20:00,,,,,10.0,996.0,1033.7377188018731,9.0,7.0,280.0,10000.0,99999,,36.63771880187312,1.3,1116002807101002090399604033751366601307000080000
3382,ENSS,70.3554000854,31.0449008942,2023-09-12 00:20:00,61.0,36.0,^,green,10.0,1002.0,1150.1324981498196,9.0,12.0,170.0,10000.0,99999,4.0,144.73249814981966,0.0,11160417121010020903002041501511447600007610084000
3388,EBCI,50.4592018127,4.4538202286,2023-09-12 00:20:00,,,,,18.0,1014.0,2436.6459479260693,17.0,2.0,130.0,7000.0,99999,,1422.6459479260693,7.1,1114001302101802017030140443665114226607007000080000
3389,EBLG,50.6374015808,5.4432201385,2023-09-12 00:20:00,80.0,36.0,q,green,18.0,1014.0,2555.4095970982917,17.0,2.0,120.0,10000.0,99999,1.0,1541.4095970982917,5.8,1116011202101802017030140455545115414605707800081000
3390,EBOS,51.1988983154,2.8622200489,2023-09-12 00:20:00,10.0,36.0,+,yellow,15.0,1014.0,1044.2192415130512,15.0,2.0,,2800.0,99999,6.0,30.2192415130512,0.0,11110636021015020150301404044251302600007100086000
3392,EDDC,51.1328010559,13.76720047,2023-09-12 00:20:00,,,,,18.0,1013.0,2810.5074931842455,16.0,5.0,190.0,10000.0,99999,,1797.4074931842456,0.0,1116001905101802016030130481055117974600007000080000
3393,EDDE,50.979801178,10.9581003189,2023-09-12 00:20:00,,,,,16.0,1014.0,3966.1891687603393,13.0,8.0,210.0,10000.0,99999,,2953.1891687603393,0.0,1116002108101602013030140496615129531600007000080000
3394,EDDG,52.134601593,7.6848301888,2023-09-12 00:20:00,,,,,19.0,1013.0,1321.6659697269909,18.0,5.0,290.0,9000.0,99999,1.0,308.8659697269909,0.0,111501290510190201803013043216513088600007000081000
3395,EDDK,50.8658981323,7.1427397728,2023-09-12 00:20:00,,,,,20.0,1013.0,1588.7582292216953,18.0,6.0,330.0,10000.0,99999,,576.9582292216953,0.0,111600330610200201803013045887515769600007000080000
3396,EDDL,51.2895011902,6.7667798996,2023-09-12 00:20:00,17.0,36.0,2,red,19.0,1014.0,1296.6413059065183,17.0,5.0,300.0,10000.0,99999,1.0,284.2413059065183,0.0,111601300510190201703014042966512842600007170081000
3397,EDDN,49.4986991882,11.0669002533,2023-09-12 00:20:00,10.0,36.0,+,yellow,16.0,1014.0,3998.5718075611535,16.0,2.0,90.0,5000.0,99999,,2984.9718075611536,0.0,1113000902101602016030140499855129849600007100080000
3398,EDDP,51.4323997498,12.2416000366,2023-09-12 00:20:00,,,,,19.0,1013.0,1991.7650550003766,13.0,4.0,170.0,10000.0,99999,,979.1650550003766,0.0,111600170410190201303013049917519791600007000080000
3399,EDDW,53.0475006104,8.7866697311,2023-09-12 00:20:00,,,,,20.0,1011.0,1035.3063244999169,19.0,7.0,70.0,4300.0,99999,1.0,23.306324499916855,0.0,11120107071020020190301104035351233600007000081000
3400,EDHK,54.3794441223,10.145277977,2023-09-12 00:20:00,,,,,19.0,1012.0,1204.7393243307665,17.0,8.0,270.0,4700.0,99999,8.0,193.73932433076652,0.0,111208270810190201703012042047511937600007000088000
3401,EDLN,51.2302780151,6.5044441223,2023-09-12 00:20:00,,,,,19.0,1013.0,1251.3226566174899,17.0,5.0,350.0,10000.0,99999,4.0,238.32265661748988,3.3,111604350510190201703013042513512383603207000084000
3402,EDLP,51.6141014099,8.6163196564,2023-09-12 00:20:00,,,,,19.0,1013.0,2561.4084686001656,16.0,1.0,,10000.0,99999,,1548.4084686001656,0.0,1116003601101902016030130456145115484600007000080000
3404,EDQM,50.2886123657,11.8563890457,2023-09-12 00:20:00,,,,,13.0,1015.0,8400.188896603586,12.0,0.0,0.0,10000.0,99999,,7386.188896603586,0.0,1116000000101302012030150440015173861600007000080000
3405,EDTL,48.3693008423,7.8277201653,2023-09-12 00:20:00,,,,,18.0,1012.0,2166.3117326512343,17.0,3.0,200.0,10000.0,99999,,1154.1117326512342,0.0,1116002003101802017030120416635111541600007000080000
3408,ELLX,49.6265983582,6.211520195,2023-09-12 00:20:00,,,,,21.0,1013.0,3653.935546047437,16.0,3.0,120.0,10000.0,99999,,2642.435546047437,0.0,1116001203102102016030130465395126424600007000080000
3436,ENBV,70.8713989258,29.0342006683,2023-09-12 00:20:00,61.0,36.0,^,green,11.0,999.0,1132.913743607546,9.0,14.0,210.0,10000.0,99999,8.0,128.7137436075459,0.4,11160821141011020903999041329511287600407610088000
3437,ENHF,70.6797027588,23.6686000824,2023-09-12 00:20:00,,,,,10.0,996.0,2052.1404309381915,8.0,3.0,250.0,10000.0,99999,8.0,0.0,0.0,1116082503101002080399604052151000600007000088000
3438,ENNA,70.0688018799,24.9734992981,2023-09-12 00:20:00,,,,,11.0,997.0,1075.702549330698,9.0,8.0,150.0,10000.0,99999,7.0,75.70254933069805,1.3,1116071508101102090399704075751757601307000087000
3447,LIEO,40.8987007141,9.5176296234,2023-09-12 00:20:00,,,,,18.0,1015.0,1087.3563353679544,14.0,1.0,,10000.0,99999,,71.45633536795447,0.0,11160036011018020140301504087351714600007000080000
3449,LIRA,41.7994003296,12.5949001312,2023-09-12 00:20:00,,,,,21.0,1015.0,1813.624337089131,13.0,3.0,160.0,10000.0,99999,,797.6243370891309,0.0,111600160310210201303015048136517976600007000080000
3451,LIRP,43.6838989258,10.3927001953,2023-09-12 00:15:00,,,,,16.0,1015.0,1028.041938655822,16.0,4.0,140.0,8000.0,99999,,12.9419386558219,0.0,11140014041016020160301504028051129600007000080000
3471,EDAC,50.9819450378,12.5063886642,2023-09-12 00:20:00,,,,,15.0,1013.0,2845.825624850586,13.0,1.0,,10000.0,99999,,1832.8256248505859,0.0,1116003601101502013030130484585118328600007000080000
3472,EDAH,53.8787002563,14.152299881,2023-09-12 00:20:00,,,,,19.0,1011.0,1186.0048911184097,18.0,3.0,120.0,10000.0,99999,,173.8048911184096,0.0,111600120310190201803011041860511738600007000080000
3473,EDFH,49.9486999512,7.2638897896,2023-09-12 00:20:00,,,,,20.0,1014.0,4890.925903827138,15.0,6.0,140.0,10000.0,99999,,3878.7259038271386,0.0,1116001406102002015030140489095138787600007000080000
3474,EDHI,53.5352783203,9.8355560303,2023-09-12 00:20:00,,,,,19.0,1013.0,1055.2719280679007,18.0,9.0,280.0,6000.0,99999,6.0,42.57192806790067,0.0,11130628091019020180301304055251425600007000086000
3475,EDHL,53.8054008484,10.7192001343,2023-09-12 00:20:00,,,,,19.0,1012.0,1110.4058383301272,17.0,4.0,260.0,10000.0,99999,6.0,98.50583833012718,0.0,11160626041019020170301204110451985600007000086000
3476,EDLW,51.5182991028,7.6122398377,2023-09-12 00:20:00,,,,,19.0,1013.0,1898.6757985534562,17.0,1.0,,10000.0,99999,1.0,886.2757985534562,0.0,111601360110190201703013048986518862600007000081000
3477,EDMA,48.42527771,10.9316673279,2023-09-12 00:20:00,,,,,14.0,1014.0,6244.480371981598,13.0,0.0,0.0,10000.0,99999,,5230.280371981598,0.0,1116000000101402013030140424445152302600007000080000
3478,EDMO,48.081401825,11.2831001282,2023-09-12 00:20:00,,,,,13.0,1015.0,8354.91484590742,12.0,3.0,180.0,10000.0,99999,,7338.91484590742,0.0,1116001803101302012030150435495173389600007000080000
3479,EDNY,47.6712989807,9.5114898682,2023-09-12 00:20:00,,,,,16.0,1014.0,5047.868130585359,16.0,3.0,30.0,10000.0,99999,,4032.868130585359,0.0,1116000303101602016030140404785140328600007000080000
3480,EDSB,48.7793998718,8.0804996491,2023-09-12 00:20:00,,,,,18.0,1011.0,1908.0035107019287,18.0,2.0,180.0,3300.0,99999,,897.0035107019287,0.0,111200180210180201803011049080518970600007000080000
3481,EDVE,52.3191986084,10.5560998917,2023-09-12 00:20:00,,,,,19.0,1012.0,1604.8243675225385,16.0,3.0,100.0,10000.0,99999,6.0,592.4243675225385,0.0,111606100310190201603012046048515924600007000086000
3482,EDVK,51.4083328247,9.3774995804,2023-09-12 00:20:00,,,,,19.0,1013.0,3101.5904672247434,16.0,1.0,,10000.0,99999,1.0,2088.0904672247434,0.0,1116013601101902016030130410155120880600007000081000
3483,EDXW,54.9132003784,8.340470314,2023-09-12 00:20:00,,,,,19.0,1011.0,1105.5293881542416,18.0,9.0,250.0,7000.0,99999,5.0,94.52938815424159,0.0,11140525091019020180301104105551945600007000085000
3491,EBAW,51.1893997192,4.4602799416,2023-09-12 00:20:00,,,,,18.0,1013.0,1089.1769220031433,17.0,2.0,190.0,7000.0,99999,,76.17692200314332,1.8,11140019021018020170301304089151761601807000080000
3492,EBBR,50.9014015198,4.4844398499,2023-09-12 00:20:00,,,,,18.0,1014.0,1393.2540384937095,17.0,1.0,170.0,10000.0,99999,,380.25403849370946,0.0,111600170110180201703014043932513802600007000080000
3495,EGPO,58.2155990601,-6.3311100006,2023-09-12 00:20:00,,,,,8.0,1014.0,1129.2464795349065,6.0,3.0,240.0,10000.0,99999,1.0,116.24647953490648,0.0,11160124031008020603014041292511162600007000081000
3496,EGPU,56.4991989136,-6.8691701889,2023-09-12 00:20:00,,,,,11.0,1015.0,1137.793720978407,8.0,8.0,330.0,10000.0,99999,1.0,122.49372097840705,0.0,11160133081011020803015041377511224600007000081000
3497,EKAH,56.2999992371,10.6190004349,2023-09-12 00:20:00,10.0,36.0,+,yellow,19.0,1010.0,1163.5522418018527,18.0,5.0,260.0,3300.0,99999,8.0,152.25224180185273,0.0,111208260510190201803010041635511522600007100088000
3498,EKKA,56.2975006104,9.1246299744,2023-09-12 00:20:00,,,,,18.0,1010.0,1357.3578361287953,17.0,6.0,240.0,6000.0,99999,8.0,347.35783612879527,0.0,111308240610180201703010043573513473600007000088000
3499,EKYT,57.0927589138,9.8492431641,2023-09-12 00:20:00,,,,,18.0,1009.0,1028.232415815472,17.0,9.0,260.0,9000.0,99999,5.0,18.332415815472018,0.0,11150526091018020170300904028251183600007000085000
3500,ENAN,69.2925033569,16.1441993713,2023-09-12 00:20:00,51.0,36.0,T,green,10.0,996.0,1146.8536579251133,8.0,18.0,40.0,10000.0,99999,5.0,0.0,0.0,1116050418101002080399604146851000600007510085000
3501,ENBO,67.269203186,14.3653001785,2023-09-12 00:20:00,51.0,36.0,T,green,13.0,996.0,1108.5158981046548,13.0,17.0,240.0,10000.0,99999,3.0,113.2158981046548,0.8,111603241710130201303996041085511132600807510083000
3502,ENGM,60.193901062,11.100399971,2023-09-12 00:20:00,,,,,17.0,1005.0,2697.2945180350266,16.0,12.0,210.0,10000.0,99999,4.0,0.0,0.0,11160421121017020160300504697251000600007000084000
3503,ENSH,68.2433013916,14.6691999435,2023-09-12 00:20:00,,,,,10.0,995.0,1088.5909478305985,9.0,0.0,0.0,8000.0,99999,2.0,91.99094783059843,1.2,1114020000101002090399504088551919601107000082000
3504,ENTC,69.6832962036,18.9188995361,2023-09-12 00:20:00,61.0,36.0,^,green,9.0,996.0,1116.1344373028855,7.0,7.0,50.0,9000.0,99999,,117.53443730288552,0.2,11150005071009020703996041161511175600207610080000
3505,ESSA,59.6519012451,17.9186000824,2023-09-12 00:20:00,,,,,14.0,1009.0,1369.3080026955904,14.0,8.0,160.0,7000.0,99999,8.0,359.3080026955904,0.0,111408160810140201403009043693513593600007000088000
3506,EGSH,52.6758003235,1.2827800512,2023-09-12 00:20:00,,,,,16.0,1012.0,1277.8906100498182,15.0,4.0,260.0,10000.0,99999,,265.79061004981816,0.0,111600260410160201503012042778512657600007000080000
3511,LIBP,42.4317016602,14.1810998917,2023-09-12 00:20:00,,,,,17.0,1014.0,1113.8277813625748,16.0,3.0,220.0,10000.0,99999,,98.92778136257482,0.0,11160022031017020160301404113851989600007000080000
3512,LICA,38.9053993225,16.2423000336,2023-09-12 00:20:00,,,,,18.0,1015.0,1091.3273206645513,16.0,4.0,60.0,10000.0,99999,,76.32732066455128,0.0,11160006041018020160301504091351763600007000080000
3513,LICR,38.0712013245,15.651599884,2023-09-12 00:20:00,,,,,23.0,1015.0,1164.0959349079917,15.0,5.0,40.0,10000.0,99999,,149.0959349079917,0.0,111600040510230201503015041640511490600007000080000
3514,LIPY,43.6162986755,13.3622999191,2023-09-12 00:20:00,,,,,18.0,1014.0,1110.1780350561814,15.0,3.0,190.0,10000.0,99999,,95.37803505618149,0.0,11160019031018020150301404110151953600007000080000
3516,LICD,35.4978981018,12.6181001663,2023-09-12 00:20:00,,,,,24.0,1015.0,1118.2893451879024,19.0,3.0,310.0,10000.0,99999,,102.88934518790245,0.0,111600310310240201903015041182511028600007000080000
3517,LIRZ,43.0959014893,12.5131998062,2023-09-12 00:20:00,,,,,17.0,1016.0,2772.6577648060334,13.0,4.0,310.0,10000.0,99999,,1757.5577648060334,0.0,1116003104101702013030160477265117575600007000080000
3522,EHLE,52.4603004456,5.5272197723,2023-09-12 00:25:00,10.0,36.0,+,yellow,18.0,1013.0,988.1332760787961,18.0,2.0,250.0,2300.0,99999,,-24.866723921203857,0.0,11110025021018020180301304988151241600007100080000
3523,EHRD,51.9569015503,4.4372200966,2023-09-12 00:25:00,45.0,36.0,N,yellow,18.0,1013.0,984.3313356354673,17.0,3.0,230.0,300.0,99999,,-29.36866436453272,0.2,11100023031018020170301304984351296600207450080000
3527,EGCC,53.3536987305,-2.2749500275,2023-09-12 00:20:00,61.0,36.0,^,green,15.0,1013.0,1673.561844321442,15.0,1.0,,7000.0,99999,4.0,660.5618443214421,0.5,111404360110150201503013046735516605600507610084000
3528,EGLL,51.4706001282,-0.4619410038,2023-09-12 00:20:00,,,,,19.0,1013.0,1168.9420805992625,17.0,4.0,270.0,10000.0,99999,6.0,155.6420805992625,0.0,111606270410190201703013041689511556600007000086000
3530,ETHC,52.5912017822,10.0221004486,2023-09-12 00:20:00,,,,,21.0,1012.0,1233.6737073893926,17.0,3.0,340.0,10000.0,99999,6.0,221.97370738939253,0.0,111606340310210201703012042336512219600007000086000
3535,ETNN,50.831199646,6.6581702232,2023-09-12 00:20:00,,,,,19.0,1013.0,1800.2048703405785,16.0,4.0,290.0,10000.0,99999,2.0,787.8048703405785,0.6,111602290410190201603013048002517878600607000082000
3537,ETSH,51.7677993774,13.1676998138,2023-09-12 00:20:00,,,,,14.0,1012.0,1747.9635095173471,13.0,1.0,40.0,10000.0,99999,1.0,735.3635095173471,0.0,111601040110140201303012047479517353600007000081000
3538,ETSN,48.7109985352,11.2115001678,2023-09-12 00:20:00,42.0,36.0,K,yellow,15.0,1014.0,4933.820270186954,14.0,2.0,110.0,10000.0,99999,1.0,3920.020270186954,0.0,1116011102101502014030140493385139200600007420081000
3541,EHWO,51.4491004944,4.3420300484,2023-09-12 00:25:00,45.0,36.0,N,yellow,16.0,1013.0,1153.1480740116249,16.0,0.0,0.0,300.0,99999,8.0,140.14807401162489,1.7,111008000010160201603013041531511401601707450088000
3556,LIEA,40.6320991516,8.290769577,2023-09-12 00:20:00,,,,,17.0,1015.0,1198.9729334900762,16.0,2.0,,10000.0,99999,,182.97293349007623,0.0,111600360210170201603015041989511829600007000080000
3557,LIEE,39.251499176,9.0542802811,2023-09-12 00:20:00,,,,,21.0,1015.0,1036.5677772798333,14.0,4.0,350.0,10000.0,99999,,20.567777279833308,0.0,11160035041021020140301504036551205600007000080000
3558,LIMC,45.6305999756,8.7281103134,2023-09-12 00:20:00,,,,,20.0,1015.0,2643.8536168347687,18.0,5.0,20.0,10000.0,99999,,1628.8536168347687,0.0,1116000205102002018030150464385116288600007000080000
3559,LIME,45.6739006042,9.7041702271,2023-09-12 00:20:00,,,,,21.0,1015.0,2587.966017493158,17.0,4.0,360.0,10000.0,99999,,1572.9660174931578,0.0,1116003604102102017030150458795115729600007000080000
3560,LIMF,45.2008018494,7.6496300697,2023-09-12 00:20:00,,,,,21.0,1015.0,3070.457638286282,16.0,3.0,330.0,10000.0,99999,,2055.057638286282,0.0,1116003303102102016030150407045120550600007000080000
3561,LIMJ,44.4132995605,8.8374996185,2023-09-12 00:20:00,,,,,22.0,1015.0,1035.583221469671,15.0,2.0,,10000.0,99999,,20.283221469670934,0.0,11160036021022020150301504035551202600007000080000
3562,LIML,45.445098877,9.2767400742,2023-09-12 00:20:00,,,,,19.0,1014.0,1736.4871368683023,17.0,1.0,,10000.0,99999,,722.0871368683023,0.0,111600360110190201703014047364517220600007000080000
3563,LIRF,41.8045005798,12.2508001328,2023-09-12 00:20:00,,,,,17.0,1015.0,1045.8000252033125,16.0,1.0,,10000.0,99999,,30.800025203312543,0.0,11160036011017020160301504045851308600007000080000
3564,LIRQ,43.8100013733,11.2051000595,2023-09-12 00:20:00,,,,,18.0,1015.0,1303.7589362493645,14.0,2.0,70.0,10000.0,99999,,288.7589362493645,0.0,111600070210180201403015043037512887600007000080000
3591,ETMN,53.7677001953,8.6584997177,2023-09-12 00:20:00,,,,,19.0,1011.0,1147.393767234709,18.0,3.0,360.0,4500.0,99999,3.0,135.09376723470905,0.0,111203360310190201803011041473511350600007000083000
3610,EYSA,55.893901825,23.3950004578,2023-09-12 00:20:00,,,,,14.0,99999.0,99999.0,14.0,2.0,,10000.0,99999,,0.0,0.0,11160036021014020140399904999051000600007000080000
3623,EGGW,51.8746986389,-0.3683330119,2023-09-12 00:20:00,,,,,18.0,1013.0,2206.6247126081275,15.0,8.0,270.0,10000.0,99999,,1194.2247126081274,0.0,1116002708101802015030130420665111942600007000080000
3624,EGJJ,49.207901001,-2.1955099106,2023-09-12 00:20:00,,,,,17.0,1015.0,1641.6090179944918,16.0,3.0,290.0,10000.0,99999,,627.0090179944917,0.0,111600290310170201603015046416516270600007000080000
3626,EGPK,55.5093994141,-4.5866699219,2023-09-12 00:20:00,,,,,9.0,1015.0,1278.233907094948,8.0,0.0,0.0,10000.0,99999,,264.2339070949481,0.0,11160000001009020803015042782512642600007000080000
3643,EGPH,55.9500007629,-3.3724999428,2023-09-12 00:20:00,,,,,9.0,1014.0,1586.1919526890028,8.0,3.0,250.0,10000.0,99999,6.0,573.4919526890028,0.0,11160625031009020803014045861515734600007000086000
3649,ETHB,52.2784996033,9.0821695328,2023-09-12 00:20:00,,,,,21.0,1012.0,1419.3334345105616,17.0,6.0,90.0,10000.0,99999,4.0,407.0334345105616,0.0,111604090610210201703012044193514070600007000084000
3651,ETHN,49.3919448853,9.9588890076,2023-09-12 00:20:00,,,,,18.0,1014.0,4468.223843684946,12.0,3.0,130.0,10000.0,99999,,3454.7238436849457,0.0,1116001303101802012030140446825134547600007000080000
3653,ETNL,53.9182014465,12.2783002853,2023-09-12 00:20:00,,,,,17.0,1011.0,1307.39028605222,16.0,2.0,,10000.0,99999,,295.4902860522201,0.0,111600360210170201603011043073512954600007000080000
3657,LTCR,37.2233009338,40.6316986084,2023-09-12 00:30:00,,,,,23.0,1006.0,4473.732096789347,6.0,5.0,50.0,10000.0,99999,,3469.1320967893475,0.0,111600050510230206030060447375134691600007000080000
3663,LIRN,40.8860015869,14.2908000946,2023-09-12 00:20:00,,,,,22.0,1015.0,1520.5814866175413,18.0,3.0,90.0,10000.0,99999,,505.58148661754126,0.0,111600090310220201803015045205515055600007000080000
3665,EHBK,50.9117012024,5.7701401711,2023-09-12 00:25:00,,,,,18.0,1014.0,1833.505552608393,17.0,2.0,,10000.0,99999,,820.3055526083929,0.0,111600360210180201703014048335518203600007000080000
3666,EHGG,53.1197013855,6.5794401169,2023-09-12 00:25:00,80.0,36.0,q,green,18.0,1012.0,1044.884720560724,18.0,2.0,,2800.0,99999,1.0,31.884720560723963,0.0,11110136021018020180301204044851318600007800081000
3667,ETHF,51.1146,9.286,2023-09-12 00:20:00,,,,,17.0,1013.0,4711.348715315542,16.0,2.0,300.0,10000.0,99999,6.0,3698.348715315542,0.0,1116063002101702016030130471135136983600007000086000
3669,ETNW,52.4572982788,9.4271697998,2023-09-12 00:20:00,,,,,22.0,1012.0,1323.4064768452163,18.0,7.0,340.0,10000.0,99999,3.0,311.6064768452163,0.0,111603340710220201803012043234513116600007000083000
3690,LTCS,37.4456634521,38.8955917358,2023-09-12 00:20:00,,,,,20.0,1008.0,7587.901856199826,9.0,4.0,250.0,10000.0,99999,,6582.701856199827,0.0,111600250410200209030080458795165827600007000080000
3694,LTFM,41.275333,28.752,2023-09-12 00:20:00,,,,,21.0,1016.0,1609.082339025707,15.0,13.0,60.0,10000.0,99999,3.0,0.0,0.0,11160306131021020150301604609051000600007000083000
3723,LTAZ,38.771900177,34.5345001221,2023-09-12 00:20:00,,,,,12.0,1016.0,13.116386993849023,4.0,6.0,200.0,10000.0,99999,,0.0,0.0,111600200610120204030160413151000600007000080000
3724,LTBR,40.2551994324,29.5625991821,2023-09-12 00:20:00,,,,,10.0,1016.0,4582.5396622558765,10.0,3.0,30.0,10000.0,99999,,3566.5396622558765,0.0,1116000303101002010030160458255135665600007000080000
3726,LTFC,37.8554000854,30.3684005737,2023-09-12 00:20:00,,,,,15.0,1014.0,10.197294230693092,2.0,10.0,350.0,10000.0,99999,,-1001.302705769307,0.0,11160035101015020203014041015110016600007000080000
3727,LTFJ,40.898601532,29.3092002869,2023-09-12 00:20:00,,,,,19.0,1016.0,1648.5476693446108,14.0,9.0,50.0,10000.0,99999,3.0,632.5476693446108,0.0,111603050910190201403016046485516325600007000083000
3751,EHAM,52.3086013794,4.7638897896,2023-09-12 00:25:00,,,,,18.0,1012.0,990.962348019334,18.0,4.0,220.0,2300.0,99999,,-22.537651980666055,0.0,11110022041018020180301204990951224600007000080000
3754,LFCK,43.5563011169,2.2891800404,2023-09-12 00:30:00,,,,,21.0,1016.0,2604.2452001604884,17.0,5.0,230.0,10000.0,99999,8.0,0.0,0.0,11160823051021020170301604604251000600007000088000
3755,LFLP,45.9291992188,6.098760128,2023-09-12 00:30:00,,,,,19.0,1016.0,4774.458591970264,14.0,6.0,50.0,10000.0,99999,,3759.658591970264,0.0,1116000506101902014030160477445137596600007000080000
3759,LFQA,49.2086982727,4.1565799713,2023-09-12 00:30:00,,,,,20.0,1012.0,1609.953414815932,17.0,6.0,320.0,10000.0,99999,,596.9534148159321,0.0,111600320610200201703012046099515969600007000080000
3805,LFGA,48.1099014282,7.3590102196,2023-09-12 00:30:00,,,,,22.0,1012.0,2173.4618318166054,14.0,6.0,220.0,10000.0,99999,,1160.4618318166054,0.0,1116002206102202014030120417345111604600007000080000
3806,LFJR,47.5602989197,-0.3122220039,2023-09-12 00:30:00,,,,,19.0,1013.0,1391.4196187060516,18.0,3.0,40.0,8000.0,99999,,378.0196187060516,0.0,111400040310190201803013043914513780600007000080000
3808,EPBY,53.0968017578,17.9776992798,2023-09-12 00:30:00,,,,,13.0,1013.0,1713.4321618434751,12.0,0.0,0.0,10000.0,99999,,0.0,0.0,11160000001013020120301304713451000600007000080000
3813,EPSY,53.481944,20.937778,2023-09-12 00:30:00,,,,,12.0,1013.0,2651.4858368587097,12.0,3.0,230.0,10000.0,99999,,1638.4858368587097,0.0,1116002303101202012030130465145116384600007000080000
3816,LFPT,49.0965995789,2.0408298969,2023-09-12 00:30:00,,,,,17.0,1013.0,1757.7751982340067,17.0,5.0,330.0,7000.0,99999,,743.7751982340067,0.8,111400330510170201703013047577517437600807000080000
3820,LHKE,46.9174995422,19.7492008209,2023-09-12 00:15:00,,,,,18.0,1015.0,1837.7288784083187,12.0,0.0,0.0,10000.0,99999,,823.3288784083187,0.0,111600000010180201203015048377518233600007000080000
3821,LHPA,47.3636016846,17.5007991791,2023-09-12 00:15:00,,,,,15.0,1014.0,2294.0414535937043,14.0,0.0,0.0,10000.0,99999,,1280.0414535937043,0.0,1116000000101502014030140429405112800600007000080000
3823,LHPR,47.6244010925,17.8136005402,2023-09-12 00:15:00,,,,,16.0,1014.0,2084.706058065036,14.0,5.0,120.0,10000.0,99999,,1070.706058065036,0.0,1116001205101602014030140408475110707600007000080000
3824,LHSM,46.6864013672,17.1590995789,2023-09-12 00:15:00,,,,,15.0,1014.0,2116.41576106003,15.0,2.0,340.0,10000.0,99999,,0.0,0.0,11160034021015020150301404116451000600007000080000
3825,LHSN,47.1228981018,20.2355003357,2023-09-12 00:15:00,,,,,19.0,1014.0,1667.3865582962803,12.0,4.0,,10000.0,99999,,652.7865582962803,0.0,111600360410190201203014046673516527600007000080000
3828,LTAI,36.8987007141,30.8005008698,2023-09-12 00:20:00,,,,,23.0,1007.0,1286.1225772000766,3.0,10.0,320.0,10000.0,99999,,278.8225772000767,0.0,11160032101023020303007042861512788600007000080000
3829,LTAJ,36.9472007751,37.4786987305,2023-09-12 00:20:00,,,,,20.0,1007.0,6585.548900061042,11.0,3.0,260.0,10000.0,99999,,5582.448900061042,0.0,1116002603102002011030070458555155824600007000080000
3832,LTAU,38.770401001,35.4953994751,2023-09-12 00:20:00,,,,,10.0,1016.0,16.14875269065948,5.0,6.0,110.0,10000.0,99999,,-995.1512473093404,0.0,1116001106101002050301604161519958600007000080000
3833,LTBA,40.9768981934,28.8145999908,2023-09-12 00:20:00,,,,,19.0,1016.0,1331.697307832478,14.0,6.0,50.0,10000.0,99999,1.0,315.6973078324779,0.0,111601050610190201403016043316513156600007000081000
3836,LTBU,41.1381988525,27.9190998077,2023-09-12 00:20:00,,,,,16.0,1016.0,2525.2626397715594,14.0,6.0,10.0,10000.0,99999,1.0,1508.6626397715595,0.0,1116010106101602014030160452525115086600007000081000
3837,LTCC,37.893901825,40.2010002136,2023-09-12 00:20:00,,,,,20.0,1007.0,6421.203407046447,3.0,3.0,310.0,10000.0,99999,,5419.503407046447,0.0,111600310310200203030070442125154195600007000080000
3838,LTCE,39.9565010071,41.1702003479,2023-09-12 00:20:00,80.0,36.0,q,green,11.0,1016.0,20.623982967575998,5.0,12.0,70.0,10000.0,99999,4.0,-987.876017032424,0.0,1116040712101102050301604206519871600007800084000
3842,ULOO,57.7839012146,28.3955993652,2023-09-12 00:00:00,,,,,14.0,1015.0,1425.4343150342415,14.0,2.0,120.0,10000.0,99999,6.0,410.43431503424154,0.0,111606120210140201403015044254514104600007000086000
3843,ULPB,61.8852005005,34.1547012329,2023-09-12 00:00:00,,,,,9.0,1016.0,1663.5341126039568,9.0,0.0,0.0,10000.0,99999,,647.1341126039569,0.0,11160000001009020903016046635516471600007000080000
3854,LYBT,44.935299,20.2575,2023-09-12 00:30:00,,,,,15.0,1015.0,1699.4063653591975,15.0,3.0,50.0,10000.0,99999,,684.4063653591975,0.0,111600050310150201503015046994516844600007000080000
3855,LYKV,43.818298,20.5872,2023-09-12 00:30:00,,,,,11.0,1016.0,3850.399734671989,11.0,0.0,0.0,10000.0,99999,,2834.399734671989,0.0,1116000000101102011030160485035128343600007000080000
3859,LYVR,45.1469,21.3099,2023-09-12 00:30:00,,,,,20.0,1015.0,1538.3924928960328,14.0,0.0,0.0,10000.0,99999,,522.6924928960327,0.0,111600000010200201403015045383515226600007000080000
3862,EGQL,56.3728981018,-2.8684399128,2023-09-12 00:20:00,,,,,13.0,1014.0,1117.4189781161213,9.0,4.0,340.0,10000.0,99999,3.0,105.2189781161212,0.0,11160334041013020903014041174511052600007000083000
3863,EGVN,51.75,-1.5836199522,2023-09-12 00:20:00,,,,,18.0,1013.0,1626.1039089361336,15.0,3.0,240.0,10000.0,99999,,613.2039089361336,0.0,111600240310180201503013046261516132600007000080000
3865,ETHS,52.9193992615,10.1975002289,2023-09-12 00:20:00,,,,,19.0,1012.0,1497.0885878693568,16.0,2.0,270.0,10000.0,99999,6.0,485.4885878693568,0.0,111606270210190201603012044970514854600007000086000
3896,EGXV,53.8758010864,-0.4350000024,2023-09-12 00:20:00,61.0,36.0,^,green,14.0,1012.0,1102.5756915042045,14.0,4.0,10.0,8000.0,99999,8.0,89.97569150420452,0.0,11140801041014020140301204102551899600007610088000
3956,LFBY,43.689201355,-1.0688899755,2023-09-12 00:30:00,,,,,19.0,1014.0,1218.9087163466713,19.0,5.0,210.0,8000.0,99999,,204.20871634667128,3.3,111400210510190201903014042189512042603207000080000
3969,LFRL,48.2817001343,-4.4450201988,2023-09-12 00:30:00,10.0,36.0,+,yellow,18.0,1015.0,1626.9956924272165,18.0,3.0,280.0,2100.0,99999,,611.9956924272165,0.0,111100280310180201803015046269516119600007100080000
3974,LFYR,47.3208007813,1.6888899803,2023-09-12 00:30:00,,,,,19.0,1013.0,1593.32802914194,19.0,2.0,,10000.0,99999,,580.3280291419401,0.0,111600360210190201903013045933515803600007000080000
3986,LFLN,46.4124984741,4.0132598877,2023-09-12 00:30:00,,,,,17.0,1013.0,3050.9021927577382,16.0,3.0,170.0,10000.0,99999,,2037.9021927577382,0.0,1116001703101702016030130405095120379600007000080000
4035,LTAC,40.1281013489,32.995098114,2023-09-12 00:20:00,,,,,12.0,1017.0,13.209135151321906,6.0,9.0,30.0,10000.0,99999,,-999.590864848678,0.0,1116000309101202060301704132519994600007000080000
4036,LTAF,36.9822006226,35.2803993225,2023-09-12 00:20:00,,,,,22.0,1005.0,1108.6272047872849,19.0,4.0,50.0,10000.0,99999,3.0,102.12720478728488,0.0,111603050410220201903005041086511021600007000083000
4037,LTAG,37.0021018982,35.4258995056,2023-09-12 00:20:00,,,,,21.0,1005.0,1424.5397469417733,13.0,7.0,340.0,10000.0,99999,,419.1397469417733,0.0,111600340710210201303005044245514191600007000080000
4038,LTAP,40.8293991089,35.5219993591,2023-09-12 00:20:00,,,,,8.0,1016.0,11.562781492404714,6.0,1.0,,10000.0,99999,1.0,-1005.1372185075953,0.0,11160136011008020603016041155110058600007000081000
4039,LTAT,38.4352989197,38.0909996033,2023-09-12 00:20:00,,,,,19.0,1011.0,8276.618932907688,-1.0,3.0,130.0,10000.0,99999,3.0,7267.718932907688,0.0,111603130310190211030110427665172677600007000083000
4040,LTBJ,38.2924003601,27.156999588,2023-09-12 00:20:00,,,,,22.0,1010.0,1735.9411648170437,11.0,15.0,340.0,10000.0,99999,,726.1411648170438,0.0,111600341510220201103010047359517261600007000080000
4041,LTBS,36.7131004333,28.7924995422,2023-09-12 00:20:00,,,,,20.0,1007.0,1041.6609584922278,13.0,4.0,30.0,10000.0,99999,,34.36095849222784,0.0,11160003041020020130300704041651343600007000080000
4042,LTCG,40.995098114,39.7896995544,2023-09-12 00:20:00,,,,,20.0,1014.0,1200.8519097088438,12.0,10.0,220.0,10000.0,99999,6.0,186.25190970884375,0.0,111606221010200201203014042008511862600007000086000
4043,LTCJ,37.9290008545,41.1166000366,2023-09-12 00:20:00,,,,,18.0,1006.0,5829.681817610082,5.0,7.0,30.0,10000.0,99999,,4825.381817610082,0.0,111600030710180205030060482965148253600007000080000
4044,LTFE,37.2505989075,27.6643009186,2023-09-12 00:20:00,,,,,24.0,1008.0,1038.3311045064706,5.0,6.0,110.0,10000.0,99999,,0.0,0.0,1116001106102402050300804038351000600007000080000
4047,LGTS,40.5196990967,22.9708995819,2023-09-12 00:20:00,,,,,17.0,1017.0,1062.3966040844168,10.0,6.0,100.0,10000.0,99999,,45.996604084416845,0.0,11160010061017020100301704062351459600007000080000
4056,LICZ,37.4016990662,14.9224004745,2023-09-11 23:55:00,,,,,21.0,1014.0,1147.8694698115514,18.0,6.0,280.0,10000.0,99999,,133.86946981155143,0.0,111600280610210201803014041478511338600007000080000
4067,EPLL,51.7219009399,19.3980998993,2023-09-12 00:30:00,42.0,36.0,K,yellow,15.0,1013.0,2728.843719334209,14.0,1.0,90.0,7000.0,99999,,1714.8437193342088,0.0,1114000901101502014030130472885117148600007420080000
4068,EPWR,51.1026992798,16.885799408,2023-09-12 00:30:00,42.0,36.0,K,yellow,15.0,1013.0,2102.2438823979737,14.0,1.0,,10000.0,99999,,1088.2438823979737,0.0,1116003601101502014030130410225110882600007420080000
4071,LFCR,44.4079017639,2.4826700687,2023-09-12 00:30:00,,,,,18.0,1016.0,6143.359926240307,15.0,4.0,210.0,10000.0,99999,6.0,5127.359926240307,0.0,1116062104101802015030160414335151273600007000086000
4072,LFJL,48.9821014404,6.2513198853,2023-09-12 00:30:00,,,,,22.0,1012.0,2691.250301771241,16.0,6.0,220.0,10000.0,99999,,1678.250301771241,0.0,1116002206102202016030120469125116782600007000080000
4073,LFMK,43.2159996033,2.306319952,2023-09-12 00:30:00,,,,,21.0,1014.0,1824.2089225017103,19.0,2.0,,10000.0,99999,8.0,810.0089225017102,0.0,111608360210210201903014048242518100600007000088000
4074,LFMO,44.140499115,4.8667201996,2023-09-12 00:30:00,,,,,16.0,1015.0,1477.9885273135546,13.0,3.0,60.0,10000.0,99999,,463.1885273135547,0.0,111600060310160201303015044779514631600007000080000
4075,LFMU,43.3235015869,3.3538999557,2023-09-12 00:30:00,,,,,22.0,1014.0,1103.8216477274987,20.0,6.0,20.0,10000.0,99999,7.0,89.82164772749866,0.0,11160702061022020200301404103851898600007000087000
4076,LHDC,47.488899231,21.6152992249,2023-09-12 00:15:00,,,,,18.0,1015.0,1796.813477207838,13.0,4.0,160.0,10000.0,99999,,782.3134772078381,0.0,111600160410180201303015047968517823600007000080000
4077,LHPP,45.9908981323,18.2409992218,2023-09-12 00:15:00,,,,,19.0,1014.0,3345.2854194819565,11.0,4.0,60.0,10000.0,99999,,2330.6854194819566,0.0,1116000604101902011030140434525123306600007000080000
4081,LZPP,48.6251983643,17.8283996582,2023-09-12 00:30:00,,,,,16.0,1014.0,2434.3510869925294,15.0,4.0,20.0,10000.0,99999,,0.0,0.0,11160002041016020150301404434351000600007000080000
4082,LZZI,49.2314987183,18.6135005951,2023-09-12 00:30:00,,,,,14.0,1015.0,4392.454954286438,14.0,1.0,,10000.0,99999,,0.0,0.0,11160036011014020140301504392451000600007000080000
4095,LFOV,48.0313987732,-0.7429860234,2023-09-12 00:30:00,,,,,18.0,1014.0,1726.023895831187,17.0,5.0,340.0,8000.0,99999,,712.023895831187,0.0,111400340510180201703014047260517120600007000080000
4098,LFRV,47.7233009338,-2.7185599804,2023-09-12 00:30:00,,,,,16.0,1014.0,2147.1262477091714,16.0,4.0,20.0,10000.0,99999,,1133.1262477091714,0.0,1116000204101602016030140414715111331600007000080000
4099,LFSG,48.3250007629,6.0699801445,2023-09-12 00:30:00,,,,,19.0,1013.0,3566.5344055233822,16.0,6.0,250.0,10000.0,99999,,2553.5344055233822,0.0,1116002506101902016030130456655125535600007000080000
4101,LFAQ,49.9715003967,2.6976599693,2023-09-12 00:30:00,,,,,17.0,1014.0,1858.6770833081687,17.0,7.0,310.0,7000.0,99999,4.0,844.6770833081687,0.0,111404310710170201703014048586518446600007000084000
4102,LFBU,45.7291984558,0.2214560062,2023-09-12 00:30:00,63.0,36.0,',green,19.0,1015.0,1927.9344483496757,17.0,6.0,290.0,9000.0,99999,,913.9344483496757,0.0,111500290610190201703015049279519139600007630080000
4108,LJCE,45.9000015259,15.5302000046,2023-09-12 00:30:00,10.0,36.0,+,yellow,15.0,1014.0,2431.4013806747053,15.0,1.0,,1600.0,99999,,0.0,0.0,11100036011015020150301404431451000600007100080000
4109,LFOZ,47.896900177,2.1633300781,2023-09-12 00:30:00,10.0,36.0,+,yellow,19.0,1013.0,1832.0778786739218,19.0,3.0,10.0,4700.0,99999,,819.0778786739218,1.5,111200010310190201903013048320518190601507100080000
4144,LEMI,37.803,-1.125,2023-09-12 00:30:00,,,,,22.0,1014.0,2188.1689880044446,20.0,3.0,280.0,10000.0,99999,,0.0,0.0,11160028031022020200301404188151000600007000080000
4146,LECH,40.9000015259,-1.3041199446,2023-09-12 00:30:00,,,,,19.0,1014.0,8578.94609738171,17.0,3.0,200.0,9000.0,99999,,7563.9460973817095,0.0,1115002003101902017030140457895175639600007000080000
4163,UUBW,55.5532989502,38.1500015259,2023-09-12 00:30:00,45.0,36.0,N,yellow,6.0,1020.0,3889.9485076149786,6.0,1.0,140.0,200.0,99999,,2869.9485076149786,0.0,111000140110060206030200488995128699600007450080000
4164,UUOL,52.7028007507,39.5377998352,2023-09-12 00:30:00,10.0,36.0,+,yellow,6.0,1019.0,5700.415217816297,5.0,2.0,310.0,1800.0,99999,,0.0,0.0,1111003102100602050301904700451000600007100080000
4167,UUDL,57.5606994629,40.1573982239,2023-09-12 00:30:00,,,,,4.0,1021.0,4360.189462401476,4.0,1.0,50.0,300.0,99999,,3339.189462401476,0.0,111000050110040204030210436015133391600007000080000
4170,UUMO,55.5116996765,37.5071983337,2023-09-12 00:30:00,10.0,36.0,+,yellow,8.0,1020.0,4316.543504564782,7.0,3.0,100.0,2600.0,99999,,3296.543504564782,0.0,111100100310080207030200431655132965600007100080000
4209,EGDY,51.0093994141,-2.6388199329,2023-09-12 00:20:00,58.0,36.0,[,green,17.0,1013.0,1170.5355549298934,17.0,2.0,190.0,10000.0,99999,8.0,156.8355549298933,0.0,111608190210170201703013041705511568600007580088000
4211,EGOV,53.2481002808,-4.5353398323,2023-09-12 00:20:00,63.0,36.0,',green,15.0,1013.0,1099.9076230220041,14.0,11.0,30.0,2300.0,99999,3.0,86.90762302200415,1.2,11110303111015020140301304099951869601107630083000
4212,EGQK,57.6493988037,-3.5606400967,2023-09-12 00:20:00,,,,,10.0,1014.0,1091.4434238907013,7.0,7.0,240.0,10000.0,99999,1.0,78.74342389070125,0.0,1116012407101002070301404091451787600007000081000
4217,EGWU,51.5530014038,-0.418166995,2023-09-12 00:20:00,,,,,19.0,1013.0,1249.335157311243,16.0,3.0,300.0,10000.0,99999,4.0,236.33515731124294,0.0,111604300310190201603013042493512363600007000084000
4218,EGXE,54.2924003601,-1.535400033,2023-09-12 00:20:00,61.0,36.0,^,green,15.0,1013.0,1336.3221922332832,14.0,3.0,160.0,10000.0,99999,4.0,323.4221922332832,0.8,111604160310150201403013043363513234600807610084000
4220,EGXW,53.1661987305,-0.5238109827,2023-09-12 00:20:00,10.0,36.0,+,yellow,16.0,1012.0,1559.9232071323222,15.0,2.0,50.0,10000.0,99999,6.0,547.4232071323222,0.0,111606050210160201503012045599515474600007100086000
4233,URMG,43.3883018494,45.698600769,2023-09-12 00:30:00,,,,,12.0,1015.0,1015.0,9.0,0.0,0.0,10000.0,99999,,-1.0,0.0,1116000000101202090301504015051010600007000080000
4236,URMO,43.2051010132,44.6066017151,2023-09-12 00:30:00,,,,,7.0,1016.0,12.35626461975997,6.0,3.0,100.0,10000.0,99999,3.0,-1003.44373538024,0.0,11160310031007020603016041235110035600007000083000
4238,URRP,47.50083333,39.93361111,2023-09-12 00:30:00,,,,,9.0,1016.0,2310.9883232014754,7.0,4.0,330.0,10000.0,99999,,0.0,0.0,1116003304100902070301604310951000600007000080000
4262,LQMO,43.2829017639,17.8458995819,2023-09-12 00:30:00,,,,,16.0,1014.0,1374.6930085872082,13.0,2.0,,10000.0,99999,,361.69300858720817,0.0,111600360210160201303014043746513616600007000080000
4265,LRSV,47.6875,26.3540992737,2023-09-12 00:30:00,,,,,17.0,1016.0,4818.095801157077,11.0,6.0,220.0,10000.0,99999,,3801.0958011570774,0.0,1116002206101702011030160481805138010600007000080000
4272,EBFS,50.2433013916,4.6458301544,2023-09-12 00:25:00,,,,,18.0,1014.0,3310.5668861987338,16.0,2.0,,10000.0,99999,3.0,2296.5668861987338,0.8,1116033602101802016030140431055122965600807000083000
4292,LEBG,42.3576011658,-3.620759964,2023-09-12 00:30:00,,,,,14.0,1018.0,11.184021097603342,14.0,3.0,30.0,10000.0,99999,,-1005.2159789023966,0.0,111600030310140201403018041115110057600007000080000
4310,LRBC,46.521900177,26.9102993011,2023-09-12 00:30:00,,,,,13.0,1017.0,3056.405298772646,8.0,5.0,180.0,10000.0,99999,,2038.605298772646,0.0,111600180510130208030170405645120386600007000080000
4312,LRCV,44.3180999756,23.8885993958,2023-09-12 00:30:00,,,,,16.0,1016.0,2681.5100704875476,7.0,2.0,360.0,10000.0,99999,,1665.5100704875476,0.0,111600360210160207030160468155116655600007000080000
4313,LRIA,47.1785011292,27.6205997467,2023-09-12 00:30:00,,,,,14.0,1017.0,2175.5587350466562,5.0,6.0,70.0,10000.0,99999,,1158.7587350466563,0.0,111600070610140205030170417555111587600007000080000
4314,LRSM,47.7033004761,22.8857002258,2023-09-12 00:30:00,,,,,14.0,1015.0,2197.481733929076,12.0,0.0,0.0,10000.0,99999,,1182.4817339290762,0.0,1116000000101402012030150419745111824600007000080000
4316,LUKK,46.9277000427,28.9309997559,2023-09-12 00:30:00,,,,,10.0,1017.0,2721.775181203598,6.0,3.0,290.0,10000.0,99999,,1703.9751812035981,0.0,111600290310100206030170472175117039600007000080000
4339,LRBM,47.6584014893,23.4699993134,2023-09-12 00:30:00,80.0,36.0,q,green,15.0,1016.0,2740.169219446421,14.0,4.0,70.0,10000.0,99999,,1724.1692194464208,0.0,1116000704101502014030160474015117241600007800080000
4341,LRCL,46.7851982117,23.6861991882,2023-09-12 00:30:00,,,,,15.0,1017.0,4202.777980658852,13.0,4.0,260.0,10000.0,99999,,3185.8779806588523,0.0,1116002604101502013030170420275131858600007000080000
4342,LROD,47.0252990723,21.9025001526,2023-09-12 00:30:00,,,,,18.0,1015.0,2056.6657285743304,13.0,7.0,100.0,10000.0,99999,,1041.4657285743303,0.0,1116001007101802013030150405665110414600007000080000
4344,LRSB,45.7855987549,24.091299057,2023-09-12 00:30:00,,,,,12.0,1017.0,7110.182450414285,11.0,0.0,0.0,10000.0,99999,,6093.482450414285,0.0,1116000000101202011030170411015160934600007000080000
4349,LEHC,42.0760993958,-0.3166669905,2023-09-12 00:30:00,,,,,19.0,1015.0,5453.273326833506,17.0,4.0,80.0,10000.0,99999,,4438.273326833506,0.0,1116000804101902017030150445325144382600007000080000
4352,LESB,39.5988998413,2.7027800083,2023-09-12 00:30:00,,,,,21.0,1013.0,1285.3965885077523,15.0,4.0,340.0,10000.0,99999,,270.7965885077523,0.0,111600340410210201503013042853512707600007000080000
4353,GEML,35.279800415,-2.9562599659,2023-09-12 00:30:00,,,,,21.0,1015.0,1286.1133553966981,17.0,3.0,340.0,10000.0,99999,,270.71335539669815,0.0,111600340310210201703015042861512707600007000080000
4359,EPGD,54.3776016235,18.4661998749,2023-09-12 00:30:00,,,,,14.0,1013.0,2472.8797302446033,14.0,1.0,270.0,3500.0,99999,,1458.8797302446033,0.0,1112002701101402014030130447285114588600007000080000
4360,EPKK,50.0777015686,19.7847995758,2023-09-12 00:30:00,42.0,36.0,K,yellow,16.0,1014.0,3184.4436722560486,15.0,1.0,,10000.0,99999,1.0,2169.4436722560486,0.0,1116013601101602015030140418445121694600007420081000
4361,EPKT,50.4743003845,19.0799999237,2023-09-12 00:30:00,41.0,36.0,J,yellow,13.0,1014.0,4580.773205253024,12.0,2.0,140.0,8000.0,99999,,3565.7732052530237,0.0,1114001402101302012030140458075135657600007410080000
4362,EPLB,51.240278,22.713611,2023-09-12 00:30:00,,,,,15.0,1014.0,2825.780333309005,15.0,0.0,0.0,10000.0,99999,,0.0,0.0,11160000001015020150301404825751000600007000080000
4363,EPMO,52.4510993958,20.6518001556,2023-09-12 00:30:00,,,,,15.0,1013.0,1914.7106364854578,13.0,1.0,,10000.0,99999,,901.7106364854578,0.0,111600360110150201303013049147519017600007000080000
4364,EPPO,52.4210014343,16.8262996674,2023-09-12 00:30:00,,,,,15.0,1013.0,1818.6992420409117,15.0,3.0,100.0,10000.0,99999,,805.6992420409117,0.0,111600100310150201503013048186518056600007000080000
4365,EPRZ,50.1100006104,22.0189990997,2023-09-12 00:30:00,,,,,17.0,1014.0,2704.338395792466,16.0,2.0,230.0,8000.0,99999,,1689.3383957924661,0.0,1114002302101702016030140470435116893600007000080000
4366,EPSC,53.5847015381,14.9021997452,2023-09-12 00:30:00,,,,,17.0,1012.0,1345.039222124544,14.0,4.0,120.0,10000.0,99999,,333.03922212454404,0.0,111600120410170201403012043450513330600007000080000
4367,EPWA,52.1656990051,20.9671001434,2023-09-12 00:30:00,,,,,16.0,1013.0,1909.9458237367735,15.0,0.0,0.0,10000.0,99999,,896.9458237367735,0.0,111600000010160201503013049099518969600007000080000
4368,UMMS,53.8824996948,28.0307006836,2023-09-12 00:30:00,,,,,11.0,1017.0,3779.001761909953,10.0,1.0,70.0,10000.0,99999,,2761.801761909953,0.0,1116000701101102010030170477905127618600007000080000
4373,LHBP,47.4369010925,19.2555999756,2023-09-12 00:30:00,,,,,15.0,1014.0,2384.3342734464177,13.0,0.0,0.0,10000.0,99999,,1370.3342734464177,0.0,1116000000101502013030140438435113703600007000080000
4374,LRAR,46.1766014099,21.2619991302,2023-09-12 00:30:00,,,,,17.0,1015.0,1829.777058810767,13.0,5.0,120.0,10000.0,99999,,814.6770588107669,0.0,111600120510170201303015048297518146600007000080000
4375,LRBS,44.503200531,26.1021003723,2023-09-12 00:30:00,,,,,15.0,1017.0,1794.1108668387683,8.0,3.0,10.0,10000.0,99999,,777.4108668387682,0.0,11160001031015020803017047941517774600007000080000
4376,LRCK,44.3622016907,28.4883003235,2023-09-12 00:30:00,,,,,15.0,1017.0,1957.7126770024802,11.0,4.0,270.0,10000.0,99999,,939.7126770024802,0.0,111600270410150201103017049577519397600007000080000
4377,LROP,44.5722007751,26.1021995544,2023-09-12 00:30:00,,,,,15.0,1017.0,1843.2866810020214,8.0,3.0,40.0,10000.0,99999,,825.4866810020214,0.0,11160004031015020803017048432518254600007000080000
4378,LRTC,45.0625,28.7143001556,2023-09-12 00:30:00,,,,,13.0,1017.0,1606.8552814858174,10.0,2.0,160.0,10000.0,99999,,588.8552814858174,0.0,111600160210130201003017046068515888600007000080000
4379,LRTM,46.4677009583,24.4125003815,2023-09-12 00:30:00,,,,,12.0,1017.0,4789.547054963473,11.0,0.0,0.0,7000.0,99999,,3772.547054963473,0.0,1114000000101202011030170478955137725600007000080000
4380,LRTR,45.8098983765,21.3379001617,2023-09-12 00:30:00,,,,,16.0,1015.0,1875.2950199348934,14.0,7.0,80.0,10000.0,99999,,860.2950199348934,0.0,111600080710160201403015048752518602600007000080000
4381,LDDU,42.5614013672,18.2681999207,2023-09-12 00:30:00,,,,,19.0,1014.0,2140.8299375031165,14.0,3.0,,10000.0,99999,,1126.7299375031166,0.0,1116003603101902014030140414085111267600007000080000
4382,LDOS,45.4626998901,18.8101997375,2023-09-12 00:30:00,,,,,16.0,1014.0,1717.165623891433,12.0,6.0,80.0,10000.0,99999,,703.4656238914329,0.0,111600080610160201203014047171517034600007000080000
4383,LDPL,44.8935012817,13.9222002029,2023-09-12 00:30:00,,,,,15.0,1014.0,1723.1875672836552,13.0,3.0,60.0,10000.0,99999,,708.6875672836552,0.0,111600060310150201303014047231517086600007000080000
4384,LDRI,45.2168998718,14.5703001022,2023-09-12 00:30:00,,,,,18.0,1014.0,1604.597313980758,14.0,2.0,,10000.0,99999,,590.5973139807579,0.0,111600360210180201403014046045515905600007000080000
4385,LDSP,43.538898468,16.2980003357,2023-09-12 00:30:00,,,,,20.0,1014.0,1154.743782914053,16.0,3.0,300.0,10000.0,99999,,140.64378291405308,0.0,111600300310200201603014041547511406600007000080000
4386,LDZA,45.7429008484,16.0687999725,2023-09-12 00:30:00,,,,,16.0,1014.0,1887.1273561627524,15.0,2.0,,10000.0,99999,,872.9273561627524,0.0,111600360210160201503014048871518729600007000080000
4387,LDZD,44.1082992554,15.3466997147,2023-09-12 00:30:00,,,,,16.0,1014.0,1714.511160697921,16.0,2.0,220.0,10000.0,99999,,700.511160697921,0.0,111600220210160201603014047145517005600007000080000
4388,LJLJ,46.2237014771,14.4575996399,2023-09-12 00:30:00,42.0,36.0,K,yellow,13.0,1016.0,5714.596424587914,12.0,1.0,310.0,10000.0,99999,,4698.596424587914,0.0,1116003101101302012030160471455146985600007420080000
4389,LJMB,46.4799003601,15.6861000061,2023-09-12 00:30:00,10.0,36.0,+,yellow,15.0,1014.0,3638.9937791563207,14.0,1.0,230.0,3800.0,99999,,2624.0937791563206,0.0,1112002301101502014030140463895126240600007100080000
4390,LJPZ,45.473400116,13.6149997711,2023-09-12 00:30:00,,,,,17.0,1014.0,1028.3102822917685,15.0,7.0,120.0,10000.0,99999,,14.310282291768544,0.0,11160012071017020150301404028351143600007000080000
4391,LKMT,49.6963005066,18.1110992432,2023-09-12 00:30:00,,,,,16.0,1014.0,3351.2750360180016,15.0,2.0,220.0,10000.0,99999,,2336.9750360180014,0.0,1116002202101602015030140435125123369600007000080000
4392,LKPR,50.1007995605,14.2600002289,2023-09-12 00:30:00,,,,,18.0,1014.0,4201.374373478913,14.0,6.0,220.0,10000.0,99999,,3188.474373478913,0.0,1116002206101802014030140420135131884600007000080000
4393,LKTB,49.1512985229,16.6944007874,2023-09-12 00:30:00,,,,,18.0,1014.0,2875.8950195658163,15.0,2.0,330.0,10000.0,99999,,1861.9950195658162,0.0,1116003302101802015030140487585118619600007000080000
4394,LQSA,43.8246002197,18.3314990997,2023-09-12 00:30:00,,,,,12.0,1018.0,8011.065180020078,12.0,1.0,,10000.0,99999,,6994.065180020078,0.0,1116003601101202012030180401105169940600007000080000
4395,LYBE,44.8184013367,20.3090991974,2023-09-12 00:30:00,,,,,18.0,1015.0,1739.5727691763698,13.0,4.0,120.0,10000.0,99999,,724.1727691763698,0.0,111600120410180201303015047395517241600007000080000
4396,LYNI,43.337299,21.853701,2023-09-12 00:30:00,,,,,13.0,1017.0,3214.424601594332,11.0,1.0,,10000.0,99999,,2198.424601594332,0.0,1116003601101302011030170421445121984600007000080000
4397,LYPG,42.3594017029,19.2518997192,2023-09-12 00:30:00,,,,,19.0,1015.0,1285.8259160369055,13.0,3.0,300.0,10000.0,99999,,0.0,0.0,11160030031019020130301504285851000600007000080000
4398,LYTV,42.4047012329,18.7233009338,2023-09-12 00:30:00,,,,,15.0,1014.0,1060.647386236675,15.0,0.0,0.0,10000.0,99999,,45.84738623667499,0.0,11160000001015020150301404060651458600007000080000
4399,LZIB,48.1702003479,17.2126998901,2023-09-12 00:30:00,,,,,17.0,1014.0,2046.2620129738732,14.0,4.0,50.0,10000.0,99999,,1032.2620129738732,0.0,1116000504101702014030140404625110322600007000080000
4400,LZKZ,48.6631011963,21.2411003113,2023-09-12 00:30:00,,,,,17.0,1015.0,2937.3440369008763,14.0,3.0,360.0,10000.0,99999,,0.0,0.0,11160036031017020140301504937351000600007000080000
4401,LZTT,49.073600769,20.2411003113,2023-09-12 00:30:00,,,,,12.0,1017.0,10.557392905467326,11.0,4.0,280.0,10000.0,99999,,-1006.4426070945327,0.0,111600280410120201103017041055110065600007000080000
4406,LFAT,50.5173988342,1.6205899715,2023-09-12 00:30:00,,,,,16.0,1014.0,1093.2313983142221,15.0,3.0,120.0,6000.0,99999,6.0,79.23139831422213,0.0,11130612031016020150301404093251792600007000086000
4408,LFBH,46.1791992188,-1.1952799559,2023-09-12 00:30:00,,,,,21.0,1014.0,1139.1920043052874,19.0,3.0,260.0,10000.0,99999,,125.49200430528731,0.0,111600260310210201903014041391511254600007000080000
4415,LFKB,42.5527000427,9.4837303162,2023-09-12 00:30:00,,,,,19.0,1015.0,1062.9341982237845,15.0,5.0,230.0,10000.0,99999,,47.33419822378448,0.0,11160023051019020150301504062951473600007000080000
4416,LFKC,42.5307998657,8.7931900024,2023-09-12 00:30:00,,,,,18.0,1015.0,1449.8159901813399,15.0,6.0,160.0,10000.0,99999,,434.11599018133984,0.0,111600160610180201503015044498514341600007000080000
4417,LFKJ,41.9235992432,8.8029203415,2023-09-12 00:30:00,,,,,17.0,1014.0,1050.9706037176582,12.0,5.0,50.0,10000.0,99999,,35.37060371765813,0.0,11160005051017020120301404050951353600007000080000
4418,LFLB,45.6380996704,5.88022995,2023-09-12 00:30:00,,,,,17.0,1015.0,3007.2253537768715,14.0,3.0,180.0,10000.0,99999,,1993.4253537768716,0.0,1116001803101702014030150400725119934600007000080000
4419,LFLC,45.7867012024,3.1691699028,2023-09-12 00:30:00,,,,,18.0,1014.0,3749.6616540475156,13.0,3.0,230.0,10000.0,99999,,2737.2616540475155,0.0,1116002303101802013030140474965127372600007000080000
4420,LFLL,45.726398468,5.0908298492,2023-09-12 00:30:00,,,,,24.0,1013.0,2438.8298274484373,6.0,6.0,150.0,10000.0,99999,,1426.6298274484373,0.0,111600150610240206030130443885114266600007000080000
4421,LFLS,45.3628997803,5.3293700218,2023-09-12 00:30:00,,,,,19.0,1015.0,4166.35711739903,10.0,1.0,,10000.0,99999,,3152.7571173990304,0.0,1116003601101902010030150416635131527600007000080000
4422,LFLY,45.7271995544,4.944270134,2023-09-12 00:30:00,,,,,20.0,1013.0,2379.6382185606894,9.0,1.0,,10000.0,99999,,1367.3382185606895,0.0,111600360110200209030130437965113673600007000080000
4423,LFMD,43.5419998169,6.9534797668,2023-09-12 00:30:00,,,,,20.0,1014.0,1036.6289327688166,15.0,2.0,,10000.0,99999,,22.62893276881664,0.0,11160036021020020150301404036651226600007000080000
4424,LFMH,45.540599823,4.2963900566,2023-09-12 00:30:00,,,,,20.0,1014.0,4043.9540287081913,4.0,4.0,150.0,10000.0,99999,,3029.9540287081913,0.0,111600150410200204030140404395130299600007000080000
4425,LFML,43.439271922,5.2214241028,2023-09-12 00:30:00,,,,,21.0,1014.0,1139.1920043052874,15.0,5.0,120.0,10000.0,99999,,124.59200430528733,0.0,111600120510210201503014041391511245600007000080000
4426,LFMN,43.6584014893,7.2158699036,2023-09-12 00:30:00,,,,,22.0,1014.0,1032.97491512268,15.0,4.0,20.0,10000.0,99999,,18.074915122679954,0.0,11160002041022020150301404032951180600007000080000
4427,LFMP,42.740398407,2.8706700802,2023-09-12 00:30:00,,,,,22.0,1013.0,1250.0577392327934,20.0,2.0,,10000.0,99999,4.0,236.8577392327934,0.0,111604360210220202003013042500512368600007000084000
4429,LFOB,49.4543991089,2.1127800941,2023-09-12 00:30:00,,,,,17.0,1014.0,1845.8640656794682,16.0,6.0,340.0,10000.0,99999,3.0,830.8640656794682,0.0,111603340610170201603014048458518308600007000083000
4430,LFOH,49.5339012146,0.0880559981,2023-09-12 00:30:00,,,,,17.0,1014.0,1729.3627747672583,17.0,4.0,30.0,10000.0,99999,,714.3627747672583,0.0,111600030410170201703014047293517143600007000080000
4431,LFOT,47.4322013855,0.7276059985,2023-09-12 00:30:00,,,,,20.0,1013.0,1703.8144948999948,17.0,3.0,,10000.0,99999,,690.1144948999947,0.0,111600360310200201703013047038516901600007000080000
4434,LFPN,48.7518997192,2.1061899662,2023-09-12 00:30:00,,,,,18.0,1014.0,2239.5074739444426,17.0,3.0,320.0,10000.0,99999,,1225.5074739444426,0.0,1116003203101802017030140423955112255600007000080000
4435,LFPO,48.7252998352,2.3594400883,2023-09-12 00:30:00,,,,,20.0,1013.0,1566.0874983286244,15.0,5.0,320.0,10000.0,99999,,551.9874983286244,0.0,111600320510200201503013045660515519600007000080000
4439,LFRG,49.3652992249,0.1543059945,2023-09-12 00:30:00,45.0,36.0,N,yellow,16.0,1014.0,2241.7510197027923,16.0,2.0,90.0,800.0,99999,5.0,1226.7510197027923,0.0,1110050902101602016030140424175112267600007450085000
4445,LFRZ,47.3121986389,-2.1491799355,2023-09-12 00:30:00,,,,,18.0,1014.0,1039.1564166474332,18.0,4.0,310.0,10000.0,99999,,25.15641664743316,0.0,11160031041018020180301404039151251600007000080000
4446,LFSB,47.5895996094,7.5299100876,2023-09-12 00:30:00,,,,,17.0,1013.0,3313.0712093828843,15.0,3.0,220.0,10000.0,99999,,2300.171209382884,0.0,1116002203101702015030130431305123001600007000080000
4447,LFSN,48.6921005249,6.2304601669,2023-09-12 00:30:00,,,,,20.0,1012.0,2595.246728196238,15.0,1.0,,10000.0,99999,,1582.9467281962382,0.0,1116003601102002015030120459525115829600007000080000
4448,LFST,48.5382995605,7.6282300949,2023-09-12 00:30:00,,,,,18.0,1012.0,2151.111666382675,15.0,0.0,0.0,10000.0,99999,,1138.8116663826752,0.0,1116000000101802015030120415115111388600007000080000
4449,LFTW,43.7574005127,4.4163498878,2023-09-12 00:30:00,,,,,18.0,1015.0,1678.2717536969046,15.0,2.0,30.0,6000.0,99999,,663.2717536969046,0.0,111300030210180201503015046782516632600007000080000
4451,LFBC,44.5332984924,-1.125,2023-09-12 00:30:00,,,,,20.0,1014.0,1163.9065400438294,19.0,2.0,,10000.0,99999,,149.9065400438294,0.0,111600360210200201903014041639511499600007000080000
4452,LFBL,45.8628005981,1.1794400215,2023-09-12 00:30:00,,,,,17.0,1016.0,4586.2451487341405,16.0,8.0,250.0,10000.0,99999,,3573.3451487341404,0.0,1116002508101702016030160458625135733600007000080000
4454,LFKF,41.5005989075,9.0977802277,2023-09-12 00:30:00,,,,,13.0,1015.0,1258.086668349858,11.0,2.0,40.0,10000.0,99999,,242.58666834985797,0.0,111600040210130201103015042580512425600007000080000
4455,LFOE,49.0287017822,1.2198599577,2023-09-12 00:30:00,10.0,36.0,+,yellow,16.0,1014.0,2198.5950046453468,16.0,3.0,,3700.0,99999,7.0,1183.5950046453468,0.0,1112073603101602016030140419855111835600007100087000
4456,LFOP,49.3842010498,1.1748000383,2023-09-12 00:30:00,10.0,36.0,+,yellow,17.0,1014.0,2250.0708384405275,16.0,5.0,10.0,2900.0,99999,8.0,1235.1708384405274,0.0,1111080105101702016030140425005112351600007100088000
4457,LFPB,48.9693984985,2.4413900375,2023-09-12 00:30:00,,,,,19.0,1013.0,1441.4736371110732,17.0,3.0,,10000.0,99999,,427.47363711107323,0.4,111600360310190201703013044414514274600407000080000
4458,LFPG,49.0127983093,2.5499999523,2023-09-12 00:30:00,,,,,18.0,1013.0,1872.8133570736518,16.0,5.0,20.0,10000.0,99999,,858.8133570736518,0.4,111600020510180201603013048728518588600407000080000
4459,LFPV,48.7743988037,2.2015399933,2023-09-12 00:30:00,,,,,18.0,1014.0,2358.291734026434,17.0,4.0,340.0,10000.0,99999,,1344.291734026434,0.2,1116003404101802017030140435825113442600207000080000
4460,LFQB,48.322101593,4.016699791,2023-09-12 00:30:00,,,,,17.0,1013.0,1921.2710913938565,16.0,5.0,270.0,10000.0,99999,,907.6710913938565,0.0,111600270510170201603013049212519076600007000080000
4461,LFQQ,50.5619010925,3.0894401073,2023-09-12 00:30:00,,,,,17.0,1014.0,1354.5703909966574,17.0,6.0,280.0,6000.0,99999,,340.3703909966573,0.0,111300280610170201703014043545513403600007000080000
4466,LFSO,48.5830993652,5.9549999237,2023-09-12 00:30:00,,,,,20.0,1013.0,3477.242625809422,15.0,5.0,220.0,10000.0,99999,,2464.242625809422,0.0,1116002205102002015030130447725124642600007000080000
4467,LFSX,47.7831001282,6.3640599251,2023-09-12 00:30:00,,,,,20.0,1013.0,2992.7090159585796,15.0,3.0,100.0,10000.0,99999,,1979.7090159585796,0.0,1116001003102002015030130499275119797600007000080000
4468,LFTH,43.0973014832,6.1460299492,2023-09-12 00:30:00,,,,,20.0,1015.0,1027.1702587538468,13.0,4.0,10.0,10000.0,99999,,13.170258753846838,0.0,11160001041020020130301504027151131600007000080000
4472,LPFR,37.0144004822,-7.9659099579,2023-09-12 00:30:00,,,,,20.0,1016.0,1058.0252713787572,17.0,7.0,290.0,10000.0,99999,,42.025271378757225,0.0,11160029071020020170301604058051420600007000080000
4473,LPMA,32.6978988647,-16.7744998932,2023-09-12 00:30:00,,,,,22.0,1019.0,1341.402886914419,17.0,5.0,290.0,10000.0,99999,1.0,322.302886914419,0.0,111601290510220201703019043414513223600007000081000
4480,UUDD,55.4087982178,37.9062995911,2023-09-12 00:30:00,10.0,36.0,+,yellow,5.0,1020.0,6766.537502117532,4.0,1.0,90.0,5000.0,99999,,5746.937502117532,0.0,111300090110050204030200476655157469600007100080000
4484,URKK,45.0346984863,39.170501709,2023-09-12 00:30:00,,,,,10.0,1016.0,1458.8191259551281,7.0,0.0,0.0,10000.0,99999,,442.81912595512813,0.0,11160000001010020703016044588514428600007000080000
4486,URMT,45.1091995239,42.1128005981,2023-09-12 00:30:00,,,,,12.0,1016.0,7060.533263362296,6.0,2.0,360.0,10000.0,99999,,6044.533263362296,0.0,111600360210120206030160406055160445600007000080000
4488,URWA,46.2832984924,48.0063018799,2023-09-12 00:30:00,,,,,12.0,1014.0,833.9921905813529,9.0,1.0,260.0,10000.0,99999,,-179.70780941864712,0.0,11160026011012020903014048339511792600007000080000
4489,URWI,46.3739013672,44.3308982849,2023-09-12 00:30:00,,,,,15.0,1014.0,2403.1319799028306,7.0,1.0,,10000.0,99999,,1387.9319799028306,0.0,111600360110150207030140440315113879600007000080000
4490,URWW,48.7825012207,44.345500946,2023-09-12 00:30:00,,,,,7.0,1014.0,4179.471600846758,5.0,2.0,310.0,10000.0,99999,,3164.0716008467575,0.0,111600310210070205030140417945131640600007000080000
4499,LEAL,38.2821998596,-0.5581560135,2023-09-12 00:30:00,,,,,23.0,1013.0,1236.0599374972608,20.0,4.0,260.0,10000.0,99999,,222.05993749726076,0.0,111600260410230202003013042360512220600007000080000
4500,LEAM,36.8438987732,-2.3701000214,2023-09-12 00:30:00,,,,,24.0,1014.0,1117.1875822862394,20.0,2.0,,10000.0,99999,1.0,104.18758228623938,0.0,111601360210240202003014041171511041600007000081000
4501,LEAS,43.5635986328,-6.0346198082,2023-09-12 00:30:00,,,,,18.0,1017.0,1938.982033911114,18.0,4.0,230.0,10000.0,99999,5.0,921.9820339111141,0.0,111605230410180201803017049389519219600007000085000
4502,LEBB,43.3011016846,-2.9106099606,2023-09-12 00:30:00,,,,,20.0,1016.0,1267.2152766770903,20.0,1.0,,6000.0,99999,6.0,251.2152766770903,0.0,111306360110200202003016042672512512600007000086000
4503,LEBL,41.2971000671,2.0784599781,2023-09-12 00:30:00,,,,,22.0,1013.0,1031.9562021886338,19.0,5.0,330.0,10000.0,99999,,17.956202188633824,0.0,11160033051022020190301304031951179600007000080000
4504,LECO,43.3021011353,-8.3772602081,2023-09-12 00:30:00,,,,,18.0,1017.0,1721.654248691796,18.0,3.0,170.0,8000.0,99999,3.0,704.654248691796,0.0,111403170310180201803017047216517046600007000083000
4505,LEDA,41.728185,0.535023,2023-09-12 00:30:00,,,,,20.0,1014.0,3644.1177904614237,15.0,7.0,50.0,10000.0,99999,,2630.1177904614237,0.0,1116000507102002015030140464415126301600007000080000
4507,LEGR,37.1887016296,-3.7773599625,2023-09-12 00:30:00,,,,,21.0,1017.0,5227.959113190362,11.0,3.0,240.0,10000.0,99999,,4211.959113190362,0.0,1116002403102102011030170422795142119600007000080000
4509,LEJR,36.7445983887,-6.0601100922,2023-09-12 00:30:00,,,,,20.0,1015.0,1181.6380965629003,18.0,4.0,170.0,10000.0,99999,,166.63809656290027,0.0,111600170410200201803015041816511666600007000080000
4510,LELC,37.7750015259,-0.8123890162,2023-09-12 00:30:00,,,,,24.0,1013.0,1028.9183920801443,22.0,4.0,250.0,9000.0,99999,,14.918392080144258,0.0,11150025041024020220301304028951149600007000080000
4511,LELL,41.5209007263,2.1050798893,2023-09-12 00:30:00,,,,,20.0,1014.0,1983.7648180243204,17.0,2.0,,10000.0,99999,,969.7648180243204,0.0,111600360210200201703014049837519697600007000080000
4512,LEMD,40.4936,-3.56676,2023-09-12 00:30:00,,,,,18.0,1016.0,6406.741683561955,15.0,2.0,,10000.0,99999,,5390.741683561955,0.0,1116003602101802015030160440675153907600007000080000
4513,LEMG,36.6749000549,-4.4991102219,2023-09-12 00:30:00,,,,,26.0,1014.0,1085.6752673070912,14.0,7.0,290.0,10000.0,99999,1.0,72.67526730709119,0.0,11160129071026020140301404085651726600007000081000
4514,LEMH,39.8625984192,4.2186498642,2023-09-12 00:30:00,,,,,23.0,1014.0,1509.6050576140528,21.0,3.0,100.0,10000.0,99999,,495.20505761405286,0.0,111600100310230202103014045096514952600007000080000
4515,LEPA,39.551700592,2.7388100624,2023-09-12 00:30:00,,,,,20.0,1013.0,1060.1895294293663,19.0,2.0,50.0,10000.0,99999,,46.08952942936628,0.0,11160005021020020190301304060151460600007000080000
4516,LEPP,42.7700004578,-1.646329999,2023-09-12 00:30:00,,,,,16.0,1016.0,5508.469195513468,14.0,1.0,,9000.0,99999,,4492.469195513468,0.0,1115003601101602014030160450845144924600007000080000
4517,LERS,41.1473999023,1.1671700478,2023-09-12 00:30:00,,,,,22.0,1014.0,1407.8110239930927,19.0,5.0,350.0,10000.0,99999,,393.8110239930927,0.0,111600350510220201903014044078513938600007000080000
4518,LESO,43.3564987183,-1.7906099558,2023-09-12 00:30:00,,,,,20.0,1015.0,1042.9087487306276,19.0,5.0,180.0,10000.0,99999,4.0,27.90874873062762,0.5,11160418051020020190301504042951279600507000084000
4519,LEST,42.8963012695,-8.415140152,2023-09-12 00:30:00,10.0,36.0,+,yellow,16.0,1018.0,4560.665351088678,16.0,2.0,,3500.0,99999,5.0,3542.665351088678,0.0,1112053602101602016030180456065135426600007100085000
4521,LEVC,39.4892997742,-0.4816249907,2023-09-12 00:30:00,,,,,23.0,1013.0,1400.2573649609935,20.0,3.0,260.0,10000.0,99999,,386.2573649609935,0.0,111600260310230202003013044002513862600007000080000
4522,LEVD,41.7061004639,-4.851940155,2023-09-12 00:30:00,,,,,13.0,1018.0,11.321020765682645,12.0,4.0,250.0,10000.0,99999,,-1006.6789792343174,0.0,111600250410130201203018041135110063600007000080000
4523,LEVT,42.8828010559,-2.7244699001,2023-09-12 00:30:00,,,,,17.0,1017.0,5773.705440558248,17.0,3.0,10.0,10000.0,99999,6.0,4756.705440558248,0.1,1116060103101702017030170477375147567600107000086000
4524,LEVX,42.2318000793,-8.6267700195,2023-09-12 00:30:00,,,,,16.0,1017.0,3399.278185130455,15.0,2.0,320.0,10000.0,99999,,2382.278185130455,0.0,1116003202101602015030170439925123822600007000080000
4525,LEXJ,43.4271011353,-3.8200099468,2023-09-12 00:30:00,,,,,19.0,1016.0,1045.4155224402243,18.0,6.0,240.0,6000.0,99999,4.0,29.415522440224322,0.0,11130424061019020180301604045451294600007000084000
4526,LEZG,41.6661987305,-1.0415500402,2023-09-12 00:30:00,,,,,20.0,1014.0,2872.3480298112368,18.0,7.0,260.0,10000.0,99999,,1858.3480298112368,0.0,1116002607102002018030140487235118583600007000080000
4527,LEZL,37.4179992676,-5.8931097984,2023-09-12 00:30:00,,,,,21.0,1015.0,1207.002411738455,18.0,5.0,210.0,10000.0,99999,,193.00241173845507,0.0,111600210510210201803015042070511930600007000080000
4530,LELN,42.5890007019,-5.6555600166,2023-09-12 00:30:00,61.0,36.0,^,green,14.0,1018.0,11.371395089261096,13.0,2.0,270.0,10000.0,99999,1.0,-1005.6286049107389,0.0,111601270210140201303018041135110053600007610081000
4531,LESA,40.9520988464,-5.5019898415,2023-09-12 00:30:00,,,,,14.0,1018.0,10.07142895520873,12.0,2.0,,9000.0,99999,,-1007.9285710447913,0.0,111500360210140201203018041005110070600007000080000
4533,LFLX,46.8622016907,1.7306699753,2023-09-12 00:30:00,,,,,18.0,1013.0,2214.281998170802,17.0,4.0,300.0,10000.0,99999,,1201.081998170802,0.0,1116003004101802017030130421425112010600007000080000
4534,LFMI,43.5227012634,4.9238400459,2023-09-12 00:30:00,,,,,21.0,1014.0,1153.088929555421,18.0,3.0,70.0,10000.0,99999,,139.08892955542092,0.0,111600070310210201803014041530511390600007000080000
4535,LFMV,43.9072990417,4.9018301964,2023-09-12 00:30:00,,,,,17.0,1015.0,1280.9770741071382,14.0,2.0,,10000.0,99999,,266.97707410713815,0.0,111600360210170201403015042809512669600007000080000
4538,LFOK,48.7761001587,4.1844902039,2023-09-12 00:30:00,,,,,19.0,1013.0,2283.803488326167,17.0,5.0,20.0,10000.0,99999,,0.0,0.0,11160002051019020170301304283851000600007000080000
4540,URML,42.8167991638,47.6523017883,2023-09-12 00:30:00,,,,,16.0,1015.0,1041.154992124099,12.0,2.0,210.0,10000.0,99999,,25.55499212409893,0.0,11160021021016020120301504041151255600007000080000
4542,LFRB,48.4478988647,-4.4185400009,2023-09-12 00:30:00,10.0,36.0,+,yellow,17.0,1015.0,1761.2456329787924,17.0,2.0,320.0,5000.0,99999,3.0,745.6456329787924,0.0,111303320210170201703015047612517456600007100083000
4544,LXGB,36.1511993408,-5.3496599197,2023-09-12 00:20:00,,,,,22.0,1015.0,1038.7655308851488,18.0,13.0,270.0,10000.0,99999,,23.76553088514879,0.0,11160027131022020180301504038751237600007000080000
4545,LQBK,44.9413986206,17.2975006104,2023-09-12 00:30:00,,,,,13.0,1014.0,2280.2350370374993,13.0,1.0,,10000.0,99999,,1266.2350370374993,0.0,1116003601101302013030140428025112662600007000080000
4546,LQTZ,44.4586982727,18.7248001099,2023-09-12 00:30:00,,,,,11.0,1015.0,4309.628984230069,11.0,1.0,,10000.0,99999,,3294.6289842300694,0.0,1116003601101102011030150430965132946600007000080000
4551,LFGJ,47.0390014648,5.4272499084,2023-09-12 00:30:00,,,,,17.0,1013.0,2616.5836799015738,13.0,3.0,90.0,10000.0,99999,,1604.4836799015739,0.0,1116000903101702013030130461655116044600007000080000
4552,LFKS,41.9244003296,9.4060001373,2023-09-12 00:30:00,,,,,21.0,1015.0,1061.6933895761588,13.0,5.0,270.0,10000.0,99999,,44.993389576158734,0.0,11160027051021020130301504061651449600007000080000
4554,LFMC,43.3847007751,6.3871397972,2023-09-12 00:30:00,,,,,20.0,1015.0,1515.955560420708,12.0,2.0,,10000.0,99999,,500.955560420708,0.0,111600360210200201203015045159515009600007000080000
4555,LFMY,43.6063995361,5.1092500687,2023-09-12 00:30:00,,,,,17.0,1014.0,1442.772999683081,14.0,1.0,,10000.0,99999,,428.772999683081,0.0,111600360110170201403014044427514287600007000080000
4556,LFOA,47.0532989502,2.6324999332,2023-09-12 00:30:00,,,,,19.0,1013.0,2266.738880718268,15.0,0.0,0.0,10000.0,99999,,1253.8388807182678,0.0,1116000000101902015030130426675112538600007000080000
4557,LFOJ,47.9878005981,1.7605600357,2023-09-12 00:30:00,,,,,18.0,1013.0,1921.5589931383045,18.0,5.0,360.0,8000.0,99999,,908.5589931383045,0.0,111400360510180201803013049215519085600007000080000
4560,LFRD,48.5876998901,-2.0799601078,2023-09-12 00:30:00,45.0,36.0,N,yellow,16.0,1015.0,1533.7934114818768,16.0,3.0,200.0,500.0,99999,3.0,518.7934114818768,0.0,111003200310160201603015045337515187600007450083000
4561,LFRH,47.7606010437,-3.4400000572,2023-09-12 00:30:00,,,,,17.0,1015.0,1362.7994446908308,16.0,3.0,300.0,10000.0,99999,3.0,347.7994446908308,0.0,111603300310170201603015043627513477600007000083000
4563,LFRJ,48.5303001404,-4.1516399384,2023-09-12 00:30:00,,,,,17.0,1015.0,1819.5698746907524,16.0,3.0,240.0,9000.0,99999,6.0,804.5698746907524,0.0,111506240310170201603015048195518045600007000086000
4564,LFRK,49.1733016968,-0.4499999881,2023-09-12 00:30:00,,,,,17.0,1014.0,1588.6236347690867,16.0,2.0,,8000.0,99999,5.0,574.2236347690867,0.0,111405360210170201603014045886515742600007000085000
4566,LFRN,48.0694999695,-1.7347899675,2023-09-12 00:30:00,,,,,16.0,1014.0,1297.1456922875882,16.0,2.0,340.0,8000.0,99999,,282.2456922875882,0.0,111400340210160201603014042971512822600007000080000
4567,LFRQ,47.9749984741,-4.1677899361,2023-09-12 00:30:00,10.0,36.0,+,yellow,17.0,1015.0,1691.107468084852,17.0,4.0,270.0,2900.0,99999,4.0,676.1074680848519,0.0,111104270410170201703015046911516761600007100084000
4569,LFRT,48.5377998352,-2.8544399738,2023-09-12 00:30:00,,,,,16.0,1015.0,2169.237185620491,16.0,3.0,240.0,10000.0,99999,6.0,1154.0371856204908,0.0,1116062403101602016030150416925111540600007000086000
4571,LEAB,38.9485015869,-1.8635200262,2023-09-12 00:30:00,,,,,17.0,1016.0,7648.715767218541,15.0,4.0,140.0,10000.0,99999,,6631.715767218541,0.0,1116001404101702015030160464875166317600007000080000
4572,LEBA,37.841999054,-4.8488798141,2023-09-12 00:30:00,,,,,21.0,1014.0,1550.9098483110854,15.0,5.0,260.0,10000.0,99999,,536.9098483110854,0.0,111600260510210201503014045509515369600007000080000
4573,LEGE,41.9010009766,2.7605500221,2023-09-12 00:30:00,,,,,18.0,1013.0,2060.1101360221955,17.0,1.0,100.0,10000.0,99999,,1046.1101360221955,0.0,1116001001101802017030130406015110461600007000080000
4574,LEIB,38.8728981018,1.3731199503,2023-09-12 00:30:00,,,,,23.0,1013.0,1049.3948470342311,21.0,2.0,,10000.0,99999,3.0,35.49484703423116,0.0,11160336021023020210301304049351354600007000083000
4575,LELO,42.4609534888,-2.3222351074,2023-09-12 00:30:00,,,,,17.0,1016.0,4158.35619333173,15.0,3.0,260.0,10000.0,99999,,3143.3561933317296,0.0,1116002603101702015030160415835131433600007000080000
4576,LETO,40.4967002869,-3.4458699226,2023-09-12 00:30:00,,,,,16.0,1016.0,7203.247341968159,15.0,4.0,30.0,10000.0,99999,,6187.247341968159,0.0,1116000304101602015030160420325161872600007000080000
4582,LFLW,44.8913993835,2.4219400883,2023-09-12 00:30:00,,,,,15.0,1016.0,7865.5913625818275,11.0,2.0,,10000.0,99999,,6850.5913625818275,0.0,1116003602101502011030160486555168505600007000080000
4583,LFPM,48.6046981812,2.6711199284,2023-09-12 00:30:00,,,,,18.0,1013.0,1658.6221024289453,17.0,6.0,360.0,10000.0,99999,,644.6221024289453,0.0,111600360610180201703013046586516446600007000080000
4585,LFRI,46.7019004822,-1.3786300421,2023-09-12 00:30:00,,,,,19.0,1014.0,1616.7469519484032,18.0,3.0,350.0,10000.0,99999,6.0,603.1469519484032,0.0,111606350310190201803014046167516031600007000086000
4587,LFRS,47.1531982422,-1.610730052,2023-09-12 00:30:00,,,,,19.0,1014.0,1183.68209729241,17.0,2.0,,10000.0,99999,,169.9820972924099,0.0,111600360210190201703014041836511699600007000080000
4592,LPPR,41.2481002808,-8.6813898087,2023-09-12 00:30:00,41.0,36.0,J,yellow,17.0,1016.0,1524.042287460359,16.0,0.0,0.0,8000.0,99999,1.0,508.0422874603589,0.0,111401000010170201603016045240515080600007410081000
4593,LPPS,33.0733985901,-16.3500003815,2023-09-12 00:30:00,,,,,23.0,1019.0,1586.796424592767,19.0,7.0,330.0,10000.0,99999,1.0,568.1964245927669,0.0,111601330710230201903019045867515681600007000081000
4594,LPPT,38.7812995911,-9.1359195709,2023-09-12 00:30:00,,,,,18.0,1017.0,1836.5112700655095,17.0,2.0,,10000.0,99999,1.0,819.5112700655095,0.0,111601360210180201703017048365518195600007000081000
4598,LFRC,49.650100708,-1.4702800512,2023-09-12 00:30:00,,,,,15.0,1014.0,2272.3899744131554,15.0,4.0,280.0,10000.0,99999,,1257.3899744131554,0.0,1116002804101502015030140427235112573600007000080000
4599,LFBM,43.9117012024,-0.5074999928,2023-09-12 00:30:00,,,,,20.0,1014.0,1390.409172868569,20.0,6.0,310.0,5000.0,99999,4.0,376.109172868569,0.3,111304310610200202003014043904513761600307000084000
4600,LFRM,47.948600769,0.2016669959,2023-09-12 00:30:00,,,,,19.0,1013.0,1391.4196187060516,18.0,3.0,360.0,10000.0,99999,,377.41961870605155,0.0,111600360310190201803013043914513774600007000080000
4601,LFSI,48.6360015869,4.8994197845,2023-09-12 00:30:00,,,,,21.0,1013.0,1874.2005236407056,17.0,0.0,0.0,10000.0,99999,,862.2005236407056,0.0,111600000010210201703013048742518622600007000080000
4602,EGUL,52.4093017578,0.5609999895,2023-09-12 00:33:00,,,,,18.0,29.89,1093.2616697039418,18.0,3.0,290.0,10000.0,99999,3.0,81.46166970394188,0.0,1116032903101802018032984093251814600007000083000
4603,LFBG,45.6582984924,-0.3174999952,2023-09-12 00:30:00,61.0,36.0,^,green,20.0,1014.0,1197.1363261187112,19.0,5.0,80.0,10000.0,99999,,184.2363261187112,0.0,111600080510200201903014041971511842600007610080000
4604,LKCV,49.9397010803,15.3817996979,2023-09-12 00:30:00,,,,,18.0,1013.0,2916.7475274475714,15.0,3.0,150.0,10000.0,99999,,1902.7475274475714,0.0,1116001503101802015030130491675119027600007000080000
4605,LKNA,49.1657981873,16.1249008179,2023-09-12 00:30:00,,,,,18.0,1015.0,5082.431197032922,13.0,1.0,,10000.0,99999,,4067.431197032922,0.0,1116003601101802013030150408245140674600007000080000
4606,LKPD,50.0134010315,15.7385997772,2023-09-12 00:30:00,,,,,16.0,1014.0,3028.5202674434922,14.0,2.0,60.0,10000.0,99999,,2014.5202674434922,0.0,1116000602101602014030140402855120145600007000080000
4607,EBBE,50.7585983276,4.7683300972,2023-09-12 00:25:00,,,,,18.0,1013.0,1819.6610265203476,16.0,2.0,,10000.0,99999,1.0,805.6610265203476,3.8,111601360210180201603013048196518056603707000081000
4608,EBBL,51.1683006287,5.4699997902,2023-09-12 00:25:00,,,,,19.0,1013.0,1403.8706831635627,18.0,2.0,,10000.0,99999,6.0,390.8706831635627,0.0,111606360210190201803013044038513908600007000086000
4610,EBDT,50.9991989136,5.065559864,2023-09-12 00:25:00,,,,,19.0,1013.0,1202.0143996520871,17.0,2.0,,10000.0,99999,1.0,189.01439965208715,0.0,111601360210190201703013042020511890600007000081000
4612,EGDM,51.1521987915,-1.747410059,2023-09-12 00:20:00,,,,,18.0,1013.0,1909.3352227797445,16.0,4.0,210.0,10000.0,99999,6.0,896.1352227797445,0.0,111606210410180201603013049093518961600007000086000
4613,EGDR,50.086101532,-5.255710125,2023-09-12 00:20:00,,,,,18.0,1014.0,1579.3093781840723,16.0,3.0,250.0,10000.0,99999,4.0,565.3093781840723,0.0,111604250310180201603014045793515653600007000084000
4614,EGOS,52.7981987,-2.6680400372,2023-09-12 00:20:00,63.0,36.0,',green,16.0,1013.0,1607.9115669634973,15.0,4.0,220.0,5000.0,99999,4.0,594.6115669634974,0.0,111304220410160201503013046079515946600007630084000
4615,EGUB,51.6164016724,-1.0958299637,2023-09-12 00:20:00,,,,,18.0,1013.0,1484.8663032002614,16.0,2.0,200.0,10000.0,99999,8.0,472.0663032002615,0.0,111608200210180201603013044848514720600007000088000
4616,EGUW,52.1273002625,0.956264019,2023-09-12 00:20:00,,,,,17.0,1012.0,1653.9724743364543,15.0,5.0,270.0,10000.0,99999,8.0,641.8724743364543,0.0,111608270510170201503012046539516418600007000088000
4617,EGVO,51.2341003418,-0.9428250194,2023-09-12 00:20:00,,,,,17.0,1013.0,1962.868308107245,16.0,6.0,230.0,10000.0,99999,6.0,949.868308107245,0.0,111606230610170201603013049628519498600007000086000
4618,EGVP,51.1394004822,-1.5686099529,2023-09-12 00:20:00,61.0,36.0,^,green,17.0,1013.0,1687.7752366206453,16.0,3.0,210.0,10000.0,99999,6.0,674.6752366206453,0.0,111606210310170201603013046877516746600007610086000
4619,EGXT,52.6125984192,-0.4764530063,2023-09-12 00:20:00,,,,,17.0,1012.0,1626.9477547316424,15.0,3.0,190.0,10000.0,99999,3.0,614.4477547316424,0.0,111603190310170201503012046269516144600007000083000
4620,EGXZ,54.2055015564,-1.3820899725,2023-09-12 00:20:00,61.0,36.0,^,green,14.0,1013.0,1251.0386513778496,14.0,2.0,80.0,10000.0,99999,4.0,237.93865137784962,0.5,111604080210140201403013042510512379600507610084000
4621,EGYD,53.0303001404,-0.4832420051,2023-09-12 00:20:00,,,,,17.0,1012.0,1494.2111029495832,16.0,3.0,50.0,9000.0,99999,8.0,481.21110294958316,0.5,111508050310170201603012044942514812600507000088000
4622,EGYE,52.9622001648,-0.5616250038,2023-09-12 00:20:00,,,,,17.0,1013.0,1864.5380402293608,16.0,2.0,340.0,10000.0,99999,8.0,852.0380402293608,0.1,111608340210170201603013048645518520600107000088000
4623,EGYM,52.648399353,0.5506920218,2023-09-12 00:20:00,,,,,18.0,1012.0,1160.389867328565,16.0,4.0,330.0,10000.0,99999,4.0,148.38986732856506,0.0,111604330410180201603012041603511483600007000084000
4624,EICK,51.8413009644,-8.491109848,2023-09-12 00:30:00,,,,,12.0,1015.0,2810.6207635867213,10.0,14.0,330.0,10000.0,99999,3.0,1796.5207635867214,0.0,1116033314101202010030150481065117965600007000083000
4628,EIDW,53.4212989807,-6.270070076,2023-09-12 00:30:00,51.0,36.0,T,green,12.0,1015.0,1806.4133634099346,11.0,12.0,350.0,10000.0,99999,3.0,792.2133634099346,0.0,111603351210120201103015048064517922600007510083000
4629,EINN,52.7019996643,-8.9248199463,2023-09-12 00:30:00,,,,,12.0,1017.0,1153.8817660113123,9.0,8.0,340.0,10000.0,99999,4.0,139.0817660113123,0.0,11160434081012020903017041538511390600007000084000
4631,ULLI,59.8003005981,30.2625007629,2023-09-12 00:30:00,,,,,13.0,1015.0,1231.9568736142635,13.0,1.0,110.0,10000.0,99999,,215.65687361426353,0.0,111600110110130201303015042319512156600007000080000
4633,URKA,45.0021018982,37.3473014832,2023-09-12 00:30:00,,,,,12.0,1016.0,1568.6641706082853,11.0,2.0,100.0,9000.0,99999,,551.8641706082853,0.0,111500100210120201103016045686515518600007000080000
4634,URMM,44.2251014709,43.0819015503,2023-09-12 00:30:00,,,,,11.0,1016.0,5604.042915977958,7.0,4.0,300.0,10000.0,99999,,4589.042915977958,0.0,111600300410110207030160460405145890600007000080000
4635,URSS,43.4499015808,39.9566001892,2023-09-12 00:30:00,,,,,15.0,1013.0,1227.029654496338,11.0,4.0,50.0,10000.0,99999,1.0,213.32965449633798,0.0,111601050410150201103013042270512133600007000081000
4636,UUEE,55.9725990295,37.4146003723,2023-09-12 00:30:00,10.0,36.0,+,yellow,9.0,1020.0,4217.503560447335,8.0,2.0,60.0,5000.0,99999,,3197.503560447335,0.0,111300060210090208030200421755131975600007100080000
4637,UUWW,55.5914993286,37.2615013123,2023-09-12 00:30:00,,,,,9.0,1020.0,4585.3580317805345,9.0,3.0,120.0,7000.0,99999,,3566.3580317805345,0.0,111400120310090209030200458535135663600007000080000
4638,ENOL,63.6988983154,9.6040000916,2023-09-12 00:20:00,16.0,36.0,1,,12.0,1004.0,1085.4032849691914,11.0,14.0,250.0,10000.0,99999,3.0,83.10328496919146,0.0,11160325141012020110300404085451831600007160083000
4643,EBLB,50.4817008972,6.1819400787,2023-09-12 00:34:00,,,,,16.0,1015.0,6566.758336861903,15.0,1.0,,7000.0,99999,,5553.558336861904,0.0,1114003601101602015030150456675155535600007000080000
4646,LFBD,44.8283004761,-0.7155560255,2023-09-12 00:30:00,61.0,36.0,^,green,20.0,1014.0,1310.5904642444364,18.0,5.0,350.0,10000.0,99999,,296.49046424443634,0.8,111600350510200201803014043105512964600807610080000
4648,LFBI,46.5876998901,0.3066659868,2023-09-12 00:30:00,,,,,20.0,1013.0,1845.4503225685382,17.0,2.0,330.0,10000.0,99999,,831.9503225685382,0.0,111600330210200201703013048454518319600007000080000
4650,LFBP,43.3800010681,-0.41861099,2023-09-12 00:30:00,,,,,19.0,1015.0,2359.521540995397,18.0,10.0,190.0,10000.0,99999,3.0,1344.7215409953972,0.0,1116031910101902018030150435955113447600007000083000
4661,LFBX,45.1981010437,0.8155559897,2023-09-12 00:30:00,,,,,19.0,1014.0,1680.6858054522859,18.0,4.0,340.0,10000.0,99999,,667.6858054522859,0.0,111600340410190201803014046806516676600007000080000
4668,EEEI,59.2602996826,24.2084999084,2023-09-12 00:40:00,,,,,10.0,1013.0,1248.3418780671689,10.0,2.0,,600.0,99999,,235.34187806716886,0.0,111000360210100201003013042483512353600007000080000
4671,EBCV,50.5758018494,3.8310000896,2023-09-12 00:40:00,,,,,17.0,1014.0,1440.425114292398,17.0,2.0,,4900.0,99999,,426.4251142923979,0.0,111300360210170201703014044404514264600007000080000
4672,LFBO,43.6291007996,1.3638199568,2023-09-12 00:30:00,,,,,21.0,1015.0,1964.006116672159,17.0,6.0,270.0,10000.0,99999,7.0,950.3061166721589,1.7,111607270610210201703015049640519503601707000087000
4673,LFBT,43.1786994934,-0.0064389999,2023-09-12 00:30:00,95.0,36.0,2,red,17.0,1016.0,4462.818643774921,15.0,10.0,320.0,7000.0,99999,3.0,3447.918643774921,0.0,1114033210101702015030160446285134479600007950083000
4674,LFBZ,43.4683990479,-1.5233199596,2023-09-12 00:30:00,,,,,19.0,1015.0,1501.526597517191,18.0,3.0,180.0,10000.0,99999,4.0,486.22659751719107,0.0,111604180310190201803015045015514862600007000084000
4675,LFMT,43.5761985779,3.9630100727,2023-09-12 00:30:00,,,,,20.0,1014.0,1043.634535350631,19.0,5.0,20.0,10000.0,99999,3.0,29.13453535063104,0.0,11160302051020020190301404043651291600007000083000
4676,LFBA,44.1747016907,0.5905560255,2023-09-12 00:30:00,,,,,20.0,1014.0,1392.3784605455373,19.0,8.0,230.0,10000.0,99999,3.0,379.0784605455374,0.1,111603230810200201903014043923513790600107000083000
4677,LFSD,47.268901825,5.0900001526,2023-09-12 00:30:00,,,,,20.0,1013.0,2538.046999607332,13.0,3.0,300.0,10000.0,99999,,1525.746999607332,0.0,1116003003102002013030130453805115257600007000080000
4678,LFSL,48.7799987793,5.9800000191,2023-09-12 00:30:00,,,,,21.0,1015.0,2945.230185085418,17.0,11.0,300.0,10000.0,99999,,1932.2301850854178,0.0,1116003011102102017030150494525119322600007000080000
4679,EHVK,51.6563987732,5.7086100578,2023-09-12 00:37:00,10.0,36.0,+,yellow,19.0,1013.0,1147.7429632860903,19.0,3.0,110.0,3700.0,99999,5.0,134.0429632860903,4.7,111205110310190201903013041477511340604707100085000
4680,EHGR,51.567401886,4.9318299294,2023-09-12 00:39:00,45.0,36.0,N,yellow,17.0,1013.0,1114.8487304825962,17.0,1.0,240.0,350.0,99999,1.0,101.84873048259624,0.5,111001240110170201703013041148511018600507450081000
4681,LFBE,44.8252983093,0.5186110139,2023-09-12 00:30:00,,,,,21.0,1014.0,1312.2404746606755,20.0,2.0,,10000.0,99999,,298.6404746606755,2.4,111600360210210202003014043122512986602307000080000
4682,LMML,35.857498,14.4775,2023-09-12 00:15:00,,,,,22.0,1015.0,1531.7045660848391,20.0,3.0,280.0,10000.0,99999,,515.8045660848392,0.0,111600280310220202003015045317515158600007000080000
4684,LBSF,42.6966934204,23.4114360809,2023-09-12 00:30:00,,,,,11.0,1019.0,8808.002492020794,7.0,0.0,0.0,10000.0,99999,,7790.702492020794,0.0,111600000010110207030190480805177907600007000080000
4685,LBWN,43.2321014404,27.8250999451,2023-09-12 00:30:00,,,,,14.0,1017.0,1650.485953118865,12.0,0.0,0.0,10000.0,99999,,633.2859531188649,0.0,111600000010140201203017046504516332600007000080000
4686,LBBG,42.5695991516,27.5151996613,2023-09-12 00:30:00,,,,,17.0,1017.0,1308.3421892811464,13.0,5.0,250.0,10000.0,99999,,291.0421892811464,0.0,111600250510170201303017043083512910600007000080000
4687,LBPD,42.0677986145,24.8507995605,2023-09-12 00:30:00,,,,,14.0,1018.0,2858.7005177337905,6.0,4.0,210.0,10000.0,99999,,1840.7005177337905,0.0,111600210410140206030180485875118407600007000080000
4688,LBGO,43.1514015198,25.7129001617,2023-09-12 00:30:00,,,,,11.0,1017.0,2064.1384081665824,9.0,7.0,100.0,10000.0,99999,,1047.1384081665824,0.0,111600100710110209030170406415110471600007000080000
4689,EHLW,53.2285995483,5.7605600357,2023-09-12 00:40:00,10.0,36.0,+,yellow,18.0,1012.0,1017.7705031985029,17.0,4.0,210.0,3800.0,99999,8.0,4.870503198502888,0.0,11120821041018020170301204017751048600007100088000
4690,ULMM,68.7817001343,32.7508010864,2023-09-12 00:30:00,,,,,12.0,1005.0,1874.9042264491122,11.0,3.0,140.0,10000.0,99999,,867.0042264491123,0.0,111600140310120201103005048749518670600007000080000
4691,UMKK,54.8899993896,20.5925998688,2023-09-12 00:30:00,45.0,36.0,N,yellow,13.0,1013.0,1127.4363501807381,13.0,0.0,0.0,100.0,99999,,113.43635018073815,0.0,111000000010130201303013041274511134600007450080000
4692,UUOO,51.814201355,39.229598999,2023-09-12 00:30:00,44.0,36.0,M,yellow,7.0,1018.0,4435.424830028524,6.0,3.0,320.0,1700.0,99999,,3417.2248300285246,0.0,111100320310070206030180443545134172600007440080000
4693,UUYY,61.6469993591,50.8451004028,2023-09-12 00:30:00,,,,,9.0,1022.0,2642.6815858242003,9.0,1.0,40.0,10000.0,99999,8.0,1622.0815858242004,0.0,111608040110090209030220464265116220600007000088000
4694,UUBC,54.5499992371,36.3666687012,2023-09-12 00:30:00,10.0,36.0,+,yellow,7.0,1019.0,5509.665554382207,7.0,0.0,0.0,6000.0,99999,,0.0,0.0,1113000000100702070301904509651000600007100080000
4695,UUOB,50.6437988281,36.5900993347,2023-09-12 00:30:00,,,,,12.0,1017.0,3796.607234680711,10.0,1.0,80.0,10000.0,99999,,2778.607234680711,0.0,1116000801101202010030170479665127786600007000080000
4696,UUOK,51.7505989075,36.2956008911,2023-09-12 00:30:00,,,,,9.0,1018.0,4582.210389932379,9.0,1.0,360.0,9000.0,99999,,3564.1103899323793,0.0,111500360110090209030180458225135641600007000080000
4697,UWGG,56.2300987244,43.7840003967,2023-09-12 00:30:00,45.0,36.0,N,yellow,7.0,1019.0,2566.1046457543866,7.0,0.0,0.0,1000.0,99999,8.0,1547.1046457543866,0.0,111008000010070207030190456615115471600007450088000
4698,UWLL,54.2682991028,48.2266998291,2023-09-12 00:30:00,,,,,8.0,1016.0,3619.2339315218414,7.0,3.0,350.0,10000.0,99999,,2604.0339315218416,0.0,111600350310080207030160461925126040600007000080000
4699,UWPS,54.1251296997,45.2122573853,2023-09-12 00:30:00,,,,,9.0,1017.0,4519.352331097295,9.0,3.0,10.0,7000.0,99999,6.0,3503.352331097295,0.0,111406010310090209030170451935135033600007000086000
4700,UWKD,55.6062011719,49.2787017822,2023-09-12 00:30:00,,,,,8.0,1018.0,3294.788365792874,6.0,4.0,50.0,10000.0,99999,,2278.488365792874,0.0,111600050410080206030180429475122784600007000080000
4701,UWKE,55.5647010803,52.0924987793,2023-09-12 00:30:00,,,,,9.0,1017.0,4327.109480281664,8.0,3.0,10.0,10000.0,99999,,3311.109480281664,0.0,111600010310090208030170432715133111600007000080000
4702,UWKS,56.0903015137,47.3473014832,2023-09-12 00:30:00,,,,,8.0,1019.0,4246.8132649851805,8.0,2.0,20.0,10000.0,99999,1.0,3228.8132649851805,0.0,111601020210080208030190424685132288600007000081000
4703,UWWW,53.504901886,50.1642990112,2023-09-12 00:30:00,,,,,10.0,1015.0,3100.618606788501,7.0,3.0,10.0,10000.0,99999,3.0,2087.618606788501,0.0,111603010310100207030150410065120876600007000083000
4708,LWSK,41.9616012573,21.6214008331,2023-09-12 00:30:00,,,,,13.0,1017.0,3736.0708037169984,9.0,1.0,,10000.0,99999,,2719.4708037169985,0.0,111600360110130209030170473605127194600007000080000
4711,LIRM,41.060798645,14.0818996429,2023-09-11 23:55:00,,,,,19.0,1015.0,1068.5254099971316,19.0,2.0,20.0,10000.0,99999,,53.525409997131646,0.0,11160002021019020190301504068551535600007000080000
