,station,lat,lon,time,weather,weatherfont,weathersymbol,weathercolour,temperature,pressure,sl_pressure,dewpoint,windspeed,winddir,visibility,visual_range,cloudcover,pressure3h_change,rain,wwletter
84,EEEI,59.2602996826,24.2084999084,2024-03-11 23:50:00,,,,,-3.0,1024.0,(399.5379878202746+0j),-6.0,4.0,100.0,10000.0,99999,,0j,0.0,1116001004110302160302404000051000600007000080000
711,ETNG,50.9608001709,6.0424199104,2024-03-11 23:50:00,,,,,7.0,1010.0,(2818.811472564758+0j),7.0,7.0,280.0,4700.0,99999,8.0,(1812.011472564758+0j),,1112082807100702070301004000051000600007000088000
743,LGLR,39.6562825886,22.3400008678,2024-03-11 23:50:00,,,,,11.0,1011.0,(1874.844431632673+0j),11.0,3.0,,10000.0,99999,2.0,(861.1444316326729+0j),,11160236031011020110301104000051000600007000082000
744,LGSY,38.9676017761,24.4871997833,2024-03-11 23:50:00,,,,,17.0,1012.0,(1103.1784117453271+0j),11.0,17.0,170.0,10000.0,99999,1.0,(89.17841174532714+0j),,11160117171017020110301204000051000600007000081000
757,LGTG,38.3398017883,23.5650005341,2024-03-11 23:50:00,,,,,16.0,1013.0,(2256.851656148447+0j),8.0,9.0,140.0,10000.0,99999,1.0,(1241.651656148447+0j),,1116011409101602080301304000051000600007000081000
802,LGAD,37.9207000732,21.2926006317,2024-03-11 23:50:00,,,,,13.0,1014.0,(1165.036310064253+0j),13.0,0.0,0.0,10000.0,99999,3.0,(150.73631006425308+0j),,11160300001013020130301404000051000600007000083000
803,LGLM,39.917098999,25.2362995148,2024-03-11 23:50:00,,,,,16.0,1013.0,(1043.4815564137448+0j),12.0,19.0,170.0,10000.0,99999,2.0,(28.281556413744738+0j),,11160217191016020120301304000051000600007000082000
804,LGSM,37.6899986267,26.911699295,2024-03-11 23:50:00,,,,,16.0,1019.0,(1060.7065640129717+0j),11.0,11.0,150.0,10000.0,99999,3.0,(40.506564012971694+0j),,11160315111016020110301904000051000600007000083000
823,LIEE,39.251499176,9.0542802811,2024-03-11 23:50:00,,,,,11.0,1015.0,(1056.3423925019008+0j),8.0,7.0,330.0,10000.0,99999,1.0,(43.94239250190083+0j),,1116013307101102080301504000051000600007000081000
841,LGBL,39.2196006775,22.7943000793,2024-03-11 23:50:00,,,,,14.0,1011.0,(1224.4289674839188+0j),9.0,3.0,300.0,10000.0,99999,1.0,0j,0.0,1116013003101402090301104000051000600007000081000
993,LGAL,40.8558998108,25.9563007355,2024-03-11 23:50:00,,,,,15.0,1014.0,(1070.083567359336+0j),11.0,0.0,0.0,10000.0,99999,1.0,(54.08356735933603+0j),,11160100001015020110301404000051000600007000081000
998,LGRX,38.1511001587,21.4256000519,2024-03-11 23:50:00,,,,,13.0,1014.0,(1139.7252196198474+0j),13.0,5.0,200.0,10000.0,99999,4.0,0j,0.0,11160420051013020130301404000051000600007000084000
1008,EHDL,52.0606002808,5.8730602264,2024-03-11 23:55:00,10.0,36.0,+,yellow,6.0,1008.0,(2064.8861543770086+0j),6.0,4.0,220.0,1600.0,99999,7.0,(1055.9861543770085+0j),,1110072204100602060300804000051000600007100087000
1034,LTAY,37.7855987549,29.7012996674,2024-03-11 23:50:00,,,,,2.0,1021.0,(29.884166667477107+0j),-0.0,1.0,250.0,10000.0,99999,,0j,0.0,1116002501100202100302104000051000600007000080000
1037,LTBH,40.1376991272,26.4267997742,2024-03-11 23:50:00,,,,,17.0,1014.0,(1061.3400207246368+0j),6.0,19.0,150.0,10000.0,99999,,0j,0.0,1116001519101702060301404000051000600007000080000
1039,LTBY,39.8098983765,30.5193996429,2024-03-11 23:50:00,,,,,5.0,1020.0,(20.574572592211336+0j),-0.0,5.0,120.0,10000.0,99999,,0j,0.0,1116001205100502100302004000051000600007000080000
1041,LTCB,40.966667,38.08,2024-03-11 23:50:00,,,,,5.0,1023.0,(1152.1016372721508+0j),1.0,2.0,200.0,10000.0,99999,,0j,0.0,1116002002100502010302304000051000600007000080000
1045,LTCN,37.5388259888,36.9535217285,2024-03-11 23:50:00,,,,,4.0,1023.0,(18.633434141984512+0j),2.0,8.0,70.0,10000.0,99999,,0j,0.0,1116000708100402020302304000051000600007000080000
1046,LTCT,39.9766273499,43.8766479492,2024-03-11 23:50:00,,,,,1.0,1024.0,(34.53187011670938+0j),-5.0,7.0,230.0,10000.0,99999,,0j,0.0,1116002307100102150302404000051000600007000080000
1047,LTDA,36.36277771,36.2822227478,2024-03-11 23:50:00,,,,,7.0,1023.0,(2666.0806400244805+0j),4.0,2.0,310.0,10000.0,99999,,0j,0.0,1116003102100702040302304000051000600007000080000
1048,LTFD,39.554599762,27.0137996674,2024-03-11 23:50:00,,,,,9.0,1017.0,(1217.6924551335185+0j),7.0,2.0,,10000.0,99999,3.0,(199.39245513351852+0j),0.0,1116033602100902070301704000051000600007000083000
1049,LTFG,36.2992172241,32.3005981445,2024-03-11 23:50:00,,,,,10.0,1023.0,(1341.6944663373024+0j),7.0,6.0,120.0,10000.0,99999,,(318.1944663373024+0j),0.0,1116001206101002070302304000051000600007000080000
1090,LGPZ,38.9254989624,20.7653007507,2024-03-11 23:50:00,,,,,15.0,1013.0,(1038.5203001578434+0j),11.0,9.0,220.0,10000.0,99999,3.0,0j,0.0,11160322091015020110301304000051000600007000083000
1126,LTBD,37.8149986267,27.8952999115,2024-03-11 23:50:00,,,,,10.0,1020.0,(1400.617386347582+0j),5.0,7.0,60.0,10000.0,99999,,0j,0.0,1116000607101002050302004000051000600007000080000
1131,EGNS,54.0833015442,-4.6238899231,2024-03-11 23:50:00,51.0,36.0,T,green,8.0,1007.0,(1240.9479478910555+0j),7.0,11.0,180.0,8000.0,99999,6.0,(226.9479478910555+0j),,1114061811100802070300704000051000600007510086000
1134,EGQL,56.3728981018,-2.8684399128,2024-03-11 23:50:00,10.0,36.0,+,yellow,6.0,1009.0,(1237.1539278557923+0j),5.0,4.0,140.0,7000.0,99999,5.0,(220.1539278557923+0j),,1114051404100602050300904000051000600007100085000
1146,ETIC,49.6986999512,11.940199852,2024-03-11 23:55:00,,,,,1.8,29.83,(24.768390304637993+0j),0.3,0.0,0.0,10000.0,99999,,0j,0.0,111600000010018200832984000051000600007000080000
1158,LBIA,42.4548988342,26.3521995544,2024-03-12 00:00:00,,,,,12.0,1015.0,(2839.1835952766514+0j),8.0,6.0,50.0,10000.0,99999,6.0,0j,0.0,1116060506101202080301504000051000600007000086000
1159,LBPL,43.4514007568,24.5027999878,2024-03-12 00:00:00,10.0,36.0,+,yellow,9.0,1008.0,(2542.9284413054274+0j),7.0,8.0,150.0,8000.0,99999,6.0,0j,0.0,1114061508100902070300804000051000600007100086000
1166,EHKD,52.9234008789,4.7806200981,2024-03-11 23:58:00,10.0,36.0,+,yellow,7.0,1008.0,(1022.8080545850858+0j),6.0,3.0,310.0,4900.0,99999,4.0,(12.10805458508571+0j),,1113043103100702060300804000051000600007100084000
1232,ETEK,49.6502990723,7.300069809,2024-03-11 23:55:00,,,,,5.8,29.86,(1029.86+0j),4.3,8.0,240.0,10000.0,99999,7.0,0j,0.0,111607240810057204732984000051000600007000087000
1327,EGQS,57.7052001953,-3.3391699791,2024-03-11 23:50:00,,,,,5.0,1009.0,(1315.6379591832567+0j),4.0,7.0,120.0,10000.0,99999,7.0,(298.1379591832567+0j),,1116071207100502040300904000051000600007000087000
1588,ULPB,61.8852005005,34.1547012329,2024-03-12 00:00:00,,,,,-6.0,1023.0,(325.8411787020762+0j),-7.0,2.0,200.0,10000.0,99999,,0j,0.0,1116002002110602170302304000051000600007000080000
1592,EBLB,50.4817008972,6.1819400787,2024-03-11 23:55:00,61.0,36.0,^,green,4.0,1009.0,(19.02809397529574+0j),3.0,4.0,250.0,5000.0,99999,4.0,(-988.5719060247043+0j),,1113042504100402030300904000051000600007610084000
1839,LRSB,45.7855987549,24.091299057,2024-03-12 00:00:00,,,,,11.0,1008.0,(7617.865806548083+0j),5.0,13.0,140.0,10000.0,99999,3.0,(6606.865806548083+0j),,1116031413101102050300804000051000600007000083000
1841,EHVK,51.6563987732,5.7086100578,2024-03-11 23:59:00,10.0,36.0,+,yellow,7.0,1009.0,(1388.874408018406+0j),6.0,5.0,260.0,4700.0,99999,4.0,(380.87440801840603+0j),,1112042605100702060300904000051000600007100084000
1960,LPBJ,38.0788993835,-7.9324002266,2024-03-12 00:00:00,,,,,9.0,1023.0,(4311.696492890633+0j),9.0,1.0,,10000.0,99999,,(3288.496492890633+0j),,1116003601100902090302304000051000600007000080000
1980,URMN,43.5129013062,43.6366004944,2024-03-12 00:00:00,49.0,36.0,R,red,-1.0,1026.0,(52.99360839768263+0j),-1.0,2.0,100.0,300.0,99999,,0j,0.0,1110001002110102110302604000051000600007490080000
1993,UWLW,54.4010009766,48.8027000427,2024-03-12 00:00:00,71.0,36.0,h,magenta,-6.0,1016.0,(85.49537851837265+0j),-8.0,5.0,250.0,10000.0,99999,8.0,(-932.9046214816274+0j),0.0,1116082505110602180301604000051000600007710088000
2027,EGUL,52.4093017578,0.5609999895,2024-03-11 23:55:00,10.0,36.0,+,yellow,6.4,29.87,(1212.1035637040875+0j),4.7,3.0,270.0,9000.0,99999,,0j,0.0,111500270310064204432984000051000600007100080000
2029,EGVA,51.6822013855,-1.7900300026,2024-03-11 23:55:00,,,,,7.2,29.85,(2747.4143479270488+0j),5.0,5.0,220.0,10000.0,99999,3.0,0j,0.0,111603220510072205232984000051000600007000083000
2067,EGXC,53.0929985046,-0.1660140008,2024-03-11 23:50:00,10.0,36.0,+,yellow,6.0,1011.0,(1159.2432370248807+0j),6.0,4.0,250.0,5000.0,99999,8.0,0j,0.0,1113082504100602060301104000051000600007100088000
2073,EGYM,52.648399353,0.5506920218,2024-03-11 23:50:00,10.0,36.0,+,yellow,6.0,1012.0,(1481.1628742908026+0j),5.0,3.0,270.0,5000.0,99999,8.0,(470.36287429080267+0j),,1113082703100602050301204000051000600007100088000
2117,LGHI,38.3432006836,26.1406002045,2024-03-11 23:50:00,,,,,15.0,1017.0,(1052.0051586758645+0j),9.0,10.0,180.0,10000.0,99999,,(34.40515867586453+0j),,1116001810101502090301704000051000600007000080000
2120,LKKB,50.1213989258,14.5436000824,2024-03-12 00:00:00,,,,,9.0,1009.0,(6008.787197039016+0j),2.0,5.0,300.0,10000.0,99999,,0j,0.0,1116003005100902020300904000051000600007000080000
2121,LKKV,50.202999115,12.9149999619,2024-03-12 00:00:00,,,,,3.0,1010.0,(22.963478764088272+0j),0.0,1.0,,10000.0,99999,,(-981.6365212359118+0j),,1116003601100302000301004000051000600007000080000
2122,LKLN,49.675201416,13.274600029,2024-03-12 00:00:00,,,,,6.0,1010.0,(10.558434200371599+0j),4.0,1.0,,10000.0,99999,8.0,(-993.9415657996284+0j),,1116083601100602040301004000051000600007000088000
2127,LOXZ,47.2028007507,14.7441997528,2024-03-11 23:50:00,,,,,3.0,1007.0,(23.99393427340732+0j),3.0,1.0,,10000.0,99999,3.0,(-980.9060657265927+0j),,1116033601100302030300704000051000600007000083000
2137,LTFH,41.2545013428,36.5671005249,2024-03-11 23:50:00,,,,,3.0,1022.0,(1240.4531279150517+0j),2.0,3.0,120.0,10000.0,99999,,0j,0.0,1116001203100302020302204000051000600007000080000
2141,ULOO,57.7839012146,28.3955993652,2024-03-12 00:00:00,,,,,-5.0,1025.0,(225.40562245786498+0j),-7.0,0.0,0.0,10000.0,99999,,0j,0.0,1116000000110502170302504000051000600007000080000
2175,EIME,53.301700592,-6.4513301849,2024-03-12 00:00:00,,,,,8.0,1003.0,(2683.108375734931+0j),5.0,11.0,140.0,10000.0,99999,3.0,0j,0.0,1116031411100802050300304000051000600007000083000
2192,LPMR,39.831199646,-8.887260437,2024-03-12 00:00:00,,,,,8.0,1024.0,(1964.108586387852+0j),8.0,1.0,,10000.0,99999,,(943.108586387852+0j),,1116003601100802080302404000051000600007000080000
2193,LPMT,38.7038993835,-9.0359201431,2024-03-12 00:00:00,,,,,9.0,1023.0,(1208.1780716398912+0j),8.0,3.0,30.0,10000.0,99999,,0j,0.0,1116000303100902080302304000051000600007000080000
2205,LICT,37.9113998413,12.4879999161,2024-03-11 23:55:00,,,,,13.0,1015.0,(1082.6296325355108+0j),11.0,14.0,280.0,10000.0,99999,3.0,(70.62963253551084+0j),,11160328141013020110301504000051000600007000083000
2209,LIBN,40.239200592,18.1333007813,2024-03-11 23:55:00,,,,,11.0,1010.0,(1546.3831223908385+0j),11.0,7.0,210.0,10000.0,99999,,0j,0.0,11160021071011020110301004000051000600007000080000
2211,LIBV,40.7677993774,16.9333000183,2024-03-11 23:55:00,,,,,9.0,1009.0,(7419.345948740497+0j),9.0,6.0,180.0,10000.0,99999,,0j,0.0,1116001806100902090300904000051000600007000080000
2214,LIED,39.3541984558,8.9724798203,2024-03-11 23:55:00,,,,,11.0,1014.0,(1348.9460374985442+0j),5.0,5.0,310.0,10000.0,99999,3.0,0j,0.0,1116033105101102050301404000051000600007000083000
2219,LIRE,41.654499054,12.4451999664,2024-03-11 23:55:00,61.0,36.0,^,green,12.0,1010.0,(1130.8175077047765+0j),10.0,6.0,70.0,10000.0,99999,4.0,(123.41750770477654+0j),,11160407061012020100301004000051000600007610084000
2221,LIRS,42.7597007751,11.0719003677,2024-03-11 23:55:00,,,,,9.0,1009.0,(1075.0186625269168+0j),6.0,3.0,10.0,10000.0,99999,3.0,(68.11866252691686+0j),,1116030103100902060300904000051000600007000083000
2239,ETIH,49.2181015015,11.8360996246,2024-03-11 23:55:00,,,,,2.9,29.85,(20.43335520391531+0j),0.0,0.0,0.0,10000.0,99999,,0j,0.0,111600000010029200932984000051000600007000080000
2240,ETIK,49.4738998413,10.3880996704,2024-03-11 23:55:00,,,,,2.0,29.87,(21.223870735816046+0j),-0.1,0.0,0.0,10000.0,99999,6.0,0j,0.0,111606000010020210032984000051000600007000086000
2243,ETAR,49.4369010925,7.600279808,2024-03-12 00:05:00,,,,,7.0,29.87,(6477.8939074258715+0j),3.0,5.0,200.0,10000.0,99999,4.0,0j,0.0,111604200510070203032984000051000600007000084000
2245,ETOU,50.0498008728,8.3254003525,2024-03-11 23:55:00,,,,,3.0,29.86,(8670.656425482797+0j),1.4,0.0,0.0,10000.0,99999,,(7666.656425482797+0j),,111600000010030201032984000051000600007000080000
2264,UMGG,52.5270004272,31.0167007446,2024-03-12 00:00:00,,,,,-3.0,1027.0,(573560609.7617993+0j),-6.0,4.0,120.0,10000.0,99999,,(573559588.7617993+0j),,1116001204110302160302704000051000600007000080000
2272,LIPS,45.6848983765,12.0829000473,2024-03-11 23:55:00,10.0,36.0,+,yellow,9.0,1008.0,(1585.9450867665234+0j),8.0,4.0,80.0,1800.0,99999,6.0,0j,0.0,1111060804100902080300804000051000600007100086000
2276,LIBA,41.5414009094,15.7180995941,2024-03-11 23:55:00,,,,,10.0,1008.0,(1714.400767517376+0j),6.0,5.0,240.0,10000.0,99999,1.0,(706.9007675173759+0j),,1116012405101002060300804000051000600007000081000
2278,LIPC,44.2242012024,12.3072004318,2024-03-11 23:55:00,,,,,7.0,1009.0,(1099.307186489864+0j),6.0,4.0,260.0,10000.0,99999,,0j,0.0,1116002604100702060300904000051000600007000080000
2279,LIPL,45.4322013855,10.2677001953,2024-03-11 23:55:00,,,,,7.0,1007.0,(3069.813836078735+0j),7.0,4.0,290.0,10000.0,99999,,(2064.1138360787354+0j),,1116002904100702070300704000051000600007000080000
2280,EGUN,52.3619003296,0.4864059985,2024-03-11 23:55:00,10.0,36.0,+,yellow,7.0,29.88,(1201.3727583743216+0j),5.0,5.0,260.0,8000.0,99999,8.0,0j,0.0,111408260510070205032984000051000600007100088000
2281,LICZ,37.4016990662,14.9224004745,2024-03-11 23:55:00,,,,,12.0,1013.0,(1251.488338153608+0j),12.0,8.0,230.0,10000.0,99999,1.0,0j,0.0,11160123081012020120301304000051000600007000081000
2288,LMML,35.857498,14.4775,2024-03-12 00:15:00,,,,,14.0,1017.0,(1864.9113358367156+0j),11.0,8.0,290.0,10000.0,99999,1.0,(850.0113358367156+0j),,11160129081014020110301704000051000600007000081000
2293,LIRM,41.060798645,14.0818996429,2024-03-11 23:55:00,,,,,9.0,1010.0,(1123.788876465416+0j),7.0,3.0,20.0,10000.0,99999,4.0,0j,0.0,1116040203100902070301004000051000600007000084000
2294,EVGA,56.778301239,24.8539009094,2024-03-12 00:20:00,,,,,-1.0,1022.0,(6781.2401404142065+0j),-7.0,9.0,100.0,10000.0,99999,,(5758.340140414207+0j),0.0,1116001009110102170302204000051000600007000080000
2331,EVVA,57.35779953,21.5442008972,2024-03-12 00:20:00,,,,,1.0,1019.0,(1763.1249047077674+0j),-6.0,5.0,110.0,10000.0,99999,,0j,0.0,1116001105100102160301904000051000600007000080000
2345,LSZC,46.9744444444,8.3969444444,2024-03-12 00:20:00,,,,,5.0,1015.0,(14.447211609432804+0j),4.0,2.0,,10000.0,99999,6.0,(-1000.3527883905672+0j),0.2,1116063602100502040301504000051000600207000086000
2357,EKRS,55.4258003235,11.8066997528,2024-03-12 00:20:00,,,,,3.0,1012.0,(2600.8365790071057+0j),3.0,9.0,100.0,8000.0,99999,8.0,0j,0.0,1114081009100302030301204000051000600007000088000
2373,LATI,41.4146995544,19.7206001282,2024-03-12 00:20:00,61.0,36.0,^,green,9.0,1010.0,(1538.962276490543+0j),9.0,4.0,120.0,10000.0,99999,3.0,(529.662276490543+0j),,1116031204100902090301004000051000600007610083000
2375,LWSK,41.9616012573,21.6214008331,2024-03-12 00:20:00,,,,,8.0,1011.0,(5670.9014742246145+0j),8.0,1.0,,10000.0,99999,1.0,(4660.9014742246145+0j),,1116013601100802080301104000051000600007000081000
2411,LSMP,46.8432006836,6.9150600433,2024-03-12 00:20:00,,,,,4.0,1015.0,(16.73298707802056+0j),3.0,2.0,,10000.0,99999,,(-990.7670129219795+0j),,1116003602100402030301504000051000600007000080000
2436,EGHQ,50.4406013489,-4.9954099655,2024-03-12 00:20:00,63.0,36.0,',green,10.0,1011.0,(2662.2922503800255+0j),9.0,13.0,190.0,7000.0,99999,8.0,0j,0.0,1114081913101002090301104000051000600007630088000
2438,EGCK,53.1041984558,-4.340280056,2024-03-12 00:20:00,61.0,36.0,^,green,8.0,1008.0,(1012.3094573187046+0j),7.0,13.0,180.0,8000.0,99999,7.0,0j,0.0,1114071813100802070300804000051000600007610087000
2478,EFET,68.3626022339,23.4242992401,2024-03-12 00:20:00,41.0,36.0,J,yellow,-15.0,1015.0,(0.4328285814011845+0j),-17.0,1.0,,700.0,99999,,0j,0.0,11100036011115021170301504000051000600007410080000
2479,EFHA,61.8559989929,24.7866001129,2024-03-12 00:20:00,,,,,-9.0,1023.0,(19.557458430702418+0j),-10.0,4.0,150.0,10000.0,99999,,0j,0.0,11160015041109021100302304000051000600007000080000
2480,EFJO,62.6628990173,29.6075000763,2024-03-12 00:20:00,,,,,-9.0,1023.0,(67.70753202760599+0j),-10.0,1.0,340.0,10000.0,99999,,(-959.492467972394+0j),,11160034011109021100302304000051000600007000080000
2485,EFKS,65.9876022339,29.2394008636,2024-03-12 00:20:00,,,,,-4.0,1019.0,(2626.8964536108397+0j),-6.0,8.0,250.0,10000.0,99999,8.0,(1604.4964536108396+0j),,1116082508110402160301904000051000600007000088000
2486,EFKT,67.7009963989,24.8467998505,2024-03-12 00:20:00,,,,,-4.0,1017.0,(16428421.969768547+0j),-6.0,4.0,210.0,10000.0,99999,,0j,0.0,1116002104110402160301704000051000600007000080000
2488,EFLP,61.0446014404,28.1443996429,2024-03-12 00:20:00,,,,,-7.0,1024.0,(33.0940056944677+0j),-8.0,1.0,,10000.0,99999,,(-994.7059943055323+0j),,1116003601110702180302404000051000600007000080000
2489,EFMI,61.6865997314,27.2017993927,2024-03-12 00:20:00,,,,,-9.0,1024.0,(143.74835243130292+0j),-10.0,1.0,260.0,10000.0,99999,,(-882.2516475686971+0j),0.0,11160026011109021100302404000051000600007000080000
2491,EFSA,61.9430999756,28.9451007843,2024-03-12 00:20:00,,,,,-10.0,1024.0,(220.40199383237842+0j),-12.0,1.0,,10000.0,99999,,(-807.4980061676217+0j),,11160036011110021120302404000051000600007000080000
2492,EFSI,62.6921005249,22.8323001862,2024-03-12 00:20:00,,,,,-10.0,1023.0,(234.70333738928474+0j),-11.0,5.0,130.0,10000.0,99999,,0j,0.0,11160013051110021110302304000051000600007000080000
2493,EFUT,60.8964004517,26.9384002686,2024-03-12 00:20:00,,,,,-5.0,1024.0,(0.29469335361081916+0j),-7.0,0.0,0.0,10000.0,99999,,(-1027.1053066463892+0j),,1116000000110502170302404000051000600007000080000
2575,ESNZ,63.1944007874,14.5003004074,2024-03-12 00:20:00,,,,,-6.0,1016.0,(4693.778352379935+0j),-9.0,9.0,140.0,10000.0,99999,,0j,0.0,1116001409110602190301604000051000600007000080000
2592,ESCF,58.4023017883,15.5256996155,2024-03-12 00:20:00,,,,,-3.0,1018.0,(-726.2783591537867-759.1155736480515j),-3.0,6.0,50.0,10000.0,99999,1.0,(-1747.3783591537867-759.1155736480515j),,1116010506110302130301804000051000600007000081000
2594,ESIB,58.426399231,12.7144002914,2024-03-12 00:20:00,,,,,-0.0,1017.0,(38.890754703307174+0j),-2.0,10.0,40.0,10000.0,99999,6.0,(-981.4092452966928+0j),,1116060410110002120301704000051000600007000086000
2595,ESMV,57.2921981812,14.1372003555,2024-03-12 00:20:00,,,,,1.0,1014.0,(21.21744399198376+0j),-2.0,7.0,50.0,10000.0,99999,8.0,0j,0.0,1116080507100102120301404000051000600007000088000
2597,ESPE,65.8752975464,20.1499004364,2024-03-12 00:20:00,,,,,-15.0,1018.0,(106.61080016487907+0j),-16.0,2.0,270.0,10000.0,99999,,0j,0.0,11160027021115021160301804000051000600007000080000
2599,ESIA,58.5138015747,14.5071001053,2024-03-12 00:20:00,,,,,-1.0,1017.0,(326.62156985591315+0j),-2.0,7.0,60.0,10000.0,99999,1.0,0j,0.0,1116010607110102120301704000051000600007000081000
2600,ESCM,59.8973007202,17.5886001587,2024-03-12 00:20:00,,,,,-4.0,1021.0,(508.3652213318164+0j),-4.0,3.0,360.0,10000.0,99999,,(-515.4347786681835+0j),,1116003603110402140302104000051000600007000080000
2610,ESOH,60.0200996399,13.5789003372,2024-03-12 00:20:00,,,,,-5.0,1019.0,(-50.4080910214298-52.68719141903178j),-6.0,5.0,350.0,10000.0,99999,,0j,0.0,1116003505110502160301904000051000600007000080000
2708,LIMZ,44.547000885,7.6232199669,2024-03-12 00:20:00,,,,,3.0,1010.0,(18.183592236902474+0j),0.0,4.0,210.0,10000.0,99999,,0j,0.0,1116002104100302000301004000051000600007000080000
2711,LICB,36.9946010208,14.6071815491,2024-03-12 00:20:00,,,,,10.0,1016.0,(3847.1096942136414+0j),9.0,2.0,,10000.0,99999,1.0,0j,0.0,1116013602101002090301604000051000600007000081000
2713,LIPO,45.4289016724,10.3305997849,2024-03-12 00:20:00,,,,,6.0,1009.0,(3660.1658386429576+0j),6.0,4.0,300.0,6000.0,99999,,0j,0.0,1113003004100602060300904000051000600007000080000
2773,ESNV,64.5791015625,16.8335990906,2024-03-12 00:20:00,,,,,-7.0,1019.0,(5487859.621453091+0j),-8.0,3.0,220.0,10000.0,99999,8.0,0j,0.0,1116082203110702180301904000051000600007000088000
2775,ESST,60.1576004028,12.9912996292,2024-03-12 00:20:00,,,,,-5.0,1020.0,(-5.576024175777728e-05-5.828132888060655e-05j),-7.0,3.0,320.0,10000.0,99999,,0j,0.0,1116003203110502170302004000051000600007000080000
2776,ESND,62.0477981567,14.4229001999,2024-03-12 00:20:00,,,,,-14.0,1019.0,(-0.17931338513797968-0.18742067900851306j),-16.0,0.0,0.0,10000.0,99999,,0j,0.0,11160000001114021160301904000051000600007000080000
2778,EDBC,51.8563995361,11.42029953,2024-03-12 00:20:00,,,,,4.0,1011.0,(8259.858219807946+0j),2.0,5.0,200.0,10000.0,99999,1.0,(7251.358219807946+0j),0.0,1116012005100402020301104000051000600007000081000
2798,EEKE,58.2299003601,22.5095005035,2024-03-12 00:20:00,,,,,0.0,1021.0,(39.0437173570075+0j),-3.0,10.0,130.0,10000.0,99999,,0j,0.0,1116001310100002130302104000051000600007000080000
2800,EEPU,58.4189987183,24.4727993011,2024-03-12 00:20:00,,,,,-2.0,1023.0,(359.7383278487355+0j),-7.0,6.0,100.0,10000.0,99999,,0j,0.0,1116001006110202170302304000051000600007000080000
2825,EDJA,47.9888000488,10.2395000458,2024-03-12 00:20:00,,,,,5.0,1012.0,(18.040571729530537+0j),3.0,7.0,220.0,10000.0,99999,4.0,0j,0.0,1116042207100502030301204000051000600007000084000
2832,EDTY,49.1183319092,9.7838888168,2024-03-12 00:20:00,,,,,6.0,1012.0,(11.38015767019314+0j),3.0,4.0,220.0,10000.0,99999,7.0,(-1000.2198423298069+0j),0.0,1116072204100602030301204000051000600007000087000
2836,EDWE,53.3911094666,7.2274999619,2024-03-12 00:20:00,,,,,7.0,1008.0,(1022.8080545850858+0j),7.0,4.0,140.0,4400.0,99999,7.0,(13.60805458508571+0j),,1112071404100702070300804000051000600007000087000
2839,EKCH,55.6179008484,12.6560001373,2024-03-12 00:20:00,51.0,36.0,T,green,3.0,1012.0,(1215.8497282631488+0j),2.0,6.0,60.0,6000.0,99999,6.0,(202.3497282631488+0j),,1113060606100302020301204000051000600007510086000
2840,EKEB,55.5259017944,8.5534000397,2024-03-12 00:20:00,,,,,3.0,1011.0,(2346.130628121839+0j),2.0,10.0,70.0,9000.0,99999,8.0,(1331.530628121839+0j),,1115080710100302020301104000051000600007000088000
2842,EKRK,55.5856018066,12.1314001083,2024-03-12 00:20:00,10.0,36.0,+,yellow,3.0,1012.0,(3139.6390002695043+0j),2.0,7.0,80.0,3900.0,99999,8.0,(2126.839000269504+0j),,1112080807100302020301204000051000600007100088000
2843,EKRN,55.0633010864,14.7595996857,2024-03-12 00:20:00,,,,,3.0,1011.0,(1678.6649301911923+0j),3.0,5.0,40.0,5000.0,99999,4.0,(666.5649301911923+0j),,1113040405100302030301104000051000600007000084000
2844,EKSB,54.9644012451,9.7917299271,2024-03-12 00:20:00,10.0,36.0,+,yellow,4.0,1011.0,(1227.1018711566703+0j),3.0,11.0,90.0,2500.0,99999,8.0,0j,0.0,1111080911100402030301104000051000600007100088000
2845,EKSP,55.2256011963,9.2639303207,2024-03-12 00:20:00,,,,,3.0,1011.0,(3053.6315133780163+0j),2.0,9.0,90.0,5000.0,99999,3.0,(2040.5315133780164+0j),,1113030909100302020301104000051000600007000083000
2846,EKVD,55.4362983704,9.3309202194,2024-03-12 00:20:00,,,,,3.0,1011.0,(3086.742070123321+0j),2.0,9.0,80.0,10000.0,99999,,0j,0.0,1116000809100302020301104000051000600007000080000
2847,EKVJ,55.9901008606,8.3539104462,2024-03-12 00:20:00,10.0,36.0,+,yellow,99999.0,1012.0,(99999+0j),99999.0,8.0,70.0,4500.0,99999,7.0,0j,0.0,11120707081099999020999990301204000051000600007100087000
2857,EFIV,68.6072998047,27.4053001404,2024-03-12 00:20:00,,,,,-5.0,1016.0,(-84.75125409584157-88.5831115019271j),-7.0,7.0,240.0,10000.0,99999,,(-1104.9512540958417-88.5831115019271j),,1116002407110502170301604000051000600007000080000
2858,EFJY,62.3995018005,25.6783008575,2024-03-12 00:20:00,,,,,-10.0,1024.0,(55.72156724061304+0j),-12.0,1.0,,10000.0,99999,,(-972.478432759387+0j),,11160036011110021120302404000051000600007000080000
2859,EFKE,65.7787017822,24.5820999146,2024-03-12 00:20:00,,,,,-3.0,1021.0,(428.35697305398037+0j),-6.0,8.0,170.0,10000.0,99999,8.0,0j,0.0,1116081708110302160302104000051000600007000088000
2860,EFKK,63.7211990356,23.1431007385,2024-03-12 00:20:00,,,,,-12.0,1023.0,(791.3400267078551+0j),-14.0,4.0,190.0,10000.0,99999,,0j,0.0,11160019041112021140302304000051000600007000080000
2862,EFMA,60.1222000122,19.8981990814,2024-03-12 00:20:00,,,,,-3.0,1021.0,(831.7681784551705+0j),-5.0,3.0,20.0,10000.0,99999,,(-192.83182154482938+0j),,1116000203110302150302104000051000600007000080000
2864,EFPO,61.4617004395,21.7999992371,2024-03-12 00:20:00,,,,,-5.0,1023.0,(736.1716175372233+0j),-6.0,2.0,100.0,10000.0,99999,,(-291.6283824627767+0j),,1116001002110502160302304000051000600007000080000
2865,EFRO,66.5647964478,25.8304004669,2024-03-12 00:20:00,,,,,-6.0,1019.0,(-2622.4257981617448-2740.993503428172j),-7.0,8.0,210.0,5000.0,99999,8.0,0j,0.0,1113082108110602170301904000051000600007000088000
2866,EFTP,61.414100647,23.6044006348,2024-03-12 00:20:00,,,,,-8.0,1023.0,(38.608022639062696+0j),-9.0,1.0,,10000.0,99999,,(-988.9919773609372+0j),,1116003601110802190302304000051000600007000080000
2867,EFTU,60.5140991211,22.2628002167,2024-03-12 00:20:00,,,,,-4.0,1023.0,(102.59140462254213+0j),-7.0,5.0,120.0,10000.0,99999,,(-924.7085953774579+0j),,1116001205110402170302304000051000600007000080000
2868,EFVA,63.0507011414,21.7621994019,2024-03-12 00:20:00,,,,,-11.0,1023.0,(963.3925172663023+0j),-12.0,1.0,140.0,10000.0,99999,,(-61.807482733697725+0j),,11160014011111021120302304000051000600007000080000
2870,ENBR,60.2933998108,5.2181401253,2024-03-12 00:20:00,,,,,3.0,1014.0,(3550.342628382236+0j),-4.0,1.0,,10000.0,99999,8.0,0j,0.0,1116083601100302140301404000051000600007000088000
2871,ENCN,58.2042007446,8.0853700638,2024-03-12 00:20:00,,,,,2.0,1016.0,(2179.967847008143+0j),-5.0,15.0,40.0,10000.0,99999,8.0,(1159.667847008143+0j),,1116080415100202150301604000051000600007000088000
2873,ENHD,59.3452987671,5.2083601952,2024-03-12 00:20:00,,,,,4.0,1014.0,(1862.5265810277415+0j),-1.0,2.0,,10000.0,99999,,0j,0.0,1116003602100402110301404000051000600007000080000
2876,ENVA,63.4578018188,10.9239997864,2024-03-12 00:20:00,,,,,-4.0,1017.0,(584.1079311146844+0j),-8.0,3.0,80.0,10000.0,99999,1.0,(-438.1920688853155+0j),,1116010803110402180301704000051000600007000081000
2877,ENZV,58.876701355,5.6377801895,2024-03-12 00:20:00,,,,,1.0,1014.0,(2198.5950046453468+0j),-2.0,2.0,30.0,10000.0,99999,,0j,0.0,1116000302100102120301404000051000600007000080000
2880,LGAV,37.9364013672,23.9444999695,2024-03-12 00:20:00,,,,,16.0,1014.0,(1765.1825471372179+0j),8.0,7.0,220.0,10000.0,99999,1.0,0j,0.0,1116012207101602080301404000051000600007000081000
2881,LGIR,35.3396987915,25.1802997589,2024-03-12 00:20:00,,,,,18.0,1015.0,(1246.6078640468163+0j),6.0,28.0,180.0,10000.0,99999,1.0,(229.50786404681628+0j),,1116011828101802060301504000051000600007000081000
2884,LGKR,39.6018981934,19.911699295,2024-03-12 00:20:00,,,,,11.0,1011.0,(1029.9187763205418+0j),10.0,3.0,,10000.0,99999,3.0,(18.718776320541792+0j),,11160336031011020100301104000051000600007000083000
2885,LGRP,36.4053993225,28.0862007141,2024-03-12 00:20:00,,,,,14.0,1020.0,(1062.6973722797786+0j),11.0,3.0,,10000.0,99999,1.0,(41.69737227977862+0j),,11160136031014020110302004000051000600007000081000
2910,ENAL,62.5625,6.119699955,2024-03-12 00:20:00,,,,,0.0,1015.0,(38.81427337645702+0j),-3.0,2.0,110.0,10000.0,99999,,(-981.585726623543+0j),,1116001102100002130301504000051000600007000080000
2916,ENDU,69.0558013916,18.5403995514,2024-03-12 00:20:00,,,,,0.0,1017.0,(38.890754703307174+0j),-0.0,0.0,0.0,10000.0,99999,3.0,0j,0.0,1116030000100002100301704000051000600007000083000
2931,ENRO,62.5783996582,11.342300415,2024-03-12 00:20:00,,,,,-17.0,1016.0,(-119994.37978719741-125419.68420046597j),-19.0,0.0,0.0,10000.0,99999,,0j,0.0,11160000001117021190301604000051000600007000080000
2933,ENRY,59.3788986206,10.7855997086,2024-03-12 00:20:00,,,,,-1.0,1019.0,(151350.22846435336+0j),-6.0,10.0,350.0,10000.0,99999,3.0,0j,0.0,1116033510110102160301904000051000600007000083000
2939,ENTO,59.1866989136,10.258600235,2024-03-12 00:20:00,,,,,-1.0,1018.0,(434.1231241814889+0j),-5.0,12.0,360.0,10000.0,99999,8.0,0j,0.0,1116083612110102150301804000051000600007000088000
2941,ESDF,56.2667007446,15.2650003433,2024-03-12 00:20:00,,,,,2.0,1013.0,(5570.82437490943+0j),2.0,8.0,60.0,6000.0,99999,8.0,(4555.72437490943+0j),,1113080608100202020301304000051000600007000088000
2942,ESGG,57.6627998352,12.279800415,2024-03-12 00:20:00,,,,,1.0,1014.0,(20.210151495841917+0j),-4.0,8.0,90.0,10000.0,99999,,0j,0.0,1116000908100102140301404000051000600007000080000
2943,ESGJ,57.757598877,14.0686998367,2024-03-12 00:20:00,,,,,-0.0,1015.0,(38.81427337645702+0j),-2.0,6.0,60.0,10000.0,99999,,(-979.985726623543+0j),,1116000606110002120301504000051000600007000080000
2944,ESGP,57.7747001648,11.8704004288,2024-03-12 00:20:00,,,,,3.0,1015.0,(1784.8374394489567+0j),-3.0,8.0,70.0,10000.0,99999,8.0,(769.9374394489568+0j),,1116080708100302130301504000051000600007000088000
2945,ESKN,58.7886009216,16.9122009277,2024-03-12 00:20:00,,,,,-2.0,1018.0,(0.07869304599366564+0j),-3.0,7.0,50.0,10000.0,99999,,0j,0.0,1116000507110202130301804000051000600007000080000
2946,ESMK,55.9216995239,14.0854997635,2024-03-12 00:20:00,10.0,36.0,+,yellow,2.0,1013.0,(2619.4094387866094+0j),2.0,8.0,60.0,4600.0,99999,8.0,(1603.8094387866095+0j),,1112080608100202020301304000051000600007100088000
2947,ESMS,55.536305364,13.3761978149,2024-03-12 00:20:00,10.0,36.0,+,yellow,3.0,1011.0,(4678.459899420809+0j),2.0,9.0,70.0,2700.0,99999,6.0,(3665.359899420809+0j),,1111060709100302020301104000051000600007100086000
2948,ESMX,56.9291000366,14.7279996872,2024-03-12 00:20:00,,,,,2.0,1014.0,(14.778280971016045+0j),1.0,6.0,60.0,10000.0,99999,6.0,(-1002.121719028984+0j),,1116060606100202010301404000051000600007000086000
2949,ESNN,62.5280990601,17.4438991547,2024-03-12 00:20:00,,,,,-4.0,1022.0,(886.4974077482432+0j),-5.0,2.0,,10000.0,99999,8.0,(-138.10259225175673+0j),,1116083602110402150302204000051000600007000088000
2950,ESNO,63.4082984924,18.9899997711,2024-03-12 00:20:00,,,,,-11.0,1021.0,(203.05105996362775+0j),-12.0,2.0,,10000.0,99999,8.0,(-821.6489400363723+0j),,11160836021111021120302104000051000600007000088000
2952,ESNS,64.6248016357,21.0769004822,2024-03-12 00:20:00,,,,,-7.0,1021.0,(381.7529919949394+0j),-7.0,4.0,250.0,10000.0,99999,8.0,(-641.8470080050606+0j),,1116082504110702170302104000051000600007000088000
2954,ESOK,59.4446983337,13.3374004364,2024-03-12 00:20:00,,,,,-2.0,1018.0,(102352.3384022123+0j),-5.0,6.0,40.0,10000.0,99999,,0j,0.0,1116000406110202150301804000051000600007000080000
2956,ESPA,65.543800354,22.1219997406,2024-03-12 00:20:00,,,,,-10.0,1020.0,(804.6273740448524+0j),-12.0,3.0,140.0,10000.0,99999,,(-218.5726259551476+0j),,11160014031110021120302004000051000600007000080000
2958,ESSB,59.3544006348,17.9416999817,2024-03-12 00:20:00,,,,,-3.0,1020.0,(541.8221734190636+0j),-3.0,2.0,10.0,10000.0,99999,,(-481.77782658093645+0j),,1116000102110302130302004000051000600007000080000
2959,ESSD,60.422000885,15.5151996613,2024-03-12 00:20:00,,,,,-3.0,1020.0,(772071.823468579+0j),-4.0,3.0,40.0,10000.0,99999,8.0,(771047.823468579+0j),,1116080403110302140302004000051000600007000088000
2961,ESSV,57.6627998352,18.346200943,2024-03-12 00:20:00,,,,,2.0,1017.0,(4881.693873752703+0j),-3.0,7.0,100.0,10000.0,99999,8.0,(3861.6938737527034+0j),,1116081007100202130301704000051000600007000088000
2962,LSGC,47.0839004517,6.792840004,2024-03-12 00:20:00,,,,,2.0,1014.0,(30.970391360098954+0j),2.0,9.0,250.0,10000.0,99999,3.0,0j,0.0,1116032509100202020301404000051000600007000083000
2963,LSGG,46.2380981445,6.1089501381,2024-03-12 00:20:00,,,,,4.0,1016.0,(16.346178678758186+0j),3.0,2.0,,10000.0,99999,8.0,(-991.4538213212418+0j),,1116083602100402030301604000051000600007000088000
2964,LSGS,46.2196006775,7.3267598152,2024-03-12 00:20:00,,,,,7.0,1015.0,(11.830623071840648+0j),3.0,4.0,250.0,10000.0,99999,2.0,(-995.4693769281594+0j),,1116022504100702030301504000051000600007000082000
2965,LSZA,46.0042991638,8.9105796814,2024-03-12 00:20:00,,,,,4.0,1010.0,(11.867876656608015+0j),2.0,2.0,,10000.0,99999,,(-994.532123343392+0j),,1116003602100402020301004000051000600007000080000
2966,LSZB,46.914100647,7.4971499443,2024-03-12 00:20:00,,,,,3.0,1015.0,(21.276521370591826+0j),2.0,1.0,,10000.0,99999,5.0,0j,0.0,1116053601100302020301504000051000600007000085000
2967,LSZG,47.1815986633,7.4171900749,2024-03-12 00:20:00,,,,,4.0,1015.0,(16.330089920216103+0j),4.0,2.0,,10000.0,99999,,(-991.1699100797839+0j),,1116003602100402040301504000051000600007000080000
2968,LSZH,47.4646987915,8.5491695404,2024-03-12 00:20:00,,,,,5.0,1014.0,(14.014286811471072+0j),3.0,2.0,,10000.0,99999,3.0,(-992.685713188529+0j),,1116033602100502030301404000051000600007000083000
2969,LSZR,47.4850006104,9.5607700348,2024-03-12 00:20:00,,,,,7.0,1014.0,(10.08715099862461+0j),7.0,2.0,,10000.0,99999,6.0,(-995.4128490013754+0j),,1116063602100702070301404000051000600007000086000
2970,LSZS,46.5340995789,9.8841104507,2024-03-12 00:20:00,,,,,-6.0,1011.0,(63.40839752337339+0j),-6.0,1.0,,10000.0,99999,4.0,(-950.4916024766266+0j),0.0,1116043601110602160301104000051000600007000084000
2973,EGCC,53.3536987305,-2.2749500275,2024-03-12 00:20:00,,,,,6.0,1010.0,(2845.5375796019557+0j),4.0,3.0,150.0,10000.0,99999,1.0,(1832.5375796019557+0j),,1116011503100602040301004000051000600007000081000
2974,EGFF,51.3967018127,-3.3433299065,2024-03-12 00:20:00,61.0,36.0,^,green,8.0,1012.0,(2125.847569744502+0j),7.0,5.0,200.0,10000.0,99999,3.0,(1114.4475697445018+0j),,1116032005100802070301204000051000600007610083000
2983,EGLL,51.4706001282,-0.4619410038,2024-03-12 00:20:00,,,,,8.0,1013.0,(1397.8993155823448+0j),6.0,5.0,250.0,10000.0,99999,7.0,(387.09931558234484+0j),,1116072505100802060301304000051000600007000087000
2987,EGNX,52.8311004639,-1.3280600309,2024-03-12 00:20:00,,,,,6.0,1011.0,(3253.296281257266+0j),5.0,4.0,190.0,10000.0,99999,3.0,0j,0.0,1116031904100602050301104000051000600007000083000
2988,EGPA,58.9578018188,-2.9049999714,2024-03-12 00:20:00,,,,,5.0,1010.0,(1379.0460868505577+0j),4.0,8.0,140.0,10000.0,99999,8.0,(362.0460868505577+0j),,1116081408100502040301004000051000600007000088000
2989,EGPB,59.8788986206,-1.2955600023,2024-03-12 00:20:00,61.0,36.0,^,green,4.0,1012.0,(1191.0715007413912+0j),2.0,10.0,150.0,10000.0,99999,7.0,0j,0.0,1116071510100402020301204000051000600007610087000
2996,EGTE,50.7344017029,-3.4138898849,2024-03-12 00:20:00,61.0,36.0,^,green,7.0,1013.0,(1566.9685979257154+0j),6.0,5.0,150.0,9000.0,99999,3.0,(555.2685979257153+0j),0.0,1115031505100702060301304000051000600007610083000
2998,EGAC,54.6180992126,-5.8724999428,2024-03-12 00:20:00,58.0,36.0,[,green,8.0,1006.0,(1071.3319537388556+0j),7.0,3.0,160.0,5000.0,99999,5.0,0j,0.0,1113051603100802070300604000051000600007580085000
3004,EGPE,57.5424995422,-4.0475001335,2024-03-12 00:20:00,,,,,5.0,1008.0,(1230.9348848606228+0j),2.0,1.0,,10000.0,99999,8.0,(213.4348848606228+0j),,1116083601100502020300804000051000600007000088000
3005,EGPF,55.8718986511,-4.4330601692,2024-03-12 00:20:00,61.0,36.0,^,green,6.0,1008.0,(1161.889433041402+0j),4.0,6.0,70.0,7000.0,99999,6.0,(145.9894330414021+0j),,1114060706100602040300804000051000600007610086000
3006,EGPL,57.481098175,-7.3627800941,2024-03-12 00:20:00,,,,,7.0,1006.0,(1101.13577369095+0j),5.0,13.0,170.0,10000.0,99999,8.0,0j,0.0,1116081713100702050300604000051000600007000088000
3017,EDGS,50.707698822,8.0829696655,2024-03-12 00:20:00,,,,,5.0,1009.0,(17.395561697774873+0j),4.0,10.0,220.0,10000.0,99999,5.0,0j,0.0,1116052210100502040300904000051000600007000085000
3018,EDLV,51.6024017334,6.1421699524,2024-03-12 00:20:00,,,,,7.0,1009.0,(1584.2491678627364+0j),7.0,4.0,240.0,2700.0,99999,5.0,0j,0.0,1111052404100702070300904000051000600007000085000
3026,ESMQ,56.6855010986,16.2875995636,2024-03-12 00:20:00,68.0,36.0,e,magenta,1.0,1015.0,(1671.2471170047236+0j),1.0,6.0,60.0,5000.0,99999,8.0,0j,0.0,1113080606100102010301504000051000600007680088000
3027,ESMT,56.6911010742,12.8201999664,2024-03-12 00:20:00,,,,,3.0,1014.0,(2415.6854338156195+0j),-1.0,7.0,70.0,10000.0,99999,8.0,(1400.6854338156195+0j),,1116080707100302110301404000051000600007000088000
3028,ESNG,67.1324005127,20.8145999908,2024-03-12 00:20:00,,,,,-12.0,1016.0,(-0.5192185369804789-0.5426939582887657j),-13.0,6.0,310.0,10000.0,99999,,(-1022.3192185369804-0.5426939582887657j),,11160031061112021130301604000051000600007000080000
3029,ESNK,63.0485992432,17.7688999176,2024-03-12 00:20:00,,,,,-5.0,1022.0,(796.804903450954+0j),-7.0,2.0,,10000.0,99999,8.0,0j,0.0,1116083602110502170302204000051000600007000088000
3030,ESNL,64.5483016968,18.7161998749,2024-03-12 00:20:00,,,,,-6.0,1020.0,(-48105.06632205116-50280.04009232641j),-8.0,3.0,210.0,10000.0,99999,8.0,0j,0.0,1116082103110602180302004000051000600007000088000
3031,ESNX,65.5903015137,19.2819004059,2024-03-12 00:20:00,,,,,-17.0,1017.0,(0.003526737008330494+0j),-19.0,0.0,0.0,10000.0,99999,,0j,0.0,11160000001117021190301704000051000600007000080000
3033,ESSL,58.4062004089,15.6805000305,2024-03-12 00:20:00,,,,,-2.0,1018.0,(-0.6878088755988-0.7189067698075883j),-3.0,3.0,60.0,10000.0,99999,,0j,0.0,1116000603110202130301804000051000600007000080000
3034,ESTA,56.2961006165,12.8471002579,2024-03-12 00:20:00,,,,,3.0,1013.0,(1911.7779983591038+0j),1.0,9.0,100.0,10000.0,99999,8.0,0j,0.0,1116081009100302010301304000051000600007000088000
3035,ESTL,56.0828018188,13.2124996185,2024-03-12 00:20:00,,,,,3.0,1013.0,(3043.110699618069+0j),3.0,9.0,90.0,10000.0,99999,8.0,0j,0.0,1116080909100302030301304000051000600007000088000
3036,ESUT,65.806098938,15.0827999115,2024-03-12 00:20:00,71.0,36.0,h,magenta,-18.0,1017.0,(-0.10444391558907952-0.10916613705636308j),-20.0,2.0,190.0,10000.0,99999,,0j,0.0,11160019021118021200301704000051000600007710080000
3039,EETN,59.4132995605,24.8327999115,2024-03-12 00:20:00,,,,,-5.0,1024.0,(306.05129520048115+0j),-7.0,5.0,100.0,10000.0,99999,,0j,0.0,1116001005110502170302404000051000600007000080000
3040,EETU,58.3074989319,26.6903991699,2024-03-12 00:20:00,,,,,-4.0,1024.0,(14.946472083900401+0j),-7.0,3.0,110.0,10000.0,99999,,(-1004.2535279160996+0j),,1116001103110402170302404000051000600007000080000
3041,EFHK,60.317199707,24.963300705,2024-03-12 00:20:00,,,,,-5.0,1024.0,(153.2076773773646+0j),-6.0,3.0,50.0,10000.0,99999,,(-874.2923226226354+0j),,1116000503110502160302404000051000600007000080000
3043,EVLA,56.5175018311,21.0969009399,2024-03-12 00:20:00,,,,,3.0,1017.0,(1209.3807416138018+0j),-7.0,6.0,100.0,10000.0,99999,,(197.68074161380173+0j),,1116001006100302170301704000051000600007000080000
3044,EVRA,56.9235992432,23.9710998535,2024-03-12 00:20:00,,,,,0.0,1021.0,(39.0437173570075+0j),-8.0,7.0,130.0,10000.0,99999,,0j,0.0,1116001307100002180302104000051000600007000080000
3045,EYKA,54.9639015198,24.0848007202,2024-03-12 00:20:00,,,,,1.0,1019.0,(13.065029175929913+0j),-9.0,8.0,110.0,10000.0,99999,6.0,0j,0.0,1116061108100102190301904000051000600007000086000
3046,EYPA,55.9732017517,21.0939006805,2024-03-12 00:20:00,,,,,4.0,1017.0,(1320.2636154067131+0j),-6.0,8.0,120.0,10000.0,99999,6.0,(309.4636154067132+0j),,1116061208100402160301704000051000600007000086000
3047,EYVI,54.6341018677,25.2858009338,2024-03-12 00:20:00,,,,,-0.0,1020.0,(39.00547669358242+0j),-9.0,10.0,140.0,10000.0,99999,,(-973.3945233064176+0j),,1116001410110002190302004000051000600007000080000
3048,EFKI,64.2854995728,27.6923999786,2024-03-12 00:20:00,,,,,-14.0,1022.0,(170.01333067942522+0j),-15.0,2.0,140.0,10000.0,99999,,(-854.1866693205748+0j),,11160014021114021150302204000051000600007000080000
3049,EFKU,63.0070991516,27.7978000641,2024-03-12 00:20:00,,,,,-10.0,1023.0,(201.66721550580436+0j),-11.0,1.0,,10000.0,99999,,(-823.1327844941956+0j),,11160036011110021110302304000051000600007000080000
3050,EFOU,64.9300994873,25.3546009064,2024-03-12 00:20:00,,,,,-3.0,1022.0,(542.8845698375324+0j),-6.0,6.0,220.0,10000.0,99999,8.0,0j,0.0,1116082206110302160302204000051000600007000088000
3062,EGBB,52.4538993835,-1.7480299473,2024-03-12 00:20:00,,,,,6.0,1011.0,(3429.8165769683533+0j),5.0,3.0,150.0,7000.0,99999,8.0,(2418.116576968353+0j),,1114081503100602050301104000051000600007000088000
3064,EGGP,53.3335990906,-2.8497200012,2024-03-12 00:20:00,,,,,7.0,1010.0,(1435.4109972026988+0j),5.0,7.0,170.0,10000.0,99999,,0j,0.0,1116001707100702050301004000051000600007000080000
3066,EGHH,50.7799987793,-1.8424999714,2024-03-12 00:20:00,42.0,36.0,K,yellow,4.0,1013.0,(1363.5589346619145+0j),4.0,0.0,0.0,8000.0,99999,3.0,(353.95893466191444+0j),,1114030000100402040301304000051000600007420083000
3070,EGLC,51.5052986145,0.0552779995,2024-03-12 00:20:00,,,,,8.0,1013.0,(1096.6241351017504+0j),6.0,4.0,200.0,5000.0,99999,7.0,0j,0.0,1113072004100802060301304000051000600007000087000
3071,EGLF,51.2757987976,-0.7763329744,2024-03-12 00:20:00,,,,,7.0,1013.0,(2429.00354893834+0j),5.0,4.0,230.0,8000.0,99999,6.0,(1420.00354893834+0j),,1114062304100702050301304000051000600007000086000
3074,EGNT,55.0374984741,-1.6916699409,2024-03-12 00:20:00,,,,,5.0,1009.0,(3357.4146208424904+0j),5.0,3.0,150.0,6000.0,99999,8.0,0j,0.0,1113081503100502050300904000051000600007000088000
3080,EGSS,51.8849983215,0.2349999994,2024-03-12 00:20:00,,,,,6.0,1012.0,(3611.3708189157956+0j),5.0,3.0,240.0,2800.0,99999,8.0,(2600.4708189157955+0j),,1111082403100602050301204000051000600007000088000
3089,ENBS,70.6005020142,29.691400528,2024-03-12 00:20:00,71.0,36.0,h,magenta,-0.0,1011.0,(38.661310722756696+0j),-1.0,18.0,270.0,10000.0,99999,3.0,0j,0.0,1116032718110002110301104000051000600007710083000
3090,ENMH,71.0297012329,27.8267002106,2024-03-12 00:20:00,,,,,2.0,1011.0,(1770.659011294018+0j),-0.0,17.0,260.0,10000.0,99999,3.0,0j,0.0,1116032617100202100301104000051000600007000083000
3091,ENOV,62.1800003052,6.0741000175,2024-03-12 00:20:00,,,,,-3.0,1015.0,(-0.007022044776247639-0.0073395324001039215j),-5.0,0.0,0.0,10000.0,99999,3.0,0j,0.0,1116030000110302150301504000051000600007000083000
3092,LICJ,38.1759986877,13.0909996033,2024-03-12 00:20:00,,,,,15.0,1014.0,(1168.8054415714103+0j),10.0,19.0,250.0,10000.0,99999,1.0,(156.5054415714103+0j),,11160125191015020100301404000051000600007000081000
3093,LIPE,44.5354003906,11.2887001038,2024-03-12 00:20:00,,,,,8.0,1009.0,(1593.8185156541233+0j),6.0,4.0,220.0,10000.0,99999,,(588.1185156541233+0j),,1116002204100802060300904000051000600007000080000
3094,LIPX,45.3956985474,10.8885002136,2024-03-12 00:20:00,,,,,6.0,1008.0,(2694.4759294204714+0j),6.0,1.0,,10000.0,99999,,(1687.7759294204714+0j),,1116003601100602060300804000051000600007000080000
3095,LOWG,46.9911003113,15.4395999908,2024-03-12 00:20:00,61.0,36.0,^,green,6.0,1006.0,(9.974239800007744+0j),5.0,1.0,,10000.0,99999,3.0,(-993.5257601999923+0j),,1116033601100602050300604000051000600007610083000
3096,LOWI,47.2602005005,11.3439998627,2024-03-12 00:20:00,,,,,6.0,1012.0,(15.173516642229954+0j),4.0,3.0,,10000.0,99999,3.0,(-989.0264833577701+0j),,1116033603100602040301204000051000600007000083000
3102,ENAT,69.9760971069,23.3717002869,2024-03-12 00:20:00,,,,,-1.0,1015.0,(724.4476745877383+0j),-4.0,4.0,190.0,10000.0,99999,8.0,(-297.1523254122617+0j),,1116081904110102140301504000051000600007000088000
3103,ENEV,68.4913024902,16.6781005859,2024-03-12 00:20:00,,,,,-2.0,1018.0,(85.66367650758212+0j),-4.0,4.0,200.0,10000.0,99999,8.0,0j,0.0,1116082004110202140301804000051000600007000088000
3104,ENFL,61.5835990906,5.024720192,2024-03-12 00:20:00,,,,,2.0,1014.0,(1733.1216216449693+0j),-3.0,5.0,100.0,10000.0,99999,6.0,0j,0.0,1116061005100202130301404000051000600007000086000
3105,ENHV,71.0096969604,25.9836006165,2024-03-12 00:20:00,,,,,2.0,1012.0,(1880.672075499915+0j),-0.0,15.0,260.0,10000.0,99999,5.0,0j,0.0,1116052615100202100301204000051000600007000085000
3106,ENML,62.7447013855,7.2624998093,2024-03-12 00:20:00,,,,,-1.0,1016.0,(695.6465972446964+0j),-6.0,6.0,10.0,10000.0,99999,,0j,0.0,1116000106110102160301604000051000600007000080000
3107,ENNA,70.0688018799,24.9734992981,2024-03-12 00:20:00,,,,,3.0,1015.0,(1320.884980452087+0j),-2.0,4.0,,10000.0,99999,8.0,(299.68498045208685+0j),,1116083604100302120301504000051000600007000088000
3108,ENSD,61.8300018311,6.1058301926,2024-03-12 00:20:00,,,,,0.0,1015.0,(38.81427337645702+0j),-4.0,3.0,50.0,10000.0,99999,8.0,0j,0.0,1116080503100002140301504000051000600007000088000
3109,ENSR,69.7867965698,20.959400177,2024-03-12 00:20:00,,,,,1.0,1016.0,(1630.919616465066+0j),-1.0,0.0,0.0,10000.0,99999,8.0,0j,0.0,1116080000100102110301604000051000600007000088000
3110,LIBD,41.1389007568,16.7605991364,2024-03-12 00:20:00,,,,,9.0,1009.0,(1774.286676260094+0j),6.0,6.0,200.0,10000.0,99999,,(766.786676260094+0j),,1116002006100902060300904000051000600007000080000
3111,LIBR,40.6576004028,17.9470005035,2024-03-12 00:20:00,,,,,12.0,1010.0,(1148.9739311504163+0j),9.0,9.0,220.0,10000.0,99999,,(140.77393115041627+0j),,1116002209101202090301004000051000600007000080000
3112,LIPH,45.648399353,12.1943998337,2024-03-12 00:20:00,,,,,10.0,1008.0,(1219.73030907591+0j),10.0,3.0,60.0,2800.0,99999,8.0,0j,0.0,11110806031010020100300804000051000600007000088000
3113,LIPZ,45.5052986145,12.3519001007,2024-03-12 00:20:00,42.0,36.0,K,yellow,8.0,1008.0,(1038.3311045064706+0j),8.0,2.0,280.0,6000.0,99999,,(31.93110450647066+0j),,1113002802100802080300804000051000600007420080000
3114,LOWL,48.2332000732,14.1875,2024-03-12 00:20:00,51.0,36.0,T,green,7.0,1010.0,(7818.194113724697+0j),6.0,8.0,230.0,10000.0,99999,4.0,(6814.994113724697+0j),,1116042308100702060301004000051000600007510084000
3115,LOWS,47.7933006287,13.0043001175,2024-03-12 00:20:00,,,,,7.0,1011.0,(10.726039370718398+0j),4.0,3.0,210.0,10000.0,99999,3.0,(-993.5739606292816+0j),,1116032103100702040301104000051000600007000083000
3116,LOWW,48.1102981567,16.5697002411,2024-03-12 00:20:00,61.0,36.0,^,green,8.0,1006.0,(4464.700174930458+0j),6.0,14.0,310.0,10000.0,99999,3.0,(3456.900174930458+0j),,1116033114100802060300604000051000600007610083000
3126,ENBL,61.3911018372,5.756939888,2024-03-12 00:20:00,,,,,2.0,1014.0,(20.56478429197265+0j),-7.0,0.0,0.0,10000.0,99999,7.0,0j,0.0,1116070000100202170301404000051000600007000087000
3127,ENHK,70.4867019653,22.1396999359,2024-03-12 00:20:00,,,,,2.0,1015.0,(1405.6011516236738+0j),-0.0,11.0,260.0,10000.0,99999,6.0,0j,0.0,1116062611100202100301504000051000600007000086000
3128,ENKB,63.1118011475,7.8245201111,2024-03-12 00:20:00,,,,,0.0,1015.0,(38.81427337645702+0j),-5.0,4.0,90.0,10000.0,99999,8.0,0j,0.0,1116080904100002150301504000051000600007000088000
3129,ENKR,69.7257995605,29.8913002014,2024-03-12 00:20:00,,,,,1.0,1013.0,(13.993269866110486+0j),-3.0,14.0,240.0,10000.0,99999,4.0,0j,0.0,1116042414100102130301304000051000600007000084000
3130,ENSG,61.1561012268,7.1377801895,2024-03-12 00:20:00,,,,,-2.0,1015.0,(1015+0j),-9.0,4.0,70.0,10000.0,99999,8.0,(-5.5+0j),,1116080704110202190301504000051000600007000088000
3131,ENSS,70.3554000854,31.0449008942,2024-03-12 00:20:00,,,,,1.0,1011.0,(2807.6665781118854+0j),-1.0,13.0,250.0,10000.0,99999,8.0,0j,0.0,1116082513100102110301104000051000600007000088000
3132,LICC,37.4668006897,15.0663995743,2024-03-12 00:20:00,,,,,10.0,1014.0,(1152.9147910652814+0j),6.0,6.0,280.0,10000.0,99999,,(141.11479106528145+0j),,1116002806101002060301404000051000600007000080000
3133,LIPQ,45.8274993896,13.4722003937,2024-03-12 00:20:00,,,,,9.0,1009.0,(1163.0421011297367+0j),8.0,5.0,110.0,10000.0,99999,4.0,0j,0.0,1116041105100902080300904000051000600007000084000
3134,LIPR,44.0203018188,12.611700058,2024-03-12 00:20:00,,,,,7.0,1009.0,(1214.017882473977+0j),5.0,3.0,260.0,10000.0,99999,,(207.0178824739769+0j),,1116002603100702050300904000051000600007000080000
3135,LOWK,46.6425018311,14.3376998901,2024-03-12 00:20:00,,,,,6.0,1008.0,(12.496875507543791+0j),5.0,4.0,280.0,10000.0,99999,3.0,(-992.0031244924562+0j),,1116032804100602050300804000051000600007000083000
3148,ESGT,58.3180999756,12.345000267,2024-03-12 00:20:00,,,,,-1.0,1017.0,(-21502462.02389157-22474652.574159365j),-2.0,12.0,40.0,10000.0,99999,1.0,0j,0.0,1116010412110102120301704000051000600007000081000
3149,ESNQ,67.8219985962,20.3367996216,2024-03-12 00:20:00,,,,,-10.0,1015.0,(-510950173350.99146-534051757236.48285j),-11.0,5.0,210.0,10000.0,99999,8.0,0j,0.0,11160821051110021110301504000051000600007000088000
3150,ESNU,63.7918014526,20.2828006744,2024-03-12 00:20:00,,,,,-3.0,1022.0,(759.7169216704542+0j),-5.0,8.0,220.0,10000.0,99999,3.0,(-265.08307832954574+0j),,1116032208110302150302204000051000600007000083000
3151,ESOE,59.2237014771,15.0380001068,2024-03-12 00:20:00,,,,,-2.0,1019.0,(-36.91886943745844-38.588081825964814j),-4.0,6.0,30.0,10000.0,99999,,0j,0.0,1116000306110202140301904000051000600007000080000
3152,ESOW,59.5894012451,16.633600235,2024-03-12 00:20:00,,,,,-3.0,1020.0,(789.0193814682426+0j),-5.0,9.0,10.0,10000.0,99999,,0j,0.0,1116000109110302150302004000051000600007000080000
3154,ESSP,58.5862998962,16.2506008148,2024-03-12 00:20:00,,,,,-3.0,1018.0,(677.6274176993145+0j),-4.0,4.0,30.0,10000.0,99999,,0j,0.0,1116000304110302140301804000051000600007000080000
3157,ENHF,70.6797027588,23.6686000824,2024-03-12 00:20:00,,,,,2.0,1013.0,(7504.805785915303+0j),-0.0,14.0,250.0,10000.0,99999,7.0,0j,0.0,1116072514100202100301304000051000600007000087000
3158,ENMS,65.783996582,13.2149000168,2024-03-12 00:20:00,,,,,-9.0,1019.0,(302.02656058485826+0j),-11.0,2.0,,10000.0,99999,,0j,0.0,11160036021109021110301904000051000600007000080000
3159,ENNM,64.4721984863,11.5785999298,2024-03-12 00:20:00,,,,,-3.0,1018.0,(938.2399522936347+0j),-8.0,11.0,80.0,10000.0,99999,,(-82.2600477063653+0j),,1116000811110302180301804000051000600007000080000
3160,ENRA,66.363899231,14.3014001846,2024-03-12 00:20:00,,,,,-12.0,1019.0,(456.6258600882269+0j),-13.0,0.0,0.0,10000.0,99999,,0j,0.0,11160000001112021130301904000051000600007000080000
3161,ENRS,67.5278015137,12.1033000946,2024-03-12 00:20:00,,,,,3.0,1017.0,(1099.4573115673982+0j),-0.0,5.0,80.0,10000.0,99999,3.0,0j,0.0,1116030805100302100301704000051000600007000083000
3163,ENSK,68.5788269043,15.033416748,2024-03-12 00:20:00,,,,,1.0,1018.0,(1429.6474213840963+0j),-1.0,3.0,360.0,10000.0,99999,8.0,0j,0.0,1116083603100102110301804000051000600007000088000
3164,ENVD,70.0652999878,29.8446998596,2024-03-12 00:20:00,,,,,1.0,1013.0,(7201.0502465595555+0j),-0.0,14.0,280.0,10000.0,99999,3.0,0j,0.0,1116032814100102100301304000051000600007000083000
3165,LGKO,36.7933006287,27.0916996002,2024-03-12 00:20:00,,,,,15.0,1019.0,(2139.0285158006036+0j),10.0,18.0,150.0,10000.0,99999,1.0,(1118.9285158006037+0j),,11160115181015020100301904000051000600007000081000
3166,LGSA,35.5317001343,24.1497001648,2024-03-12 00:20:00,,,,,16.0,1014.0,(2273.5484314174096+0j),5.0,6.0,160.0,10000.0,99999,1.0,(1257.5484314174096+0j),,1116011606101602050301404000051000600007000081000
3167,LGTS,40.5196990967,22.9708995819,2024-03-12 00:20:00,,,,,15.0,1011.0,(1062.209111333851+0j),12.0,8.0,110.0,10000.0,99999,1.0,(49.009111333851024+0j),,11160111081015020120301104000051000600007000081000
3171,LIMJ,44.4132995605,8.8374996185,2024-03-12 00:20:00,,,,,8.0,1010.0,(1066.7452825774242+0j),4.0,3.0,20.0,10000.0,99999,,(60.645282577424155+0j),,1116000203100802040301004000051000600007000080000
3172,LIML,45.445098877,9.2767400742,2024-03-12 00:20:00,,,,,7.0,1009.0,(3218.2513477943435+0j),6.0,1.0,,10000.0,99999,,(2211.4513477943437+0j),,1116003601100702060300904000051000600007000080000
3174,LIRF,41.8045005798,12.2508001328,2024-03-12 00:20:00,,,,,10.0,1010.0,(1062.3336043734419+0j),9.0,1.0,,10000.0,99999,3.0,(55.033604373441904+0j),,1116033601101002090301004000051000600007000083000
3175,LIRQ,43.8100013733,11.2051000595,2024-03-12 00:20:00,,,,,10.0,1009.0,(1545.5941047119227+0j),9.0,2.0,100.0,10000.0,99999,3.0,(538.6941047119227+0j),,1116031002101002090300904000051000600007000083000
3180,EDDF,50.0264015198,8.543129921,2024-03-12 00:20:00,,,,,5.0,1011.0,(4372.167440079175+0j),2.0,5.0,190.0,10000.0,99999,,(3368.1674400791753+0j),,1116001905100502020301104000051000600007000080000
3182,EDDH,53.6304016113,9.9882297516,2024-03-12 00:20:00,10.0,36.0,+,yellow,5.0,1009.0,(1401.2270422585086+0j),5.0,3.0,90.0,5000.0,99999,8.0,(392.0270422585086+0j),,1113080903100502050300904000051000600007100088000
3183,EDDK,50.8658981323,7.1427397728,2024-03-12 00:20:00,,,,,8.0,1010.0,(2599.6832312559336+0j),6.0,9.0,240.0,10000.0,99999,5.0,(1592.1832312559336+0j),,1116052409100802060301004000051000600007000085000
3184,EDDL,51.2895011902,6.7667798996,2024-03-12 00:20:00,,,,,7.0,1009.0,(1831.6702589914357+0j),7.0,7.0,210.0,6000.0,99999,5.0,(825.7702589914358+0j),,1113052107100702070300904000051000600007000085000
3185,EDDM,48.3538017273,11.7861003876,2024-03-12 00:20:00,,,,,6.0,1011.0,(12.645527208724895+0j),3.0,5.0,250.0,10000.0,99999,,(-997.9544727912752+0j),0.0,1116002505100602030301104000051000600007000080000
3186,EDDN,49.4986991882,11.0669002533,2024-03-12 00:20:00,,,,,3.0,1011.0,(16.141725065795622+0j),0.0,3.0,80.0,10000.0,99999,,(-987.9582749342044+0j),,1116000803100302000301104000051000600007000080000
3189,EDDS,48.6898994446,9.2219600677,2024-03-12 00:20:00,,,,,3.0,1012.0,(18.29616933780678+0j),1.0,4.0,240.0,10000.0,99999,,(-986.6038306621932+0j),,1116002404100302010301204000051000600007000080000
3190,EDDV,52.461101532,9.6850795746,2024-03-12 00:20:00,,,,,6.0,1009.0,(2256.575551429988+0j),4.0,3.0,90.0,10000.0,99999,3.0,(1249.075551429988+0j),,1116030903100602040300904000051000600007000083000
3191,EDDW,53.0475006104,8.7866697311,2024-03-12 00:20:00,,,,,6.0,1009.0,(1090.8086798146555+0j),4.0,3.0,160.0,10000.0,99999,3.0,(82.80867981465553+0j),,1116031603100602040300904000051000600007000083000
3201,EBLG,50.6374015808,5.4432201385,2024-03-12 00:20:00,,,,,6.0,1011.0,(6306.207863658561+0j),6.0,8.0,280.0,2000.0,99999,3.0,(5298.507863658561+0j),,1111032808100602060301104000051000600007000083000
3203,EDDB,52.362167,13.500667,2024-03-12 00:20:00,,,,,3.0,1010.0,(3300.3011106924537+0j),2.0,1.0,300.0,10000.0,99999,1.0,(2294.3011106924537+0j),,1116013001100302020301004000051000600007000081000
3204,EDDC,51.1328010559,13.76720047,2024-03-12 00:20:00,,,,,7.0,1010.0,(6197.639746011575+0j),3.0,1.0,,10000.0,99999,,(5191.039746011575+0j),,1116003601100702030301004000051000600007000080000
3205,EDDE,50.979801178,10.9581003189,2024-03-12 00:20:00,,,,,3.0,1010.0,(16.023704289034715+0j),1.0,7.0,200.0,10000.0,99999,,(-991.5762957109653+0j),,1116002007100302010301004000051000600007000080000
3206,EDDG,52.134601593,7.6848301888,2024-03-12 00:20:00,,,,,8.0,1009.0,(1788.5761296694502+0j),7.0,4.0,170.0,10000.0,99999,5.0,(780.9761296694502+0j),,1116051704100802070300904000051000600007000085000
3207,EDDP,51.4323997498,12.2416000366,2024-03-12 00:20:00,,,,,5.0,1010.0,(5423.6578752192545+0j),3.0,4.0,170.0,10000.0,99999,,(4416.6578752192545+0j),,1116001704100502030301004000051000600007000080000
3208,EDDR,49.2145996094,7.1095099449,2024-03-12 00:20:00,,,,,7.0,1012.0,(8397.365645041631+0j),4.0,7.0,210.0,10000.0,99999,4.0,(7392.365645041631+0j),,1116042107100702040301204000051000600007000084000
3209,EDHI,53.5352783203,9.8355560303,2024-03-12 00:20:00,,,,,7.0,1009.0,(1124.9670170520599+0j),6.0,3.0,90.0,6000.0,99999,8.0,0j,0.0,1113080903100702060300904000051000600007000088000
3210,EDLN,51.2302780151,6.5044441223,2024-03-12 00:20:00,,,,,8.0,1009.0,(1604.146713245544+0j),7.0,5.0,240.0,5000.0,99999,5.0,(595.3467132455442+0j),,1113052405100802070300904000051000600007000085000
3216,EBOS,51.1988983154,2.8622200489,2024-03-12 00:20:00,,,,,8.0,1012.0,(1068.8576494736171+0j),5.0,12.0,290.0,10000.0,99999,7.0,(59.657649473617084+0j),,1116072912100802050301204000051000600007000087000
3222,EDLP,51.6141014099,8.6163196564,2024-03-12 00:20:00,,,,,7.0,1009.0,(5776.003244988937+0j),4.0,5.0,170.0,10000.0,99999,6.0,(4768.203244988937+0j),,1116061705100702040300904000051000600007000086000
3232,EBAW,51.1893997192,4.4602799416,2024-03-12 00:20:00,,,,,7.0,1011.0,(1211.099490809889+0j),6.0,10.0,270.0,4500.0,99999,4.0,(202.69949080988897+0j),,1112042710100702060301104000051000600007000084000
3236,EGPK,55.5093994141,-4.5866699219,2024-03-12 00:20:00,,,,,7.0,1008.0,(1348.509722705716+0j),3.0,9.0,130.0,10000.0,99999,8.0,(332.7097227057161+0j),,1116081309100702030300804000051000600007000088000
3238,EGPU,56.4991989136,-6.8691701889,2024-03-12 00:20:00,61.0,36.0,^,green,7.0,1006.0,(1199.820786376416+0j),6.0,11.0,130.0,10000.0,99999,8.0,(184.02078637641603+0j),,1116081311100702060300604000051000600007610088000
3239,EKAH,56.2999992371,10.6190004349,2024-03-12 00:20:00,,,,,4.0,1013.0,(1817.2568778901518+0j),1.0,8.0,90.0,10000.0,99999,8.0,(802.0568778901518+0j),,1116080908100402010301304000051000600007000088000
3240,EKKA,56.2975006104,9.1246299744,2024-03-12 00:20:00,,,,,4.0,1012.0,(2834.8654378366487+0j),1.0,10.0,80.0,10000.0,99999,8.0,(1819.7654378366487+0j),,1116080810100402010301204000051000600007000088000
3241,EKYT,57.0927589138,9.8492431641,2024-03-12 00:20:00,,,,,4.0,1014.0,(1102.1896059783005+0j),1.0,10.0,90.0,10000.0,99999,7.0,(85.38960597830055+0j),,1116070910100402010301404000051000600007000087000
3242,ENAN,69.2925033569,16.1441993713,2024-03-12 00:20:00,61.0,36.0,^,green,1.0,1018.0,(2876.285941637796+0j),-0.0,3.0,240.0,10000.0,99999,3.0,0j,0.0,1116032403100102100301804000051000600007610083000
3243,ENBO,67.269203186,14.3653001785,2024-03-12 00:20:00,,,,,-4.0,1018.0,(682.4499062007528+0j),-8.0,7.0,100.0,10000.0,99999,,(-339.85009379924713+0j),,1116001007110402180301804000051000600007000080000
3244,ENGM,60.193901062,11.100399971,2024-03-12 00:20:00,,,,,-7.0,1019.0,(-125.29535278591182-130.9603300259873j),-9.0,5.0,360.0,10000.0,99999,,0j,0.0,1116003605110702190301904000051000600007000080000
3245,ENOL,63.6988983154,9.6040000916,2024-03-12 00:20:00,,,,,0.0,1016.0,(38.852514039882095+0j),-6.0,7.0,110.0,10000.0,99999,,(-982.5474859601179+0j),,1116001107100002160301604000051000600007000080000
3246,ENSH,68.2433013916,14.6691999435,2024-03-12 00:20:00,,,,,1.0,1018.0,(2115.6543631036843+0j),-3.0,4.0,350.0,10000.0,99999,8.0,0j,0.0,1116083504100102130301804000051000600007000088000
3247,ENTC,69.6832962036,18.9188995361,2024-03-12 00:20:00,,,,,1.0,1017.0,(2297.722853789109+0j),-0.0,3.0,,10000.0,99999,4.0,(1276.1228537891093+0j),,1116043603100102100301704000051000600007000084000
3248,ESSA,59.6519012451,17.9186000824,2024-03-12 00:20:00,,,,,-3.0,1019.0,(57.02632520321274+0j),-4.0,7.0,70.0,10000.0,99999,,(-966.3736747967872+0j),,1116000707110302140301904000051000600007000080000
3252,EDFM,49.4730567932,8.514166832,2024-03-12 00:20:00,,,,,6.0,1012.0,(3273.273235608464+0j),3.0,4.0,140.0,10000.0,99999,,0j,0.0,1116001404100602030301204000051000600007000080000
3270,ENBN,65.4610977173,12.217499733,2024-03-12 00:20:00,,,,,-3.0,1018.0,(746.6277721232648+0j),-7.0,2.0,200.0,10000.0,99999,,0j,0.0,1116002002110302170301804000051000600007000080000
3271,ENBV,70.8713989258,29.0342006683,2024-03-12 00:20:00,,,,,2.0,1011.0,(1835.3009235285842+0j),-0.0,19.0,280.0,10000.0,99999,2.0,0j,0.0,1116022819100202100301104000051000600007000082000
3272,ENRM,64.8383026123,11.1461000443,2024-03-12 00:20:00,,,,,-3.0,1017.0,(860.5170828173339+0j),-7.0,4.0,90.0,10000.0,99999,,0j,0.0,1116000904110302170301704000051000600007000080000
3282,LGKL,37.0682983398,22.0254993439,2024-03-12 00:20:00,,,,,16.0,1015.0,(1072.0261998179064+0j),15.0,10.0,170.0,10000.0,99999,3.0,(55.8261998179064+0j),,11160317101016020150301504000051000600007000083000
3284,LIEA,40.6320991516,8.290769577,2024-03-12 00:20:00,,,,,13.0,1014.0,(1256.847174095326+0j),8.0,10.0,300.0,10000.0,99999,3.0,0j,0.0,1116033010101302080301404000051000600007000083000
3285,LIEO,40.8987007141,9.5176296234,2024-03-12 00:20:00,80.0,36.0,q,green,11.0,1012.0,(1131.1342573568597+0j),9.0,9.0,270.0,10000.0,99999,3.0,(122.73425735685976+0j),,1116032709101102090301204000051000600007800083000
3286,LIMC,45.6305999756,8.7281103134,2024-03-12 00:20:00,41.0,36.0,J,yellow,3.0,1009.0,(12.936814954380061+0j),1.0,4.0,30.0,10000.0,99999,,(-995.8631850456198+0j),0.0,1116000304100302010300904000051000600007410080000
3287,LIME,45.6739006042,9.7041702271,2024-03-12 00:20:00,,,,,7.0,1009.0,(6390.860079421081+0j),4.0,2.0,,10000.0,99999,,(5381.660079421081+0j),0.0,1116003602100702040300904000051000600007000080000
3288,LIMF,45.2008018494,7.6496300697,2024-03-12 00:20:00,,,,,7.0,1010.0,(7896.212498137806+0j),1.0,4.0,310.0,10000.0,99999,,(6887.012498137806+0j),0.0,1116003104100702010301004000051000600007000080000
3289,LIRA,41.7994003296,12.5949001312,2024-03-12 00:20:00,,,,,10.0,1010.0,(2839.025277897012+0j),9.0,3.0,130.0,10000.0,99999,6.0,(1831.9252778970122+0j),,1116061303101002090301004000051000600007000086000
3291,EBBR,50.9014015198,4.4844398499,2024-03-12 00:20:00,51.0,36.0,T,green,7.0,1011.0,(2068.8883862849016+0j),6.0,10.0,270.0,5000.0,99999,6.0,(1060.4883862849015+0j),,1113062710100702060301104000051000600007510086000
3292,EBCI,50.4592018127,4.4538202286,2024-03-12 00:20:00,,,,,6.0,1012.0,(5922.420188047113+0j),5.0,6.0,280.0,4500.0,99999,3.0,(4914.220188047113+0j),,1112032806100602050301204000051000600007000083000
3293,EDAC,50.9819450378,12.5063886642,2024-03-12 00:20:00,,,,,3.0,1011.0,(11.234432901156314+0j),1.0,3.0,140.0,10000.0,99999,1.0,0j,0.0,1116011403100302010301104000051000600007000081000
3294,EDAH,53.8787002563,14.152299881,2024-03-12 00:20:00,,,,,6.0,1010.0,(1600.5643906764076+0j),5.0,4.0,90.0,5000.0,99999,8.0,0j,0.0,1113080904100602050301004000051000600007000088000
3295,EDFH,49.9486999512,7.2638897896,2024-03-12 00:20:00,,,,,6.0,1010.0,(13.655776972193916+0j),4.0,8.0,250.0,10000.0,99999,6.0,(-990.5442230278061+0j),,1116062508100602040301004000051000600007000086000
3296,EDHK,54.3794441223,10.145277977,2024-03-12 00:20:00,,,,,4.0,1010.0,(2031.6095798618858+0j),4.0,9.0,90.0,2200.0,99999,8.0,(1025.0095798618859+0j),0.0,1111080909100402040301004000051000600007000088000
3297,EDHL,53.8054008484,10.7192001343,2024-03-12 00:20:00,,,,,5.0,1010.0,(1402.6157707443942+0j),4.0,2.0,,400.0,99999,5.0,(393.0157707443942+0j),,1110053602100502040301004000051000600007000085000
3298,EDLW,51.5182991028,7.6122398377,2024-03-12 00:20:00,,,,,8.0,1008.0,(3350.3116835537626+0j),6.0,10.0,210.0,10000.0,99999,5.0,(2341.7116835537627+0j),,1116052110100802060300804000051000600007000085000
3299,EDMA,48.42527771,10.9316673279,2024-03-12 00:20:00,,,,,3.0,1012.0,(20.156141750045666+0j),2.0,3.0,150.0,10000.0,99999,3.0,(-984.4438582499544+0j),,1116031503100302020301204000051000600007000083000
3300,EDMO,48.081401825,11.2831001282,2024-03-12 00:20:00,,,,,3.0,1012.0,(22.790513212798682+0j),1.0,7.0,230.0,10000.0,99999,4.0,0j,0.0,1116042307100302010301204000051000600007000084000
3301,EDNY,47.6712989807,9.5114898682,2024-03-12 00:20:00,,,,,6.0,1014.0,(11.877070129624972+0j),5.0,6.0,260.0,10000.0,99999,3.0,(-994.022929870375+0j),,1116032606100602050301404000051000600007000083000
3303,EDSB,48.7793998718,8.0804996491,2024-03-12 00:20:00,,,,,5.0,1013.0,(4841.510006298977+0j),3.0,6.0,210.0,10000.0,99999,1.0,0j,0.0,1116012106100502030301304000051000600007000081000
3304,EDTL,48.3693008423,7.8277201653,2024-03-12 00:20:00,,,,,7.0,1013.0,(4391.258574110497+0j),3.0,5.0,170.0,10000.0,99999,,(3386.558574110497+0j),,1116001705100702030301304000051000600007000080000
3306,EDVK,51.4083328247,9.3774995804,2024-03-12 00:20:00,,,,,5.0,1009.0,(9.820352225930877+0j),2.0,6.0,160.0,10000.0,99999,,0j,0.0,1116001606100502020300904000051000600007000080000
3307,EDXW,54.9132003784,8.340470314,2024-03-12 00:20:00,,,,,4.0,1010.0,(1488.2947950391974+0j),3.0,12.0,100.0,6000.0,99999,8.0,(476.49479503919747+0j),,1113081012100402030301004000051000600007000088000
3308,ELLX,49.6265983582,6.211520195,2024-03-12 00:20:00,,,,,6.0,1011.0,(10.904644436244066+0j),5.0,7.0,220.0,2000.0,99999,7.0,(-994.9953555637559+0j),,1111072207100602050301104000051000600007000087000
3318,LIPY,43.6162986755,13.3622999191,2024-03-12 00:20:00,,,,,9.0,1009.0,(1203.987746723202+0j),9.0,1.0,,10000.0,99999,6.0,(196.08774672320203+0j),,1116063601100902090300904000051000600007000086000
3320,LIBP,42.4317016602,14.1810998917,2024-03-12 00:20:00,,,,,8.0,1009.0,(1224.6743699278738+0j),8.0,5.0,210.0,10000.0,99999,3.0,(218.57436992787382+0j),,1116032105100802080300904000051000600007000083000
3321,LICA,38.9053993225,16.2423000336,2024-03-12 00:20:00,61.0,36.0,^,green,9.0,1013.0,(1167.6527734830756+0j),7.0,2.0,,10000.0,99999,8.0,(156.85277348307568+0j),,1116083602100902070301304000051000600007610088000
3322,LICR,38.0712013245,15.651599884,2024-03-12 00:20:00,,,,,13.0,1013.0,(1281.9023950454812+0j),8.0,6.0,50.0,10000.0,99999,,(270.30239504548115+0j),,1116000506101302080301304000051000600007000080000
3323,LICD,35.4978981018,12.6181001663,2024-03-12 00:20:00,61.0,36.0,^,green,15.0,1018.0,(1185.7484870491162+0j),10.0,6.0,290.0,10000.0,99999,6.0,0j,0.0,11160629061015020100301804000051000600007610086000
3324,LIRZ,43.0959014893,12.5131998062,2024-03-12 00:20:00,,,,,8.0,1010.0,(5116.274479478281+0j),8.0,4.0,130.0,10000.0,99999,8.0,(4108.174479478281+0j),,1116081304100802080301004000051000600007000088000
3328,EHLE,52.4603004456,5.5272197723,2024-03-12 00:25:00,10.0,36.0,+,yellow,7.0,1008.0,(944.9125996046023+0j),7.0,4.0,230.0,2500.0,99999,5.0,0j,0.0,1111052304100702070300804000051000600007100085000
3330,LSZL,46.1608009338,8.8786096573,2024-03-12 00:20:00,,,,,3.0,1010.0,(11.364710066094624+0j),2.0,0.0,0.0,10000.0,99999,,(-995.7352899339054+0j),,1116000000100302020301004000051000600007000080000
3343,LSMA,46.943901062,8.2841701508,2024-03-12 00:20:00,,,,,6.0,1015.0,(12.517470111830255+0j),5.0,1.0,,10000.0,99999,5.0,0j,0.0,1116053601100602050301504000051000600007000085000
3344,LSMD,47.398601532,8.648229599,2024-03-12 00:20:00,,,,,6.0,1014.0,(12.57126167127917+0j),4.0,1.0,150.0,10000.0,99999,4.0,0j,0.0,1116041501100602040301404000051000600007000084000
3345,LSME,47.0923995972,8.3051204681,2024-03-12 00:20:00,,,,,6.0,1015.0,(12.114595315064367+0j),5.0,0.0,0.0,10000.0,99999,3.0,0j,0.0,1116030000100602050301504000051000600007000083000
3346,LSMM,46.7433013916,8.1099996567,2024-03-12 00:20:00,80.0,36.0,q,green,5.0,1015.0,(17.10157887476321+0j),5.0,1.0,,10000.0,99999,6.0,0j,0.0,1116063601100502050301504000051000600007800086000
3347,EDQM,50.2886123657,11.8563890457,2024-03-12 00:20:00,,,,,3.0,1010.0,(22.80835908493663+0j),0.0,2.0,250.0,10000.0,99999,,(-980.8916409150634+0j),,1116002502100302000301004000051000600007000080000
3348,EDVE,52.3191986084,10.5560998917,2024-03-12 00:20:00,,,,,7.0,1010.0,(2811.8485627809964+0j),4.0,3.0,90.0,10000.0,99999,,(1804.3485627809964+0j),,1116000903100702040301004000051000600007000080000
3353,ESKM,60.957901001,14.5114002228,2024-03-12 00:20:00,,,,,-9.0,1020.0,(0.057205429199807194+0j),-10.0,4.0,340.0,10000.0,99999,,0j,0.0,11160034041109021100302004000051000600007000080000
3364,ETSN,48.7109985352,11.2115001678,2024-03-12 00:20:00,,,,,5.0,1011.0,(12.722435570480435+0j),3.0,3.0,200.0,10000.0,99999,3.0,(-991.4775644295196+0j),,1116032003100502030301104000051000600007000083000
3368,ETNL,53.9182014465,12.2783002853,2024-03-12 00:20:00,45.0,36.0,N,yellow,4.0,1010.0,(2445.340537594455+0j),4.0,6.0,80.0,350.0,99999,,(1435.740537594455+0j),,1110000806100402040301004000051000600007450080000
3410,EYSA,55.893901825,23.3950004578,2024-03-12 00:20:00,,,,,0.0,1019.0,(38.967236030157345+0j),-7.0,8.0,100.0,10000.0,99999,,0j,0.0,1116001008100002170301904000051000600007000080000
3419,EGAA,54.6575012207,-6.2158298492,2024-03-12 00:20:00,51.0,36.0,T,green,7.0,1005.0,(2612.3501724879425+0j),6.0,5.0,120.0,6000.0,99999,3.0,(1597.0501724879425+0j),,1113031205100702060300504000051000600007510083000
3420,EGGD,51.3827018738,-2.7190899849,2024-03-12 00:20:00,61.0,36.0,^,green,7.0,1012.0,(5217.238198393448+0j),5.0,6.0,220.0,8000.0,99999,,0j,0.0,1114002206100702050301204000051000600007610080000
3421,EGGW,51.8746986389,-0.3683330119,2024-03-12 00:20:00,10.0,36.0,+,yellow,5.0,1012.0,(6071.772639614463+0j),5.0,3.0,220.0,4700.0,99999,6.0,0j,0.0,1112062203100502050301204000051000600007100086000
3422,EGJB,49.4350013733,-2.6019699574,2024-03-12 00:20:00,,,,,9.0,1015.0,(2592.536030346366+0j),8.0,10.0,250.0,10000.0,99999,1.0,(1583.1360303463657+0j),,1116012510100902080301504000051000600007000081000
3423,EGJJ,49.207901001,-2.1955099106,2024-03-12 00:20:00,,,,,9.0,1015.0,(2282.8805946881994+0j),8.0,9.0,230.0,10000.0,99999,3.0,(1274.0805946881994+0j),,1116032309100902080301504000051000600007000083000
3424,EGKK,51.1481018066,-0.1902779937,2024-03-12 00:20:00,,,,,7.0,1013.0,(2189.878075734507+0j),6.0,2.0,180.0,8000.0,99999,6.0,(1180.478075734507+0j),,1114061802100702060301304000051000600007000086000
3425,EGMD,50.9561004639,0.9391670227,2024-03-12 00:20:00,,,,,8.0,1013.0,(1069.9138329217135+0j),7.0,5.0,270.0,6000.0,99999,8.0,0j,0.0,1113082705100802070301304000051000600007000088000
3426,EGNJ,53.5744018555,-0.3508329988,2024-03-12 00:20:00,,,,,6.0,1011.0,(1799.2944930122599+0j),5.0,3.0,220.0,7000.0,99999,7.0,0j,0.0,1114072203100602050301104000051000600007000087000
3427,EGPC,58.4589004517,-3.0930600166,2024-03-12 00:20:00,,,,,6.0,1009.0,(1831.6702589914357+0j),4.0,13.0,130.0,10000.0,99999,8.0,(814.5702589914357+0j),,1116081313100602040300904000051000600007000088000
3428,EGPD,57.2019004822,-2.1977798939,2024-03-12 00:20:00,,,,,5.0,1010.0,(2853.6825157703083+0j),4.0,4.0,160.0,7000.0,99999,7.0,(1836.4825157703083+0j),,1114071604100502040301004000051000600007000087000
3429,EGPH,55.9500007629,-3.3724999428,2024-03-12 00:20:00,,,,,5.0,1009.0,(2096.9501496774237+0j),4.0,4.0,110.0,10000.0,99999,8.0,(1080.3501496774238+0j),,1116081104100502040300904000051000600007000088000
3430,EGPO,58.2155990601,-6.3311100006,2024-03-12 00:20:00,61.0,36.0,^,green,6.0,1007.0,(1160.7367649530672+0j),4.0,10.0,170.0,10000.0,99999,7.0,(143.93676495306727+0j),,1116071710100602040300704000051000600007610087000
3431,EGSH,52.6758003235,1.2827800512,2024-03-12 00:20:00,,,,,6.0,1012.0,(1772.4104049748232+0j),5.0,6.0,270.0,10000.0,99999,8.0,(761.1104049748233+0j),,1116082706100602050301204000051000600007000088000
3440,LIRN,40.8860015869,14.2908000946,2024-03-12 00:20:00,,,,,10.0,1011.0,(2210.4200119945704+0j),8.0,2.0,,10000.0,99999,3.0,(1201.8200119945705+0j),,1116033602101002080301104000051000600007000083000
3469,LBGO,43.1514015198,25.7129001617,2024-03-12 00:30:00,,,,,14.0,1010.0,(1805.7160591203+0j),7.0,5.0,130.0,10000.0,99999,8.0,(794.5160591203+0j),0.1,1116081305101402070301004000051000600107000088000
3476,EHAM,52.3086013794,4.7638897896,2024-03-12 00:25:00,10.0,36.0,+,yellow,7.0,1009.0,(955.4497321123935+0j),7.0,4.0,290.0,4500.0,99999,3.0,(-54.15026788760656+0j),,1112032904100702070300904000051000600007100083000
3477,EHBK,50.9117012024,5.7701401711,2024-03-12 00:25:00,10.0,36.0,+,yellow,7.0,1010.0,(3379.4871452969364+0j),6.0,6.0,250.0,2600.0,99999,3.0,(2371.9871452969364+0j),,1111032506100702060301004000051000600007100083000
3479,EHRD,51.9569015503,4.4372200966,2024-03-12 00:25:00,10.0,36.0,+,yellow,7.0,1009.0,(936.2928301370905+0j),6.0,9.0,290.0,4200.0,99999,5.0,(-72.90716986290954+0j),,1112052909100702060300904000051000600007100085000
3480,ETHB,52.2784996033,9.0821695328,2024-03-12 00:20:00,,,,,7.0,1009.0,(2365.906306865763+0j),5.0,2.0,150.0,10000.0,99999,3.0,(1358.4063068657629+0j),,1116031502100702050300904000051000600007000083000
3481,ETHC,52.5912017822,10.0221004486,2024-03-12 00:20:00,,,,,6.0,1009.0,(1853.3425249082752+0j),4.0,2.0,110.0,10000.0,99999,1.0,(845.8425249082752+0j),,1116011102100602040300904000051000600007000081000
3482,ETHF,51.1146,9.286,2024-03-12 00:20:00,,,,,3.0,1010.0,(18.828579814756097+0j),1.0,5.0,210.0,10000.0,99999,,(-987.7714201852439+0j),,1116002105100302010301004000051000600007000080000
3483,ETHL,48.2202987671,9.9100198746,2024-03-12 00:20:00,,,,,4.0,1012.0,(18.69974786209586+0j),2.0,5.0,230.0,10000.0,99999,2.0,(-986.3002521379042+0j),,1116022305100402020301204000051000600007000082000
3484,ETHN,49.3919448853,9.9588890076,2024-03-12 00:20:00,,,,,6.0,1011.0,(11.648720701455018+0j),2.0,6.0,250.0,10000.0,99999,1.0,(-992.851279298545+0j),,1116012506100602020301104000051000600007000081000
3485,ETMN,53.7677001953,8.6584997177,2024-03-12 00:20:00,10.0,36.0,+,yellow,5.0,1009.0,(1561.951595089812+0j),5.0,5.0,100.0,4000.0,99999,8.0,(552.2515950898119+0j),,1112081005100502050300904000051000600007100088000
3486,ETNW,52.4572982788,9.4271697998,2024-03-12 00:20:00,,,,,8.0,1009.0,(1935.3374645169363+0j),5.0,4.0,180.0,10000.0,99999,3.0,(927.7374645169363+0j),,1116031804100802050300904000051000600007000083000
3488,ETSL,48.1855010986,10.8612003326,2024-03-12 00:20:00,,,,,4.0,1012.0,(19.037318402345743+0j),2.0,6.0,210.0,10000.0,99999,4.0,(-985.5626815976543+0j),,1116042106100402020301204000051000600007000084000
3499,LFCK,43.5563011169,2.2891800404,2024-03-12 00:30:00,,,,,8.0,1021.0,(5773.150010322254+0j),7.0,10.0,300.0,10000.0,99999,8.0,0j,0.0,1116083010100802070302104000051000600007000088000
3500,LFLP,45.9291992188,6.098760128,2024-03-12 00:30:00,,,,,3.0,1016.0,(20.271280220044464+0j),2.0,4.0,10.0,10000.0,99999,1.0,0j,0.0,1116010104100302020301604000051000600007000081000
3504,LFQA,49.2086982727,4.1565799713,2024-03-12 00:30:00,10.0,36.0,+,yellow,8.0,1013.0,(2673.592225791226+0j),7.0,6.0,270.0,5000.0,99999,8.0,(1661.7922257912262+0j),0.2,1113082706100802070301304000051000600207100088000
3560,LFJR,47.5602989197,-0.3122220039,2024-03-12 00:30:00,,,,,7.0,1018.0,(2148.243516715027+0j),6.0,4.0,240.0,10000.0,99999,,0j,0.0,1116002404100702060301804000051000600007000080000
3562,EPBY,53.0968017578,17.9776992798,2024-03-12 00:30:00,,,,,5.0,1011.0,(3053.6315133780163+0j),4.0,4.0,90.0,4700.0,99999,8.0,0j,0.0,1112080904100502040301104000051000600007000088000
3566,EPRA,51.388833,21.211667,2024-03-12 00:30:00,,,,,6.0,1010.0,(5988.749760916429+0j),5.0,9.0,120.0,10000.0,99999,8.0,0j,0.0,1116081209100602050301004000051000600007000088000
3568,EPSY,53.481944,20.937778,2024-03-12 00:30:00,,,,,4.0,1013.0,(6637.679341718345+0j),-1.0,6.0,110.0,10000.0,99999,8.0,0j,0.0,1116081106100402110301304000051000600007000088000
3578,LHKE,46.9174995422,19.7492008209,2024-03-12 00:15:00,,,,,8.0,1006.0,(3038.529478198105+0j),7.0,5.0,170.0,10000.0,99999,,(2033.7294781981052+0j),,1116001705100802070300604000051000600007000080000
3579,LHPA,47.3636016846,17.5007991791,2024-03-12 00:15:00,,,,,8.0,1005.0,(3599.0791048823344+0j),7.0,18.0,330.0,10000.0,99999,6.0,(2593.2791048823347+0j),,1116063318100802070300504000051000600007000086000
3581,LHPR,47.6244010925,17.8136005402,2024-03-12 00:15:00,80.0,36.0,q,green,9.0,1004.0,(3037.964061110803+0j),9.0,3.0,40.0,9000.0,99999,5.0,0j,0.0,1115050403100902090300404000051000600007800085000
3582,LHSM,46.6864013672,17.1590995789,2024-03-12 00:15:00,80.0,36.0,q,green,8.0,1004.0,(3230.7709855413405+0j),6.0,13.0,360.0,10000.0,99999,8.0,0j,0.0,1116083613100802060300404000051000600007800088000
3584,EGVN,51.75,-1.5836199522,2024-03-12 00:20:00,,,,,7.0,1012.0,(2768.687480248581+0j),5.0,3.0,200.0,10000.0,99999,6.0,(1757.9874802485808+0j),,1116062003100702050301204000051000600007000086000
3586,EHGG,53.1197013855,6.5794401169,2024-03-12 00:25:00,10.0,36.0,+,yellow,7.0,1008.0,(1093.1203352096309+0j),7.0,4.0,170.0,3500.0,99999,8.0,(83.02033520963084+0j),,1112081704100702070300804000051000600007100088000
3606,ETSH,51.7677993774,13.1676998138,2024-03-12 00:20:00,,,,,4.0,1010.0,(4028.0015473326166+0j),3.0,1.0,330.0,10000.0,99999,3.0,(3020.7015473326164+0j),,1116033301100402030301004000051000600007000083000
3646,EGXV,53.8758010864,-0.4350000024,2024-03-12 00:20:00,10.0,36.0,+,yellow,6.0,1010.0,(1225.8881205422722+0j),5.0,2.0,230.0,7000.0,99999,8.0,0j,0.0,1114082302100602050301004000051000600007100088000
3671,LFYR,47.3208007813,1.6888899803,2024-03-12 00:30:00,,,,,9.0,1017.0,(2349.6342160330687+0j),7.0,4.0,260.0,10000.0,99999,,0j,0.0,1116002604100902070301704000051000600007000080000
3719,LFRL,48.2817001343,-4.4450201988,2024-03-12 00:30:00,,,,,10.0,1017.0,(2191.2996768693597+0j),9.0,9.0,220.0,10000.0,99999,4.0,0j,0.0,1116042209101002090301704000051000600007000084000
3723,LYBT,44.935299,20.2575,2024-03-12 00:30:00,,,,,6.0,1008.0,(2905.0726340909505+0j),4.0,6.0,120.0,10000.0,99999,,0j,0.0,1116001206100602040300804000051000600007000080000
3724,LYKV,43.818298,20.5872,2024-03-12 00:30:00,,,,,6.0,1009.0,(6525.796338443435+0j),6.0,2.0,,10000.0,99999,,(5516.796338443435+0j),0.0,1116003602100602060300904000051000600007000080000
3728,LYVR,45.1469,21.3099,2024-03-12 00:30:00,,,,,11.0,1008.0,(2009.351349297971+0j),7.0,15.0,140.0,10000.0,99999,,0j,0.0,1116001415101102070300804000051000600007000080000
3740,EKBI,55.7402992249,9.1517801285,2024-03-12 00:20:00,,,,,3.0,1011.0,(4870.346694941113+0j),2.0,12.0,80.0,10000.0,99999,8.0,(3855.746694941113+0j),,1116080812100302020301104000051000600007000088000
3781,EPLL,51.7219009399,19.3980998993,2024-03-12 00:30:00,,,,,6.0,1009.0,(5818.15257965787+0j),5.0,7.0,100.0,6000.0,99999,8.0,(4810.95257965787+0j),,1113081007100602050300904000051000600007000088000
3782,EPWR,51.1026992798,16.885799408,2024-03-12 00:30:00,,,,,10.0,1009.0,(2724.512655244515+0j),8.0,3.0,360.0,10000.0,99999,3.0,(1717.6126552445148+0j),,1116033603101002080300904000051000600007000083000
3783,LFBE,44.8252983093,0.5186110139,2024-03-12 00:30:00,,,,,7.0,1021.0,(2005.4695258737386+0j),6.0,3.0,250.0,10000.0,99999,3.0,0j,0.0,1116032503100702060302104000051000600007000083000
3784,LFBG,45.6582984924,-0.3174999952,2024-03-12 00:30:00,,,,,9.0,1020.0,(1445.801534209561+0j),7.0,6.0,250.0,10000.0,99999,4.0,0j,0.0,1116042506100902070302004000051000600007000084000
3785,LFCR,44.4079017639,2.4826700687,2024-03-12 00:30:00,,,,,5.0,1019.0,(17.254403134390863+0j),4.0,8.0,290.0,10000.0,99999,8.0,0j,0.0,1116082908100502040301904000051000600007000088000
3787,LFMK,43.2159996033,2.306319952,2024-03-12 00:30:00,,,,,9.0,1020.0,(3136.529413302816+0j),6.0,10.0,280.0,10000.0,99999,6.0,(2117.029413302816+0j),0.1,1116062810100902060302004000051000600107000086000
3789,LFMU,43.3235015869,3.3538999557,2024-03-12 00:30:00,,,,,10.0,1019.0,(1221.7554941941826+0j),5.0,9.0,280.0,10000.0,99999,,0j,0.0,1116002809101002050301904000051000600007000080000
3790,LHDC,47.488899231,21.6152992249,2024-03-12 00:15:00,80.0,36.0,q,green,11.0,1008.0,(2353.2720194280555+0j),9.0,5.0,80.0,10000.0,99999,6.0,(1347.5720194280555+0j),,1116060805101102090300804000051000600007800086000
3791,LHPP,45.9908981323,18.2409992218,2024-03-12 00:15:00,,,,,8.0,1006.0,(7050.15977418465+0j),5.0,7.0,200.0,10000.0,99999,7.0,(6045.5597741846495+0j),,1116072007100802050300604000051000600007000087000
3792,LHSN,47.1228981018,20.2355003357,2024-03-12 00:15:00,80.0,36.0,q,green,10.0,1006.0,(2328.3417313595937+0j),7.0,9.0,170.0,10000.0,99999,,0j,0.0,1116001709101002070300604000051000600007800080000
3793,LKCV,49.9397010803,15.3817996979,2024-03-12 00:30:00,61.0,36.0,^,green,8.0,1008.0,(5738.68501451518+0j),6.0,2.0,280.0,10000.0,99999,,(4733.48501451518+0j),,1116002802100802060300804000051000600007610080000
3794,LKNA,49.1657981873,16.1249008179,2024-03-12 00:30:00,61.0,36.0,^,green,7.0,1006.0,(11.507059637106458+0j),5.0,8.0,330.0,10000.0,99999,8.0,(-993.4929403628936+0j),,1116083308100702050300604000051000600007610088000
3795,LKPD,50.0134010315,15.7385997772,2024-03-12 00:30:00,61.0,36.0,^,green,9.0,1008.0,(4855.894627597075+0j),7.0,4.0,280.0,10000.0,99999,8.0,(3850.694627597075+0j),,1116082804100902070300804000051000600007610088000
3799,LZPP,48.6251983643,17.8283996582,2024-03-12 00:30:00,,,,,10.0,1005.0,(3409.461582446286+0j),9.0,5.0,340.0,10000.0,99999,8.0,0j,0.0,1116083405101002090300504000051000600007000088000
3800,LZZI,49.2314987183,18.6135005951,2024-03-12 00:30:00,,,,,8.0,1006.0,(7176.528325098647+0j),8.0,1.0,150.0,9000.0,99999,3.0,0j,0.0,1115031501100802080300604000051000600007000083000
3801,LFOV,48.0313987732,-0.7429860234,2024-03-12 00:30:00,,,,,7.0,1017.0,(3078.885265399299+0j),6.0,8.0,260.0,10000.0,99999,,0j,0.0,1116002608100702060301704000051000600007000080000
3804,LFRV,47.7233009338,-2.7185599804,2024-03-12 00:30:00,,,,,8.0,1017.0,(3513.9568386075384+0j),7.0,3.0,,10000.0,99999,,0j,0.0,1116003603100802070301704000051000600007000080000
3810,LFAQ,49.9715003967,2.6976599693,2024-03-12 00:30:00,10.0,36.0,+,yellow,7.0,1013.0,(3310.103985278669+0j),6.0,6.0,280.0,4500.0,99999,,0j,0.0,1112002806100702060301304000051000600007100080000
3811,LFBU,45.7291984558,0.2214560062,2024-03-12 00:30:00,,,,,9.0,1020.0,(3153.2810920886295+0j),8.0,5.0,240.0,10000.0,99999,5.0,0j,0.0,1116052405100902080302004000051000600007000085000
3849,LECH,40.9000015259,-1.3041199446,2024-03-12 00:30:00,,,,,11.0,1020.0,(13.494996025946925+0j),1.0,3.0,230.0,10000.0,99999,,0j,0.0,1116002303101102010302004000051000600007000080000
3855,LEMI,37.803,-1.125,2024-03-12 00:30:00,,,,,13.0,1022.0,(3171.955787105241+0j),3.0,8.0,310.0,10000.0,99999,,0j,0.0,1116003108101302030302204000051000600007000080000
3862,LJCE,45.9000015259,15.5302000046,2024-03-12 00:30:00,63.0,36.0,',green,8.0,1008.0,(3891.2749606369503+0j),7.0,4.0,260.0,10000.0,99999,8.0,0j,0.0,1116082604100802070300804000051000600007630088000
3863,LFOZ,47.896900177,2.1633300781,2024-03-12 00:30:00,,,,,8.0,1016.0,(3193.8643563077385+0j),6.0,6.0,280.0,10000.0,99999,4.0,0j,0.0,1116042806100802060301604000051000600007000084000
3864,LFPT,49.0965995789,2.0408298969,2024-03-12 00:30:00,,,,,7.0,1015.0,(3037.276679209916+0j),6.0,5.0,250.0,7000.0,99999,6.0,0j,0.0,1114062505100702060301504000051000600007000086000
3915,LQMO,43.2829017639,17.8458995819,2024-03-12 00:30:00,61.0,36.0,^,green,9.0,1008.0,(1673.6837286179248+0j),9.0,4.0,260.0,10000.0,99999,6.0,0j,0.0,1116062604100902090300804000051000600007610086000
3945,UUDL,57.5606994629,40.1573982239,2024-03-12 00:30:00,,,,,-0.0,1020.0,(39.00547669358242+0j),-4.0,4.0,310.0,10000.0,99999,8.0,0j,0.0,1116083104110002140302004000051000600007000088000
3948,UUMO,55.5116996765,37.5071983337,2024-03-12 00:30:00,,,,,-1.0,1023.0,(95.79827665454425+0j),-6.0,4.0,310.0,10000.0,99999,,0j,0.0,1116003104110102160302304000051000600007000080000
3949,UUBC,54.5499992371,36.3666687012,2024-03-12 00:30:00,,,,,-2.0,1025.0,(268.19713408042384+0j),-7.0,3.0,280.0,10000.0,99999,6.0,0j,0.0,1116062803110202170302504000051000600007000086000
3950,UUOB,50.6437988281,36.5900993347,2024-03-12 00:30:00,,,,,-6.0,1028.0,(-194435.92318536513-203226.95218210862j),-12.0,1.0,170.0,10000.0,99999,,0j,0.0,11160017011106021120302804000051000600007000080000
3951,UUOK,51.7505989075,36.2956008911,2024-03-12 00:30:00,,,,,-10.0,1028.0,(0.19180398780042826+0j),-12.0,2.0,170.0,10000.0,99999,,(-1029.6081960121994+0j),0.0,11160017021110021120302804000051000600007000080000
3954,UWPS,54.1251296997,45.2122573853,2024-03-12 00:30:00,71.0,36.0,h,magenta,-4.0,1017.0,(512160.7620441037+0j),-6.0,6.0,260.0,5000.0,99999,6.0,0j,0.0,1113062606110402160301704000051000600007710086000
3957,URMG,43.3883018494,45.698600769,2024-03-12 00:30:00,,,,,-1.0,1029.0,(1029+0j),-2.0,2.0,80.0,10000.0,99999,3.0,(4.099999999999909+0j),,1116030802110102120302904000051000600007000083000
3960,URMO,43.2051010132,44.6066017151,2024-03-12 00:30:00,49.0,36.0,R,red,-2.0,1027.0,(68.84478062385173+0j),-2.0,3.0,100.0,2400.0,99999,7.0,(-961.7552193761481+0j),0.6,1111071003110202120302704000051000600607490087000
3962,URRP,47.50083333,39.93361111,2024-03-12 00:30:00,,,,,-8.0,1029.0,(161.1076457032263+0j),-9.0,1.0,,10000.0,99999,,0j,0.0,1116003601110802190302904000051000600007000080000
3967,UUBW,55.5532989502,38.1500015259,2024-03-12 00:30:00,,,,,0.0,1023.0,(39.120198683857666+0j),-5.0,3.0,280.0,10000.0,99999,,0j,0.0,1116002803100002150302304000051000600007000080000
3968,UUOL,52.7028007507,39.5377998352,2024-03-12 00:30:00,,,,,-6.0,1025.0,(-128.15647236592835-133.9508093702851j),-11.0,6.0,260.0,10000.0,99999,,0j,0.0,11160026061106021110302504000051000600007000080000
3971,UWKS,56.0903015137,47.3473014832,2024-03-12 00:30:00,71.0,36.0,h,magenta,-2.0,1013.0,(480.8166713392927+0j),-3.0,5.0,300.0,8000.0,99999,6.0,(-533.8833286607073+0j),0.0,1114063005110202130301304000051000600007710086000
3998,LFBY,43.689201355,-1.0688899755,2024-03-12 00:30:00,,,,,7.0,1022.0,(1616.5930356644249+0j),6.0,3.0,,7000.0,99999,,0j,0.0,1114003603100702060302204000051000600007000080000
4002,LFLN,46.4124984741,4.0132598877,2024-03-12 00:30:00,61.0,36.0,^,green,7.0,1017.0,(6545.423602328066+0j),5.0,3.0,,10000.0,99999,6.0,(5532.823602328066+0j),,1116063603100702050301704000051000600007610086000
4003,LFMC,43.3847007751,6.3871397972,2024-03-12 00:30:00,,,,,10.0,1011.0,(2078.5382886624766+0j),4.0,16.0,290.0,10000.0,99999,,(1072.7382886624766+0j),,1116002916101002040301104000051000600007000080000
4004,LFMO,44.140499115,4.8667201996,2024-03-12 00:30:00,,,,,9.0,1016.0,(1883.2306041289535+0j),5.0,14.0,350.0,10000.0,99999,,(875.8306041289535+0j),,1116003514100902050301604000051000600007000080000
4007,LFPM,48.6046981812,2.6711199284,2024-03-12 00:30:00,,,,,8.0,1015.0,(2612.552950222547+0j),6.0,7.0,280.0,8000.0,99999,,0j,0.0,1114002807100802060301504000051000600007000080000
4038,LEBG,42.3576011658,-3.620759964,2024-03-12 00:30:00,,,,,1.0,1023.0,(34.27772902797861+0j),1.0,3.0,80.0,10000.0,99999,,(-984.6222709720214+0j),,1116000803100102010302304000051000600007000080000
4054,LRBM,47.6584014893,23.4699993134,2024-03-12 00:30:00,80.0,36.0,q,green,12.0,1009.0,(3217.6558066017046+0j),8.0,9.0,80.0,7000.0,99999,6.0,0j,0.0,1114060809101202080300904000051000600007800086000
4056,LRCL,46.7851982117,23.6861991882,2024-03-12 00:30:00,,,,,10.0,1009.0,(5970.699160456638+0j),5.0,2.0,60.0,10000.0,99999,1.0,(4959.9991604566385+0j),,1116010602101002050300904000051000600007000081000
4057,LRCV,44.3180999756,23.8885993958,2024-03-12 00:30:00,61.0,36.0,^,green,7.0,1010.0,(5236.8307347008595+0j),6.0,9.0,80.0,8000.0,99999,1.0,0j,0.0,1114010809100702060301004000051000600007610081000
4058,LROD,47.0252990723,21.9025001526,2024-03-12 00:30:00,,,,,12.0,1008.0,(2642.3948232413914+0j),8.0,3.0,190.0,10000.0,99999,6.0,(1633.6948232413913+0j),,1116061903101202080300804000051000600007000086000
4060,LRSM,47.7033004761,22.8857002258,2024-03-12 00:30:00,80.0,36.0,q,green,11.0,1008.0,(2550.130831798411+0j),8.0,5.0,250.0,10000.0,99999,6.0,0j,0.0,1116062505101102080300804000051000600007800086000
4061,LRSV,47.6875,26.3540992737,2024-03-12 00:30:00,61.0,36.0,^,green,4.0,1014.0,(16.038202371500276+0j),3.0,17.0,150.0,10000.0,99999,6.0,0j,0.0,1116061517100402030301404000051000600007610086000
4066,LFBX,45.1981010437,0.8155559897,2024-03-12 00:30:00,,,,,7.0,1020.0,(3073.666098328823+0j),6.0,0.0,0.0,10000.0,99999,7.0,0j,0.0,1116070000100702060302004000051000600007000087000
4073,LFMY,43.6063995361,5.1092500687,2024-03-12 00:30:00,,,,,9.0,1014.0,(1869.8048664853395+0j),5.0,12.0,330.0,10000.0,99999,,(861.8048664853395+0j),,1116003312100902050301404000051000600007000080000
4079,LFRJ,48.5303001404,-4.1516399384,2024-03-12 00:30:00,,,,,9.0,1016.0,(2659.3382134732965+0j),8.0,13.0,220.0,10000.0,99999,5.0,0j,0.0,1116052213100902080301604000051000600007000085000
4086,LUKK,46.9277000427,28.9309997559,2024-03-12 00:30:00,,,,,5.0,1019.0,(4775.233190876808+0j),2.0,12.0,110.0,10000.0,99999,7.0,0j,0.0,1116071112100502020301904000051000600007000087000
4096,LEHC,42.0760993958,-0.3166669905,2024-03-12 00:30:00,,,,,6.0,1020.0,(14.506652127592337+0j),1.0,15.0,290.0,10000.0,99999,,(-1006.0933478724077+0j),0.0,1116002915100602010302004000051000600007000080000
4099,LESB,39.5988998413,2.7027800083,2024-03-12 00:30:00,,,,,14.0,1018.0,(1438.2044665937158+0j),4.0,17.0,310.0,10000.0,99999,,0j,0.0,1116003117101402040301804000051000600007000080000
4101,LEMO,37.1749000549,-5.615940094,2024-03-12 00:30:00,,,,,7.0,1023.0,(2777.7303597954697+0j),6.0,3.0,100.0,10000.0,99999,,(1757.8303597954696+0j),,1116001003100702060302304000051000600007000080000
4104,LBPG,42.2904014587,24.7140007019,2024-03-12 00:00:00,,,,,11.0,1010.0,(1674.457864536214+0j),8.0,4.0,40.0,10000.0,99999,7.0,(662.557864536214+0j),0.0,1116070404101102080301004000051000600007000087000
4105,GEML,35.279800415,-2.9562599659,2024-03-12 00:30:00,,,,,14.0,1022.0,(1440.9898764865325+0j),6.0,3.0,280.0,10000.0,99999,,(421.38987648653244+0j),,1116002803101402060302204000051000600007000080000
4106,EBDT,50.9991989136,5.065559864,2024-03-12 00:25:00,51.0,36.0,T,green,7.0,1011.0,(1552.1646385885351+0j),6.0,8.0,270.0,3900.0,99999,8.0,0j,0.0,1112082708100702060301104000051000600007510088000
4107,EBFN,51.0903015137,2.652780056,2024-03-12 00:25:00,,,,,8.0,1012.0,(1100.015661982288+0j),5.0,10.0,290.0,9000.0,99999,8.0,(94.51566198228807+0j),0.1,1115082910100802050301204000051000600107000088000
4108,EPGD,54.3776016235,18.4661998749,2024-03-12 00:30:00,71.0,36.0,h,magenta,3.0,1012.0,(8969.743003582864+0j),2.0,7.0,120.0,7000.0,99999,8.0,(7957.743003582864+0j),,1114081207100302020301204000051000600007710088000
4109,EPKK,50.0777015686,19.7847995758,2024-03-12 00:30:00,,,,,7.0,1008.0,(6450.747625764649+0j),6.0,6.0,50.0,5000.0,99999,8.0,(5444.047625764649+0j),,1113080506100702060300804000051000600007000088000
4110,EPKT,50.4743003845,19.0799999237,2024-03-12 00:30:00,10.0,36.0,+,yellow,6.0,1008.0,(9.06856455914357+0j),6.0,5.0,60.0,2800.0,99999,8.0,(-997.7314354408563+0j),,1111080605100602060300804000051000600007100088000
4111,EPLB,51.240278,22.713611,2024-03-12 00:30:00,,,,,5.0,1012.0,(7173.617511505919+0j),4.0,10.0,110.0,8000.0,99999,8.0,0j,0.0,1114081110100502040301204000051000600007000088000
4112,EPMO,52.4510993958,20.6518001556,2024-03-12 00:30:00,61.0,36.0,^,green,6.0,1011.0,(3548.3237276595332+0j),4.0,10.0,100.0,10000.0,99999,8.0,0j,0.0,1116081010100602040301104000051000600007610088000
4113,EPPO,52.4210014343,16.8262996674,2024-03-12 00:30:00,10.0,36.0,+,yellow,6.0,1010.0,(3266.8043161705027+0j),5.0,3.0,80.0,3600.0,99999,7.0,(2260.104316170503+0j),,1112070803100602050301004000051000600007100087000
4114,EPRZ,50.1100006104,22.0189990997,2024-03-12 00:30:00,61.0,36.0,^,green,6.0,1010.0,(6437.753158010901+0j),5.0,12.0,100.0,10000.0,99999,8.0,(5429.6531580109+0j),,1116081012100602050301004000051000600007610088000
4115,EPSC,53.5847015381,14.9021997452,2024-03-12 00:30:00,10.0,36.0,+,yellow,7.0,1010.0,(1876.9553322677018+0j),6.0,6.0,140.0,3300.0,99999,8.0,(868.2553322677018+0j),,1112081406100702060301004000051000600007100088000
4116,EPWA,52.1656990051,20.9671001434,2024-03-12 00:30:00,,,,,6.0,1011.0,(3727.1722908199326+0j),4.0,11.0,110.0,10000.0,99999,6.0,(2716.0722908199327+0j),,1116061111100602040301104000051000600007000086000
4118,LBBG,42.5695991516,27.5151996613,2024-03-12 00:30:00,,,,,9.0,1014.0,(1586.1919526890028+0j),7.0,11.0,50.0,10000.0,99999,,(570.0919526890028+0j),,1116000511100902070301404000051000600007000080000
4119,LBPD,42.0677986145,24.8507995605,2024-03-12 00:30:00,,,,,8.0,1010.0,(4462.9036132107285+0j),8.0,5.0,270.0,10000.0,99999,4.0,(3450.2036132107287+0j),,1116042705100802080301004000051000600007000084000
4120,LBSF,42.6966934204,23.4114360809,2024-03-12 00:30:00,61.0,36.0,^,green,8.0,1011.0,(11.421717600212974+0j),6.0,13.0,270.0,10000.0,99999,4.0,(-1000.578282399787+0j),,1116042713100802060301104000051000600007610084000
4121,LBWN,43.2321014404,27.8250999451,2024-03-12 00:30:00,,,,,8.0,1014.0,(2187.1271681198778+0j),6.0,9.0,100.0,10000.0,99999,,(1169.9271681198777+0j),,1116001009100802060301404000051000600007000080000
4122,LHBP,47.4369010925,19.2555999756,2024-03-12 00:30:00,,,,,8.0,1005.0,(3783.731742659606+0j),7.0,6.0,100.0,10000.0,99999,3.0,(2779.231742659606+0j),,1116031006100802070300504000051000600007000083000
4123,LRAR,46.1766014099,21.2619991302,2024-03-12 00:30:00,,,,,12.0,1008.0,(2200.812005426696+0j),7.0,12.0,200.0,10000.0,99999,,(1192.312005426696+0j),,1116002012101202070300804000051000600007000080000
4125,LRCK,44.3622016907,28.4883003235,2024-03-12 00:30:00,,,,,8.0,1016.0,(2926.0712481636997+0j),7.0,15.0,110.0,8000.0,99999,6.0,(1906.5712481636997+0j),,1114061115100802070301604000051000600007000086000
4126,LROP,44.5722007751,26.1021995544,2024-03-12 00:30:00,61.0,36.0,^,green,7.0,1013.0,(2953.5220018583755+0j),6.0,16.0,50.0,10000.0,99999,,(1936.7220018583755+0j),,1116000516100702060301304000051000600007610080000
4127,LRTM,46.4677009583,24.4125003815,2024-03-12 00:30:00,61.0,36.0,^,green,10.0,1009.0,(5590.573390386989+0j),6.0,6.0,90.0,10000.0,99999,7.0,(4578.373390386989+0j),,1116070906101002060300904000051000600007610087000
4128,LRTR,45.8098983765,21.3379001617,2024-03-12 00:30:00,,,,,11.0,1008.0,(2306.818563112743+0j),7.0,8.0,180.0,10000.0,99999,,(1299.018563112743+0j),,1116001808101102070300804000051000600007000080000
4129,LDDU,42.5614013672,18.2681999207,2024-03-12 00:30:00,61.0,36.0,^,green,10.0,1009.0,(3332.233312729036+0j),9.0,7.0,80.0,10000.0,99999,4.0,(2322.9333127290356+0j),,1116040807101002090300904000051000600007610084000
4130,LDOS,45.4626998901,18.8101997375,2024-03-12 00:30:00,,,,,7.0,1007.0,(2768.8426795558335+0j),4.0,10.0,240.0,10000.0,99999,,(1763.4426795558334+0j),,1116002410100702040300704000051000600007000080000
4131,LDPL,44.8935012817,13.9222002029,2024-03-12 00:30:00,,,,,8.0,1008.0,(2428.748956494142+0j),7.0,2.0,,10000.0,99999,1.0,(1422.348956494142+0j),,1116013602100802070300804000051000600007000081000
4132,LDRI,45.2168998718,14.5703001022,2024-03-12 00:30:00,,,,,9.0,1009.0,(2274.5154350788957+0j),8.0,2.0,130.0,10000.0,99999,6.0,0j,0.0,1116061302100902080300904000051000600007000086000
4133,LDSP,43.538898468,16.2980003357,2024-03-12 00:30:00,,,,,10.0,1008.0,(1295.1916393326578+0j),8.0,4.0,80.0,10000.0,99999,1.0,(287.79163933265784+0j),,1116010804101002080300804000051000600007000081000
4134,LDZA,45.7429008484,16.0687999725,2024-03-12 00:30:00,61.0,36.0,^,green,7.0,1007.0,(3211.872256916654+0j),6.0,7.0,240.0,10000.0,99999,4.0,(2205.972256916654+0j),,1116042407100702060300704000051000600007610084000
4135,LDZD,44.1082992554,15.3466997147,2024-03-12 00:30:00,,,,,4.0,1008.0,(4330.628978668493+0j),3.0,2.0,30.0,10000.0,99999,3.0,(3323.8289786684927+0j),,1116030302100402030300804000051000600007000083000
4136,LJLJ,46.2237014771,14.4575996399,2024-03-12 00:30:00,,,,,6.0,1007.0,(11.140380318524087+0j),5.0,1.0,,10000.0,99999,3.0,(-995.4596196814759+0j),,1116033601100602050300704000051000600007000083000
4137,LJMB,46.4799003601,15.6861000061,2024-03-12 00:30:00,63.0,36.0,',green,7.0,1006.0,(7057.392562560303+0j),5.0,4.0,210.0,9000.0,99999,8.0,(6050.592562560303+0j),,1115082104100702050300604000051000600007630088000
4138,LJPZ,45.473400116,13.6149997711,2024-03-12 00:30:00,,,,,9.0,1009.0,(1035.9687769632424+0j),8.0,4.0,110.0,10000.0,99999,6.0,0j,0.0,1116061104100902080300904000051000600007000086000
4139,LKMT,49.6963005066,18.1110992432,2024-03-12 00:30:00,,,,,9.0,1007.0,(5448.091660072837+0j),8.0,6.0,30.0,3500.0,99999,7.0,(4442.491660072837+0j),,1112070306100902080300704000051000600007000087000
4140,LKPR,50.1007995605,14.2600002289,2024-03-12 00:30:00,,,,,8.0,1009.0,(8601.792331521025+0j),3.0,8.0,300.0,10000.0,99999,,(7597.792331521025+0j),,1116003008100802030300904000051000600007000080000
4141,LKTB,49.1512985229,16.6944007874,2024-03-12 00:30:00,61.0,36.0,^,green,9.0,1006.0,(5060.534256990995+0j),8.0,5.0,340.0,8000.0,99999,6.0,(4054.6342569909953+0j),,1114063405100902080300604000051000600007610086000
4142,LQSA,43.8246002197,18.3314990997,2024-03-12 00:30:00,,,,,4.0,1008.0,(18.265993589898343+0j),4.0,2.0,,10000.0,99999,6.0,0j,0.0,1116063602100402040300804000051000600007000086000
4143,LYBE,44.8184013367,20.3090991974,2024-03-12 00:30:00,,,,,6.0,1008.0,(3487.080984645711+0j),4.0,6.0,110.0,10000.0,99999,,(2481.8809846457107+0j),,1116001106100602040300804000051000600007000080000
4144,LYNI,43.337299,21.853701,2024-03-12 00:30:00,,,,,8.0,1010.0,(4795.794277684666+0j),7.0,2.0,,10000.0,99999,,(3786.8942776846657+0j),,1116003602100802070301004000051000600007000080000
4145,LYPG,42.3594017029,19.2518997192,2024-03-12 00:30:00,80.0,36.0,q,green,10.0,1010.0,(1543.0421530924968+0j),9.0,5.0,330.0,10000.0,99999,3.0,0j,0.0,1116033305101002090301004000051000600007800083000
4146,LYTV,42.4047012329,18.7233009338,2024-03-12 00:30:00,80.0,36.0,q,green,11.0,1009.0,(1072.515521527938+0j),10.0,1.0,,10000.0,99999,5.0,0j,0.0,11160536011011020100300904000051000600007800085000
4147,LZIB,48.1702003479,17.2126998901,2024-03-12 00:30:00,63.0,36.0,',green,10.0,1005.0,(2868.773317953693+0j),9.0,4.0,310.0,7000.0,99999,3.0,(1863.373317953693+0j),,1114033104101002090300504000051000600007630083000
4148,LZKZ,48.6631011963,21.2411003113,2024-03-12 00:30:00,61.0,36.0,^,green,10.0,1008.0,(4499.59753788761+0j),9.0,5.0,30.0,10000.0,99999,6.0,0j,0.0,1116060305101002090300804000051000600007610086000
4149,LZTT,49.073600769,20.2411003113,2024-03-12 00:30:00,61.0,36.0,^,green,7.0,1007.0,(15.704642543117137+0j),7.0,4.0,50.0,10000.0,99999,4.0,(-992.1953574568828+0j),,1116040504100702070300704000051000600007610084000
4154,LFAT,50.5173988342,1.6205899715,2024-03-12 00:30:00,,,,,8.0,1013.0,(1173.7821456554047+0j),6.0,3.0,310.0,6000.0,99999,6.0,0j,0.0,1113063103100802060301304000051000600007000086000
4155,LFBD,44.8283004761,-0.7155560255,2024-03-12 00:30:00,,,,,9.0,1021.0,(1723.6756548991673+0j),8.0,6.0,240.0,10000.0,99999,,(711.4756548991672+0j),,1116002406100902080302104000051000600007000080000
4156,LFBH,46.1791992188,-1.1952799559,2024-03-12 00:30:00,,,,,9.0,1020.0,(1323.081011019337+0j),8.0,6.0,270.0,10000.0,99999,,(308.48101101933696+0j),,1116002706100902080302004000051000600007000080000
4157,LFBI,46.5876998901,0.3066659868,2024-03-12 00:30:00,,,,,9.0,1018.0,(3074.7743626298916+0j),7.0,8.0,260.0,10000.0,99999,,(2060.6743626298917+0j),,1116002608100902070301804000051000600007000080000
4158,LFBO,43.6291007996,1.3638199568,2024-03-12 00:30:00,,,,,9.0,1022.0,(3515.5474017629604+0j),7.0,10.0,270.0,10000.0,99999,,(2505.1474017629603+0j),,1116002710100902070302204000051000600007000080000
4159,LFBP,43.3800010681,-0.41861099,2024-03-12 00:30:00,,,,,8.0,1022.0,(4641.289371541098+0j),6.0,6.0,210.0,10000.0,99999,1.0,(3628.1893715410984+0j),,1116012106100802060302204000051000600007000081000
4161,LFBZ,43.4683990479,-1.5233199596,2024-03-12 00:30:00,,,,,10.0,1023.0,(2012.6110504924343+0j),8.0,5.0,230.0,10000.0,99999,3.0,(999.8110504924343+0j),,1116032305101002080302304000051000600007000083000
4163,LFKB,42.5527000427,9.4837303162,2024-03-12 00:30:00,,,,,9.0,1010.0,(1111.7819997931288+0j),6.0,2.0,,10000.0,99999,4.0,(105.98199979312881+0j),,1116043602100902060301004000051000600007000084000
4164,LFKC,42.5307998657,8.7931900024,2024-03-12 00:30:00,,,,,12.0,1010.0,(1680.5083647472939+0j),7.0,5.0,210.0,10000.0,99999,3.0,(673.9083647472938+0j),,1116032105101202070301004000051000600007000083000
4166,LFKJ,41.9235992432,8.8029203415,2024-03-12 00:30:00,63.0,36.0,',green,13.0,1011.0,(1059.315924770423+0j),9.0,11.0,290.0,10000.0,99999,6.0,(51.71592477042293+0j),,1116062911101302090301104000051000600007630086000
4167,LFLB,45.6380996704,5.88022995,2024-03-12 00:30:00,,,,,5.0,1017.0,(8666.345674335578+0j),4.0,2.0,210.0,10000.0,99999,3.0,(7658.245674335578+0j),,1116032102100502040301704000051000600007000083000
4168,LFLC,45.7867012024,3.1691699028,2024-03-12 00:30:00,,,,,9.0,1017.0,(6927.670494731932+0j),4.0,8.0,260.0,10000.0,99999,4.0,(5914.470494731932+0j),,1116042608100902040301704000051000600007000084000
4169,LFLL,45.726398468,5.0908298492,2024-03-12 00:30:00,,,,,6.0,1017.0,(7727.822654114195+0j),5.0,1.0,,10000.0,99999,6.0,(6719.7226541141945+0j),,1116063601100602050301704000051000600007000086000
4170,LFLS,45.3628997803,5.3293700218,2024-03-12 00:30:00,,,,,5.0,1017.0,(13.208498082682567+0j),4.0,4.0,160.0,10000.0,99999,3.0,(-995.1915019173174+0j),,1116031604100502040301704000051000600007000083000
4171,LFLY,45.7271995544,4.944270134,2024-03-12 00:30:00,,,,,5.0,1017.0,(7473.665708086793+0j),5.0,3.0,170.0,10000.0,99999,7.0,(6465.965708086793+0j),,1116071703100502050301704000051000600007000087000
4172,LFMD,43.5419998169,6.9534797668,2024-03-12 00:30:00,,,,,6.0,1010.0,(1085.9513240110311+0j),6.0,2.0,,10000.0,99999,,(80.7513240110311+0j),,1116003602100602060301004000051000600007000080000
4173,LFMH,45.540599823,4.2963900566,2024-03-12 00:30:00,,,,,2.0,1017.0,(23.114892583594248+0j),2.0,2.0,150.0,10000.0,99999,,(-989.7851074164057+0j),,1116001502100202020301704000051000600007000080000
4174,LFML,43.439271922,5.2214241028,2024-03-12 00:30:00,,,,,9.0,1014.0,(1315.2981815427527+0j),5.0,20.0,320.0,10000.0,99999,,(307.3981815427527+0j),,1116003220100902050301404000051000600007000080000
4175,LFMN,43.6584014893,7.2158699036,2024-03-12 00:30:00,,,,,9.0,1010.0,(1056.4633728787394+0j),6.0,8.0,350.0,10000.0,99999,,(51.26337287873935+0j),,1116003508100902060301004000051000600007000080000
4176,LFMP,42.740398407,2.8706700802,2024-03-12 00:30:00,,,,,12.0,1019.0,(1471.1866438199372+0j),4.0,15.0,300.0,10000.0,99999,6.0,(461.98664381993717+0j),,1116063015101202040301904000051000600007000086000
4177,LFMT,43.5761985779,3.9630100727,2024-03-12 00:30:00,,,,,9.0,1017.0,(1083.5421008819371+0j),2.0,8.0,280.0,10000.0,99999,,(74.84210088193709+0j),,1116002808100902020301704000051000600007000080000
4178,LFOB,49.4543991089,2.1127800941,2024-03-12 00:30:00,,,,,8.0,1014.0,(2957.319907811099+0j),7.0,4.0,260.0,6000.0,99999,5.0,(1948.9199078110987+0j),,1113052604100802070301404000051000600007000085000
4179,LFOH,49.5339012146,0.0880559981,2024-03-12 00:30:00,10.0,36.0,+,yellow,8.0,1015.0,(2678.8707889221073+0j),7.0,5.0,230.0,4400.0,99999,5.0,(1669.4707889221072+0j),,1112052305100802070301504000051000600007100085000
4180,LFOT,47.4322013855,0.7276059985,2024-03-12 00:30:00,,,,,8.0,1017.0,(2953.685810358408+0j),7.0,6.0,270.0,10000.0,99999,7.0,(1944.6858103584082+0j),,1116072706100802070301704000051000600007000087000
4183,LFPN,48.7518997192,2.1061899662,2024-03-12 00:30:00,,,,,7.0,1015.0,(4602.0057867294945+0j),6.0,6.0,260.0,10000.0,99999,,0j,0.0,1116002606100702060301504000051000600007000080000
4184,LFPO,48.7252998352,2.3594400883,2024-03-12 00:30:00,,,,,8.0,1015.0,(2546.641133886962+0j),6.0,7.0,270.0,10000.0,99999,6.0,(1538.341133886962+0j),,1116062707100802060301504000051000600007000086000
4187,LFRC,49.650100708,-1.4702800512,2024-03-12 00:30:00,,,,,8.0,1015.0,(3590.068934495801+0j),7.0,8.0,260.0,10000.0,99999,2.0,(2580.168934495801+0j),,1116022608100802070301504000051000600007000082000
4188,LFRD,48.5876998901,-2.0799601078,2024-03-12 00:30:00,,,,,7.0,1017.0,(2311.0411458820313+0j),6.0,8.0,230.0,10000.0,99999,,(1300.6411458820312+0j),,1116002308100702060301704000051000600007000080000
4189,LFRG,49.3652992249,0.1543059945,2024-03-12 00:30:00,,,,,8.0,1015.0,(3718.3366817523+0j),7.0,9.0,260.0,6000.0,99999,8.0,(2705.0366817523+0j),0.2,1113082609100802070301504000051000600207000088000
4190,LFRK,49.1733016968,-0.4499999881,2024-03-12 00:30:00,,,,,7.0,1015.0,(2556.0316147602575+0j),6.0,9.0,250.0,9000.0,99999,,(1546.3316147602575+0j),,1115002509100702060301504000051000600007000080000
4191,LFRN,48.0694999695,-1.7347899675,2024-03-12 00:30:00,,,,,7.0,1017.0,(1704.776468611687+0j),5.0,4.0,230.0,10000.0,99999,,(694.4764686116871+0j),,1116002304100702050301704000051000600007000080000
4193,LFRS,47.1531982422,-1.610730052,2024-03-12 00:30:00,,,,,7.0,1019.0,(1505.9140125222498+0j),7.0,5.0,230.0,10000.0,99999,,(495.4140125222498+0j),,1116002305100702070301904000051000600007000080000
4194,LFRZ,47.3121986389,-2.1491799355,2024-03-12 00:30:00,,,,,8.0,1018.0,(1075.1947501621958+0j),7.0,5.0,240.0,10000.0,99999,,0j,0.0,1116002405100802070301804000051000600007000080000
4195,LFSB,47.5895996094,7.5299100876,2024-03-12 00:30:00,,,,,3.0,1015.0,(14.447211609432804+0j),3.0,2.0,,10000.0,99999,,(-996.3527883905672+0j),,1116003602100302030301504000051000600007000080000
4196,LFSN,48.6921005249,6.2304601669,2024-03-12 00:30:00,51.0,36.0,T,green,8.0,1013.0,(5485.65042160423+0j),6.0,6.0,230.0,10000.0,99999,5.0,(4479.4504216042305+0j),,1116052306100802060301304000051000600007510085000
4197,LFST,48.5382995605,7.6282300949,2024-03-12 00:30:00,,,,,4.0,1013.0,(7162.89559631148+0j),2.0,3.0,200.0,10000.0,99999,1.0,(6157.09559631148+0j),,1116012003100402020301304000051000600007000081000
4198,LFTW,43.7574005127,4.4163498878,2024-03-12 00:30:00,,,,,8.0,1016.0,(2657.324759169675+0j),3.0,6.0,310.0,10000.0,99999,,0j,0.0,1116003106100802030301604000051000600007000080000
4199,LFBA,44.1747016907,0.5905560255,2024-03-12 00:30:00,,,,,9.0,1021.0,(1926.8759489878034+0j),7.0,5.0,270.0,10000.0,99999,5.0,0j,0.0,1116052705100902070302104000051000600007000085000
4200,LFBC,44.5332984924,-1.125,2024-03-12 00:30:00,,,,,9.0,1022.0,(1369.1116299573182+0j),6.0,3.0,290.0,10000.0,99999,1.0,0j,0.0,1116012903100902060302204000051000600007000081000
4201,LFBL,45.8628005981,1.1794400215,2024-03-12 00:30:00,,,,,7.0,1018.0,(10.087772007129336+0j),6.0,5.0,250.0,6000.0,99999,8.0,(-1004.4122279928706+0j),,1113082505100702060301804000051000600007000088000
4202,LFBM,43.9117012024,-0.5074999928,2024-03-12 00:30:00,,,,,8.0,1022.0,(2050.0928612021503+0j),7.0,2.0,,10000.0,99999,,0j,0.0,1116003602100802070302204000051000600007000080000
4204,LFKF,41.5005989075,9.0977802277,2024-03-12 00:30:00,,,,,12.0,1011.0,(1274.251942079096+0j),8.0,17.0,280.0,10000.0,99999,3.0,(266.8519420790959+0j),,1116032817101202080301104000051000600007000083000
4205,LFOE,49.0287017822,1.2198599577,2024-03-12 00:30:00,,,,,8.0,1015.0,(3622.0764636359017+0j),6.0,6.0,260.0,10000.0,99999,7.0,(2613.5764636359017+0j),,1116072606100802060301504000051000600007000087000
4206,LFOP,49.3842010498,1.1748000383,2024-03-12 00:30:00,10.0,36.0,+,yellow,7.0,1014.0,(4403.060411577387+0j),6.0,5.0,260.0,5000.0,99999,4.0,(3394.460411577387+0j),,1113042605100702060301404000051000600007100084000
4207,LFPB,48.9693984985,2.4413900375,2024-03-12 00:30:00,,,,,8.0,1015.0,(2120.7755873780375+0j),6.0,5.0,240.0,7000.0,99999,8.0,0j,0.0,1114082405100802060301504000051000600007000088000
4208,LFPG,49.0127983093,2.5499999523,2024-03-12 00:30:00,,,,,8.0,1015.0,(3165.6437147413935+0j),6.0,6.0,280.0,6000.0,99999,3.0,(2157.5437147413936+0j),,1113032806100802060301504000051000600007000083000
4209,LFPV,48.7743988037,2.2015399933,2024-03-12 00:30:00,,,,,7.0,1015.0,(4947.199023224505+0j),6.0,8.0,260.0,9000.0,99999,4.0,0j,0.0,1115042608100702060301504000051000600007000084000
4210,LFQB,48.322101593,4.016699791,2024-03-12 00:30:00,,,,,8.0,1015.0,(3146.860214078638+0j),7.0,9.0,260.0,10000.0,99999,5.0,(2139.660214078638+0j),,1116052609100802070301504000051000600007000085000
4211,LFQQ,50.5619010925,3.0894401073,2024-03-12 00:30:00,,,,,7.0,1013.0,(1901.3159509495747+0j),6.0,12.0,280.0,7000.0,99999,5.0,(893.2159509495747+0j),,1114052812100702060301304000051000600007000085000
4214,LFSD,47.268901825,5.0900001526,2024-03-12 00:30:00,,,,,7.0,1015.0,(6012.176262962358+0j),5.0,5.0,190.0,10000.0,99999,,(5000.476262962358+0j),,1116001905100702050301504000051000600007000080000
4215,LFSI,48.6360015869,4.8994197845,2024-03-12 00:30:00,,,,,8.0,1014.0,(3580.141659103926+0j),7.0,10.0,240.0,8000.0,99999,7.0,(2573.641659103926+0j),,1114072410100802070301404000051000600007000087000
4216,LFSL,45.039667,1.4855,2024-03-12 00:30:00,,,,,7.0,1019.0,(8158.889183316569+0j),5.0,3.0,,10000.0,99999,6.0,0j,0.0,1116063603100702050301904000051000600007000086000
4217,LFSO,48.5830993652,5.9549999237,2024-03-12 00:30:00,,,,,6.0,1013.0,(9.975270915102229+0j),5.0,9.0,240.0,10000.0,99999,5.0,0j,0.0,1116052409100602050301304000051000600007000085000
4218,LFSX,47.7831001282,6.3640599251,2024-03-12 00:30:00,61.0,36.0,^,green,6.0,1015.0,(8472.341802771196+0j),5.0,2.0,,10000.0,99999,4.0,0j,0.0,1116043602100602050301504000051000600007610084000
4219,LFTH,43.0973014832,6.1460299492,2024-03-12 00:30:00,,,,,10.0,1011.0,(1035.3063244999169+0j),4.0,5.0,270.0,10000.0,99999,,(28.10632449991681+0j),,1116002705101002040301104000051000600007000080000
4223,LPFR,37.0144004822,-7.9659099579,2024-03-12 00:30:00,,,,,13.0,1023.0,(1088.4005035370299+0j),9.0,7.0,20.0,10000.0,99999,,(67.70050353702982+0j),,1116000207101302090302304000051000600007000080000
4224,LPMA,32.6978988647,-16.7744998932,2024-03-12 00:30:00,,,,,17.0,1021.0,(1445.6449999869078+0j),9.0,6.0,160.0,10000.0,99999,3.0,0j,0.0,1116031606101702090302104000051000600007000083000
4225,LPPR,41.2481002808,-8.6813898087,2024-03-12 00:30:00,,,,,8.0,1024.0,(2197.1329481656876+0j),7.0,0.0,0.0,10000.0,99999,,(1177.0329481656877+0j),,1116000000100802070302404000051000600007000080000
4226,LPPS,33.0733985901,-16.3500003815,2024-03-12 00:30:00,,,,,17.0,1022.0,(1814.178365199968+0j),9.0,6.0,160.0,10000.0,99999,1.0,0j,0.0,1116011606101702090302204000051000600007000081000
4228,ULAA,64.6003036499,40.7167015076,2024-03-12 00:30:00,,,,,-5.0,1018.0,(628.456941544861+0j),-5.0,0.0,0.0,10000.0,99999,7.0,(-389.243058455139+0j),,1116070000110502150301804000051000600007000087000
4231,ULLI,59.8003005981,30.2625007629,2024-03-12 00:30:00,,,,,-6.0,1025.0,(616.0656711583548+0j),-8.0,0.0,0.0,10000.0,99999,,(-405.4343288416452+0j),,1116000000110602180302504000051000600007000080000
4232,ULMM,68.7817001343,32.7508010864,2024-03-12 00:30:00,,,,,1.0,1014.0,(13.3814841163763+0j),-3.0,4.0,260.0,10000.0,99999,6.0,(-1002.4185158836236+0j),,1116062604100102130301404000051000600007000086000
4233,UUDD,55.4087982178,37.9062995911,2024-03-12 00:30:00,,,,,-1.0,1023.0,(92.21959777211816+0j),-7.0,4.0,280.0,10000.0,99999,,0j,0.0,1116002804110102170302304000051000600007000080000
4236,URKA,45.0021018982,37.3473014832,2024-03-12 00:30:00,,,,,0.0,1025.0,(39.19668001070782+0j),-1.0,2.0,70.0,10000.0,99999,,(-988.2033199892923+0j),0.0,1116000702100002110302504000051000600007000080000
4237,URKK,45.0346984863,39.170501709,2024-03-12 00:30:00,,,,,-3.0,1027.0,(112.41446387616392+0j),-4.0,3.0,60.0,10000.0,99999,,(-909.385536123836+0j),,1116000603110302140302704000051000600007000080000
4238,URMM,44.2251014709,43.0819015503,2024-03-12 00:30:00,,,,,-1.0,1027.0,(60.43791757920031+0j),-1.0,5.0,110.0,3300.0,99999,8.0,0j,0.0,1112081105110102110302704000051000600007000088000
4239,URMT,45.1091995239,42.1128005981,2024-03-12 00:30:00,,,,,-3.0,1026.0,(114.15372563825214+0j),-3.0,3.0,120.0,10000.0,99999,6.0,0j,0.0,1116061203110302130302604000051000600007000086000
4240,URSS,43.4499015808,39.9566001892,2024-03-12 00:30:00,,,,,3.0,1025.0,(2253.4426191108178+0j),-1.0,5.0,40.0,10000.0,99999,,(1231.6426191108178+0j),,1116000405100302110302504000051000600007000080000
4241,URWA,46.2832984924,48.0063018799,2024-03-12 00:30:00,,,,,-9.0,1030.0,(1297.124063357435+0j),-10.0,3.0,250.0,10000.0,99999,,(268.0240633574351+0j),0.0,11160025031109021100303004000051000600007000080000
4242,URWI,46.3739013672,44.3308982849,2024-03-12 00:30:00,,,,,-8.0,1030.0,(2.3142276833096824+0j),-10.0,3.0,230.0,10000.0,99999,,0j,0.0,11160023031108021100303004000051000600007000080000
4243,URWW,48.7825012207,44.345500946,2024-03-12 00:30:00,,,,,-7.0,1028.0,(0.16523633484074857+0j),-11.0,4.0,280.0,10000.0,99999,,(-1026.5347636651593+0j),,11160028041107021110302804000051000600007000080000
4244,UUEE,55.9725990295,37.4146003723,2024-03-12 00:30:00,,,,,-1.0,1023.0,(87.04206610738473+0j),-6.0,4.0,300.0,10000.0,99999,,(-937.3579338926154+0j),0.0,1116003004110102160302304000051000600007000080000
4245,UUOO,51.814201355,39.229598999,2024-03-12 00:30:00,,,,,-8.0,1027.0,(1.3450283190550338+0j),-13.0,5.0,260.0,10000.0,99999,,0j,0.0,11160026051108021130302704000051000600007000080000
4248,UWGG,56.2300987244,43.7840003967,2024-03-12 00:30:00,,,,,-0.0,1017.0,(38.890754703307174+0j),-2.0,3.0,310.0,10000.0,99999,8.0,0j,0.0,1116083103110002120301704000051000600007000088000
4250,UWKE,55.5647010803,52.0924987793,2024-03-12 00:30:00,71.0,36.0,h,magenta,-11.0,1013.0,(6.909703453897317+0j),-12.0,5.0,210.0,7000.0,99999,6.0,(-1010.4902965461026+0j),0.0,11140621051111021120301304000051000600007710086000
4251,UWWW,53.504901886,50.1642990112,2024-03-12 00:30:00,,,,,-11.0,1016.0,(73.96297464543575+0j),-15.0,4.0,230.0,10000.0,99999,3.0,(-950.3370253545642+0j),,11160323041111021150301604000051000600007000083000
4252,LEAL,38.2821998596,-0.5581560135,2024-03-12 00:30:00,,,,,12.0,1021.0,(1467.3431787353675+0j),1.0,2.0,,10000.0,99999,,(447.24317873536745+0j),0.0,1116003602101202010302104000051000600007000080000
4253,LEAM,36.8438987732,-2.3701000214,2024-03-12 00:30:00,,,,,13.0,1022.0,(1217.252040117759+0j),5.0,6.0,30.0,10000.0,99999,,(200.952040117759+0j),,1116000306101302050302204000051000600007000080000
4254,LEAS,43.5635986328,-6.0346198082,2024-03-12 00:30:00,,,,,11.0,1023.0,(2636.4494031100608+0j),7.0,6.0,240.0,10000.0,99999,5.0,0j,0.0,1116052406101102070302304000051000600007000085000
4255,LEBL,41.2971000671,2.0784599781,2024-03-12 00:30:00,,,,,10.0,1018.0,(1060.1079982909202+0j),3.0,8.0,340.0,10000.0,99999,,(50.10799829092025+0j),,1116003408101002030301804000051000600007000080000
4256,LECO,43.3021011353,-8.3772602081,2024-03-12 00:30:00,,,,,11.0,1023.0,(2247.636818088017+0j),9.0,8.0,210.0,10000.0,99999,6.0,0j,0.0,1116062108101102090302304000051000600007000086000
4257,LEDA,41.728185,0.535023,2024-03-12 00:30:00,,,,,4.0,1020.0,(14.430181886275138+0j),3.0,6.0,210.0,10000.0,99999,,0j,0.0,1116002106100402030302004000051000600007000080000
4258,LEGE,41.9010009766,2.7605500221,2024-03-12 00:30:00,,,,,6.0,1018.0,(4675.7524934419935+0j),5.0,4.0,30.0,10000.0,99999,,(3666.3524934419934+0j),,1116000304100602050301804000051000600007000080000
4259,LEGR,37.1887016296,-3.7773599625,2024-03-12 00:30:00,,,,,4.0,1023.0,(19.469686737139465+0j),4.0,0.0,0.0,10000.0,99999,,(-1000.2303132628606+0j),,1116000000100402040302304000051000600007000080000
4260,LEIB,38.8728981018,1.3731199503,2024-03-12 00:30:00,,,,,12.0,1020.0,(1090.7197836578164+0j),4.0,2.0,,10000.0,99999,,(72.71978365781638+0j),0.0,1116003602101202040302004000051000600007000080000
4261,LEJR,36.7445983887,-6.0601100922,2024-03-12 00:30:00,,,,,9.0,1023.0,(1410.0400983344039+0j),8.0,3.0,40.0,10000.0,99999,,(389.94009833440384+0j),,1116000403100902080302304000051000600007000080000
4262,LELC,37.7750015259,-0.8123890162,2024-03-12 00:30:00,,,,,11.0,1022.0,(1057.177258767683+0j),5.0,6.0,290.0,10000.0,99999,,(41.17725876768304+0j),,1116002906101102050302204000051000600007000080000
4263,LELL,41.5209007263,2.1050798893,2024-03-12 00:30:00,,,,,6.0,1018.0,(4824.996758113718+0j),4.0,2.0,,10000.0,99999,,0j,0.0,1116003602100602040301804000051000600007000080000
4264,LEMD,40.4936,-3.56676,2024-03-12 00:30:00,,,,,4.0,1023.0,(20.26549560991186+0j),1.0,3.0,360.0,10000.0,99999,,(-996.4345043900881+0j),,1116003603100402010302304000051000600007000080000
4265,LEMG,36.6749000549,-4.4991102219,2024-03-12 00:30:00,,,,,14.0,1022.0,(1157.8017320058416+0j),6.0,10.0,280.0,10000.0,99999,,(139.10173200584154+0j),,1116002810101402060302204000051000600007000080000
4266,LEMH,39.8625984192,4.2186498642,2024-03-12 00:30:00,,,,,11.0,1018.0,(2136.3759815057037+0j),8.0,5.0,330.0,10000.0,99999,,(1119.8759815057037+0j),0.0,1116003305101102080301804000051000600007000080000
4267,LEPA,39.551700592,2.7388100624,2024-03-12 00:30:00,,,,,14.0,1019.0,(1087.0927917476263+0j),5.0,3.0,360.0,10000.0,99999,1.0,(69.29279174762632+0j),0.0,1116013603101402050301904000051000600007000081000
4268,LEPP,42.7700004578,-1.646329999,2024-03-12 00:30:00,,,,,6.0,1023.0,(12.907617926759924+0j),5.0,2.0,,9000.0,99999,5.0,0j,0.0,1115053602100602050302304000051000600007000085000
4269,LERS,41.1473999023,1.1671700478,2024-03-12 00:30:00,,,,,11.0,1019.0,(1857.772847600425+0j),2.0,16.0,290.0,10000.0,99999,,(847.472847600425+0j),,1116002916101102020301904000051000600007000080000
4270,LESO,43.3564987183,-1.7906099558,2024-03-12 00:30:00,,,,,10.0,1023.0,(1079.5813505015788+0j),9.0,5.0,230.0,9000.0,99999,5.0,(66.2813505015788+0j),,1115052305101002090302304000051000600007000085000
4271,LEST,42.8963012695,-8.415140152,2024-03-12 00:30:00,,,,,9.0,1024.0,(7676.747244719478+0j),8.0,4.0,170.0,10000.0,99999,8.0,(6658.747244719478+0j),,1116081704100902080302404000051000600007000088000
4273,LEVC,39.4892997742,-0.4816249907,2024-03-12 00:30:00,,,,,11.0,1021.0,(1889.3830759946006+0j),0.0,4.0,280.0,10000.0,99999,,(875.2830759946006+0j),,1116002804101102000302104000051000600007000080000
4274,LEVD,41.7061004639,-4.851940155,2024-03-12 00:30:00,,,,,1.0,1023.0,(34.013967873738096+0j),-0.0,4.0,240.0,10000.0,99999,,(-983.4860321262619+0j),,1116002404100102100302304000051000600007000080000
4275,LEVT,42.8828010559,-2.7244699001,2024-03-12 00:30:00,,,,,5.0,1023.0,(15.948714927611572+0j),4.0,3.0,260.0,10000.0,99999,8.0,(-1000.1512850723884+0j),,1116082603100502040302304000051000600007000088000
4276,LEVX,42.2318000793,-8.6267700195,2024-03-12 00:30:00,,,,,10.0,1024.0,(5106.272298257719+0j),8.0,3.0,220.0,10000.0,99999,8.0,(4087.672298257719+0j),,1116082203101002080302404000051000600007000088000
4277,LEXJ,43.4271011353,-3.8200099468,2024-03-12 00:30:00,61.0,36.0,^,green,10.0,1023.0,(1079.5813505015788+0j),10.0,6.0,230.0,6000.0,99999,8.0,(65.08135050157875+0j),,11130823061010020100302304000051000600007610088000
4278,LEZG,41.6661987305,-1.0415500402,2024-03-12 00:30:00,,,,,8.0,1023.0,(6278.348740513116+0j),4.0,10.0,270.0,10000.0,99999,,(5263.748740513116+0j),,1116002710100802040302304000051000600007000080000
4279,LEZL,37.4179992676,-5.8931097984,2024-03-12 00:30:00,,,,,9.0,1023.0,(1495.0017858234685+0j),7.0,0.0,0.0,10000.0,99999,,(475.30178582346844+0j),,1116000000100902070302304000051000600007000080000
4284,LELN,42.5890007019,-5.6555600166,2024-03-12 00:30:00,,,,,2.0,1023.0,(30.469338457179354+0j),0.0,5.0,320.0,10000.0,99999,,(-987.1306615428207+0j),,1116003205100202000302304000051000600007000080000
4287,LFJL,48.9821014404,6.2513198853,2024-03-12 00:30:00,61.0,36.0,^,green,7.0,1013.0,(7062.77986481528+0j),6.0,10.0,230.0,9000.0,99999,8.0,0j,0.0,1115082310100702060301304000051000600007610088000
4288,LFLX,46.8622016907,1.7306699753,2024-03-12 00:30:00,,,,,8.0,1017.0,(4049.412788012159+0j),7.0,9.0,250.0,10000.0,99999,,(3036.312788012159+0j),,1116002509100802070301704000051000600007000080000
4289,LFMI,43.5227012634,4.9238400459,2024-03-12 00:30:00,,,,,8.0,1015.0,(1395.723901522857+0j),4.0,14.0,310.0,10000.0,99999,,0j,0.0,1116003114100802040301504000051000600007000080000
4290,LFMV,43.9072990417,4.9018301964,2024-03-12 00:30:00,,,,,7.0,1016.0,(1703.1001888982046+0j),5.0,7.0,340.0,10000.0,99999,,0j,0.0,1116003407100702050301604000051000600007000080000
4291,LFOA,47.0532989502,2.6324999332,2024-03-12 00:30:00,,,,,8.0,1017.0,(4382.393517707573+0j),7.0,6.0,260.0,10000.0,99999,5.0,0j,0.0,1116052606100802070301704000051000600007000085000
4292,LFOJ,47.9878005981,1.7605600357,2024-03-12 00:30:00,,,,,7.0,1016.0,(3669.649755155675+0j),6.0,7.0,250.0,10000.0,99999,,(2657.8497551556748+0j),,1116002507100702060301604000051000600007000080000
4293,LFOK,48.7761001587,4.1844902039,2024-03-12 00:30:00,,,,,7.0,1014.0,(4964.838433964365+0j),6.0,10.0,250.0,6000.0,99999,5.0,0j,0.0,1113052510100702060301404000051000600007000085000
4294,UMKK,54.8899993896,20.5925998688,2024-03-12 00:30:00,61.0,36.0,^,green,2.0,1015.0,(1842.5622526028812+0j),1.0,4.0,80.0,9000.0,99999,8.0,(834.0622526028812+0j),,1115080804100202010301504000051000600007610088000
4295,URML,42.8167991638,47.6523017883,2024-03-12 00:30:00,,,,,2.0,1031.0,(1251.3768834446362+0j),-1.0,5.0,340.0,10000.0,99999,3.0,(221.57688344463622+0j),0.4,1116033405100202110303104000051000600407000083000
4296,UWLL,54.2682991028,48.2266998291,2024-03-12 00:30:00,71.0,36.0,h,magenta,-6.0,1016.0,(-1.9811084008359056e-09-2.070680230527259e-09j),-7.0,4.0,200.0,8000.0,99999,6.0,(-1018.6000000019811-2.070680230527259e-09j),0.0,1114062004110602170301604000051000600007710086000
4297,LQBK,44.9413986206,17.2975006104,2024-03-12 00:30:00,,,,,7.0,1008.0,(3553.513750884311+0j),7.0,2.0,,10000.0,99999,,0j,0.0,1116003602100702070300804000051000600007000080000
4298,LQTZ,44.4586982727,18.7248001099,2024-03-12 00:30:00,,,,,4.0,1007.0,(10.438852261379868+0j),2.0,2.0,,10000.0,99999,,0j,0.0,1116003602100402020300704000051000600007000080000
4299,UUYY,61.6469993591,50.8451004028,2024-03-12 00:30:00,,,,,-12.0,1013.0,(261.0182774366808+0j),-13.0,1.0,20.0,10000.0,99999,1.0,(-750.8817225633192+0j),,11160102011112021130301304000051000600007000081000
4302,EGDY,51.0093994141,-2.6388199329,2024-03-12 00:20:00,61.0,36.0,^,green,7.0,1013.0,(1411.3018948007923+0j),6.0,4.0,210.0,6000.0,99999,4.0,(400.50189480079234+0j),,1113042104100702060301304000051000600007610084000
4303,EGOM,55.0499992371,-2.5499999523,2024-03-12 00:20:00,10.0,36.0,+,yellow,3.0,1008.0,(16.295056098507118+0j),3.0,3.0,70.0,3000.0,99999,8.0,0j,0.0,1111080703100302030300804000051000600007100088000
4304,EGOS,52.7981987,-2.6680400372,2024-03-12 00:20:00,,,,,7.0,1010.0,(2495.959684259118+0j),5.0,6.0,160.0,10000.0,99999,6.0,(1483.559684259118+0j),,1116061606100702050301004000051000600007000086000
4305,EGOV,53.2481002808,-4.5353398323,2024-03-12 00:20:00,61.0,36.0,^,green,8.0,1007.0,(1171.4081539323408+0j),7.0,16.0,170.0,5000.0,99999,8.0,(158.2081539323408+0j),,1113081716100802070300704000051000600007610088000
4306,EGQK,57.6493988037,-3.5606400967,2024-03-12 00:20:00,,,,,5.0,1008.0,(1164.3275188625246+0j),3.0,3.0,90.0,10000.0,99999,8.0,(147.02751886252463+0j),,1116080903100502030300804000051000600007000088000
4308,EGUW,52.1273002625,0.956264019,2024-03-12 00:20:00,10.0,36.0,+,yellow,5.0,1012.0,(3550.1345099725213+0j),4.0,6.0,280.0,5000.0,99999,4.0,(2540.4345099725215+0j),,1113042806100502040301204000051000600007100084000
4311,EGWC,52.6399993896,-2.3055799007,2024-03-12 00:20:00,,,,,99999.0,99999.0,(99999+0j),99999.0,3.0,170.0,10000.0,99999,,0j,0.0,11160017031099999020999990399904000051000600007000080000
4312,EGWU,51.5530014038,-0.418166995,2024-03-12 00:20:00,10.0,36.0,+,yellow,7.0,1012.0,(1696.3950700442745+0j),6.0,4.0,250.0,8000.0,99999,8.0,(685.3950700442745+0j),,1114082504100702060301204000051000600007100088000
4313,EGXE,54.2924003601,-1.535400033,2024-03-12 00:20:00,10.0,36.0,+,yellow,6.0,1010.0,(1876.9553322677018+0j),5.0,3.0,180.0,2200.0,99999,8.0,(862.9553322677018+0j),,1111081803100602050301004000051000600007100088000
4314,EGXT,52.6125984192,-0.4764530063,2024-03-12 00:20:00,10.0,36.0,+,yellow,5.0,1011.0,(3434.8825458552647+0j),5.0,2.0,190.0,2400.0,99999,8.0,(2423.2825458552647+0j),,1111081902100502050301104000051000600007100088000
4317,EGYD,53.0303001404,-0.4832420051,2024-03-12 00:20:00,10.0,36.0,+,yellow,6.0,1011.0,(2534.622142767214+0j),5.0,4.0,210.0,2600.0,99999,8.0,(1522.122142767214+0j),,1111082104100602050301104000051000600007100088000
4318,EGYE,52.9622001648,-0.5616250038,2024-03-12 00:20:00,,,,,6.0,1011.0,(3769.929247106876+0j),5.0,4.0,200.0,10000.0,99999,8.0,0j,0.0,1116082004100602050301104000051000600007000088000
4319,EICK,51.8413009644,-8.491109848,2024-03-12 00:30:00,58.0,36.0,[,green,11.0,1002.0,(2959.5441389996054+0j),11.0,15.0,230.0,6000.0,99999,3.0,(1945.2441389996054+0j),,11130323151011020110300204000051000600007580083000
4320,EIDW,53.4212989807,-6.270070076,2024-03-12 00:30:00,61.0,36.0,^,green,7.0,1004.0,(2434.1600752701725+0j),6.0,15.0,140.0,10000.0,99999,4.0,(1419.7600752701724+0j),,1116041415100702060300404000051000600007610084000
4321,EINN,52.7019996643,-8.9248199463,2024-03-12 00:30:00,,,,,11.0,1000.0,(1147.178657957365+0j),11.0,8.0,200.0,10000.0,99999,3.0,(132.778657957365+0j),,11160320081011020110300004000051000600007000083000
4325,LFRB,48.4478988647,-4.4185400009,2024-03-12 00:30:00,,,,,10.0,1016.0,(2365.549130826145+0j),9.0,13.0,220.0,10000.0,99999,6.0,(1354.0491308261448+0j),,1116062213101002090301604000051000600007000086000
4326,LPPT,38.7812995911,-9.1359195709,2024-03-12 00:30:00,,,,,11.0,1023.0,(2452.9818663019955+0j),8.0,6.0,320.0,10000.0,99999,,(1431.1818663019956+0j),,1116003206101102080302304000051000600007000080000
4327,LXGB,36.1511993408,-5.3496599197,2024-03-12 00:20:00,,,,,14.0,1022.0,(1059.709303044091+0j),10.0,5.0,250.0,10000.0,99999,,(39.909303044091075+0j),,11160025051014020100302204000051000600007000080000
4328,EGDM,51.1521987915,-1.747410059,2024-03-12 00:20:00,10.0,36.0,+,yellow,5.0,1012.0,(4826.2501020504105+0j),4.0,6.0,200.0,6000.0,99999,8.0,0j,0.0,1113082006100502040301204000051000600007100088000
4329,EGDR,50.086101532,-5.255710125,2024-03-12 00:20:00,63.0,36.0,',green,10.0,1011.0,(2087.556938801736+0j),10.0,13.0,200.0,3900.0,99999,8.0,(1076.7569388017362+0j),,11120820131010020100301104000051000600007630088000
4330,EGUB,51.6164016724,-1.0958299637,2024-03-12 00:20:00,10.0,36.0,+,yellow,7.0,1012.0,(2346.228302798808+0j),6.0,4.0,180.0,9000.0,99999,8.0,0j,0.0,1115081804100702060301204000051000600007100088000
4331,EGVO,51.2341003418,-0.9428250194,2024-03-12 00:20:00,,,,,7.0,1012.0,(3604.07284809264+0j),5.0,2.0,220.0,10000.0,99999,4.0,0j,0.0,1116042202100702050301204000051000600007000084000
4332,EGVP,51.1394004822,-1.5686099529,2024-03-12 00:20:00,10.0,36.0,+,yellow,6.0,1013.0,(3184.433654468244+0j),4.0,4.0,180.0,9000.0,99999,1.0,0j,0.0,1115011804100602040301304000051000600007100081000
4333,EGXW,53.1661987305,-0.5238109827,2024-03-12 00:20:00,10.0,36.0,+,yellow,6.0,1011.0,(2638.2389088808463+0j),5.0,3.0,200.0,2300.0,99999,8.0,(1626.0389088808463+0j),,1111082003100602050301104000051000600007100088000
4334,EGXZ,54.2055015564,-1.3820899725,2024-03-12 00:20:00,10.0,36.0,+,yellow,5.0,1010.0,(1722.041836057255+0j),5.0,6.0,110.0,2000.0,99999,8.0,0j,0.0,1111081106100502050301004000051000600007100088000
4335,LEAB,38.9485015869,-1.8635200262,2024-03-12 00:30:00,,,,,4.0,1023.0,(21.7739632257327+0j),1.0,5.0,190.0,10000.0,99999,,(-995.7260367742673+0j),,1116001905100402010302304000051000600007000080000
4336,LEBA,37.841999054,-4.8488798141,2024-03-12 00:30:00,,,,,6.0,1023.0,(3215.8693272665487+0j),5.0,2.0,,10000.0,99999,,(2196.8693272665487+0j),,1116003602100602050302304000051000600007000080000
4337,LEGT,40.2941017151,-3.7238299847,2024-03-12 00:30:00,,,,,6.0,1023.0,(16.01538273440473+0j),3.0,4.0,60.0,10000.0,99999,,0j,0.0,1116000604100602030302304000051000600007000080000
4338,LELO,42.4609534888,-2.3222351074,2024-03-12 00:30:00,,,,,6.0,1023.0,(10.492107636475215+0j),3.0,5.0,250.0,10000.0,99999,6.0,0j,0.0,1116062505100602030302304000051000600007000086000
4340,LESA,40.9520988464,-5.5019898415,2024-03-12 00:30:00,,,,,2.0,1024.0,(29.40989650934683+0j),1.0,0.0,0.0,6000.0,99999,,(-990.0901034906532+0j),,1113000000100202010302404000051000600007000080000
4341,LETO,40.4967002869,-3.4458699226,2024-03-12 00:30:00,,,,,4.0,1023.0,(20.400243877145677+0j),2.0,5.0,10.0,10000.0,99999,,(-996.0997561228543+0j),,1116000105100402020302304000051000600007000080000
4347,LIRP,43.6838989258,10.3927001953,2024-03-12 00:15:00,,,,,10.0,1009.0,(1029.7777108357816+0j),10.0,2.0,180.0,10000.0,99999,6.0,(22.577710835781545+0j),,11160618021010020100300904000051000600007000086000
4348,LRBC,46.521900177,26.9102993011,2024-03-12 00:30:00,,,,,6.0,1016.0,(5884.719940383555+0j),4.0,9.0,160.0,10000.0,99999,8.0,(4867.019940383555+0j),,1116081609100602040301604000051000600007000088000
4349,LRBS,44.503200531,26.1021003723,2024-03-12 00:30:00,61.0,36.0,^,green,8.0,1013.0,(2577.4529441937607+0j),5.0,10.0,40.0,10000.0,99999,,(1562.2529441937606+0j),,1116000410100802050301304000051000600007610080000
4350,LRIA,47.1785011292,27.6205997467,2024-03-12 00:30:00,,,,,6.0,1017.0,(4051.5812035292342+0j),4.0,18.0,120.0,10000.0,99999,8.0,0j,0.0,1116081218100602040301704000051000600007000088000
4354,LFKS,41.9244003296,9.4060001373,2024-03-12 00:30:00,,,,,10.0,1010.0,(1108.589202243848+0j),8.0,2.0,,10000.0,99999,7.0,0j,0.0,1116073602101002080301004000051000600007000087000
4355,LFRH,47.7606010437,-3.4400000572,2024-03-12 00:30:00,,,,,10.0,1018.0,(1634.1300881510208+0j),9.0,8.0,220.0,10000.0,99999,6.0,(622.8300881510208+0j),,1116062208101002090301804000051000600007000086000
4356,LFRI,46.7019004822,-1.3786300421,2024-03-12 00:30:00,,,,,8.0,1019.0,(2604.7608039593692+0j),7.0,5.0,260.0,10000.0,99999,,(1590.2608039593692+0j),,1116002605100802070301904000051000600007000080000
4358,LFRQ,47.9749984741,-4.1677899361,2024-03-12 00:30:00,,,,,9.0,1017.0,(2391.388516858981+0j),9.0,6.0,240.0,10000.0,99999,6.0,(1379.788516858981+0j),,1116062406100902090301704000051000600007000086000
4359,UMMS,53.8824996948,28.0307006836,2024-03-12 00:30:00,,,,,-3.0,1023.0,(1967.5648190799227+0j),-8.0,3.0,120.0,10000.0,99999,,(953.0648190799227+0j),,1116001203110302180302304000051000600007000080000
4360,UUWW,55.5914993286,37.2615013123,2024-03-12 00:30:00,,,,,-1.0,1023.0,(79.65074048155178+0j),-6.0,5.0,280.0,10000.0,99999,,0j,0.0,1116002805110102160302304000051000600007000080000
4361,UWKD,55.6062011719,49.2787017822,2024-03-12 00:30:00,71.0,36.0,h,magenta,-5.0,1013.0,(-0.02968735722216133-0.03102961133807331j),-6.0,3.0,250.0,7000.0,99999,8.0,0j,0.0,1114082503110502160301304000051000600007710088000
4363,LERT,36.645198822,-6.349460125,2024-03-12 00:30:00,,,,,12.0,1022.0,(1284.9165711680018+0j),11.0,3.0,50.0,10000.0,99999,,0j,0.0,11160005031012020110302204000051000600007000080000
4364,LRTC,45.0625,28.7143001556,2024-03-12 00:30:00,,,,,8.0,1017.0,(2023.2104134556225+0j),7.0,13.0,120.0,6000.0,99999,4.0,0j,0.0,1113041213100802070301704000051000600007000084000
4365,LFBT,43.1786994934,-0.0064389999,2024-03-12 00:30:00,,,,,7.0,1022.0,(9.863338257272236+0j),5.0,6.0,230.0,10000.0,99999,4.0,(-1002.0366617427277+0j),,1116042306100702050302204000051000600007000084000
4366,LFGJ,47.0390014648,5.4272499084,2024-03-12 00:30:00,61.0,36.0,^,green,6.0,1016.0,(6215.834789980968+0j),5.0,6.0,190.0,10000.0,99999,7.0,0j,0.0,1116071906100602050301604000051000600007610087000
4367,LFRM,47.948600769,0.2016669959,2024-03-12 00:30:00,,,,,8.0,1017.0,(1989.6339447048658+0j),7.0,5.0,250.0,10000.0,99999,,(980.4339447048658+0j),,1116002505100802070301704000051000600007000080000
4371,EHWO,51.4491004944,4.3420300484,2024-03-12 00:39:00,10.0,36.0,+,yellow,7.0,1010.0,(1340.1020583454927+0j),6.0,10.0,270.0,6000.0,99999,5.0,0j,0.0,1113052710100702060301004000051000600007100085000
4372,ETAD,49.9726982117,6.6925001144,2024-03-12 00:40:00,,,,,6.0,29.84,(10.83323378431671+0j),5.0,8.0,230.0,9000.0,99999,8.0,0j,0.0,111508230810060205032984000051000600007000088000
4374,LIPI,45.9786987305,13.0493001938,2024-03-11 23:55:00,10.0,36.0,+,yellow,8.0,1008.0,(1889.591534408423+0j),6.0,4.0,50.0,1800.0,99999,3.0,(881.2915344084231+0j),0.0,1111030504100802060300804000051000600007100083000
4376,EBCV,50.5758018494,3.8310000896,2024-03-12 00:43:00,10.0,36.0,+,yellow,7.0,1012.0,(2135.5819635713237+0j),6.0,9.0,280.0,3700.0,99999,4.0,0j,0.0,1112042809100702060301204000051000600007100084000
4382,ETNN,50.831199646,6.6581702232,2024-03-12 00:20:00,61.0,36.0,^,green,7.0,1010.0,(3430.03892633574+0j),6.0,4.0,230.0,8000.0,99999,6.0,(2422.53892633574+0j),,1114062304100702060301004000051000600007610086000
4383,LRCT,46.5023002625,23.8859004974,2024-03-12 00:00:00,61.0,36.0,^,green,8.0,1010.0,(7601.705621728817+0j),5.0,10.0,150.0,10000.0,99999,8.0,0j,0.0,1116081510100802050301004000051000600007610088000
4425,LTCS,37.4456634521,38.8955917358,2024-03-11 23:50:00,,,,,6.0,1023.0,(19.143824290545048+0j),-1.0,5.0,340.0,10000.0,99999,,(-1003.956175709455+0j),0.0,1116003405100602110302304000051000600007000080000
4429,LTFM,41.275333,28.752,2024-03-11 23:50:00,,,,,12.0,1016.0,(2115.284918916172+0j),5.0,8.0,170.0,10000.0,99999,,0j,0.0,1116001708101202050301604000051000600007000080000
4473,LTAT,38.4352989197,38.0909996033,2024-03-12 00:20:00,,,,,-0.0,1023.0,(39.120198683857666+0j),-4.0,6.0,220.0,10000.0,99999,,0j,0.0,1116002206110002140302304000051000600007000080000
4485,LTAZ,38.771900177,34.5345001221,2024-03-11 23:50:00,,,,,2.0,1023.0,(30.68507994815147+0j),-1.0,8.0,130.0,10000.0,99999,,0j,0.0,1116001308100202110302304000051000600007000080000
4487,LTBR,40.2551994324,29.5625991821,2024-03-11 23:50:00,,,,,5.0,1017.0,(8520.030684702033+0j),4.0,2.0,,10000.0,99999,,(7501.730684702033+0j),0.0,1116003602100502040301704000051000600007000080000
4491,LTFC,37.8554000854,30.3684005737,2024-03-11 23:50:00,,,,,3.0,1022.0,(26.68587566291593+0j),-0.0,3.0,350.0,10000.0,99999,,0j,0.0,1116003503100302100302204000051000600007000080000
4493,LTFJ,40.898601532,29.3092002869,2024-03-11 23:50:00,,,,,12.0,1016.0,(2066.211153206864+0j),5.0,5.0,60.0,10000.0,99999,,0j,0.0,1116000605101202050301604000051000600007000080000
4494,LTAC,40.1281013489,32.995098114,2024-03-12 00:20:00,,,,,1.0,1022.0,(34.49653793453228+0j),-1.0,1.0,,10000.0,99999,,(-988.8034620654677+0j),,1116003601100102110302204000051000600007000080000
4496,LTAF,36.9822006226,35.2803993225,2024-03-12 00:20:00,,,,,8.0,1023.0,(1323.1938739609718+0j),7.0,3.0,20.0,10000.0,99999,,0j,0.0,1116000203100802070302304000051000600007000080000
4497,LTAG,37.0021018982,35.4258995056,2024-03-12 00:20:00,,,,,7.0,1023.0,(2452.9818663019955+0j),5.0,3.0,20.0,10000.0,99999,,(1429.6818663019956+0j),,1116000203100702050302304000051000600007000080000
4498,LTAI,36.8987007141,30.8005008698,2024-03-12 00:20:00,,,,,10.0,1022.0,(1712.548343293764+0j),9.0,5.0,360.0,10000.0,99999,,(688.4483432937641+0j),,1116003605101002090302204000051000600007000080000
4499,LTAJ,36.9472007751,37.4786987305,2024-03-12 00:20:00,,,,,5.0,1022.0,(19.403641364378654+0j),-1.0,2.0,,10000.0,99999,,(-1003.9963586356213+0j),,1116003602100502110302204000051000600007000080000
4500,LTAP,40.8293991089,35.5219993591,2024-03-12 00:20:00,,,,,2.0,1021.0,(25.992499698634255+0j),-1.0,0.0,0.0,10000.0,99999,,0j,0.0,1116000000100202110302104000051000600007000080000
4501,LTAU,38.770401001,35.4953994751,2024-03-12 00:20:00,,,,,-1.0,1023.0,(44.14337553196336+0j),-3.0,3.0,60.0,10000.0,99999,,(-980.5566244680367+0j),,1116000603110102130302304000051000600007000080000
4502,LTBA,40.9768981934,28.8145999908,2024-03-12 00:20:00,,,,,12.0,1015.0,(1529.5394444067604+0j),6.0,3.0,60.0,10000.0,99999,,(510.93944440676034+0j),,1116000603101202060301504000051000600007000080000
4503,LTBI,39.7840995789,30.5820999146,2024-03-11 23:50:00,,,,,6.0,1020.0,(18.564013670227556+0j),-0.0,6.0,100.0,10000.0,99999,,0j,0.0,1116001006100602100302004000051000600007000080000
4504,LTBJ,38.2924003601,27.156999588,2024-03-12 00:20:00,,,,,11.0,1018.0,(2606.0351295456426+0j),5.0,7.0,190.0,10000.0,99999,,(1585.7351295456426+0j),,1116001907101102050301804000051000600007000080000
4505,LTBS,36.7131004333,28.7924995422,2024-03-12 00:20:00,,,,,9.0,1022.0,(1100.8551897995246+0j),9.0,5.0,60.0,10000.0,99999,,(78.15518979952458+0j),,1116000605100902090302204000051000600007000080000
4506,LTBU,41.1381988525,27.9190998077,2024-03-12 00:20:00,,,,,10.0,1015.0,(3591.3484466719733+0j),6.0,2.0,,10000.0,99999,,(2574.448446671973+0j),0.0,1116003602101002060301504000051000600007000080000
4507,LTCC,37.893901825,40.2010002136,2024-03-12 00:20:00,,,,,1.0,1023.0,(32.97453544370595+0j),-3.0,5.0,280.0,10000.0,99999,,(-991.2254645562941+0j),,1116002805100102130302304000051000600007000080000
4508,LTCE,39.9565010071,41.1702003479,2024-03-12 00:20:00,,,,,-7.0,1024.0,(69.36812313979692+0j),-9.0,2.0,,10000.0,99999,,(-956.1318768602031+0j),,1116003602110702190302404000051000600007000080000
4509,LTCF,40.5621986389,43.1150016785,2024-03-11 23:50:00,,,,,-9.0,1023.0,(82.95039805581428+0j),-12.0,1.0,,10000.0,99999,,0j,0.0,11160036011109021120302304000051000600007000080000
4510,LTCG,40.995098114,39.7896995544,2024-03-12 00:20:00,,,,,7.0,1024.0,(1595.8766845596085+0j),2.0,3.0,180.0,10000.0,99999,,(570.5766845596086+0j),,1116001803100702020302404000051000600007000080000
4511,LTCJ,37.9290008545,41.1166000366,2024-03-12 00:20:00,,,,,0.0,1023.0,(39.120198683857666+0j),-1.0,4.0,30.0,10000.0,99999,,0j,0.0,1116000304100002110302304000051000600007000080000
4512,LTFE,37.2505989075,27.6643009186,2024-03-12 00:20:00,,,,,13.0,1020.0,(1076.9641209051983+0j),8.0,8.0,100.0,10000.0,99999,,0j,0.0,1116001008101302080302004000051000600007000080000
4513,LTAB,39.9350013733,32.7407989502,2024-03-11 23:50:00,,,,,3.0,1022.0,(26.193220545009954+0j),1.0,0.0,0.0,10000.0,99999,,0j,0.0,1116000000100302010302204000051000600007000080000
4514,LTAD,39.949798584,32.6885986328,2024-03-11 23:50:00,,,,,2.0,1023.0,(29.550919959937886+0j),-0.0,0.0,0.0,10000.0,99999,,0j,0.0,1116000000100202100302304000051000600007000080000
4515,LTAN,37.9790000916,32.5619010925,2024-03-11 23:50:00,,,,,2.0,1023.0,(31.270572661834326+0j),-3.0,4.0,300.0,10000.0,99999,,(-990.5294273381656+0j),,1116003004100202130302304000051000600007000080000
4516,LTAR,39.8138008118,36.9034996033,2024-03-11 23:50:00,,,,,-2.0,1024.0,(46.02637429766047+0j),-5.0,4.0,160.0,10000.0,99999,,(-979.5736257023394+0j),0.0,1116001604110202150302404000051000600007000080000
4517,LTBF,39.6193008423,27.9260005951,2024-03-11 23:50:00,,,,,7.0,1017.0,(3150.374002444887+0j),6.0,0.0,0.0,10000.0,99999,,0j,0.0,1116000000100702060301704000051000600007000080000
4518,LTBG,40.3180007935,27.9776992798,2024-03-11 23:50:00,,,,,9.0,1016.0,(1753.1722870797187+0j),6.0,3.0,,10000.0,99999,,0j,0.0,1116003603100902060301604000051000600007000080000
4519,LTBL,38.5130004883,27.010099411,2024-03-11 23:50:00,,,,,15.0,1017.0,(1054.3567586172549+0j),6.0,14.0,110.0,10000.0,99999,,0j,0.0,1116001114101502060301704000051000600007000080000
4520,LTBQ,40.7350006104,30.0832996368,2024-03-11 23:50:00,,,,,6.0,1017.0,(2266.7298546438224+0j),4.0,1.0,,10000.0,99999,,0j,0.0,1116003601100602040301704000051000600007000080000
4521,LTCA,38.6068992615,39.2914009094,2024-03-11 23:50:00,,,,,2.0,1024.0,(30.30895191904945+0j),-2.0,2.0,,10000.0,99999,,0j,0.0,1116003602100202120302404000051000600007000080000
4522,LTCD,39.7102012634,39.5270004272,2024-03-11 23:50:00,,,,,-4.0,1025.0,(63.81192397205458+0j),-6.0,2.0,,10000.0,99999,,0j,0.0,1116003602110402160302504000051000600007000080000
4523,LTCI,38.4682006836,43.3322982788,2024-03-11 23:50:00,,,,,-2.0,1024.0,(45.68188800956582+0j),-4.0,4.0,70.0,10000.0,99999,1.0,(-978.5181119904342+0j),,1116010704110202140302404000051000600007000081000
4524,LTAE,40.0788993835,32.5656013489,2024-03-11 23:50:00,,,,,-1.0,1022.0,(45.521177803516764+0j),-3.0,2.0,350.0,10000.0,99999,,0j,0.0,1116003502110102130302204000051000600007000080000
