,station,lat,lon,time,weather,weatherfont,weathersymbol,weathercolour,temperature,pressure,sl_pressure,dewpoint,windspeed,winddir,visibility,visual_range,cloudcover,pressure3h_change,rain,wwletter
15,ETNG,50.9608,6.04242,2024-04-24 23:50:00,,,,,5.0,1009.0,(3661.867839350288+0j),2.0,9.0,260.0,10000.0,99999,6.0,(2652.0678393502876+0j),0.0,1116062609100502020300904000051000600007000086000
593,LGLM,39.9171,25.2363,2024-04-24 23:50:00,,,,,14.0,1004.0,(1038.5576984371367+0j),12.0,0.0,0.0,10000.0,99999,1.0,(33.857698437136605+0j),0.0,11160100001014020120300404000051000600007000081000
645,ESPA,65.5438,22.122,2024-04-24 23:50:00,,,,,-2.0,1012.0,(196.5369491790755+0j),-3.0,4.0,180.0,9000.0,99999,8.0,(-816.1630508209246+0j),0.4,1115081804110202130301204000051000600407000088000
658,LGIR,35.3397,25.1803,2024-04-24 23:50:00,,,,,16.0,1007.0,(1266.8455964508505+0j),12.0,6.0,170.0,10000.0,99999,3.0,(259.04559645085055+0j),0.0,11160317061016020120300704000051000600007000083000
659,LGKL,37.0683,22.0255,2024-04-24 23:50:00,,,,,11.0,1007.0,(1089.7244800694123+0j),10.0,5.0,340.0,10000.0,99999,1.0,(80.52448006941222+0j),0.0,11160134051011020100300704000051000600007000081000
660,LGSM,37.69,26.9117,2024-04-24 23:50:00,,,,,17.0,1006.0,(1044.733021114169+0j),13.0,2.0,,10000.0,99999,1.0,(37.43302111416915+0j),0.0,11160136021017020130300604000051000600007000081000
733,LGBL,39.2196,22.7943,2024-04-24 23:50:00,,,,,13.0,1005.0,(1234.1662283449346+0j),6.0,0.0,0.0,10000.0,99999,1.0,(228.16622834493455+0j),0.0,1116010000101302060300504000051000600007000081000
734,LGLR,39.65628,22.34,2024-04-24 23:50:00,,,,,11.0,1005.0,(1863.7177584479093+0j),6.0,0.0,0.0,10000.0,99999,1.0,(857.9177584479094+0j),0.0,1116010000101102060300504000051000600007000081000
748,LGAL,40.8559,25.9563,2024-04-24 23:50:00,10.0,36.0,+,yellow,15.0,1004.0,(1059.5304749790664+0j),14.0,0.0,0.0,3000.0,99999,3.0,(54.53047497906641+0j),0.0,11110300001015020140300404000051000600007100083000
749,LGSR,36.3992,25.4793,2024-04-24 23:50:00,,,,,18.0,1006.0,(1260.6058710961443+0j),15.0,5.0,320.0,8000.0,99999,3.0,(254.60587109614426+0j),0.0,11140332051018020150300604000051000600007000083000
750,LGPZ,38.9255,20.7653,2024-04-24 23:50:00,61.0,36.0,^,green,13.0,1007.0,(1036.2959766187296+0j),11.0,4.0,140.0,10000.0,99999,3.0,(28.295976618729583+0j),0.0,11160314041013020110300704000051000600007610083000
751,LGRX,38.1511,21.4256,2024-04-24 23:50:00,,,,,11.0,1007.0,(1155.2089085630666+0j),10.0,0.0,0.0,10000.0,99999,1.0,(147.20890856306664+0j),0.0,11160100001011020100300704000051000600007000081000
811,LTAY,37.7856,29.7013,2024-04-24 23:50:00,,,,,24.0,1008.0,(6628.425844343334+0j),3.0,18.0,160.0,10000.0,99999,,(5621.025844343334+0j),0.0,1116001618102402030300804000051000600007000080000
814,LTBH,40.1377,26.4268,2024-04-24 23:50:00,,,,,17.0,1005.0,(1051.9198430258975+0j),15.0,3.0,220.0,7000.0,99999,,(46.919843025897535+0j),0.0,11140022031017020150300504000051000600007000080000
816,LTBY,39.8099,30.5194,2024-04-24 23:50:00,,,,,19.0,1007.0,(7620.8048636122+0j),1.0,5.0,90.0,10000.0,99999,,0j,0.0,1116000905101902010300704000051000600007000080000
818,LTCB,40.96667,38.08,2024-04-24 23:50:00,,,,,19.0,1006.0,(1038.7916498070274+0j),11.0,1.0,,6000.0,99999,,(31.791649807027397+0j),0.0,11130036011019020110300604000051000600007000080000
822,LTCN,37.53883,36.95352,2024-04-24 23:50:00,,,,,16.0,1013.0,(6207.229667694276+0j),10.0,4.0,120.0,10000.0,99999,,(5193.229667694276+0j),0.0,11160012041016020100301304000051000600007000080000
823,LTDA,36.36278,36.28222,2024-04-24 23:50:00,,,,,18.0,1010.0,(1577.6484662887444+0j),12.0,7.0,340.0,10000.0,99999,,(566.6484662887444+0j),0.0,11160034071018020120301004000051000600007000080000
824,LTFD,39.5546,27.0138,2024-04-24 23:50:00,,,,,16.0,1005.0,(1114.7354070244262+0j),16.0,0.0,0.0,7000.0,99999,,(108.7354070244262+0j),0.0,11140000001016020160300504000051000600007000080000
825,LTFG,36.29922,32.3006,2024-04-24 23:50:00,,,,,22.0,1007.0,(1145.2859737256695+0j),10.0,5.0,100.0,10000.0,99999,,(138.28597372566946+0j),0.0,11160010051022020100300704000051000600007000080000
827,LTBD,37.815,27.8953,2024-04-24 23:50:00,,,,,17.0,1005.0,(1219.8193674702807+0j),16.0,6.0,210.0,10000.0,99999,,(213.81936747028067+0j),0.0,11160021061017020160300504000051000600007000080000
852,EGJB,49.435,-2.60197,2024-04-24 23:50:00,,,,,7.0,1012.0,(3106.392846451894+0j),3.0,1.0,140.0,10000.0,99999,,(2091.592846451894+0j),0.0,1116001401100702030301204000051000600007000080000
1022,EGQL,56.3729,-2.86844,2024-04-24 23:50:00,,,,,4.0,1007.0,(1355.4825737458518+0j),2.0,3.0,350.0,10000.0,99999,3.0,(344.58257374585185+0j),0.0,1116033503100402020300704000051000600007000083000
1201,EGQS,57.7052,-3.33917,2024-04-24 23:50:00,,,,,5.0,1008.0,(1314.3340563495765+0j),1.0,15.0,340.0,10000.0,99999,4.0,(303.9340563495765+0j),0.0,1116043415100502010300804000051000600007000084000
1305,ULPB,61.8852,34.1547,2024-04-25 00:00:00,,,,,0.0,1019.0,(38.967236030157345+0j),-2.0,0.0,0.0,10000.0,99999,,(-980.0327639698427+0j),0.0,1116000000100002120301904000051000600007000080000
1333,EGNS,54.0833,-4.62389,2024-04-24 23:50:00,,,,,7.0,1011.0,(1281.0449283803564+0j),2.0,6.0,320.0,10000.0,99999,3.0,(267.34492838035635+0j),0.0,1116033206100702020301104000051000600007000083000
1505,UMGG,52.527,31.0167,2024-04-25 00:00:00,10.0,36.0,+,yellow,10.0,1003.0,(3039.3155497046987+0j),10.0,3.0,190.0,5000.0,99999,8.0,(2036.3155497046987+0j),0.1,11130819031010020100300304000051000600107100088000
1513,URKA,45.0021,37.3473,2024-04-25 00:00:00,,,,,23.0,1006.0,(1279.8913244114103+0j),8.0,10.0,160.0,10000.0,99999,,(273.8913244114103+0j),0.0,1116001610102302080300604000051000600007000080000
1516,URMN,43.5129,43.6366,2024-04-25 00:00:00,,,,,13.0,1014.0,(6457.271394032555+0j),7.0,2.0,220.0,10000.0,99999,,(5442.271394032555+0j),0.0,1116002202101302070301404000051000600007000080000
1529,UWLW,54.401,48.8027,2024-04-25 00:00:00,,,,,5.0,1021.0,(3255.0796293265457+0j),2.0,3.0,280.0,10000.0,99999,,(2234.1796293265456+0j),0.0,1116002803100502020302104000051000600007000080000
1601,EGXC,53.093,-0.16601,2024-04-24 23:50:00,,,,,2.0,1011.0,(1479.6992746126496+0j),1.0,3.0,230.0,10000.0,99999,,(466.59927461264954+0j),0.0,1116002303100202010301104000051000600007000080000
1647,LGHI,38.3432,26.1406,2024-04-24 23:50:00,,,,,18.0,1004.0,(1032.7634795824813+0j),17.0,1.0,190.0,8000.0,99999,,(27.763479582481295+0j),0.0,11140019011018020170300404000051000600007000080000
1649,LKKB,50.1214,14.5436,2024-04-25 00:00:00,,,,,3.0,1006.0,(14.929673307830315+0j),-1.0,8.0,200.0,10000.0,99999,,0j,0.0,1116002008100302110300604000051000600007000080000
1651,LKLN,49.6752,13.2746,2024-04-25 00:00:00,,,,,1.0,1007.0,(28.23396048152053+0j),-1.0,3.0,230.0,10000.0,99999,2.0,(-978.7660395184795+0j),0.0,1116022303100102110300704000051000600007000082000
1654,LOXZ,47.2028,14.7442,2024-04-24 23:50:00,,,,,2.0,1007.0,(27.68132783792509+0j),-0.0,2.0,,10000.0,99999,6.0,(-983.1186721620749+0j),0.0,1116063602100202100300704000051000600007000086000
1668,LTFH,41.2545,36.5671,2024-04-24 23:50:00,,,,,20.0,1005.0,(1036.1104701620438+0j),12.0,6.0,330.0,10000.0,99999,,0j,0.0,11160033061020020120300504000051000600007000080000
1673,ULOO,57.7839,28.3956,2024-04-25 00:00:00,61.0,36.0,^,green,4.0,1006.0,(2625.1912387083394+0j),4.0,5.0,40.0,7000.0,99999,6.0,(1615.1912387083394+0j),0.2,1114060405100402040300604000051000600207610086000
1685,LIPX,45.3957,10.8885,2024-04-24 23:50:00,,,,,6.0,1007.0,(2691.8028382206494+0j),5.0,2.0,,10000.0,99999,1.0,(1683.9028382206493+0j),0.0,1116013602100602050300704000051000600007000081000
1687,LIEA,40.6321,8.29077,2024-04-24 23:50:00,,,,,13.0,1010.0,(1251.8891970771986+0j),6.0,11.0,280.0,10000.0,99999,3.0,(240.88919707719856+0j),0.0,1116032811101302060301004000051000600007000083000
1711,EIME,53.3017,-6.45133,2024-04-25 00:00:00,,,,,7.0,1011.0,(2982.919966750619+0j),3.0,4.0,50.0,10000.0,99999,3.0,(1969.419966750619+0j),0.0,1116030504100702030301104000051000600007000083000
1775,LPMR,39.8312,-8.88726,2024-04-25 00:00:00,,,,,14.0,1016.0,(1521.8148592713935+0j),11.0,12.0,350.0,10000.0,99999,3.0,(504.8148592713935+0j),0.0,11160335121014020110301604000051000600007000083000
1776,LPMT,38.7039,-9.03592,2024-04-25 00:00:00,,,,,15.0,1019.0,(1128.1429908580828+0j),9.0,10.0,340.0,10000.0,99999,,(112.14299085808284+0j),0.0,1116003410101502090301904000051000600007000080000
1844,LBIA,42.4549,26.3522,2024-04-25 00:00:00,,,,,14.0,1004.0,(2518.1980615537345+0j),12.0,8.0,60.0,10000.0,99999,8.0,0j,0.0,11160806081014020120300404000051000600007000088000
2104,LPBJ,38.0789,-7.9324,2024-04-25 00:00:00,,,,,12.0,1015.0,(3367.2431763186664+0j),9.0,5.0,290.0,10000.0,99999,,(2352.2431763186664+0j),0.0,1116002905101202090301504000051000600007000080000
2148,ETEK,49.6503,7.30007,2024-04-24 23:55:00,,,,,1.7,29.78,(1029.78+0j),0.1,6.0,260.0,10000.0,99999,5.0,(20.779999999999973+0j),0.0,111605260610017200732974000051000600007000085000
2225,LICT,37.9114,12.488,2024-04-24 23:55:00,,,,,13.0,1011.0,(1078.363111816159+0j),7.0,15.0,300.0,10000.0,99999,6.0,(65.66311181615902+0j),0.0,1116063015101302070301104000051000600007000086000
2226,LIBA,41.5414,15.7181,2024-04-24 23:55:00,,,,,6.0,1007.0,(2252.102656382555+0j),3.0,7.0,290.0,10000.0,99999,,(1243.6026563825549+0j),0.0,1116002907100602030300704000051000600007000080000
2227,LIBN,40.2392,18.1333,2024-04-24 23:55:00,,,,,13.0,1007.0,(1453.8615803009584+0j),13.0,2.0,80.0,10000.0,99999,3.0,(445.8615803009584+0j),0.4,11160308021013020130300704000051000600407000083000
2228,LIBV,40.7678,16.9333,2024-04-24 23:55:00,,,,,8.0,1007.0,(8221.075808548312+0j),6.0,1.0,,10000.0,99999,,(7214.075808548312+0j),0.0,1116003601100802060300704000051000600007000080000
2230,LIED,39.3542,8.97248,2024-04-24 23:55:00,61.0,36.0,^,green,11.0,1011.0,(1344.9550728905606+0j),11.0,11.0,310.0,8000.0,99999,4.0,(331.85507289056056+0j),0.0,11140431111011020110301104000051000600007610084000
2231,LIPI,45.9787,13.0493,2024-04-24 23:55:00,,,,,7.0,1007.0,(2028.760990965099+0j),6.0,11.0,30.0,10000.0,99999,4.0,(1020.7609909650989+0j),0.1,1116040311100702060300704000051000600107000084000
2232,LIPL,45.4322,10.2677,2024-04-24 23:55:00,,,,,8.0,1007.0,(2778.362906285364+0j),8.0,4.0,60.0,10000.0,99999,3.0,(1771.762906285364+0j),0.3,1116030604100802080300704000051000600307000083000
2233,LIPS,45.6849,12.0829,2024-04-24 23:55:00,,,,,7.0,1008.0,(1768.456541812553+0j),5.0,10.0,90.0,10000.0,99999,6.0,(760.1565418125531+0j),0.9,1116060910100702050300804000051000600907000086000
2234,LIRE,41.6545,12.4452,2024-04-24 23:55:00,,,,,9.0,1009.0,(1171.1852189582378+0j),8.0,6.0,90.0,10000.0,99999,,(161.38521895823783+0j),0.0,1116000906100902080300904000051000600007000080000
2235,LIRS,42.7597,11.0719,2024-04-24 23:55:00,,,,,5.0,1008.0,(1127.976296683151+0j),2.0,3.0,40.0,10000.0,99999,,(119.97629668315108+0j),0.0,1116000403100502020300804000051000600007000080000
2239,LICZ,37.4017,14.9224,2024-04-24 23:55:00,,,,,9.0,1011.0,(1332.824353256141+0j),9.0,6.0,280.0,8000.0,99999,1.0,(321.82435325614097+0j),0.0,1114012806100902090301104000051000600007000081000
2240,LIRM,41.0608,14.0819,2024-04-24 23:55:00,,,,,5.0,1008.0,(1216.0045584201403+0j),3.0,3.0,330.0,10000.0,99999,3.0,(208.00455842014026+0j),0.0,1116033303100502030300804000051000600007000083000
2245,ETIC,49.6987,11.9402,2024-04-24 23:55:00,,,,,1.3,29.7,(27.81519969520039+0j),-0.5,0.0,0.0,10000.0,99999,8.0,(-980.7848003047997+0j),0.0,111608000010013210332964000051000600007000088000
2252,EGUL,52.4093,0.561,2024-04-24 23:55:00,,,,,4.7,29.85,(1280.9648181988098+0j),2.1,4.0,220.0,10000.0,99999,8.0,(267.76481819880973+0j),0.0,111608220410047202732984000051000600007000088000
2262,LKKV,50.203,12.915,2024-04-25 00:00:00,85.0,36.0,v,magenta,-0.0,1004.0,(38.393626078781125+0j),-1.0,2.0,,8000.0,99999,4.0,(-966.6063739212188+0j),0.0,1114043602110002110300404000051000600007850084000
2270,LTAB,39.935,32.7408,2024-04-24 23:50:00,,,,,23.0,1010.0,(6660.469004180853+0j),3.0,6.0,,10000.0,99999,,(5649.469004180853+0j),0.0,1116003606102302030301004000051000600007000080000
2271,LTAD,39.9498,32.6886,2024-04-24 23:50:00,,,,,21.0,1011.0,(7152.986650308054+0j),2.0,4.0,50.0,10000.0,99999,4.0,(6140.986650308054+0j),0.0,1116040504102102020301104000051000600007000084000
2273,LTAN,37.979,32.5619,2024-04-24 23:50:00,,,,,20.0,1012.0,(9.256657088160944+0j),1.0,4.0,210.0,10000.0,99999,,(-1003.743342911839+0j),0.0,1116002104102002010301204000051000600007000080000
2274,LTAR,39.8138,36.9035,2024-04-24 23:50:00,,,,,11.0,1019.0,(19.647637104665918+0j),2.0,6.0,150.0,10000.0,99999,,(-1000.3523628953341+0j),0.0,1116001506101102020301904000051000600007000080000
2275,LTBG,40.318,27.9777,2024-04-24 23:50:00,,,,,15.0,1005.0,(1424.5397469417733+0j),14.0,2.0,,10000.0,99999,,(419.5397469417733+0j),0.0,11160036021015020140300504000051000600007000080000
2276,LTBI,39.7841,30.5821,2024-04-24 23:50:00,,,,,19.0,1007.0,(7602.433739700353+0j),1.0,5.0,,10000.0,99999,,(6594.433739700353+0j),0.0,1116003605101902010300704000051000600007000080000
2277,LTBL,38.513,27.0101,2024-04-24 23:50:00,,,,,18.0,1005.0,(1035.7239266088498+0j),16.0,4.0,270.0,10000.0,99999,,(29.72392660884975+0j),0.0,11160027041018020160300504000051000600007000080000
2278,LTBQ,40.735,30.0833,2024-04-24 23:50:00,,,,,11.0,1005.0,(1635.8636152967044+0j),11.0,0.0,0.0,10000.0,99999,,(629.8636152967044+0j),0.0,11160000001011020110300504000051000600007000080000
2279,LTCA,38.6069,39.2914,2024-04-24 23:50:00,,,,,10.0,1016.0,(14.380641308489563+0j),7.0,5.0,210.0,10000.0,99999,,(-1001.6193586915105+0j),0.0,1116002105101002070301604000051000600007000080000
2280,LTCD,39.7102,39.527,2024-04-24 23:50:00,,,,,9.0,1018.0,(18.275971177675203+0j),6.0,2.0,,10000.0,99999,,(-1000.7240288223248+0j),0.0,1116003602100902060301804000051000600007000080000
2281,LTCF,40.5622,43.115,2024-04-24 23:50:00,,,,,2.0,1023.0,(34.27698880514722+0j),-1.0,1.0,,10000.0,99999,,(-988.7230111948528+0j),0.0,1116003601100202110302304000051000600007000080000
2282,LTCI,38.4682,43.3323,2024-04-24 23:50:00,,,,,6.0,1022.0,(26.374014663788333+0j),1.0,3.0,90.0,10000.0,99999,2.0,(-988.3259853362117+0j),0.0,1116020903100602010302204000051000600007000082000
2296,EEEI,59.2603,24.2085,2024-04-24 23:50:00,,,,,4.0,1009.0,(1630.0695858605714+0j),-1.0,8.0,70.0,10000.0,99999,,(619.0695858605714+0j),0.0,1116000708100402110300904000051000600007000080000
2299,LTAE,40.0789,32.5656,2024-04-24 23:50:00,,,,,15.0,1010.0,(9.951797833100594+0j),6.0,4.0,360.0,10000.0,99999,,(-1001.0482021668994+0j),0.0,1116003604101502060301004000051000600007000080000
2304,EGUN,52.3619,0.48641,2024-04-24 23:55:00,,,,,5.0,29.85,(1272.9454391705224+0j),2.0,2.0,200.0,10000.0,99999,8.0,(259.6454391705224+0j),0.0,111608200210050202032984000051000600007000088000
2305,LBPG,42.2904,24.714,2024-04-25 00:00:00,,,,,13.0,1004.0,(1554.8387382238493+0j),11.0,4.0,210.0,10000.0,99999,6.0,(551.8387382238493+0j),0.3,11160621041013020110300404000051000600307000086000
2315,LGSY,38.9676,24.4872,2024-04-24 23:50:00,,,,,19.0,1004.0,(1084.7812662578792+0j),13.0,6.0,220.0,9000.0,99999,1.0,(79.08126625787918+0j),0.0,11150122061019020130300404000051000600007000081000
2359,LTBF,39.6193,27.926,2024-04-24 23:50:00,,,,,15.0,1005.0,(1896.6800477304039+0j),15.0,0.0,0.0,10000.0,99999,,(891.6800477304039+0j),0.0,11160000001015020150300504000051000600007000080000
2362,ETAR,49.4369,7.60028,2024-04-24 23:55:00,,,,,4.9,29.79,(8901.450600943765+0j),4.9,7.0,250.0,10000.0,99999,4.0,(7890.850600943764+0j),0.0,111604250710049204932974000051000600007000084000
2363,ETIH,49.2181,11.8361,2024-04-24 23:55:00,,,,,1.1,29.74,(29.723722294661812+0j),-1.1,4.0,240.0,10000.0,99999,1.0,(-978.2762777053382+0j),0.0,111601240410011211132974000051000600007000081000
2364,ETIK,49.4739,10.3881,2024-04-24 23:55:00,,,,,3.2,29.74,(16.078998299348914+0j),1.2,11.0,230.0,10000.0,99999,4.0,(-992.6210017006512+0j),0.0,111604231110032201232974000051000600007000084000
2366,EVGA,56.7783,24.8539,2024-04-25 00:20:00,61.0,36.0,^,green,6.0,1001.0,(2369.2271307084375+0j),5.0,7.0,60.0,10000.0,99999,5.0,(1365.2271307084375+0j),0.9,1116050607100602050300104000051000600907610085000
2368,ETAD,49.9727,6.6925,2024-04-24 23:55:00,,,,,1.9,29.76,(22.87903987049103+0j),0.4,7.0,250.0,10000.0,99999,,(-987.220960129509+0j),0.0,111600250710019200932974000051000600007000080000
2370,ETOU,50.0498,8.3254,2024-04-24 23:55:00,,,,,5.8,29.76,(4808.751254957616+0j),1.3,9.0,260.0,10000.0,99999,8.0,(3798.9512549576157+0j),0.0,111608260910057201732974000051000600007000088000
2377,LATI,41.4147,19.7206,2024-04-25 00:20:00,61.0,36.0,^,green,11.0,1007.0,(1432.176975975465+0j),11.0,2.0,300.0,10000.0,99999,3.0,(424.176975975465+0j),0.1,11160330021011020110300704000051000600107610083000
2378,LMML,35.8575,14.4775,2024-04-25 00:15:00,,,,,12.0,1012.0,(2013.263459603827+0j),8.0,12.0,310.0,10000.0,99999,3.0,(999.763459603827+0j),0.0,1116033112101202080301204000051000600007000083000
2379,LWSK,41.9616,21.6214,2024-04-25 00:20:00,,,,,12.0,1005.0,(3948.1002646543043+0j),6.0,6.0,340.0,10000.0,99999,6.0,(2942.1002646543043+0j),0.0,1116063406101202060300504000051000600007000086000
2410,EVVA,57.3578,21.5442,2024-04-25 00:20:00,,,,,5.0,1004.0,(1137.9264466447364+0j),4.0,6.0,40.0,10000.0,99999,8.0,0j,0.0,1116080406100502040300404000051000600007000088000
2424,LSZC,46.97444,8.39694,2024-04-25 00:20:00,,,,,2.0,1011.0,(24.055816494408546+0j),1.0,3.0,240.0,10000.0,99999,6.0,(-987.9441835055915+0j),0.8,1116062403100202010301104000051000600807000086000
2430,EKRS,55.4258,11.8067,2024-04-25 00:20:00,,,,,3.0,1005.0,(2582.8466026701003+0j),3.0,4.0,90.0,10000.0,99999,8.0,(1576.8466026701003+0j),0.0,1116080904100302030300504000051000600007000088000
2518,EGHQ,50.4406,-4.99541,2024-04-25 00:20:00,,,,,7.0,1012.0,(3494.864763706574+0j),5.0,6.0,330.0,10000.0,99999,1.0,(2479.964763706574+0j),0.0,1116013306100702050301204000051000600007000081000
2520,EGCK,53.1042,-4.34028,2024-04-25 00:20:00,,,,,5.0,1011.0,(1017.9194473804648+0j),2.0,3.0,150.0,10000.0,99999,3.0,(3.5194473804648396+0j),0.0,1116031503100502020301104000051000600007000083000
2569,ESOH,60.0201,13.5789,2024-04-25 00:20:00,,,,,3.0,1007.0,(8686.846840438018+0j),-0.0,0.0,0.0,10000.0,99999,7.0,(7679.846840438018+0j),0.0,1116070000100302100300704000051000600007000087000
2577,ESNZ,63.1944,14.5003,2024-04-25 00:20:00,,,,,1.0,1007.0,(28.528073071937825+0j),-5.0,4.0,130.0,10000.0,99999,,(-978.4719269280622+0j),0.0,1116001304100102150300704000051000600007000080000
2616,EFET,68.3626,23.4243,2024-04-25 00:20:00,71.0,36.0,h,magenta,-0.0,1009.0,(38.58482939590653+0j),-0.0,3.0,190.0,4500.0,99999,8.0,0j,0.0,1112081903110002100300904000051000600007710088000
2617,EFHA,61.856,24.7866,2024-04-25 00:20:00,,,,,-1.0,1013.0,(118.28781702064272+0j),-3.0,3.0,100.0,10000.0,99999,,(-895.7121829793573+0j),0.0,1116001003110102130301304000051000600007000080000
2618,EFJO,62.6629,29.6075,2024-04-25 00:20:00,,,,,-0.0,1016.0,(38.852514039882095+0j),-2.0,5.0,110.0,10000.0,99999,8.0,(-977.1474859601179+0j),0.0,1116081105110002120301604000051000600007000088000
2621,EFKS,65.9876,29.2394,2024-04-25 00:20:00,,,,,-2.0,1014.0,(139.39049443008926+0j),-4.0,4.0,160.0,10000.0,99999,,(-873.6095055699108+0j),0.0,1116001604110202140301404000051000600007000080000
2622,EFKT,67.701,24.8468,2024-04-25 00:20:00,,,,,-1.0,1011.0,(83.19499201030314+0j),-2.0,4.0,190.0,10000.0,99999,7.0,(-927.8050079896968+0j),0.3,1116071904110102120301104000051000600307000087000
2624,EFLP,61.0446,28.1444,2024-04-25 00:20:00,,,,,2.0,1014.0,(9.530859593413478+0j),-1.0,5.0,90.0,10000.0,99999,6.0,(-1005.4691404065866+0j),0.0,1116060905100202110301404000051000600007000086000
2625,EFMI,61.6866,27.2018,2024-04-25 00:20:00,,,,,0.0,1014.0,(38.77603271303194+0j),-2.0,2.0,80.0,10000.0,99999,6.0,(-977.4239672869681+0j),0.0,1116060802100002120301404000051000600007000086000
2627,EFSA,61.9431,28.9451,2024-04-25 00:20:00,,,,,1.0,1015.0,(14.996146602016877+0j),-2.0,4.0,100.0,10000.0,99999,8.0,(-1002.3038533979831+0j),0.0,1116081004100102120301504000051000600007000088000
2628,EFSI,62.6921,22.8323,2024-04-25 00:20:00,,,,,-1.0,1012.0,(348.7212685275312+0j),-2.0,4.0,130.0,10000.0,99999,,0j,0.0,1116001304110102120301204000051000600007000080000
2629,EFUT,60.8964,26.9384,2024-04-25 00:20:00,,,,,0.0,1013.0,(38.73779204960685+0j),-2.0,7.0,90.0,10000.0,99999,,(-975.2622079503932+0j),0.0,1116000907100002120301304000051000600007000080000
2685,ESCF,58.4023,15.5257,2024-04-25 00:20:00,,,,,-0.0,1007.0,(38.50834806905637+0j),-1.0,4.0,90.0,10000.0,99999,,(-969.9916519309436+0j),0.0,1116000904110002110300704000051000600007000080000
2687,ESIB,58.4264,12.7144,2024-04-25 00:20:00,,,,,0.0,1006.0,(38.47010740563129+0j),0.0,2.0,140.0,10000.0,99999,8.0,(-969.0298925943687+0j),0.0,1116081402100002000300604000051000600007000088000
2688,ESMV,57.2922,14.1372,2024-04-25 00:20:00,49.0,36.0,R,red,-3.0,1006.0,(25575.156948220876+0j),-3.0,0.0,0.0,350.0,99999,1.0,(24567.256948220875+0j),0.0,1110010000110302130300604000051000600007490081000
2689,ESPE,65.8753,20.1499,2024-04-25 00:20:00,71.0,36.0,h,magenta,-3.0,1011.0,(7210.981424723863+0j),-4.0,1.0,,10000.0,99999,8.0,(6199.981424723863+0j),0.2,1116083601110302140301104000051000600207710088000
2690,ESIA,58.5138,14.5071,2024-04-25 00:20:00,,,,,-1.0,1006.0,(323.08878984763874+0j),-1.0,2.0,60.0,10000.0,99999,,(-683.9112101523613+0j),0.0,1116000602110102110300604000051000600007000080000
2691,ESCM,59.8973,17.5886,2024-04-25 00:20:00,,,,,0.0,1009.0,(38.58482939590653+0j),-0.0,3.0,60.0,10000.0,99999,8.0,(-971.4151706040934+0j),0.0,1116080603100002100300904000051000600007000088000
2694,ESNV,64.5791,16.8336,2024-04-25 00:20:00,71.0,36.0,h,magenta,-1.0,1008.0,(57.209815462497865+0j),-3.0,3.0,90.0,5000.0,99999,6.0,(-950.7901845375021+0j),0.2,1113060903110102130300804000051000600207710086000
2696,ESST,60.1576,12.9913,2024-04-25 00:20:00,,,,,1.0,1007.0,(17.355619900297913+0j),-1.0,0.0,0.0,10000.0,99999,4.0,0j,0.0,1116040000100102110300704000051000600007000084000
2697,ESUP,67.2456,23.0689,2024-04-25 00:20:00,,,,,-2.0,1012.0,(549.7172170966506+0j),-2.0,4.0,140.0,10000.0,99999,6.0,(-462.28278290334936+0j),0.0,1116061404110202120301204000051000600007000086000
2698,ESND,62.0478,14.4229,2024-04-25 00:20:00,71.0,36.0,h,magenta,0.0,1007.0,(38.50834806905637+0j),0.0,4.0,80.0,5000.0,99999,5.0,(-969.4916519309436+0j),0.0,1113050804100002000300704000051000600007710085000
2714,LIMZ,44.547,7.62322,2024-04-25 00:20:00,,,,,5.0,1006.0,(12.798640246470274+0j),2.0,4.0,270.0,10000.0,99999,6.0,0j,0.0,1116062704100502020300604000051000600007000086000
2726,LICB,36.9946,14.60718,2024-04-25 00:20:00,,,,,5.0,1011.0,(7064.840382958038+0j),4.0,3.0,80.0,10000.0,99999,,(6052.840382958038+0j),0.0,1116000803100502040301104000051000600007000080000
2728,LIPO,45.4289,10.3306,2024-04-25 00:20:00,,,,,8.0,1007.0,(2912.391602530256+0j),7.0,2.0,60.0,10000.0,99999,6.0,0j,0.0,1116060602100802070300704000051000600007000086000
2732,EVLA,56.5175,21.0969,2024-04-25 00:20:00,,,,,5.0,1003.0,(1115.2036807868312+0j),4.0,3.0,20.0,10000.0,99999,6.0,(109.50368078683118+0j),0.1,1116060203100502040300304000051000600107000086000
2734,EYKA,54.9639,24.0848,2024-04-25 00:20:00,61.0,36.0,^,green,6.0,999.0,(2806.495359551565+0j),5.0,4.0,320.0,10000.0,99999,8.0,0j,0.0,1116083204100602050399904000051000600007610088000
2735,EYPA,55.9732,21.0939,2024-04-25 00:20:00,,,,,5.0,1003.0,(1239.7575137039705+0j),4.0,4.0,360.0,7000.0,99999,7.0,(235.75751370397052+0j),0.4,1114073604100502040300304000051000600407000087000
2869,EEKE,58.2299,22.5095,2024-04-25 00:20:00,61.0,36.0,^,green,4.0,1006.0,(1129.3448748931266+0j),4.0,9.0,50.0,10000.0,99999,4.0,(121.34487489312664+0j),0.5,1116040509100402040300604000051000600507610084000
2870,EETU,58.3075,26.6904,2024-04-25 00:20:00,61.0,36.0,^,green,4.0,1006.0,(3425.4585877420686+0j),1.0,10.0,70.0,10000.0,99999,8.0,(2416.4585877420686+0j),0.0,1116080710100402010300604000051000600007610088000
2871,EEPU,58.419,24.4728,2024-04-25 00:20:00,61.0,36.0,^,green,4.0,1006.0,(1442.473914307737+0j),1.0,8.0,50.0,10000.0,99999,7.0,0j,0.0,1116070508100402010300604000051000600007610087000
2882,EDBC,51.8564,11.4203,2024-04-25 00:20:00,,,,,3.0,1004.0,(10.495710828884242+0j),2.0,5.0,210.0,10000.0,99999,5.0,(-994.5042891711157+0j),0.2,1116052105100302020300404000051000600207000085000
2922,EDJA,47.9888,10.2395,2024-04-25 00:20:00,,,,,1.0,1009.0,(32.08502252305583+0j),0.0,9.0,220.0,10000.0,99999,5.0,0j,0.0,1116052209100102000300904000051000600007000085000
2929,EDTY,49.11833,9.78389,2024-04-25 00:20:00,,,,,3.0,1008.0,(18.41635845715789+0j),2.0,7.0,230.0,10000.0,99999,5.0,(-989.5836415428421+0j),0.0,1116052307100302020300804000051000600007000085000
2933,EDWE,53.39111,7.2275,2024-04-25 00:20:00,,,,,2.0,1005.0,(1057.0745271240685+0j),1.0,5.0,260.0,10000.0,99999,4.0,(50.77452712406853+0j),0.0,1116042605100202010300504000051000600007000084000
2936,EKBI,55.7403,9.15178,2024-04-25 00:20:00,,,,,4.0,1004.0,(3773.586050856477+0j),2.0,2.0,120.0,10000.0,99999,8.0,(2767.2860508564772+0j),0.0,1116081202100402020300404000051000600007000088000
2937,EKCH,55.6179,12.656,2024-04-25 00:20:00,,,,,3.0,1006.0,(1208.641133036292+0j),-1.0,7.0,100.0,10000.0,99999,,(201.6411330362921+0j),0.0,1116001007100302110300604000051000600007000080000
2938,EKEB,55.5259,8.5534,2024-04-25 00:20:00,10.0,36.0,+,yellow,2.0,1004.0,(3106.567633435075+0j),2.0,3.0,60.0,2800.0,99999,,(2100.567633435075+0j),0.0,1111000603100202020300404000051000600007100080000
2940,EKRK,55.5856,12.1314,2024-04-25 00:20:00,,,,,2.0,1005.0,(4356.579335618015+0j),0.0,4.0,100.0,10000.0,99999,,(3350.5793356180147+0j),0.0,1116001004100202000300504000051000600007000080000
2941,EKRN,55.0633,14.7596,2024-04-25 00:20:00,,,,,2.0,1006.0,(2045.8744292579752+0j),-0.0,5.0,70.0,10000.0,99999,1.0,(1039.8744292579752+0j),0.0,1116010705100202100300604000051000600007000081000
2942,EKSB,54.9644,9.79173,2024-04-25 00:20:00,,,,,4.0,1004.0,(1218.6056168558823+0j),3.0,1.0,,10000.0,99999,2.0,(213.60561685588232+0j),0.0,1116023601100402030300404000051000600007000082000
2943,EKSP,55.2256,9.26393,2024-04-25 00:20:00,,,,,3.0,1004.0,(3032.488664126141+0j),2.0,2.0,360.0,10000.0,99999,6.0,(2027.488664126141+0j),0.0,1116063602100302020300404000051000600007000086000
2944,EKVD,55.4363,9.33092,2024-04-25 00:20:00,,,,,4.0,1004.0,(2489.5440984057495+0j),2.0,4.0,70.0,10000.0,99999,,(1484.5440984057495+0j),0.0,1116000704100402020300404000051000600007000080000
2952,EETN,59.4133,24.8328,2024-04-25 00:20:00,,,,,3.0,1008.0,(2880.5969183906413+0j),-2.0,9.0,70.0,10000.0,99999,,(1869.5969183906413+0j),0.0,1116000709100302120300804000051000600007000080000
2953,EFHK,60.3172,24.9633,2024-04-25 00:20:00,,,,,1.0,1011.0,(9.71112560171532+0j),-0.0,8.0,50.0,10000.0,99999,,(-1003.2888743982846+0j),0.0,1116000508100102100301104000051000600007000080000
2954,EFIV,68.6073,27.4053,2024-04-25 00:20:00,80.0,36.0,q,green,1.0,1011.0,(19.60593392967563+0j),0.0,5.0,220.0,10000.0,99999,6.0,(-991.3940660703244+0j),0.3,1116062205100102000301104000051000600307800086000
2955,EFJY,62.3995,25.6783,2024-04-25 00:20:00,,,,,-5.0,1014.0,(-14.716720302190955-15.382107195693063j),-6.0,2.0,340.0,10000.0,99999,3.0,(-1028.7167203021909-15.382107195693063j),0.0,1116033402110502160301404000051000600007000083000
2956,EFKE,65.7787,24.5821,2024-04-25 00:20:00,,,,,-0.0,1013.0,(38.73779204960685+0j),-1.0,5.0,150.0,10000.0,99999,4.0,(-974.2622079503932+0j),0.0,1116041505110002110301304000051000600007000084000
2957,EFKK,63.7212,23.1431,2024-04-25 00:20:00,,,,,-0.0,1013.0,(38.73779204960685+0j),-0.0,2.0,130.0,10000.0,99999,,(-974.2622079503932+0j),0.0,1116001302110002100301304000051000600007000080000
2959,EFMA,60.1222,19.8982,2024-04-25 00:20:00,,,,,3.0,1010.0,(1213.4468631875297+0j),0.0,3.0,80.0,10000.0,99999,8.0,(202.44686318752974+0j),0.0,1116080803100302000301004000051000600007000088000
2960,EFOU,64.9301,25.3546,2024-04-25 00:20:00,,,,,1.0,1014.0,(3062.692734485963+0j),-0.0,4.0,140.0,10000.0,99999,8.0,(2049.692734485963+0j),0.0,1116081404100102100301404000051000600007000088000
2961,EFPO,61.4617,21.8,2024-04-25 00:20:00,,,,,-0.0,1012.0,(38.699551386181774+0j),-3.0,3.0,80.0,10000.0,99999,,(-973.3004486138183+0j),0.0,1116000803110002130301204000051000600007000080000
2962,EFRO,66.5648,25.8304,2024-04-25 00:20:00,,,,,-2.0,1013.0,(283.430062149167+0j),-4.0,6.0,150.0,10000.0,99999,6.0,(-728.569937850833+0j),0.0,1116061506110202140301304000051000600007000086000
2963,EFTP,61.4141,23.6044,2024-04-25 00:20:00,,,,,-2.0,1012.0,(9865.933160967556+0j),-3.0,5.0,90.0,10000.0,99999,,(8852.933160967556+0j),0.0,1116000905110202130301204000051000600007000080000
2964,EFTU,60.5141,22.2628,2024-04-25 00:20:00,,,,,1.0,1010.0,(8856.583934608925+0j),-2.0,6.0,90.0,10000.0,99999,,(7844.583934608925+0j),0.0,1116000906100102120301004000051000600007000080000
2965,EFVA,63.0507,21.7622,2024-04-25 00:20:00,,,,,0.0,1012.0,(38.699551386181774+0j),-1.0,4.0,130.0,10000.0,99999,,(-973.3004486138183+0j),0.0,1116001304100002110301204000051000600007000080000
2966,ENBO,67.2692,14.3653,2024-04-25 00:20:00,,,,,3.0,1008.0,(1535.9148264380865+0j),-4.0,13.0,100.0,10000.0,99999,,(526.9148264380865+0j),0.0,1116001013100302140300804000051000600007000080000
2967,ENBR,60.2934,5.21814,2024-04-25 00:20:00,,,,,1.0,1004.0,(9.227858151526855+0j),-0.0,4.0,50.0,10000.0,99999,6.0,0j,0.0,1116060504100102100300404000051000600007000086000
2968,ENCN,58.2042,8.08537,2024-04-25 00:20:00,,,,,2.0,1005.0,(2156.3658329165196+0j),1.0,3.0,30.0,10000.0,99999,5.0,(1149.6658329165195+0j),0.0,1116050303100202010300504000051000600007000085000
2969,ENGM,60.1939,11.1004,2024-04-25 00:20:00,,,,,2.0,1006.0,(15.811366249397938+0j),1.0,4.0,70.0,10000.0,99999,3.0,0j,0.0,1116030704100202010300604000051000600007000083000
2970,ENHD,59.3453,5.20836,2024-04-25 00:20:00,,,,,-1.0,1004.0,(-0.6783498144412526-0.7090200362345959j),-3.0,3.0,80.0,10000.0,99999,3.0,(-1005.6783498144413-0.7090200362345959j),0.0,1116030803110102130300404000051000600007000083000
2972,ENTC,69.6833,18.9189,2024-04-25 00:20:00,,,,,2.0,1010.0,(1600.5643906764076+0j),-2.0,0.0,0.0,10000.0,99999,6.0,(589.7643906764076+0j),0.0,1116060000100202120301004000051000600007000086000
2973,ENVA,63.4578,10.924,2024-04-25 00:20:00,,,,,-0.0,1008.0,(38.54658873248145+0j),-1.0,5.0,130.0,10000.0,99999,2.0,(-971.1534112675185+0j),0.0,1116021305110002110300804000051000600007000082000
2974,ENZV,58.8767,5.63778,2024-04-25 00:20:00,,,,,3.0,1004.0,(1357.9024468245009+0j),-1.0,0.0,0.0,10000.0,99999,8.0,0j,0.0,1116080000100302110300404000051000600007000088000
2975,EVRA,56.9236,23.9711,2024-04-25 00:20:00,61.0,36.0,^,green,5.0,1002.0,(1261.025872264837+0j),4.0,8.0,40.0,10000.0,99999,4.0,0j,0.0,1116040408100502040300204000051000600007610084000
2976,EYVI,54.6341,25.2858,2024-04-25 00:20:00,61.0,36.0,^,green,7.0,997.0,(5316.976051519826+0j),7.0,1.0,,6000.0,99999,8.0,(4318.976051519826+0j),0.7,1113083601100702070399704000051000600707610088000
2978,LGAV,37.9364,23.9445,2024-04-25 00:20:00,,,,,19.0,1005.0,(1621.9724393672097+0j),3.0,1.0,,10000.0,99999,1.0,0j,0.0,1116013601101902030300504000051000600007000081000
2980,LGKR,39.6019,19.9117,2024-04-25 00:20:00,,,,,14.0,1007.0,(1021.7933640547434+0j),11.0,12.0,150.0,10000.0,99999,2.0,(13.793364054743392+0j),0.0,11160215121014020110300704000051000600007000082000
2981,LGRP,36.4054,28.0862,2024-04-25 00:20:00,,,,,20.0,1005.0,(1034.3715069303591+0j),19.0,10.0,240.0,9000.0,99999,1.0,(28.07150693035919+0j),0.0,11150124101020020190300504000051000600007000081000
3004,ENAL,62.5625,6.1197,2024-04-25 00:20:00,,,,,1.0,1006.0,(4153.876336359424+0j),-1.0,7.0,60.0,10000.0,99999,,(3145.9763363594243+0j),0.0,1116000607100102110300604000051000600007000080000
3005,ENAN,69.2925,16.1442,2024-04-25 00:20:00,,,,,1.0,1009.0,(2850.8570875368723+0j),-3.0,3.0,230.0,10000.0,99999,1.0,0j,0.0,1116012303100102130300904000051000600007000081000
3010,ENDU,69.0558,18.5404,2024-04-25 00:20:00,,,,,2.0,1009.0,(7121.934900915873+0j),-3.0,0.0,0.0,10000.0,99999,3.0,0j,0.0,1116030000100202130300904000051000600007000083000
3020,ENOL,63.6989,9.604,2024-04-25 00:20:00,,,,,1.0,1008.0,(2140.088926490207+0j),-1.0,5.0,60.0,10000.0,99999,2.0,(1130.588926490207+0j),0.0,1116020605100102110300804000051000600007000082000
3024,ENRO,62.5784,11.3423,2024-04-25 00:20:00,,,,,-4.0,1005.0,(106.46529530324756+0j),-8.0,2.0,330.0,10000.0,99999,7.0,(-899.5347046967524+0j),0.0,1116073302110402180300504000051000600007000087000
3026,ENRY,59.3789,10.7856,2024-04-25 00:20:00,,,,,3.0,1006.0,(3589.959529475583+0j),1.0,3.0,50.0,10000.0,99999,3.0,0j,0.0,1116030503100302010300604000051000600007000083000
3032,ENTO,59.1867,10.2586,2024-04-25 00:20:00,71.0,36.0,h,magenta,1.0,1006.0,(14.003396740064789+0j),1.0,2.0,,2300.0,99999,,0j,0.0,1111003602100102010300604000051000600007710080000
3035,ESGG,57.6628,12.2798,2024-04-25 00:20:00,,,,,-0.0,1005.0,(38.4318667422062+0j),-1.0,6.0,130.0,10000.0,99999,,(-967.5681332577938+0j),0.0,1116001306110002110300504000051000600007000080000
3036,ESGJ,57.7576,14.0687,2024-04-25 00:20:00,41.0,36.0,J,yellow,-3.0,1005.0,(910.1543705049692+0j),-3.0,0.0,0.0,10000.0,99999,,(-97.74562949503081+0j),0.0,1116000000110302130300504000051000600007410080000
3037,ESGP,57.7747,11.8704,2024-04-25 00:20:00,,,,,1.0,1006.0,(3640.8002042741964+0j),-1.0,0.0,0.0,10000.0,99999,,(2633.8002042741964+0j),0.0,1116000000100102110300604000051000600007000080000
3038,ESKN,58.7886,16.9122,2024-04-25 00:20:00,,,,,1.0,1007.0,(7809.13001402765+0j),1.0,3.0,60.0,7000.0,99999,7.0,(6801.13001402765+0j),0.0,1114070603100102010300704000051000600007000087000
3039,ESMK,55.9217,14.0855,2024-04-25 00:20:00,,,,,-4.0,1006.0,(452.75157910779166+0j),-4.0,2.0,290.0,5000.0,99999,,(-554.2484208922083+0j),0.0,1113002902110402140300604000051000600007000080000
3040,ESMS,55.53631,13.3762,2024-04-25 00:20:00,,,,,0.0,1005.0,(38.4318667422062+0j),-1.0,3.0,100.0,10000.0,99999,,(-967.5681332577938+0j),0.0,1116001003100002110300504000051000600007000080000
3046,ESOK,59.4447,13.3374,2024-04-25 00:20:00,,,,,0.0,1006.0,(38.47010740563129+0j),-1.0,2.0,,10000.0,99999,4.0,(-968.5298925943687+0j),0.0,1116043602100002110300604000051000600007000084000
3047,ESOW,59.5894,16.6336,2024-04-25 00:20:00,,,,,-0.0,1009.0,(38.58482939590653+0j),-3.0,5.0,10.0,10000.0,99999,3.0,(-970.4151706040934+0j),0.0,1116030105110002130300904000051000600007000083000
3049,ESSB,59.3544,17.9417,2024-04-25 00:20:00,,,,,3.0,1008.0,(1604.2788177539862+0j),1.0,3.0,90.0,10000.0,99999,7.0,(594.3788177539863+0j),0.0,1116070903100302010300804000051000600007000087000
3050,ESSD,60.422,15.5152,2024-04-25 00:20:00,51.0,36.0,T,green,2.0,1007.0,(12.738017215999221+0j),2.0,1.0,150.0,10000.0,99999,7.0,(-995.9619827840008+0j),0.0,1116071501100202020300704000051000600007510087000
3051,ESSP,58.5863,16.2506,2024-04-25 00:20:00,41.0,36.0,J,yellow,-4.0,1007.0,(748.5664776146256+0j),-4.0,0.0,0.0,250.0,99999,,(-259.43352238537443+0j),0.0,1110000000110402140300704000051000600007410080000
3052,ESSV,57.6628,18.3462,2024-04-25 00:20:00,,,,,-0.0,1006.0,(38.47010740563129+0j),-1.0,2.0,60.0,10000.0,99999,3.0,(-969.9298925943687+0j),0.0,1116030602110002110300604000051000600007000083000
3053,LSGC,47.0839,6.79284,2024-04-25 00:20:00,,,,,-1.0,1009.0,(43.69317025482223+0j),-1.0,5.0,230.0,10000.0,99999,5.0,(-970.3068297451778+0j),0.0,1116052305110102110300904000051000600007000085000
3054,LSGG,46.2381,6.10895,2024-04-25 00:20:00,,,,,2.0,1012.0,(23.63770670743657+0j),-0.0,2.0,,10000.0,99999,2.0,(-990.6622932925634+0j),0.0,1116023602100202100301204000051000600007000082000
3055,LSGS,46.2196,7.32676,2024-04-25 00:20:00,,,,,3.0,1011.0,(20.612226190395297+0j),1.0,5.0,260.0,10000.0,99999,6.0,(-991.8877738096047+0j),0.2,1116062605100302010301104000051000600207000086000
3056,LSZA,46.0043,8.91058,2024-04-25 00:20:00,,,,,7.0,1007.0,(7345.638915805681+0j),-3.0,2.0,,10000.0,99999,,(6339.638915805681+0j),0.0,1116003602100702130300704000051000600007000080000
3057,LSZB,46.9141,7.49715,2024-04-25 00:20:00,,,,,2.0,1011.0,(25.279738586902678+0j),1.0,3.0,150.0,10000.0,99999,6.0,(-986.7202614130973+0j),0.7,1116061503100202010301104000051000600707000086000
3058,LSZG,47.1816,7.41719,2024-04-25 00:20:00,,,,,3.0,1011.0,(19.36430323833177+0j),1.0,2.0,200.0,10000.0,99999,2.0,(-992.6356967616682+0j),0.0,1116022002100302010301104000051000600007000082000
3059,LSZH,47.4647,8.54917,2024-04-25 00:20:00,,,,,3.0,1011.0,(19.402439294434593+0j),0.0,4.0,250.0,10000.0,99999,3.0,(-994.1975607055655+0j),0.0,1116032504100302000301104000051000600007000083000
3060,LSZR,47.485,9.56077,2024-04-25 00:20:00,,,,,4.0,1010.0,(15.431112552829838+0j),0.0,3.0,,10000.0,99999,8.0,(-995.5688874471701+0j),0.3,1116083603100402000301004000051000600307000088000
3061,LSZS,46.5341,9.88411,2024-04-25 00:20:00,,,,,-6.0,1006.0,(63.09480505293138+0j),-8.0,2.0,200.0,10000.0,99999,8.0,(-942.9051949470686+0j),0.0,1116082002110602180300604000051000600007000088000
3062,EGAA,54.6575,-6.21583,2024-04-25 00:20:00,,,,,5.0,1011.0,(3384.2772398372886+0j),2.0,7.0,280.0,10000.0,99999,6.0,(2370.0772398372883+0j),0.0,1116062807100502020301104000051000600007000086000
3063,EGBB,52.4539,-1.74803,2024-04-25 00:20:00,,,,,1.0,1011.0,(15.462497746180516+0j),-0.0,2.0,190.0,10000.0,99999,8.0,(-996.5375022538195+0j),0.0,1116081902100102100301104000051000600007000088000
3065,EGFF,51.3967,-3.34333,2024-04-25 00:20:00,,,,,4.0,1011.0,(3455.1582774696885+0j),1.0,6.0,330.0,10000.0,99999,,(2441.0582774696886+0j),0.0,1116003306100402010301104000051000600007000080000
3066,EGGD,51.3827,-2.71909,2024-04-25 00:20:00,,,,,6.0,1010.0,(5980.083429078568+0j),1.0,6.0,150.0,10000.0,99999,,(4966.4834290785675+0j),0.0,1116001506100602010301004000051000600007000080000
3070,EGLF,51.2758,-0.77633,2024-04-25 00:20:00,,,,,1.0,1011.0,(12.255344548524045+0j),-1.0,3.0,220.0,10000.0,99999,,(-1001.944655451476+0j),0.0,1116002203100102110301104000051000600007000080000
3074,EGCC,53.3537,-2.27495,2024-04-25 00:20:00,,,,,3.0,1011.0,(5044.939100220789+0j),1.0,4.0,170.0,10000.0,99999,6.0,(4030.7391002207896+0j),0.0,1116061704100302010301104000051000600007000086000
3075,EGLL,51.4706,-0.46194,2024-04-25 00:20:00,,,,,5.0,1012.0,(1649.539652780021+0j),0.0,5.0,280.0,10000.0,99999,,(635.639652780021+0j),0.0,1116002805100502000301204000051000600007000080000
3076,EGNM,53.8659,-1.66057,2024-04-25 00:20:00,,,,,3.0,1009.0,(11.784230608227762+0j),1.0,10.0,260.0,10000.0,99999,,(-1001.5157693917722+0j),0.0,1116002610100302010300904000051000600007000080000
3078,EGNX,52.8311,-1.32806,2024-04-25 00:20:00,,,,,4.0,1010.0,(4560.6959036897015+0j),-0.0,6.0,240.0,10000.0,99999,6.0,(3547.4959036897017+0j),0.0,1116062406100402100301004000051000600007000086000
3079,EGPA,58.9578,-2.905,2024-04-25 00:20:00,,,,,4.0,1008.0,(1475.3084755781906+0j),1.0,12.0,340.0,10000.0,99999,3.0,(464.50847557819066+0j),0.0,1116033412100402010300804000051000600007000083000
3080,EGPB,59.8789,-1.29556,2024-04-25 00:20:00,61.0,36.0,^,green,3.0,1007.0,(1247.2067184193263+0j),1.0,8.0,360.0,10000.0,99999,4.0,(239.10671841932628+0j),0.0,1116043608100302010300704000051000600007610084000
3087,EGTE,50.7344,-3.41389,2024-04-25 00:20:00,,,,,5.0,1012.0,(1811.142372272297+0j),4.0,2.0,,10000.0,99999,,(796.7423722722971+0j),0.0,1116003602100502040301204000051000600007000080000
3089,EGAC,54.6181,-5.8725,2024-04-25 00:20:00,,,,,7.0,1011.0,(1086.1784429605343+0j),2.0,3.0,290.0,10000.0,99999,8.0,(71.97844296053427+0j),0.0,1116082903100702020301104000051000600007000088000
3094,EGPC,58.4589,-3.09306,2024-04-25 00:20:00,,,,,2.0,1008.0,(3852.7413405980183+0j),-1.0,7.0,300.0,10000.0,99999,,(2842.7413405980183+0j),0.0,1116003007100202110300804000051000600007000080000
3096,EGPF,55.8719,-4.43306,2024-04-25 00:20:00,,,,,4.0,1008.0,(1242.1802695870742+0j),1.0,8.0,230.0,10000.0,99999,,(230.0802695870742+0j),0.0,1116002308100402010300804000051000600007000080000
3106,EDGS,50.7077,8.08297,2024-04-25 00:20:00,,,,,1.0,1005.0,(31.644906211079693+0j),1.0,11.0,280.0,7000.0,99999,4.0,(-973.3550937889203+0j),0.0,1114042811100102010300504000051000600007000084000
3107,EDLV,51.6024,6.14217,2024-04-25 00:20:00,,,,,5.0,1008.0,(1838.5053288471888+0j),3.0,5.0,270.0,10000.0,99999,4.0,0j,0.0,1116042705100502030300804000051000600007000084000
3114,ESGT,58.3181,12.345,2024-04-25 00:20:00,49.0,36.0,R,red,-0.0,1006.0,(38.47010740563129+0j),-1.0,2.0,140.0,100.0,99999,8.0,(-968.5298925943687+0j),0.0,1110081402110002110300604000051000600007490088000
3116,ESMQ,56.6855,16.2876,2024-04-25 00:20:00,,,,,-1.0,1006.0,(500.8965843876663+0j),-1.0,1.0,300.0,10000.0,99999,8.0,(-507.6034156123337+0j),0.0,1116083001110102110300604000051000600007000088000
3117,ESMT,56.6911,12.8202,2024-04-25 00:20:00,,,,,-2.0,1006.0,(29.602182300629636+0j),-3.0,3.0,60.0,9000.0,99999,,(-977.3978176993703+0j),0.0,1115000603110202130300604000051000600007000080000
3121,ESNX,65.5903,19.2819,2024-04-25 00:20:00,71.0,36.0,h,magenta,-5.0,1009.0,(869.0251067429265+0j),-6.0,1.0,70.0,7000.0,99999,7.0,0j,0.0,1114070701110502160300904000051000600007710087000
3122,ESOE,59.2237,15.038,2024-04-25 00:20:00,,,,,-0.0,1007.0,(38.50834806905637+0j),-2.0,3.0,60.0,10000.0,99999,,(-969.1916519309436+0j),0.0,1116000603110002120300704000051000600007000080000
3124,ESTA,56.2961,12.8471,2024-04-25 00:20:00,,,,,-1.0,1006.0,(0.2608394816829855+0j),-1.0,3.0,100.0,10000.0,99999,,(-1006.739160518317+0j),0.0,1116001003110102110300604000051000600007000080000
3125,ESTL,56.0828,13.2125,2024-04-25 00:20:00,,,,,-2.0,1006.0,(0.07776542659098983+0j),-2.0,3.0,70.0,10000.0,99999,,(-1006.922234573409+0j),0.0,1116000703110202120300604000051000600007000080000
3126,ESUT,65.8061,15.0828,2024-04-25 00:20:00,71.0,36.0,h,magenta,-3.0,1007.0,(110.28346566088834+0j),-3.0,3.0,130.0,10000.0,99999,5.0,(-896.7165343391116+0j),0.3,1116051303110302130300704000051000600307710085000
3141,EGGP,53.3336,-2.84972,2024-04-25 00:20:00,,,,,4.0,1011.0,(1792.1213747233044+0j),2.0,4.0,260.0,10000.0,99999,,0j,0.0,1116002604100402020301104000051000600007000080000
3142,EGGW,51.8747,-0.36833,2024-04-25 00:20:00,,,,,2.0,1011.0,(13.229051735084317+0j),1.0,4.0,230.0,10000.0,99999,,(-1000.3709482649157+0j),0.0,1116002304100202010301104000051000600007000080000
3145,EGNJ,53.5744,-0.35083,2024-04-25 00:20:00,,,,,1.0,1010.0,(6874.309775518087+0j),0.0,8.0,200.0,10000.0,99999,,(5861.009775518087+0j),0.0,1116002008100102000301004000051000600007000080000
3147,EGPE,57.5425,-4.0475,2024-04-25 00:20:00,,,,,5.0,1009.0,(1232.1560504210004+0j),1.0,7.0,350.0,10000.0,99999,6.0,(222.15605042100037+0j),0.1,1116063507100502010300904000051000600107000086000
3148,EGPL,57.4811,-7.36278,2024-04-25 00:20:00,,,,,6.0,1010.0,(1121.784022718275+0j),3.0,11.0,30.0,10000.0,99999,5.0,(109.78402271827508+0j),0.0,1116050311100602030301004000051000600007000085000
3151,EGSS,51.885,0.235,2024-04-25 00:20:00,,,,,3.0,1011.0,(6624.574347953848+0j),1.0,2.0,230.0,10000.0,99999,,(5610.574347953848+0j),0.0,1116002302100302010301104000051000600007000080000
3157,LIMC,45.6306,8.72811,2024-04-25 00:20:00,,,,,5.0,1007.0,(8474.968656978654+0j),1.0,3.0,20.0,10000.0,99999,,(7468.468656978654+0j),0.0,1116000203100502010300704000051000600007000080000
3158,LIMF,45.2008,7.64963,2024-04-25 00:20:00,,,,,5.0,1007.0,(10.518268697627931+0j),2.0,7.0,10.0,10000.0,99999,,(-995.981731302372+0j),0.0,1116000107100502020300704000051000600007000080000
3159,LIML,45.4451,9.27674,2024-04-25 00:20:00,,,,,9.0,1007.0,(2662.4235361220244+0j),6.0,4.0,50.0,10000.0,99999,3.0,(1655.5235361220243+0j),0.0,1116030504100902060300704000051000600007000083000
3172,ESDF,56.2667,15.265,2024-04-25 00:20:00,,,,,-3.0,1006.0,(1.6131894041558288+0j),-4.0,4.0,10.0,10000.0,99999,,(-1006.5868105958442+0j),0.0,1116000104110302140300604000051000600007000080000
3173,ESNG,67.1324,20.8146,2024-04-25 00:20:00,,,,,-4.0,1010.0,(726.5637096696946+0j),-5.0,0.0,0.0,10000.0,99999,1.0,(-283.4362903303054+0j),0.0,1116010000110402150301004000051000600007000081000
3174,ESNK,63.0486,17.7689,2024-04-25 00:20:00,,,,,-1.0,1011.0,(174.9804620614225+0j),-2.0,5.0,180.0,10000.0,99999,8.0,(-836.0195379385775+0j),0.0,1116081805110102120301104000051000600007000088000
3175,ESNN,62.5281,17.4439,2024-04-25 00:20:00,10.0,36.0,+,yellow,-3.0,1011.0,(834.166805344096+0j),-3.0,4.0,110.0,2100.0,99999,8.0,(-177.13319465590394+0j),0.0,1111081104110302130301104000051000600007100088000
3176,ESNO,63.4083,18.99,2024-04-25 00:20:00,49.0,36.0,R,red,-2.0,1011.0,(84963.21070281311+0j),-2.0,4.0,100.0,300.0,99999,8.0,(83952.21070281311+0j),0.0,1110081004110202120301104000051000600007490088000
3177,ESNQ,67.822,20.3368,2024-04-25 00:20:00,71.0,36.0,h,magenta,-5.0,1008.0,(349.0357076074795+0j),-5.0,2.0,200.0,10000.0,99999,5.0,(-659.9642923925205+0j),0.0,1116052002110502150300804000051000600007710085000
3178,ESNS,64.6248,21.0769,2024-04-25 00:20:00,,,,,-1.0,1012.0,(937755788.1031545+0j),-1.0,3.0,,10000.0,99999,8.0,(937754776.1031545+0j),0.0,1116083603110102110301204000051000600007000088000
3179,ESNU,63.7918,20.2828,2024-04-25 00:20:00,,,,,-0.0,1012.0,(38.699551386181774+0j),-2.0,3.0,160.0,10000.0,99999,8.0,(-973.3004486138183+0j),0.0,1116081603110002120301204000051000600007000088000
3180,ESSL,58.4062,15.6805,2024-04-25 00:20:00,,,,,-2.0,1007.0,(-0.6803767561178699-0.7111386220002371j),-2.0,5.0,90.0,10000.0,99999,,(-1008.6803767561179-0.7111386220002371j),0.0,1116000905110202120300704000051000600007000080000
3185,LIBD,41.1389,16.7606,2024-04-25 00:20:00,,,,,6.0,1007.0,(2206.2455837943967+0j),5.0,4.0,200.0,10000.0,99999,,(1197.9455837943967+0j),0.0,1116002004100602050300704000051000600007000080000
3186,LIBR,40.6576,17.947,2024-04-25 00:20:00,,,,,14.0,1006.0,(1124.1940081963262+0j),8.0,7.0,350.0,10000.0,99999,,(116.99400819632615+0j),0.0,1116003507101402080300604000051000600007000080000
3188,LICC,37.4668,15.0664,2024-04-25 00:20:00,,,,,8.0,1010.0,(1184.1037739065055+0j),6.0,11.0,240.0,10000.0,99999,,(172.90377390650542+0j),0.0,1116002411100802060301004000051000600007000080000
3189,LICJ,38.176,13.091,2024-04-25 00:20:00,61.0,36.0,^,green,15.0,1011.0,(1165.3474373064062+0j),8.0,19.0,270.0,10000.0,99999,3.0,(154.34743730640616+0j),0.4,1116032719101502080301104000051000600407610083000
3190,LIEE,39.2515,9.05428,2024-04-25 00:20:00,,,,,11.0,1012.0,(1053.2201982383483+0j),8.0,4.0,50.0,10000.0,99999,3.0,(41.2201982383483+0j),0.0,1116030504101102080301204000051000600007000083000
3191,LIEO,40.8987,9.51763,2024-04-25 00:20:00,,,,,13.0,1008.0,(1108.0480170754925+0j),6.0,11.0,230.0,10000.0,99999,3.0,(98.54801707549245+0j),0.0,1116032311101302060300804000051000600007000083000
3192,LIME,45.6739,9.70417,2024-04-25 00:20:00,,,,,6.0,1007.0,(7326.481340984227+0j),5.0,3.0,20.0,10000.0,99999,,(6319.281340984227+0j),0.0,1116000203100602050300704000051000600007000080000
3193,LIMJ,44.4133,8.8375,2024-04-25 00:20:00,,,,,11.0,1006.0,(1046.9758097112435+0j),5.0,5.0,70.0,10000.0,99999,3.0,(40.17580971124357+0j),0.0,1116030705101102050300604000051000600007000083000
3194,LIPE,44.5354,11.2887,2024-04-25 00:20:00,,,,,8.0,1008.0,(1592.2389135573403+0j),7.0,3.0,270.0,10000.0,99999,4.0,(585.2389135573403+0j),0.0,1116042703100802070300804000051000600007000084000
3195,LIPH,45.6484,12.1944,2024-04-25 00:20:00,61.0,36.0,^,green,7.0,1008.0,(1315.4312028711827+0j),6.0,4.0,50.0,10000.0,99999,8.0,(307.0312028711827+0j),0.5,1116080504100702060300804000051000600507610088000
3196,LIPQ,45.8275,13.4722,2024-04-25 00:20:00,61.0,36.0,^,green,8.0,1007.0,(1180.5866339840109+0j),6.0,4.0,50.0,10000.0,99999,8.0,(172.08663398401086+0j),0.1,1116080504100802060300704000051000600107610088000
3197,LIPR,44.0203,12.6117,2024-04-25 00:20:00,,,,,4.0,1006.0,(1373.5845181897632+0j),4.0,4.0,210.0,10000.0,99999,,(366.58451818976323+0j),0.0,1116002104100402040300604000051000600007000080000
3199,LIPZ,45.5053,12.3519,2024-04-25 00:20:00,,,,,7.0,1007.0,(1041.6609584922278+0j),5.0,10.0,10.0,10000.0,99999,6.0,(33.86095849222784+0j),0.0,1116060110100702050300704000051000600007000086000
3200,LIRA,41.7994,12.5949,2024-04-25 00:20:00,,,,,8.0,1008.0,(3362.899327159099+0j),5.0,4.0,120.0,10000.0,99999,,(2354.899327159099+0j),0.0,1116001204100802050300804000051000600007000080000
3201,LIRF,41.8045,12.2508,2024-04-25 00:20:00,,,,,7.0,1008.0,(1082.9553615274172+0j),5.0,6.0,90.0,10000.0,99999,,(73.95536152741715+0j),0.0,1116000906100702050300804000051000600007000080000
3202,LIRP,43.6839,10.3927,2024-04-25 00:15:00,,,,,8.0,1007.0,(1032.9488444029237+0j),8.0,4.0,110.0,10000.0,99999,1.0,(24.54884440292369+0j),0.0,1116011104100802080300704000051000600007000081000
3203,LIRQ,43.81,11.2051,2024-04-25 00:20:00,,,,,7.0,1007.0,(1797.284764374045+0j),5.0,3.0,80.0,10000.0,99999,,(790.2847643740449+0j),0.0,1116000803100702050300704000051000600007000080000
3204,LOWG,46.9911,15.4396,2024-04-25 00:20:00,,,,,4.0,1008.0,(13.771190078148047+0j),4.0,2.0,,10000.0,99999,1.0,(-995.828809921852+0j),0.0,1116013602100402040300804000051000600007000081000
3205,LOWI,47.2602,11.344,2024-04-25 00:20:00,,,,,2.0,1009.0,(26.42186802719796+0j),1.0,3.0,190.0,10000.0,99999,3.0,(-984.878131972802+0j),0.1,1116031903100202010300904000051000600107000083000
3206,LOWK,46.6425,14.3377,2024-04-25 00:20:00,,,,,4.0,1009.0,(16.67049717996793+0j),2.0,1.0,,10000.0,99999,3.0,(-994.229502820032+0j),0.0,1116033601100402020300904000051000600007000083000
3207,LOWL,48.2332,14.1875,2024-04-25 00:20:00,,,,,3.0,1009.0,(15.399739327153595+0j),2.0,4.0,260.0,10000.0,99999,3.0,(-995.0002606728464+0j),0.1,1116032604100302020300904000051000600107000083000
3208,LOWS,47.7933,13.0043,2024-04-25 00:20:00,,,,,3.0,1009.0,(19.32599601135189+0j),1.0,5.0,220.0,10000.0,99999,3.0,(-991.5740039886481+0j),0.0,1116032205100302010300904000051000600007000083000
3209,LOWW,48.1103,16.5697,2024-04-25 00:20:00,,,,,5.0,1007.0,(6802.908691568587+0j),1.0,9.0,280.0,10000.0,99999,,(5794.708691568587+0j),0.0,1116002809100502010300704000051000600007000080000
3219,ENBS,70.6005,29.6914,2024-04-25 00:20:00,71.0,36.0,h,magenta,-1.0,1012.0,(114.33337577971133+0j),-1.0,19.0,130.0,7000.0,99999,3.0,(-899.9666242202886+0j),0.3,1114031319110102110301204000051000600307710083000
3220,ENKB,63.1118,7.82452,2024-04-25 00:20:00,,,,,2.0,1007.0,(5875.85890084416+0j),-2.0,4.0,80.0,10000.0,99999,6.0,0j,0.0,1116060804100202120300704000051000600007000086000
3221,ENRA,66.3639,14.3014,2024-04-25 00:20:00,71.0,36.0,h,magenta,1.0,1008.0,(11.854611673026053+0j),-2.0,4.0,90.0,10000.0,99999,,0j,0.0,1116000904100102120300804000051000600007710080000
3222,ENSG,61.1561,7.13778,2024-04-25 00:20:00,,,,,-1.0,1004.0,(1004+0j),-5.0,2.0,,10000.0,99999,,0j,0.0,1116003602110102150300404000051000600007000080000
3223,ENSS,70.3554,31.0449,2024-04-25 00:20:00,80.0,36.0,q,green,1.0,1014.0,(2815.997932943078+0j),-0.0,20.0,140.0,8000.0,99999,7.0,(1800.997932943078+0j),0.4,1114071420100102100301404000051000600407800087000
3224,LGAD,37.9207,21.2926,2024-04-25 00:20:00,,,,,11.0,1007.0,(1185.18676012508+0j),10.0,3.0,,10000.0,99999,1.0,(176.1867601250799+0j),0.0,11160136031011020100300704000051000600007000081000
3225,LGKO,36.7933,27.0917,2024-04-25 00:20:00,,,,,17.0,1006.0,(1967.4642865705084+0j),16.0,3.0,240.0,7000.0,99999,3.0,(961.4642865705084+0j),0.0,11140324031017020160300604000051000600007000083000
3226,LGTS,40.5197,22.9709,2024-04-25 00:20:00,,,,,13.0,1004.0,(1062.772760401182+0j),11.0,3.0,,10000.0,99999,1.0,(57.67276040118202+0j),0.0,11160136031013020110300404000051000600007000081000
3244,ESKM,60.9579,14.5114,2024-04-25 00:20:00,,,,,1.0,1007.0,(22.438417686435177+0j),1.0,0.0,0.0,10000.0,99999,5.0,(-985.5615823135648+0j),0.0,1116050000100102010300704000051000600007000085000
3245,ESNL,64.5483,18.7162,2024-04-25 00:20:00,71.0,36.0,h,magenta,-2.0,1010.0,(215.8304378090226+0j),-2.0,2.0,,3700.0,99999,8.0,0j,0.0,1112083602110202120301004000051000600007710088000
3252,ENBV,70.8714,29.0342,2024-04-25 00:20:00,,,,,1.0,1013.0,(2813.2208146660137+0j),0.0,12.0,120.0,10000.0,99999,4.0,(1799.2208146660137+0j),0.2,1116041212100102000301304000051000600207000084000
3253,ENHK,70.4867,22.1397,2024-04-25 00:20:00,,,,,3.0,1011.0,(1264.765660529042+0j),0.0,12.0,100.0,10000.0,99999,,(253.76566052904195+0j),0.0,1116001012100302000301104000051000600007000080000
3254,ENMH,71.0297,27.8267,2024-04-25 00:20:00,71.0,36.0,h,magenta,1.0,1013.0,(2667.558901716092+0j),0.0,10.0,110.0,10000.0,99999,,(1653.558901716092+0j),0.5,1116001110100102000301304000051000600507710080000
3255,ENML,62.7447,7.2625,2024-04-25 00:20:00,,,,,1.0,1007.0,(1374.949910354962+0j),-1.0,5.0,350.0,10000.0,99999,1.0,(366.94991035496196+0j),0.0,1116013505100102110300704000051000600007000081000
3256,ENNM,64.4722,11.5786,2024-04-25 00:20:00,,,,,-0.0,1009.0,(38.58482939590653+0j),-2.0,8.0,60.0,10000.0,99999,5.0,(-970.4151706040934+0j),0.0,1116050608110002120300904000051000600007000085000
3257,ENRM,64.8383,11.1461,2024-04-25 00:20:00,,,,,1.0,1008.0,(1535.9148264380865+0j),0.0,4.0,80.0,10000.0,99999,6.0,(526.9148264380865+0j),0.0,1116060804100102000300804000051000600007000086000
3258,ENSD,61.83,6.10583,2024-04-25 00:20:00,,,,,0.0,1006.0,(38.47010740563129+0j),-2.0,0.0,0.0,10000.0,99999,,0j,0.0,1116000000100002120300604000051000600007000080000
3260,ENSK,68.57883,15.03342,2024-04-25 00:20:00,,,,,0.0,1009.0,(38.58482939590653+0j),-3.0,4.0,20.0,10000.0,99999,7.0,(-970.4151706040934+0j),0.0,1116070204100002130300904000051000600007000087000
3261,ENVD,70.0653,29.8447,2024-04-25 00:20:00,,,,,-0.0,1013.0,(38.73779204960685+0j),-1.0,14.0,110.0,10000.0,99999,3.0,0j,0.0,1116031114110002110301304000051000600007000083000
3264,EBCI,50.4592,4.45382,2024-04-25 00:20:00,,,,,3.0,1010.0,(10.850445782318113+0j),2.0,7.0,250.0,10000.0,99999,1.0,(-1000.1495542176818+0j),0.0,1116012507100302020301004000051000600007000081000
3265,EBLG,50.6374,5.44322,2024-04-25 00:20:00,,,,,3.0,1009.0,(11.479624942779662+0j),2.0,7.0,260.0,10000.0,99999,3.0,(-998.5203750572203+0j),0.0,1116032607100302020300904000051000600007000083000
3266,EBOS,51.1989,2.86222,2024-04-25 00:20:00,,,,,7.0,1011.0,(1076.023131343593+0j),2.0,8.0,340.0,10000.0,99999,1.0,(64.02313134359292+0j),0.5,1116013408100702020301104000051000600507000081000
3280,EGJJ,49.2079,-2.19551,2024-04-25 00:20:00,,,,,6.0,1012.0,(3015.3222718807606+0j),3.0,5.0,140.0,10000.0,99999,,(2000.8222718807606+0j),0.0,1116001405100602030301204000051000600007000080000
3282,EDAC,50.98195,12.50639,2024-04-25 00:20:00,,,,,4.0,1004.0,(8756.396472080838+0j),2.0,8.0,200.0,10000.0,99999,5.0,(7751.396472080838+0j),0.0,1116052008100402020300404000051000600007000085000
3283,EDDB,52.36217,13.50067,2024-04-25 00:20:00,,,,,2.0,1004.0,(4611.449413964403+0j),1.0,4.0,160.0,8000.0,99999,,(3605.749413964403+0j),0.0,1114001604100202010300404000051000600007000080000
3284,EDDC,51.1328,13.7672,2024-04-25 00:20:00,,,,,2.0,1005.0,(16.890734343404425+0j),-0.0,6.0,220.0,10000.0,99999,6.0,(-989.9092656565955+0j),0.0,1116062206100202100300504000051000600007000086000
3285,EDDE,50.9798,10.9581,2024-04-25 00:20:00,80.0,36.0,q,green,3.0,1004.0,(15.928513966525598+0j),1.0,10.0,240.0,10000.0,99999,4.0,(-990.0714860334745+0j),0.3,1116042410100302010300404000051000600307800084000
3286,EDDF,50.0264,8.54313,2024-04-25 00:20:00,61.0,36.0,^,green,6.0,1008.0,(3733.1569342731177+0j),2.0,6.0,230.0,10000.0,99999,6.0,(2724.2569342731176+0j),0.0,1116062306100602020300804000051000600007610086000
3287,EDDG,52.1346,7.68483,2024-04-25 00:20:00,,,,,4.0,1006.0,(2697.1473361317617+0j),2.0,6.0,260.0,10000.0,99999,3.0,(1690.2473361317616+0j),0.0,1116032606100402020300604000051000600007000083000
3288,EDDH,53.6304,9.98823,2024-04-25 00:20:00,,,,,4.0,1004.0,(1499.526485381666+0j),3.0,2.0,310.0,10000.0,99999,6.0,(494.22648538166595+0j),0.0,1116063102100402030300404000051000600007000086000
3289,EDDK,50.8659,7.14274,2024-04-25 00:20:00,61.0,36.0,^,green,5.0,1008.0,(3719.5205195410326+0j),4.0,10.0,280.0,10000.0,99999,6.0,(2709.2205195410324+0j),0.1,1116062810100502040300804000051000600107610086000
3290,EDDL,51.2895,6.76678,2024-04-25 00:20:00,,,,,5.0,1008.0,(2203.8609021666934+0j),3.0,6.0,260.0,10000.0,99999,2.0,(1194.7609021666935+0j),0.0,1116022606100502030300804000051000600007000082000
3291,EDDM,48.3538,11.7861,2024-04-25 00:20:00,,,,,1.0,1008.0,(29.94771862050856+0j),-0.0,9.0,260.0,10000.0,99999,1.0,(-980.6522813794915+0j),0.0,1116012609100102100300804000051000600007000081000
3292,EDDN,49.4987,11.0669,2024-04-25 00:20:00,,,,,3.0,1007.0,(16.07786067384391+0j),1.0,9.0,240.0,10000.0,99999,2.0,(-993.322139326156+0j),0.0,1116022409100302010300704000051000600007000082000
3293,EDDP,51.4324,12.2416,2024-04-25 00:20:00,58.0,36.0,[,green,4.0,1004.0,(6591.480569274961+0j),3.0,7.0,190.0,10000.0,99999,8.0,(5585.880569274961+0j),0.0,1116081907100402030300404000051000600007580088000
3294,EDDR,49.2146,7.10951,2024-04-25 00:20:00,,,,,3.0,1009.0,(16.231043896035715+0j),1.0,7.0,280.0,10000.0,99999,1.0,(-994.7689561039642+0j),0.0,1116012807100302010300904000051000600007000081000
3295,EDDS,48.6899,9.22196,2024-04-25 00:20:00,,,,,3.0,1008.0,(18.223852462953786+0j),0.0,6.0,230.0,10000.0,99999,1.0,(-992.2761475370462+0j),0.0,1116012306100302000300804000051000600007000081000
3296,EDDV,52.4611,9.68508,2024-04-25 00:20:00,16.0,36.0,1,,4.0,1004.0,(2971.0263129132386+0j),4.0,5.0,290.0,6000.0,99999,4.0,(1965.1263129132385+0j),0.0,1113042905100402040300404000051000600007160084000
3297,EDDW,53.0475,8.78667,2024-04-25 00:20:00,,,,,3.0,1004.0,(1169.4415333961815+0j),2.0,4.0,300.0,10000.0,99999,4.0,(164.3415333961815+0j),0.0,1116043004100302020300404000051000600007000084000
3298,EDLN,51.23028,6.50444,2024-04-25 00:20:00,,,,,5.0,1008.0,(2005.305896522387+0j),3.0,5.0,280.0,10000.0,99999,6.0,(997.305896522387+0j),0.0,1116062805100502030300804000051000600007000086000
3299,EDLW,51.5183,7.61224,2024-04-25 00:20:00,,,,,4.0,1006.0,(6090.073655768195+0j),3.0,6.0,250.0,10000.0,99999,5.0,(5083.073655768195+0j),0.1,1116052506100402030300604000051000600107000085000
3300,EDMA,48.42528,10.93167,2024-04-25 00:20:00,,,,,2.0,1009.0,(24.277445591216548+0j),0.0,5.0,220.0,10000.0,99999,8.0,(-986.9225544087835+0j),0.1,1116082205100202000300904000051000600107000088000
3301,EDNY,47.6713,9.51149,2024-04-25 00:20:00,,,,,3.0,1010.0,(19.00364154036231+0j),1.0,7.0,250.0,10000.0,99999,5.0,(-991.9963584596377+0j),0.0,1116052507100302010301004000051000600007000085000
3304,EDFM,49.47306,8.51417,2024-04-25 00:20:00,,,,,6.0,1009.0,(3263.569856451522+0j),3.0,3.0,220.0,10000.0,99999,4.0,(2253.969856451522+0j),0.1,1116042203100602030300904000051000600107000084000
3310,EDQM,50.28861,11.85639,2024-04-25 00:20:00,,,,,1.0,1004.0,(31.592691960835253+0j),1.0,10.0,220.0,10000.0,99999,3.0,(-976.2073080391647+0j),0.0,1116032210100102010300404000051000600007000083000
3311,EDSB,48.7794,8.0805,2024-04-25 00:20:00,,,,,5.0,1010.0,(4827.171872025634+0j),3.0,7.0,210.0,10000.0,99999,5.0,(3816.171872025634+0j),0.5,1116052107100502030301004000051000600507000085000
3321,EDHI,53.53528,9.83556,2024-04-25 00:20:00,,,,,5.0,1004.0,(1167.0048401536985+0j),4.0,3.0,250.0,8000.0,99999,4.0,(163.00484015369852+0j),0.0,1114042503100502040300404000051000600007000084000
3322,EDHK,54.37944,10.14528,2024-04-25 00:20:00,,,,,1.0,1004.0,(5858.353859431516+0j),-0.0,0.0,0.0,9000.0,99999,1.0,(4853.353859431516+0j),0.0,1115010000100102100300404000051000600007000081000
3323,EDHL,53.8054,10.7192,2024-04-25 00:20:00,,,,,5.0,1004.0,(1394.283399829081+0j),3.0,2.0,130.0,10000.0,99999,4.0,(389.18339982908094+0j),0.0,1116041302100502030300404000051000600007000084000
3324,EDLP,51.6141,8.61632,2024-04-25 00:20:00,,,,,4.0,1005.0,(9.457831156609485+0j),2.0,5.0,260.0,10000.0,99999,2.0,(-995.5421688433905+0j),0.3,1116022605100402020300504000051000600307000082000
3325,EDMO,48.0814,11.2831,2024-04-25 00:20:00,,,,,2.0,1008.0,(26.584688776893948+0j),-0.0,8.0,240.0,10000.0,99999,4.0,(-982.4153112231061+0j),0.6,1116042408100202100300804000051000600607000084000
3326,EDTL,48.3693,7.82772,2024-04-25 00:20:00,,,,,5.0,1011.0,(5909.620844651144+0j),3.0,7.0,190.0,10000.0,99999,3.0,(4897.120844651144+0j),0.0,1116031907100502030301104000051000600007000083000
3328,EDVK,51.40833,9.3775,2024-04-25 00:20:00,,,,,3.0,1004.0,(14.564838924307963+0j),2.0,7.0,270.0,10000.0,99999,4.0,(-990.435161075692+0j),0.2,1116042707100302020300404000051000600207000084000
3329,EDXW,54.9132,8.34047,2024-04-25 00:20:00,,,,,4.0,1004.0,(1479.4534398211426+0j),2.0,5.0,90.0,10000.0,99999,3.0,(473.55343982114266+0j),0.0,1116030905100402020300404000051000600007000083000
3336,EDAH,53.8787,14.1523,2024-04-25 00:20:00,,,,,5.0,1004.0,(1720.2510055829516+0j),2.0,5.0,100.0,10000.0,99999,7.0,(715.2510055829516+0j),0.0,1116071005100502020300404000051000600007000087000
3338,EDVE,52.3192,10.5561,2024-04-25 00:20:00,,,,,4.0,1003.0,(4386.694984999936+0j),3.0,5.0,250.0,10000.0,99999,4.0,(3381.6949849999364+0j),0.0,1116042505100402030300304000051000600007000084000
3339,ENAT,69.9761,23.3717,2024-04-25 00:20:00,,,,,2.0,1011.0,(1171.4647080529262+0j),1.0,3.0,290.0,10000.0,99999,7.0,(158.76470805292615+0j),0.0,1116072903100202010301104000051000600007000087000
3340,ENBL,61.3911,5.75694,2024-04-25 00:20:00,,,,,0.0,1004.0,(38.393626078781125+0j),-4.0,5.0,30.0,10000.0,99999,,(-968.4063739212188+0j),0.0,1116000305100002140300404000051000600007000080000
3341,ENBN,65.4611,12.2175,2024-04-25 00:20:00,80.0,36.0,q,green,3.0,1008.0,(1311.7754288627623+0j),1.0,7.0,160.0,10000.0,99999,4.0,0j,0.0,1116041607100302010300804000051000600007800084000
3342,ENEV,68.4913,16.6781,2024-04-25 00:20:00,,,,,3.0,1009.0,(2142.2120305839476+0j),-3.0,4.0,180.0,10000.0,99999,6.0,0j,0.0,1116061804100302130300904000051000600007000086000
3343,ENFL,61.5836,5.02472,2024-04-25 00:20:00,,,,,1.0,1006.0,(2553.703396721707+0j),-0.0,5.0,50.0,10000.0,99999,,(1547.7033967217071+0j),0.0,1116000505100102100300604000051000600007000080000
3344,ENHF,70.6797,23.6686,2024-04-25 00:20:00,,,,,2.0,1011.0,(7489.98879522248+0j),0.0,8.0,60.0,10000.0,99999,6.0,0j,0.0,1116060608100202000301104000051000600007000086000
3345,ENHV,71.0097,25.9836,2024-04-25 00:20:00,,,,,3.0,1012.0,(1569.336009701518+0j),1.0,6.0,60.0,10000.0,99999,7.0,(555.3360097015179+0j),0.0,1116070606100302010301204000051000600007000087000
3346,ENKR,69.7258,29.8913,2024-04-25 00:20:00,,,,,-0.0,1012.0,(38.699551386181774+0j),-2.0,10.0,130.0,10000.0,99999,8.0,0j,0.0,1116081310110002120301204000051000600007000088000
3347,ENMS,65.784,13.2149,2024-04-25 00:20:00,71.0,36.0,h,magenta,1.0,1008.0,(12.178887766723971+0j),-0.0,1.0,,10000.0,99999,3.0,0j,0.0,1116033601100102100300804000051000600007710083000
3348,ENOV,62.18,6.0741,2024-04-25 00:20:00,,,,,-2.0,1006.0,(-143559.7843339582-150050.55109233604j),-3.0,0.0,0.0,10000.0,99999,,0j,0.0,1116000000110202130300604000051000600007000080000
3349,ENRS,67.5278,12.1033,2024-04-25 00:20:00,80.0,36.0,q,green,3.0,1007.0,(1088.64652187647+0j),1.0,8.0,140.0,10000.0,99999,7.0,0j,0.0,1116071408100302010300704000051000600007800087000
3350,ENSR,69.7868,20.9594,2024-04-25 00:20:00,,,,,3.0,1010.0,(1201.0565870500884+0j),-0.0,3.0,150.0,10000.0,99999,8.0,(190.0565870500884+0j),0.0,1116081503100302100301004000051000600007000088000
3366,LIBP,42.4317,14.1811,2024-04-25 00:20:00,,,,,5.0,1007.0,(1359.3675689314355+0j),5.0,4.0,230.0,10000.0,99999,,(350.6675689314354+0j),0.0,1116002304100502050300704000051000600007000080000
3367,LICA,38.9054,16.2423,2024-04-25 00:20:00,61.0,36.0,^,green,10.0,1009.0,(1147.229806888431+0j),8.0,1.0,,10000.0,99999,6.0,(138.22980688843109+0j),0.3,1116063601101002080300904000051000600307610086000
3368,LICR,38.0712,15.6516,2024-04-25 00:20:00,61.0,36.0,^,green,11.0,1010.0,(1329.5553638700326+0j),8.0,11.0,20.0,10000.0,99999,6.0,(319.5553638700326+0j),0.0,1116060211101102080301004000051000600007610086000
3369,LIPY,43.6163,13.3623,2024-04-25 00:20:00,,,,,7.0,1006.0,(1258.5106374799368+0j),5.0,4.0,210.0,10000.0,99999,3.0,(251.5106374799368+0j),0.0,1116032104100702050300604000051000600007000083000
3371,LICD,35.4979,12.6181,2024-04-25 00:20:00,,,,,14.0,1014.0,(1193.4253969879157+0j),9.0,12.0,300.0,10000.0,99999,3.0,(178.2253969879157+0j),0.0,1116033012101402090301404000051000600007000083000
3372,LIRZ,43.0959,12.5132,2024-04-25 00:20:00,,,,,7.0,1008.0,(5755.412478646216+0j),7.0,1.0,,10000.0,99999,3.0,(4746.312478646216+0j),0.0,1116033601100702070300804000051000600007000083000
3380,EHLE,52.4603,5.52722,2024-04-25 00:25:00,,,,,5.0,1007.0,(919.2645381841136+0j),2.0,7.0,300.0,10000.0,99999,,(-88.93546181588647+0j),0.8,1116003007100502020300704000051000600807000080000
3385,LSZL,46.1608,8.87861,2024-04-25 00:20:00,,,,,4.0,1007.0,(8901.67445619839+0j),-4.0,5.0,100.0,10000.0,99999,,(7894.6744561983905+0j),0.0,1116001005100402140300704000051000600007000080000
3398,EBAW,51.1894,4.46028,2024-04-25 00:20:00,,,,,4.0,1010.0,(1369.2701564823278+0j),2.0,4.0,240.0,10000.0,99999,7.0,(358.2701564823278+0j),0.0,1116072404100402020301004000051000600007000087000
3399,EBBR,50.9014,4.48444,2024-04-25 00:20:00,,,,,4.0,1010.0,(3001.127039453083+0j),2.0,7.0,260.0,10000.0,99999,1.0,(1988.627039453083+0j),0.0,1116012607100402020301004000051000600007000081000
3400,EGPD,57.2019,-2.19778,2024-04-25 00:20:00,61.0,36.0,^,green,3.0,1007.0,(4296.081729096301+0j),2.0,10.0,300.0,9000.0,99999,5.0,(3285.1817290963013+0j),0.0,1115053010100302020300704000051000600007610085000
3401,EGPH,55.95,-3.3725,2024-04-25 00:20:00,,,,,7.0,1007.0,(1754.5179159448164+0j),2.0,3.0,310.0,10000.0,99999,1.0,(743.6179159448164+0j),0.0,1116013103100702020300704000051000600007000081000
3402,EGPK,55.5094,-4.58667,2024-04-25 00:20:00,,,,,7.0,1009.0,(1349.847529970305+0j),1.0,13.0,310.0,10000.0,99999,1.0,(337.247529970305+0j),0.0,1116013113100702010300904000051000600007000081000
3403,EGPO,58.2156,-6.33111,2024-04-25 00:20:00,,,,,5.0,1010.0,(1196.1148213076256+0j),2.0,11.0,10.0,10000.0,99999,6.0,(183.71482130762558+0j),0.0,1116060111100502020301004000051000600007000086000
3404,EKAH,56.3,10.619,2024-04-25 00:20:00,,,,,1.0,1005.0,(4824.092766097805+0j),-1.0,0.0,0.0,9000.0,99999,4.0,(3818.092766097805+0j),0.0,1115040000100102110300504000051000600007000084000
3407,ENSH,68.2433,14.6692,2024-04-25 00:20:00,,,,,3.0,1009.0,(1338.7752246243585+0j),-2.0,7.0,70.0,10000.0,99999,8.0,(329.77522462435854+0j),0.0,1116080707100302120300904000051000600007000088000
3409,EFKI,64.2855,27.6924,2024-04-25 00:20:00,,,,,1.0,1015.0,(19.72835015073942+0j),-2.0,6.0,170.0,10000.0,99999,,(-994.2716498492606+0j),0.0,1116001706100102120301504000051000600007000080000
3410,EFKU,63.0071,27.7978,2024-04-25 00:20:00,,,,,-1.0,1015.0,(278.4704346662801+0j),-2.0,3.0,100.0,10000.0,99999,8.0,(-737.5295653337199+0j),0.0,1116081003110102120301504000051000600007000088000
3413,EKKA,56.2975,9.12463,2024-04-25 00:23:00,,,,,3.0,1004.0,(3515.3293874711685+0j),3.0,2.0,140.0,6000.0,99999,4.0,(2509.1293874711682+0j),0.0,1113041402100302030300404000051000600007000084000
3416,EDFH,49.9487,7.26389,2024-04-25 00:20:00,,,,,1.0,1007.0,(30.61971785286077+0j),0.0,8.0,280.0,10000.0,99999,,(-979.5802821471393+0j),0.0,1116002808100102000300704000051000600007000080000
3423,ETHF,51.1146,9.286,2024-04-25 00:20:00,,,,,4.0,1005.0,(15.663401205643728+0j),1.0,5.0,140.0,10000.0,99999,4.0,(-991.2365987943563+0j),0.0,1116041405100402010300504000051000600007000084000
3424,ETHL,48.2203,9.91002,2024-04-25 00:20:00,,,,,2.0,1008.0,(25.70345454596469+0j),-1.0,7.0,230.0,10000.0,99999,4.0,(-985.8965454540353+0j),0.0,1116042307100202110300804000051000600007000084000
3433,LSMA,46.9439,8.28417,2024-04-25 00:20:00,,,,,3.0,1011.0,(19.731982585480086+0j),2.0,3.0,280.0,10000.0,99999,4.0,(-992.2680174145199+0j),0.1,1116042803100302020301104000051000600107000084000
3434,LSMD,47.3986,8.64823,2024-04-25 00:20:00,,,,,4.0,1011.0,(16.703540781910384+0j),0.0,3.0,300.0,10000.0,99999,4.0,(-994.2964592180896+0j),0.3,1116043003100402000301104000051000600307000084000
3435,LSME,47.0924,8.30512,2024-04-25 00:20:00,80.0,36.0,q,green,2.0,1011.0,(23.535838460779324+0j),2.0,2.0,,10000.0,99999,5.0,(-988.4641615392206+0j),1.0,1116053602100202020301104000051000601007800085000
3436,LSMM,46.7433,8.11,2024-04-25 00:20:00,,,,,3.0,1010.0,(22.46726484279675+0j),1.0,4.0,320.0,10000.0,99999,4.0,(-988.5327351572032+0j),0.1,1116043204100302010301004000051000600107000084000
3437,LSMP,46.8432,6.91506,2024-04-25 00:20:00,,,,,3.0,1011.0,(19.768755240463285+0j),0.0,0.0,0.0,10000.0,99999,3.0,(-994.1312447595367+0j),0.0,1116030000100302000301104000051000600007000083000
3454,ETSL,48.1855,10.8612,2024-04-25 00:20:00,,,,,1.0,1008.0,(31.28415355975162+0j),-1.0,6.0,210.0,10000.0,99999,3.0,(-980.0158464402483+0j),0.1,1116032106100102110300804000051000600107000083000
3513,EYSA,55.8939,23.395,2024-04-25 00:20:00,61.0,36.0,^,green,5.0,1000.0,(5142.0498786294675+0j),4.0,7.0,350.0,10000.0,99999,8.0,0j,0.0,1116083507100502040300004000051000600007610088000
3524,EGLC,51.5053,0.05528,2024-04-25 00:20:00,,,,,6.0,1012.0,(1124.0053772187073+0j),1.0,1.0,,10000.0,99999,,(110.1053772187073+0j),0.0,1116003601100602010301204000051000600007000080000
3525,EGMD,50.9561,0.93917,2024-04-25 00:20:00,,,,,6.0,1012.0,(1088.101722672439+0j),2.0,5.0,300.0,10000.0,99999,,0j,0.0,1116003005100602020301204000051000600007000080000
3526,EGNT,55.0375,-1.69167,2024-04-25 00:20:00,,,,,4.0,1007.0,(4028.923597196362+0j),2.0,7.0,270.0,10000.0,99999,,(3017.1235971963624+0j),0.0,1116002707100402020300704000051000600007000080000
3527,EGSH,52.6758,1.28278,2024-04-25 00:20:00,,,,,2.0,1010.0,(3629.7425723530946+0j),1.0,4.0,230.0,10000.0,99999,,(2616.442572353095+0j),0.0,1116002304100202010301004000051000600007000080000
3530,ESSA,59.6519,17.9186,2024-04-25 00:20:00,,,,,2.0,1008.0,(4136.262283315387+0j),0.0,4.0,80.0,10000.0,99999,,(3126.5622833153875+0j),0.0,1116000804100202000300804000051000600007000080000
3555,EHKD,52.9234,4.78062,2024-04-25 00:25:00,,,,,6.0,1007.0,(1024.2678936830705+0j),1.0,5.0,310.0,10000.0,99999,4.0,(15.067893683070452+0j),0.0,1116043105100602010300704000051000600007000084000
3562,LIRN,40.886,14.2908,2024-04-25 00:20:00,,,,,8.0,1008.0,(2546.889131912544+0j),5.0,1.0,,10000.0,99999,,(1537.8891319125441+0j),0.0,1116003601100802050300804000051000600007000080000
3586,LTCS,37.44566,38.89559,2024-04-25 00:20:00,,,,,21.0,1014.0,(7307.390584964077+0j),5.0,2.0,50.0,8000.0,99999,,(6292.390584964077+0j),0.0,1114000502102102050301404000051000600007000080000
3590,LTFM,41.27533,28.752,2024-04-25 00:20:00,,,,,15.0,1005.0,(1853.208965303517+0j),14.0,3.0,320.0,8000.0,99999,3.0,0j,0.0,11140332031015020140300504000051000600007000083000
3615,LTAZ,38.7719,34.5345,2024-04-25 00:20:00,,,,,19.0,1013.0,(8986.146622134542+0j),1.0,8.0,120.0,10000.0,99999,,0j,0.0,1116001208101902010301304000051000600007000080000
3616,LTBR,40.2552,29.5626,2024-04-25 00:20:00,,,,,12.0,1005.0,(3875.4228373317187+0j),11.0,3.0,330.0,10000.0,99999,,(2869.4228373317187+0j),0.0,11160033031012020110300504000051000600007000080000
3618,LTFC,37.8554,30.3684,2024-04-25 00:20:00,,,,,22.0,1010.0,(7274.077842056748+0j),2.0,14.0,180.0,10000.0,99999,4.0,(6263.077842056748+0j),0.0,1116041814102202020301004000051000600007000084000
3619,LTFJ,40.8986,29.3092,2024-04-25 00:20:00,,,,,17.0,1004.0,(1709.8282489417784+0j),13.0,0.0,0.0,10000.0,99999,,(704.3282489417784+0j),0.0,11160000001017020130300404000051000600007000080000
3622,EHDL,52.0606,5.87306,2024-04-25 00:25:00,,,,,3.0,1007.0,(3323.9539957158822+0j),2.0,5.0,240.0,10000.0,99999,1.0,(2314.8539957158823+0j),0.0,1116012405100302020300704000051000600007000081000
3626,EHLW,53.2286,5.76056,2024-04-25 00:25:00,,,,,5.0,1006.0,(1026.7159336975185+0j),2.0,9.0,320.0,10000.0,99999,6.0,(18.41593369751854+0j),0.0,1116063209100502020300604000051000600007000086000
3628,EHVK,51.6564,5.70861,2024-04-25 00:25:00,,,,,4.0,1008.0,(1701.7287562569643+0j),2.0,6.0,250.0,10000.0,99999,4.0,(691.9287562569643+0j),0.0,1116042506100402020300804000051000600007000084000
3629,EHWO,51.4491,4.34203,2024-04-25 00:25:00,,,,,4.0,1009.0,(1609.3196191156308+0j),2.0,1.0,230.0,10000.0,99999,4.0,(599.3196191156308+0j),0.0,1116042301100402020300904000051000600007000084000
3635,ETHB,52.2785,9.08217,2024-04-25 00:20:00,,,,,5.0,1004.0,(2983.2985619909855+0j),3.0,8.0,300.0,10000.0,99999,3.0,(1978.3985619909854+0j),0.0,1116033008100502030300404000051000600007000083000
3636,ETHS,52.9194,10.1975,2024-04-25 00:20:00,10.0,36.0,+,yellow,3.0,1003.0,(4797.178795379401+0j),3.0,2.0,350.0,4500.0,99999,4.0,(3792.978795379401+0j),0.0,1112043502100302030300304000051000600007100084000
3637,ETMN,53.7677,8.6585,2024-04-25 00:20:00,45.0,36.0,N,yellow,0.0,1004.0,(38.393626078781125+0j),0.0,4.0,320.0,50.0,99999,2.0,(-967.2063739212189+0j),0.0,1110023204100002000300404000051000600007450082000
3638,ETNL,53.9182,12.2783,2024-04-25 00:20:00,,,,,2.0,1004.0,(4145.618132907417+0j),1.0,3.0,80.0,10000.0,99999,6.0,(3140.318132907417+0j),0.0,1116060803100202010300404000051000600007000086000
3639,ETNN,50.8312,6.65817,2024-04-25 00:20:00,,,,,5.0,1008.0,(4546.456672789295+0j),3.0,10.0,260.0,10000.0,99999,6.0,(3537.156672789295+0j),0.0,1116062610100502030300804000051000600007000086000
3640,ETNW,52.4573,9.42717,2024-04-25 00:20:00,,,,,5.0,1004.0,(2567.6050816838097+0j),4.0,10.0,300.0,10000.0,99999,6.0,(1563.1050816838097+0j),0.0,1116063010100502040300404000051000600007000086000
3641,ETSH,51.7678,13.1677,2024-04-25 00:20:00,,,,,0.0,1004.0,(38.393626078781125+0j),-1.0,4.0,150.0,10000.0,99999,1.0,(-967.2063739212189+0j),0.0,1116011504100002110300404000051000600007000081000
3642,ETSN,48.711,11.2115,2024-04-25 00:20:00,,,,,2.0,1008.0,(22.305200877135395+0j),-0.0,7.0,240.0,10000.0,99999,3.0,(-988.1947991228647+0j),0.0,1116032407100202100300804000051000600007000083000
3689,EPBY,53.0968,17.9777,2024-04-25 00:30:00,,,,,3.0,1005.0,(4633.367166944072+0j),-0.0,4.0,70.0,10000.0,99999,,0j,0.0,1116000704100302100300504000051000600007000080000
3693,EPRA,51.38883,21.21167,2024-04-25 00:30:00,61.0,36.0,^,green,6.0,1003.0,(5947.243574454632+0j),5.0,5.0,310.0,6000.0,99999,5.0,(4943.443574454632+0j),0.0,1113053105100602050300304000051000600007610085000
3695,EPSY,53.48194,20.93778,2024-04-25 00:30:00,,,,,5.0,1003.0,(5375.682524576651+0j),2.0,4.0,300.0,10000.0,99999,8.0,(4372.682524576651+0j),0.0,1116083004100502020300304000051000600007000088000
3706,LFCK,43.5563,2.28918,2024-04-25 00:30:00,,,,,8.0,1015.0,(5739.223565599499+0j),8.0,8.0,280.0,10000.0,99999,7.0,0j,0.0,1116072808100802080301504000051000600007000087000
3707,LFLP,45.9292,6.09876,2024-04-25 00:30:00,,,,,-0.0,1012.0,(38.699551386181774+0j),-1.0,2.0,70.0,10000.0,99999,,(-975.9004486138183+0j),0.4,1116000702110002110301204000051000600407000080000
3712,LFQA,49.2087,4.15658,2024-04-25 00:30:00,,,,,4.0,1011.0,(4656.671773078915+0j),3.0,2.0,150.0,10000.0,99999,,(3643.9717730789152+0j),0.0,1116001502100402030301104000051000600007000080000
3729,LFJR,47.5603,-0.31222,2024-04-25 00:30:00,,,,,8.0,1012.0,(1979.852066903957+0j),6.0,2.0,70.0,10000.0,99999,6.0,(965.8520669039569+0j),0.0,1116060702100802060301204000051000600007000086000
3733,LFPT,49.0966,2.04083,2024-04-25 00:30:00,,,,,5.0,1012.0,(3971.2904217272435+0j),3.0,4.0,260.0,10000.0,99999,,(2957.3904217272434+0j),0.0,1116002604100502030301204000051000600007000080000
3736,LHKE,46.9175,19.7492,2024-04-25 00:15:00,,,,,5.0,1008.0,(4483.983769202236+0j),4.0,7.0,220.0,10000.0,99999,,(3475.783769202236+0j),0.0,1116002207100502040300804000051000600007000080000
3739,LHPR,47.6244,17.8136,2024-04-25 00:15:00,,,,,3.0,1008.0,(7882.932732863988+0j),1.0,3.0,260.0,10000.0,99999,,(6875.032732863989+0j),0.0,1116002603100302010300804000051000600007000080000
3740,LHSM,46.6864,17.1591,2024-04-25 00:15:00,,,,,4.0,1008.0,(5881.693914648375+0j),3.0,1.0,,10000.0,99999,,0j,0.0,1116003601100402030300804000051000600007000080000
3741,LHSN,47.1229,20.2355,2024-04-25 00:15:00,,,,,5.0,1007.0,(3920.8125124055355+0j),4.0,6.0,230.0,10000.0,99999,1.0,(2913.5125124055357+0j),0.0,1116012306100502040300704000051000600007000081000
3743,LTAC,40.1281,32.9951,2024-04-25 00:20:00,,,,,18.0,1010.0,(9.451887985541463+0j),6.0,2.0,,10000.0,99999,3.0,(-997.8481120144585+0j),0.0,1116033602101802060301004000051000600007000083000
3744,LTAF,36.9822,35.2804,2024-04-25 00:20:00,,,,,20.0,1008.0,(1122.564547703339+0j),12.0,4.0,50.0,10000.0,99999,,(113.56454770333903+0j),0.0,11160005041020020120300804000051000600007000080000
3745,LTAG,37.0021,35.4259,2024-04-25 00:20:00,,,,,22.0,1008.0,(1408.42940650685+0j),9.0,2.0,60.0,10000.0,99999,,(399.22940650684995+0j),0.0,1116000602102202090300804000051000600007000080000
3746,LTAI,36.8987,30.8005,2024-04-25 00:20:00,,,,,21.0,1007.0,(1314.126211598493+0j),11.0,6.0,350.0,10000.0,99999,4.0,(304.92621159849296+0j),0.0,11160435061021020110300704000051000600007000084000
3747,LTAJ,36.9472,37.4787,2024-04-25 00:20:00,,,,,15.0,1014.0,(8569.564059588492+0j),9.0,3.0,300.0,10000.0,99999,,(7561.264059588492+0j),0.0,1116003003101502090301404000051000600007000080000
3748,LTAP,40.8294,35.522,2024-04-25 00:20:00,,,,,17.0,1009.0,(5960.919267005364+0j),5.0,2.0,310.0,10000.0,99999,,(4951.919267005364+0j),0.0,1116003102101702050300904000051000600007000080000
3749,LTAU,38.7704,35.4954,2024-04-25 00:20:00,,,,,15.0,1014.0,(12.001859416907537+0j),2.0,1.0,,10000.0,99999,,(-1002.9981405830924+0j),0.0,1116003601101502020301404000051000600007000080000
3750,LTBA,40.9769,28.8146,2024-04-25 00:20:00,,,,,16.0,1004.0,(1378.159352817278+0j),14.0,0.0,0.0,10000.0,99999,,(373.159352817278+0j),0.0,11160000001016020140300404000051000600007000080000
3751,LTBJ,38.2924,27.157,2024-04-25 00:20:00,,,,,17.0,1005.0,(1965.5085566633807+0j),16.0,1.0,,10000.0,99999,3.0,(959.1085566633807+0j),0.0,11160336011017020160300504000051000600007000083000
3753,LTCC,37.8939,40.201,2024-04-25 00:20:00,,,,,13.0,1014.0,(9.467922426025066+0j),10.0,3.0,280.0,10000.0,99999,,(-1002.4320775739749+0j),0.0,11160028031013020100301404000051000600007000080000
3754,LTCE,39.9565,41.1702,2024-04-25 00:20:00,,,,,5.0,1022.0,(28.407174029807454+0j),2.0,0.0,0.0,10000.0,99999,,(-993.5928259701925+0j),0.0,1116000000100502020302204000051000600007000080000
3755,LTCG,40.9951,39.7897,2024-04-25 00:20:00,,,,,19.0,1008.0,(1203.8786634655978+0j),12.0,5.0,90.0,10000.0,99999,3.0,(194.7786634655978+0j),0.0,11160309051019020120300804000051000600007000083000
3756,LTFE,37.2506,27.6643,2024-04-25 00:20:00,,,,,17.0,1006.0,(1048.8463559415761+0j),17.0,3.0,130.0,10000.0,99999,3.0,0j,0.0,11160313031017020170300604000051000600007000083000
3757,EGVN,51.75,-1.58362,2024-04-25 00:20:00,,,,,3.0,1011.0,(5585.970550945001+0j),0.0,0.0,0.0,10000.0,99999,,(4572.170550945001+0j),0.0,1116000000100302000301104000051000600007000080000
3758,EGVO,51.2341,-0.94283,2024-04-25 00:20:00,,,,,4.0,1011.0,(5860.104678501231+0j),0.0,4.0,160.0,10000.0,99999,,(4846.104678501231+0j),0.0,1116001604100402000301104000051000600007000080000
3760,EHBK,50.9117,5.77014,2024-04-25 00:25:00,,,,,4.0,1009.0,(5457.461409546981+0j),2.0,5.0,240.0,10000.0,99999,5.0,(4447.36140954698+0j),0.0,1116052405100402020300904000051000600007000085000
3761,EHGG,53.1197,6.57944,2024-04-25 00:25:00,,,,,4.0,1005.0,(1155.3958154524203+0j),3.0,6.0,250.0,10000.0,99999,5.0,(149.39581545242027+0j),0.0,1116052506100402030300504000051000600007000085000
3762,EHRD,51.9569,4.43722,2024-04-25 00:25:00,,,,,5.0,1009.0,(907.8783956245885+0j),3.0,3.0,20.0,10000.0,99999,4.0,(-103.42160437541145+0j),0.0,1116040203100502030300904000051000600007000084000
3764,LBGO,43.1514,25.7129,2024-04-25 00:30:00,,,,,12.0,1004.0,(1942.1983435871218+0j),12.0,3.0,30.0,10000.0,99999,7.0,(937.1983435871218+0j),0.0,11160703031012020120300404000051000600007000087000
3768,LGSA,35.5317,24.1497,2024-04-25 00:20:00,,,,,16.0,1007.0,(2257.853323902694+0j),9.0,12.0,270.0,10000.0,99999,1.0,(1250.5533239026938+0j),0.0,1116012712101602090300704000051000600007000081000
3774,EHAM,52.3086,4.76389,2024-04-25 00:25:00,,,,,4.0,1008.0,(915.2179624733011+0j),2.0,4.0,270.0,10000.0,99999,1.0,(-94.88203752669892+0j),0.0,1116012704100402020300804000051000600007000081000
3791,EGXV,53.8758,-0.435,2024-04-25 00:20:00,,,,,3.0,1009.0,(1456.749090887455+0j),1.0,5.0,220.0,10000.0,99999,,(443.84909088745496+0j),0.0,1116002205100302010300904000051000600007000080000
3848,LFBY,43.6892,-1.06889,2024-04-25 00:30:00,,,,,9.0,1015.0,(1465.4116226469444+0j),8.0,6.0,210.0,10000.0,99999,,(448.41162264694435+0j),0.0,1116002106100902080301504000051000600007000080000
3854,LFLN,46.4125,4.01326,2024-04-25 00:30:00,,,,,4.0,1012.0,(10.623518631228249+0j),3.0,3.0,150.0,10000.0,99999,,(-1003.3764813687718+0j),0.0,1116001503100402030301204000051000600007000080000
3883,LFPM,48.6047,2.67112,2024-04-25 00:30:00,,,,,4.0,1012.0,(4517.453083672878+0j),2.0,3.0,260.0,10000.0,99999,,(3504.453083672878+0j),0.0,1116002603100402020301204000051000600007000080000
3886,LFRL,48.2817,-4.44502,2024-04-25 00:30:00,,,,,8.0,1013.0,(2517.8061555990057+0j),6.0,6.0,320.0,10000.0,99999,7.0,(1503.8061555990057+0j),0.0,1116073206100802060301304000051000600007000087000
3914,LFYR,47.3208,1.68889,2024-04-25 00:30:00,,,,,6.0,1012.0,(3114.6980583131785+0j),4.0,0.0,0.0,10000.0,99999,7.0,(2100.6980583131785+0j),0.0,1116070000100602040301204000051000600007000087000
3919,LYBT,44.9353,20.2575,2024-04-25 00:30:00,,,,,6.0,1009.0,(2907.954650593025+0j),6.0,3.0,260.0,8000.0,99999,6.0,(1898.9546505930248+0j),0.0,1114062603100602060300904000051000600007000086000
3920,LYKV,43.8183,20.5872,2024-04-25 00:30:00,,,,,9.0,1008.0,(4537.198500050921+0j),7.0,2.0,,8000.0,99999,4.0,(3528.398500050921+0j),0.0,1114043602100902070300804000051000600007000084000
3924,LYVR,45.1469,21.3099,2024-04-25 00:30:00,,,,,7.0,1009.0,(2677.6428986001742+0j),7.0,2.0,,10000.0,99999,,(1668.6428986001742+0j),0.0,1116003602100702070300904000051000600007000080000
3955,LTAT,38.4353,38.091,2024-04-25 00:20:00,,,,,11.0,1015.0,(13.055761564406456+0j),7.0,6.0,210.0,10000.0,99999,,(-1002.9442384355935+0j),0.0,1116002106101102070301504000051000600007000080000
3956,LTBU,41.1382,27.9191,2024-04-25 00:20:00,,,,,15.0,1004.0,(2608.8427180998874+0j),14.0,4.0,290.0,6000.0,99999,4.0,(1603.8427180998874+0j),0.0,11130429041015020140300404000051000600007000084000
3957,LTCJ,37.929,41.1166,2024-04-25 00:20:00,,,,,11.0,1013.0,(9.1041916079051+0j),10.0,4.0,30.0,10000.0,99999,,(-1003.6958083920948+0j),0.0,11160003041011020100301304000051000600007000080000
3981,EPLL,51.7219,19.3981,2024-04-25 00:30:00,,,,,4.0,1004.0,(8324.063268886275+0j),4.0,5.0,260.0,3300.0,99999,3.0,(7320.063268886275+0j),0.1,1112032605100402040300404000051000600107000083000
3982,EPWR,51.1027,16.8858,2024-04-25 00:30:00,,,,,3.0,1005.0,(7528.766685679487+0j),2.0,1.0,,10000.0,99999,,(6522.366685679487+0j),0.0,1116003601100302020300504000051000600007000080000
3983,LFBE,44.8253,0.51861,2024-04-25 00:30:00,,,,,6.0,1013.0,(2173.530934074064+0j),6.0,1.0,80.0,10000.0,99999,4.0,(1158.5309340740641+0j),0.0,1116040801100602060301304000051000600007000084000
3984,LFBG,45.6583,-0.3175,2024-04-25 00:30:00,,,,,10.0,1013.0,(1391.0053062451966+0j),8.0,4.0,260.0,10000.0,99999,5.0,(376.0053062451966+0j),0.0,1116052604101002080301304000051000600007000085000
3985,LFCR,44.4079,2.48267,2024-04-25 00:30:00,,,,,5.0,1013.0,(17.15280704135225+0j),3.0,3.0,230.0,10000.0,99999,5.0,(-998.2471929586477+0j),0.0,1116052303100502030301304000051000600007000085000
3986,LFJL,48.9821,6.25132,2024-04-25 00:30:00,,,,,4.0,1010.0,(11.399882174516483+0j),2.0,8.0,240.0,10000.0,99999,3.0,(-1000.8001178254835+0j),0.0,1116032408100402020301004000051000600007000083000
3988,LFMO,44.1405,4.86672,2024-04-25 00:30:00,,,,,7.0,1012.0,(2155.089636580901+0j),2.0,10.0,340.0,10000.0,99999,,(1141.9896365809009+0j),0.0,1116003410100702020301204000051000600007000080000
3989,LFMU,43.3235,3.3539,2024-04-25 00:30:00,,,,,10.0,1013.0,(1214.5616443755712+0j),6.0,6.0,280.0,10000.0,99999,6.0,(200.56164437557118+0j),0.0,1116062806101002060301304000051000600007000086000
3990,LFOK,48.7761,4.18449,2024-04-25 00:30:00,,,,,3.0,1011.0,(10.465516147057322+0j),1.0,6.0,260.0,10000.0,99999,,0j,0.0,1116002606100302010301104000051000600007000080000
3991,LHDC,47.4889,21.6153,2024-04-25 00:15:00,,,,,6.0,1006.0,(3683.2423638351797+0j),5.0,11.0,200.0,10000.0,99999,6.0,(2676.64236383518+0j),0.0,1116062011100602050300604000051000600007000086000
3992,LHPP,45.9909,18.241,2024-04-25 00:15:00,,,,,3.0,1008.0,(15.618321496185018+0j),2.0,3.0,240.0,8000.0,99999,,(-993.981678503815+0j),0.0,1114002403100302020300804000051000600007000080000
3993,LKCV,49.9397,15.3818,2024-04-25 00:30:00,,,,,2.0,1006.0,(17.44700446068366+0j),-1.0,6.0,210.0,10000.0,99999,3.0,(-990.3529955393163+0j),0.0,1116032106100202110300604000051000600007000083000
3994,LKNA,49.1658,16.1249,2024-04-25 00:30:00,,,,,2.0,1006.0,(24.408112243933918+0j),-1.0,9.0,250.0,10000.0,99999,,(-981.5918877560661+0j),0.0,1116002509100202110300604000051000600007000080000
3995,LKPD,50.0134,15.7386,2024-04-25 00:30:00,,,,,4.0,1006.0,(9.947861157143448+0j),-1.0,8.0,250.0,10000.0,99999,,(-996.0521388428566+0j),0.0,1116002508100402110300604000051000600007000080000
3999,LZPP,48.6252,17.8284,2024-04-25 00:30:00,45.0,36.0,N,yellow,0.0,1007.0,(38.50834806905637+0j),-0.0,2.0,,200.0,99999,,0j,0.0,1110003602100002100300704000051000600007450080000
4000,LZZI,49.2315,18.6135,2024-04-25 00:30:00,,,,,3.0,1006.0,(15.795863941088287+0j),2.0,3.0,90.0,10000.0,99999,6.0,0j,0.0,1116060903100302020300604000051000600007000086000
4014,LJCE,45.9,15.5302,2024-04-25 00:30:00,61.0,36.0,^,green,6.0,1008.0,(4995.148091320257+0j),5.0,0.0,0.0,10000.0,99999,7.0,0j,0.0,1116070000100602050300804000051000600007610087000
4021,LFOV,48.0314,-0.74299,2024-04-25 00:30:00,,,,,7.0,1012.0,(3063.748169699204+0j),4.0,2.0,80.0,10000.0,99999,4.0,(2049.848169699204+0j),0.0,1116040802100702040301204000051000600007000084000
4024,LFRV,47.7233,-2.71856,2024-04-25 00:30:00,,,,,8.0,1012.0,(3496.6807479555837+0j),5.0,3.0,,10000.0,99999,,(2482.480747955584+0j),0.0,1116003603100802050301204000051000600007000080000
4027,LFAQ,49.9715,2.69766,2024-04-25 00:30:00,,,,,4.0,1011.0,(5324.318348697054+0j),2.0,4.0,270.0,10000.0,99999,,(4312.318348697054+0j),0.0,1116002704100402020301104000051000600007000080000
4028,LFBU,45.7292,0.22146,2024-04-25 00:30:00,,,,,10.0,1012.0,(2888.754823650883+0j),7.0,3.0,240.0,10000.0,99999,5.0,(1873.654823650883+0j),0.0,1116052403101002070301204000051000600007000085000
4031,LFOZ,47.8969,2.16333,2024-04-25 00:30:00,,,,,3.0,1012.0,(7447.008890255618+0j),2.0,0.0,0.0,7000.0,99999,,(6433.008890255618+0j),0.0,1114000000100302020301204000051000600007000080000
4037,UUDL,57.5607,40.1574,2024-04-25 00:30:00,,,,,5.0,1017.0,(3598.424995335366+0j),-0.0,3.0,60.0,10000.0,99999,,(2580.424995335366+0j),0.0,1116000603100502100301704000051000600007000080000
4040,UUMO,55.5117,37.5072,2024-04-25 00:30:00,,,,,11.0,1011.0,(3285.272293789498+0j),4.0,5.0,120.0,10000.0,99999,,(2270.572293789498+0j),0.0,1116001205101102040301104000051000600007000080000
4064,LEMI,37.803,-1.125,2024-04-25 00:30:00,,,,,11.0,1013.0,(3591.702973941585+0j),7.0,5.0,300.0,10000.0,99999,,0j,0.0,1116003005101102070301304000051000600007000080000
4066,LECH,40.21417,0.07333,2024-04-25 00:30:00,,,,,10.0,1013.0,(6750.969092258637+0j),5.0,3.0,190.0,10000.0,99999,,(5736.969092258637+0j),0.0,1116001903101002050301304000051000600007000080000
4093,UUBW,55.5533,38.15,2024-04-25 00:30:00,,,,,11.0,1012.0,(2439.4585973765866+0j),5.0,6.0,100.0,10000.0,99999,,(1423.8585973765867+0j),0.0,1116001006101102050301204000051000600007000080000
4094,UUOL,52.7028,39.5378,2024-04-25 00:30:00,61.0,36.0,^,green,11.0,1012.0,(3361.883873573094+0j),8.0,7.0,130.0,10000.0,99999,,0j,0.0,1116001307101102080301204000051000600007610080000
4095,UUBC,54.55,36.36667,2024-04-25 00:30:00,,,,,10.0,1008.0,(3986.5072113087203+0j),5.0,5.0,120.0,10000.0,99999,,0j,0.0,1116001205101002050300804000051000600007000080000
4096,UUOB,50.6438,36.5901,2024-04-25 00:30:00,,,,,12.0,1007.0,(3759.2757967782454+0j),8.0,5.0,160.0,10000.0,99999,,(2751.2757967782454+0j),0.0,1116001605101202080300704000051000600007000080000
4097,UUOK,51.7506,36.2956,2024-04-25 00:30:00,,,,,10.0,1007.0,(4137.327011063328+0j),7.0,6.0,140.0,10000.0,99999,,(3129.3270110633284+0j),0.0,1116001406101002070300704000051000600007000080000
4100,UWPS,54.12513,45.21226,2024-04-25 00:30:00,,,,,10.0,1019.0,(4134.359434819362+0j),-1.0,5.0,140.0,10000.0,99999,,(3115.359434819362+0j),0.0,1116001405101002110301904000051000600007000080000
4103,UWKS,56.0903,47.3473,2024-04-25 00:30:00,,,,,8.0,1021.0,(4255.148521638734+0j),-2.0,1.0,140.0,10000.0,99999,,(3235.1485216387337+0j),0.0,1116001401100802120302104000051000600007000080000
4106,URMG,43.3883,45.6986,2024-04-25 00:30:00,,,,,10.0,1015.0,(1015+0j),8.0,2.0,90.0,10000.0,99999,,(-1+0j),0.0,1116000902101002080301504000051000600007000080000
4109,URMO,43.2051,44.6066,2024-04-25 00:30:00,,,,,8.0,1016.0,(11.10881512682231+0j),7.0,2.0,80.0,10000.0,99999,,(-1004.8911848731777+0j),0.0,1116000802100802070301604000051000600007000080000
4111,URRP,47.50083,39.93361,2024-04-25 00:30:00,,,,,16.0,1011.0,(1690.951472568646+0j),9.0,8.0,100.0,10000.0,99999,,0j,0.0,1116001008101602090301104000051000600007000080000
4141,EBBE,50.7586,4.76833,2024-04-25 00:25:00,,,,,3.0,1009.0,(6986.446920153208+0j),2.0,6.0,250.0,10000.0,99999,2.0,(5976.446920153208+0j),0.0,1116022506100302020300904000051000600007000082000
4142,EBBL,51.1683,5.47,2024-04-25 00:25:00,,,,,4.0,1009.0,(3196.824426448461+0j),2.0,6.0,250.0,10000.0,99999,8.0,(2186.324426448461+0j),0.0,1116082506100402020300904000051000600007000088000
4144,EBDT,50.9992,5.06556,2024-04-25 00:25:00,,,,,4.0,1009.0,(2007.2952872927465+0j),3.0,7.0,250.0,10000.0,99999,8.0,(996.7952872927465+0j),0.0,1116082507100402030300904000051000600007000088000
4145,EBFN,51.0903,2.65278,2024-04-25 00:25:00,,,,,6.0,1010.0,(1127.8030215972942+0j),3.0,6.0,10.0,10000.0,99999,6.0,(115.80302159729422+0j),0.2,1116060106100602030301004000051000600207000086000
4180,LFBX,45.1981,0.81556,2024-04-25 00:30:00,,,,,9.0,1013.0,(2544.9354655735647+0j),6.0,3.0,,10000.0,99999,5.0,(1529.5354655735646+0j),0.0,1116053603100902060301304000051000600007000085000
4192,LQBK,44.9414,17.2975,2024-04-25 00:30:00,10.0,36.0,+,yellow,5.0,1009.0,(4738.81516731152+0j),5.0,2.0,,2000.0,99999,8.0,(3729.81516731152+0j),0.0,1111083602100502050300904000051000600007100088000
4193,LQMO,43.2829,17.8459,2024-04-25 00:30:00,,,,,8.0,1007.0,(1763.6534365707976+0j),6.0,2.0,,10000.0,99999,3.0,(755.6534365707976+0j),0.0,1116033602100802060300704000051000600007000083000
4195,LQTZ,44.4587,18.7248,2024-04-25 00:30:00,10.0,36.0,+,yellow,5.0,1008.0,(8637.808452781288+0j),5.0,2.0,,3000.0,99999,6.0,(7629.808452781288+0j),0.0,1111063602100502050300804000051000600007100086000
4201,LEHC,42.0761,-0.31667,2024-04-25 00:30:00,,,,,6.0,1012.0,(14.392874463846514+0j),0.0,9.0,250.0,10000.0,99999,,(-999.7071255361535+0j),0.0,1116002509100602000301204000051000600007000080000
4204,LESB,39.5989,2.70278,2024-04-25 00:30:00,,,,,10.0,1014.0,(1615.2143215151686+0j),5.0,3.0,360.0,10000.0,99999,,(599.2143215151686+0j),0.0,1116003603101002050301404000051000600007000080000
4206,LEBG,42.3576,-3.62076,2024-04-25 00:30:00,,,,,3.0,1015.0,(26.84350572308545+0j),1.0,5.0,40.0,10000.0,99999,6.0,(-990.3564942769146+0j),0.0,1116060405100302010301504000051000600007000086000
4231,LRSB,45.7856,24.0913,2024-04-25 00:30:00,,,,,8.0,1007.0,(10.036861789458175+0j),6.0,1.0,,10000.0,99999,3.0,(-997.9631382105418+0j),0.0,1116033601100802060300704000051000600007000083000
4247,LRBC,46.5219,26.9103,2024-04-25 00:30:00,,,,,11.0,1005.0,(3443.8206084610565+0j),8.0,7.0,340.0,10000.0,99999,1.0,(2439.1206084610567+0j),0.0,1116013407101102080300504000051000600007000081000
4248,LRBM,47.6584,23.47,2024-04-25 00:30:00,,,,,8.0,1007.0,(4501.633833123103+0j),7.0,2.0,,10000.0,99999,3.0,(3495.6338331231027+0j),0.0,1116033602100802070300704000051000600007000083000
4251,LRCL,46.7852,23.6862,2024-04-25 00:30:00,,,,,8.0,1006.0,(7277.302706774784+0j),6.0,2.0,310.0,10000.0,99999,,(6270.602706774785+0j),0.0,1116003102100802060300604000051000600007000080000
4252,LRCV,44.3181,23.8886,2024-04-25 00:30:00,61.0,36.0,^,green,11.0,1005.0,(3531.1003781496665+0j),10.0,5.0,30.0,10000.0,99999,,(2526.1003781496665+0j),0.2,11160003051011020100300504000051000600207610080000
4253,LRIA,47.1785,27.6206,2024-04-25 00:30:00,,,,,13.0,1005.0,(2249.3952494736227+0j),10.0,5.0,330.0,10000.0,99999,,(1245.3952494736227+0j),0.0,11160033051013020100300504000051000600007000080000
4254,LRSM,47.7033,22.8857,2024-04-25 00:30:00,,,,,9.0,1007.0,(2943.039374461846+0j),7.0,6.0,280.0,10000.0,99999,5.0,(1936.939374461846+0j),0.0,1116052806100902070300704000051000600007000085000
4255,LRSV,47.6875,26.3541,2024-04-25 00:30:00,,,,,11.0,1005.0,(7043.15166307711+0j),5.0,4.0,260.0,10000.0,99999,,(6039.15166307711+0j),0.0,1116002604101102050300504000051000600007000080000
4259,LUKK,46.9277,28.931,2024-04-25 00:30:00,,,,,9.0,1005.0,(2904.5705636136086+0j),9.0,2.0,200.0,8000.0,99999,1.0,(1900.5705636136086+0j),0.0,1114012002100902090300504000051000600007000081000
4267,GEML,35.2798,-2.95626,2024-04-25 00:30:00,,,,,14.0,1013.0,(1428.3001417620912+0j),7.0,1.0,,10000.0,99999,,(413.30014176209124+0j),0.0,1116003601101402070301304000051000600007000080000
4268,EBCV,50.5758,3.831,2024-04-25 00:25:00,,,,,3.0,1010.0,(3946.244946440226+0j),2.0,4.0,250.0,10000.0,99999,1.0,(2935.244946440226+0j),0.0,1116012504100302020301004000051000600007000081000
4270,EPGD,54.3776,18.4662,2024-04-25 00:30:00,,,,,-0.0,1004.0,(38.393626078781125+0j),-2.0,3.0,280.0,10000.0,99999,,(-968.9063739212188+0j),0.0,1116002803110002120300404000051000600007000080000
4271,EPKK,50.0777,19.7848,2024-04-25 00:30:00,,,,,4.0,1005.0,(10.495181178356981+0j),3.0,4.0,250.0,4000.0,99999,3.0,(-996.204818821643+0j),0.8,1112032504100402030300504000051000600807000083000
4272,EPKT,50.4743,19.08,2024-04-25 00:30:00,,,,,4.0,1005.0,(12.606160161374348+0j),4.0,4.0,240.0,3700.0,99999,4.0,(-994.5938398386257+0j),0.7,1112042404100402040300504000051000600707000084000
4273,EPLB,51.24028,22.71361,2024-04-25 00:30:00,,,,,6.0,1003.0,(6033.247201166053+0j),6.0,2.0,310.0,5000.0,99999,5.0,0j,0.0,1113053102100602060300304000051000600007000085000
4274,EPMO,52.4511,20.6518,2024-04-25 00:30:00,,,,,4.0,1003.0,(4983.363413949416+0j),3.0,6.0,250.0,10000.0,99999,,(3980.363413949416+0j),0.0,1116002506100402030300304000051000600007000080000
4275,EPPO,52.421,16.8263,2024-04-25 00:30:00,10.0,36.0,+,yellow,-0.0,1004.0,(38.393626078781125+0j),-0.0,2.0,170.0,5000.0,99999,,(-966.6063739212188+0j),0.0,1113001702110002100300404000051000600007100080000
4276,EPRZ,50.11,22.019,2024-04-25 00:30:00,,,,,6.0,1003.0,(6393.135066816766+0j),6.0,5.0,280.0,4300.0,99999,5.0,(5390.135066816766+0j),0.7,1112052805100602060300304000051000600707000085000
4277,EPSC,53.5847,14.9022,2024-04-25 00:30:00,,,,,4.0,1004.0,(2619.972170639337+0j),-1.0,5.0,90.0,10000.0,99999,,(1614.972170639337+0j),0.0,1116000905100402110300404000051000600007000080000
4278,EPWA,52.1657,20.9671,2024-04-25 00:30:00,61.0,36.0,^,green,6.0,1003.0,(3697.6793350073117+0j),3.0,4.0,320.0,10000.0,99999,1.0,(2694.6793350073117+0j),0.0,1116013204100602030300304000051000600007610081000
4280,LBBG,42.5696,27.5152,2024-04-25 00:30:00,,,,,14.0,1004.0,(1356.9791481013735+0j),12.0,9.0,80.0,10000.0,99999,4.0,(351.7791481013735+0j),0.0,11160408091014020120300404000051000600007000084000
4281,LBPD,42.0678,24.8508,2024-04-25 00:30:00,,,,,13.0,1003.0,(2976.553744346877+0j),8.0,2.0,,10000.0,99999,1.0,(1972.553744346877+0j),0.0,1116013602101302080300304000051000600007000081000
4282,LBSF,42.69669,23.41144,2024-04-25 00:30:00,,,,,9.0,1005.0,(10.309960928878553+0j),5.0,3.0,140.0,10000.0,99999,1.0,(-994.8900390711215+0j),0.0,1116011403100902050300504000051000600007000081000
4283,LBWN,43.2321,27.8251,2024-04-25 00:30:00,,,,,14.0,1005.0,(1631.0111926100876+0j),12.0,4.0,30.0,10000.0,99999,,(625.1111926100876+0j),0.0,11160003041014020120300504000051000600007000080000
4284,LHBP,47.4369,19.2556,2024-04-25 00:30:00,,,,,6.0,1006.0,(4854.943968239971+0j),2.0,9.0,290.0,10000.0,99999,,(3846.9439682399707+0j),0.0,1116002909100602020300604000051000600007000080000
4285,LRAR,46.1766,21.262,2024-04-25 00:30:00,10.0,36.0,+,yellow,5.0,1008.0,(4234.650769083343+0j),5.0,3.0,240.0,5000.0,99999,,(3225.9507690833434+0j),0.0,1113002403100502050300804000051000600007100080000
4286,LRBS,44.5032,26.1021,2024-04-25 00:30:00,80.0,36.0,q,green,12.0,1005.0,(1988.2586737574356+0j),12.0,2.0,,10000.0,99999,3.0,(983.2586737574356+0j),0.0,11160336021012020120300504000051000600007800083000
4287,LRCK,44.3622,28.4883,2024-04-25 00:30:00,,,,,12.0,1005.0,(2198.061934724013+0j),10.0,6.0,170.0,10000.0,99999,,(1192.061934724013+0j),0.0,11160017061012020100300504000051000600007000080000
4288,LROP,44.5722,26.1022,2024-04-25 00:30:00,80.0,36.0,q,green,12.0,1005.0,(2051.2866508502393+0j),12.0,4.0,60.0,9000.0,99999,3.0,(1045.0866508502393+0j),0.0,11150306041012020120300504000051000600007800083000
4289,LRTC,45.0625,28.7143,2024-04-25 00:30:00,,,,,12.0,1005.0,(1640.9010458229884+0j),10.0,4.0,190.0,7000.0,99999,6.0,(635.9010458229884+0j),0.0,11140619041012020100300504000051000600007000086000
4290,LRTM,46.4677,24.4125,2024-04-25 00:30:00,,,,,9.0,1007.0,(6134.923053676414+0j),7.0,1.0,,10000.0,99999,7.0,(5127.923053676414+0j),0.0,1116073601100902070300704000051000600007000087000
4291,LRTR,45.8099,21.3379,2024-04-25 00:30:00,,,,,7.0,1009.0,(3182.5542940635964+0j),7.0,5.0,270.0,7000.0,99999,6.0,(2173.6542940635964+0j),0.0,1114062705100702070300904000051000600007000086000
4292,LDDU,42.5614,18.2682,2024-04-25 00:30:00,,,,,10.0,1007.0,(3325.6282912964707+0j),5.0,3.0,,10000.0,99999,,(2316.8282912964705+0j),1.9,1116003603101002050300704000051000601907000080000
4293,LDOS,45.4627,18.8102,2024-04-25 00:30:00,10.0,36.0,+,yellow,1.0,1009.0,(14.186769307456975+0j),1.0,4.0,260.0,5000.0,99999,,(-995.213230692543+0j),0.0,1113002604100102010300904000051000600007100080000
4294,LDPL,44.8935,13.9222,2024-04-25 00:30:00,61.0,36.0,^,green,8.0,1007.0,(2426.339483323017+0j),7.0,6.0,70.0,10000.0,99999,3.0,(1418.3394833230168+0j),0.1,1116030706100802070300704000051000600107610083000
4295,LDRI,45.2169,14.5703,2024-04-25 00:30:00,,,,,7.0,1007.0,(2686.0736957472404+0j),6.0,3.0,360.0,10000.0,99999,3.0,(1678.0736957472404+0j),0.0,1116033603100702060300704000051000600007000083000
4296,LDSP,43.5389,16.298,2024-04-25 00:30:00,,,,,8.0,1007.0,(1370.0731658822726+0j),4.0,6.0,350.0,10000.0,99999,,(362.07316588227263+0j),0.0,1116003506100802040300704000051000600007000080000
4297,LDZA,45.7429,16.0688,2024-04-25 00:30:00,,,,,5.0,1008.0,(4245.018705305559+0j),5.0,1.0,110.0,10000.0,99999,,(3235.7187053055586+0j),0.0,1116001101100502050300804000051000600007000080000
4298,LDZD,44.1083,15.3467,2024-04-25 00:30:00,,,,,4.0,1007.0,(4326.332719761083+0j),4.0,2.0,,10000.0,99999,3.0,(3317.4327197610833+0j),0.0,1116033602100402040300704000051000600007000083000
4299,LJLJ,46.2237,14.4576,2024-04-25 00:30:00,61.0,36.0,^,green,3.0,1008.0,(18.19848922320205+0j),2.0,3.0,,10000.0,99999,5.0,(-989.801510776798+0j),0.1,1116053603100302020300804000051000600107610085000
4300,LJMB,46.4799,15.6861,2024-04-25 00:30:00,61.0,36.0,^,green,5.0,1008.0,(9.506927073457579+0j),3.0,5.0,220.0,10000.0,99999,8.0,(-1000.1930729265424+0j),0.0,1116082205100502030300804000051000600007610088000
4301,LJPZ,45.4734,13.615,2024-04-25 00:30:00,63.0,36.0,',green,8.0,1007.0,(1037.3010141250156+0j),6.0,1.0,100.0,10000.0,99999,7.0,(29.201014125015604+0j),0.0,1116071001100802060300704000051000600007630087000
4302,LKMT,49.6963,18.1111,2024-04-25 00:30:00,10.0,36.0,+,yellow,2.0,1006.0,(18.103087768790523+0j),2.0,3.0,180.0,4000.0,99999,,(-989.4969122312095+0j),0.1,1112001803100202020300604000051000600107100080000
4303,LKPR,50.1008,14.26,2024-04-25 00:30:00,,,,,1.0,1005.0,(28.559364570329652+0j),-0.0,8.0,200.0,10000.0,99999,,(-978.9406354296704+0j),0.0,1116002008100102100300504000051000600007000080000
4304,LKTB,49.1513,16.6944,2024-04-25 00:30:00,,,,,1.0,1006.0,(24.45794511933444+0j),-0.0,3.0,220.0,7000.0,99999,,(-983.2420548806656+0j),0.0,1114002203100102100300604000051000600007000080000
4305,LQSA,43.8246,18.3315,2024-04-25 00:30:00,,,,,5.0,1007.0,(15.861155220491792+0j),5.0,2.0,,10000.0,99999,3.0,(-992.1388447795082+0j),0.0,1116033602100502050300704000051000600007000083000
4306,LYBE,44.8184,20.3091,2024-04-25 00:30:00,,,,,6.0,1009.0,(3490.5403903844467+0j),5.0,5.0,310.0,10000.0,99999,,(2480.5403903844467+0j),0.0,1116003105100602050300904000051000600007000080000
4307,LYNI,43.3373,21.8537,2024-04-25 00:30:00,,,,,9.0,1008.0,(4317.649484891139+0j),7.0,5.0,350.0,10000.0,99999,1.0,(3310.049484891139+0j),0.0,1116013505100902070300804000051000600007000081000
4308,LYPG,42.3594,19.2519,2024-04-25 00:30:00,61.0,36.0,^,green,9.0,1008.0,(1604.2788177539862+0j),8.0,3.0,340.0,10000.0,99999,4.0,0j,0.0,1116043403100902080300804000051000600007610084000
4309,LYTV,42.4047,18.7233,2024-04-25 00:30:00,,,,,10.0,1007.0,(1076.8184530817855+0j),6.0,2.0,,10000.0,99999,,(67.81845308178549+0j),0.0,1116003602101002060300704000051000600007000080000
4310,LZIB,48.1702,17.2127,2024-04-25 00:30:00,,,,,5.0,1007.0,(5104.991295313532+0j),2.0,9.0,280.0,10000.0,99999,,(4096.791295313532+0j),0.0,1116002809100502020300704000051000600007000080000
4311,LZKZ,48.6631,21.2411,2024-04-25 00:30:00,,,,,6.0,1004.0,(7078.231111901455+0j),6.0,11.0,190.0,5000.0,99999,6.0,0j,0.0,1113061911100602060300404000051000600007000086000
4312,LZTT,49.0736,20.2411,2024-04-25 00:30:00,71.0,36.0,h,magenta,1.0,1003.0,(32.56551418369414+0j),0.0,7.0,300.0,6000.0,99999,5.0,(-970.4344858163058+0j),1.6,1113053007100102000300304000051000601607710085000
4317,LFAT,50.5174,1.62059,2024-04-25 00:30:00,,,,,5.0,1011.0,(1272.3524519558387+0j),2.0,1.0,230.0,10000.0,99999,4.0,(259.35245195583866+0j),0.0,1116042301100502020301104000051000600007000084000
4318,LFBD,44.8283,-0.71556,2024-04-25 00:30:00,61.0,36.0,^,green,9.0,1014.0,(1711.8580940918273+0j),8.0,4.0,230.0,10000.0,99999,4.0,(694.4580940918273+0j),0.0,1116042304100902080301404000051000600007610084000
4319,LFBH,46.1792,-1.19528,2024-04-25 00:30:00,,,,,12.0,1012.0,(1234.5676265209293+0j),10.0,13.0,300.0,10000.0,99999,6.0,(219.2676265209293+0j),0.0,11160630131012020100301204000051000600007000086000
4320,LFBI,46.5877,0.30667,2024-04-25 00:30:00,51.0,36.0,T,green,8.0,1012.0,(3350.976881785731+0j),7.0,4.0,120.0,6000.0,99999,5.0,(2336.2768817857313+0j),0.0,1113051204100802070301204000051000600007510085000
4321,LFBO,43.6291,1.36382,2024-04-25 00:30:00,,,,,9.0,1014.0,(3488.0284397139353+0j),7.0,9.0,260.0,10000.0,99999,4.0,(2471.0284397139353+0j),0.5,1116042609100902070301404000051000600507000084000
4322,LFBP,43.38,-0.41861,2024-04-25 00:30:00,,,,,8.0,1015.0,(4609.499718311365+0j),6.0,4.0,230.0,10000.0,99999,6.0,(3592.4997183113646+0j),0.0,1116062304100802060301504000051000600007000086000
4324,LFBZ,43.4684,-1.52332,2024-04-25 00:30:00,61.0,36.0,^,green,9.0,1015.0,(2119.5129257895615+0j),8.0,3.0,,6000.0,99999,8.0,(1102.5129257895615+0j),0.0,1113083603100902080301504000051000600007610088000
4326,LFKB,42.5527,9.48373,2024-04-25 00:30:00,,,,,7.0,1007.0,(1138.2196583307993+0j),4.0,5.0,220.0,10000.0,99999,,(130.21965833079935+0j),0.0,1116002205100702040300704000051000600007000080000
4327,LFKC,42.5308,8.79319,2024-04-25 00:30:00,,,,,8.0,1006.0,(2051.463643510969+0j),2.0,5.0,180.0,10000.0,99999,,(1043.7636435109691+0j),0.0,1116001805100802020300604000051000600007000080000
4328,LFKJ,41.9236,8.80292,2024-04-25 00:30:00,,,,,7.0,1008.0,(1098.2176848184172+0j),3.0,6.0,40.0,10000.0,99999,,(88.8176848184172+0j),0.0,1116000406100702030300804000051000600007000080000
4329,LFLB,45.6381,5.88023,2024-04-25 00:30:00,,,,,2.0,1013.0,(17.36246744123847+0j),0.0,3.0,140.0,10000.0,99999,1.0,(-997.5375325587615+0j),0.0,1116011403100202000301304000051000600007000081000
4330,LFLC,45.7867,3.16917,2024-04-25 00:30:00,,,,,5.0,1012.0,(11.443567581874175+0j),3.0,3.0,130.0,10000.0,99999,8.0,(-1004.0564324181258+0j),0.0,1116081303100502030301204000051000600007000088000
4331,LFLL,45.7264,5.09083,2024-04-25 00:30:00,,,,,6.0,1013.0,(7697.428071403814+0j),3.0,0.0,0.0,10000.0,99999,4.0,(6682.5280714038145+0j),0.0,1116040000100602030301304000051000600007000084000
4332,LFLS,45.3629,5.32937,2024-04-25 00:30:00,,,,,4.0,1012.0,(15.4293637272348+0j),2.0,2.0,,10000.0,99999,,(-999.7706362727653+0j),0.0,1116003602100402020301204000051000600007000080000
4333,LFLY,45.7272,4.94427,2024-04-25 00:30:00,,,,,6.0,1013.0,(6318.683052310705+0j),3.0,3.0,320.0,10000.0,99999,6.0,(5303.783052310705+0j),0.0,1116063203100602030301304000051000600007000086000
4334,LFMD,43.542,6.95348,2024-04-25 00:30:00,,,,,6.0,1005.0,(1080.5753273575112+0j),3.0,4.0,10.0,10000.0,99999,,(75.57532735751124+0j),0.0,1116000104100602030300504000051000600007000080000
4335,LFMH,45.5406,4.29639,2024-04-25 00:30:00,,,,,3.0,1012.0,(18.703830539044414+0j),2.0,0.0,0.0,10000.0,99999,5.0,(-997.0961694609556+0j),0.0,1116050000100302020301204000051000600007000085000
4336,LFML,43.43927,5.22142,2024-04-25 00:30:00,,,,,9.0,1010.0,(1310.109628558363+0j),2.0,26.0,330.0,10000.0,99999,,(298.50962855836303+0j),0.0,1116003326100902020301004000051000600007000080000
4337,LFMN,43.6584,7.21587,2024-04-25 00:30:00,,,,,10.0,1005.0,(1046.5702733618612+0j),4.0,10.0,330.0,10000.0,99999,1.0,(40.570273361861155+0j),0.0,1116013310101002040300504000051000600007000081000
4338,LFMP,42.7404,2.87067,2024-04-25 00:30:00,,,,,12.0,1013.0,(1462.5241120604478+0j),5.0,12.0,320.0,10000.0,99999,6.0,(447.4241120604478+0j),0.0,1116063212101202050301304000051000600007000086000
4339,LFMT,43.5762,3.96301,2024-04-25 00:30:00,,,,,11.0,1013.0,(1067.0971678330443+0j),2.0,3.0,340.0,10000.0,99999,,(53.597167833044296+0j),0.0,1116003403101102020301304000051000600007000080000
4340,LFOB,49.4544,2.11278,2024-04-25 00:30:00,,,,,4.0,1012.0,(5264.053658064286+0j),3.0,3.0,300.0,10000.0,99999,,(4251.053658064286+0j),0.0,1116003003100402030301204000051000600007000080000
4341,LFOH,49.5339,0.08806,2024-04-25 00:30:00,,,,,7.0,1012.0,(2943.5639740614565+0j),3.0,2.0,210.0,10000.0,99999,,(1929.5639740614565+0j),0.0,1116002102100702030301204000051000600007000080000
4342,LFOT,47.4322,0.72761,2024-04-25 00:30:00,,,,,7.0,1012.0,(3256.5141806452557+0j),5.0,2.0,100.0,10000.0,99999,8.0,(2242.1141806452556+0j),0.0,1116081002100702050301204000051000600007000088000
4345,LFPN,48.7519,2.10619,2024-04-25 00:30:00,,,,,3.0,1012.0,(9.736107851350106+0j),1.0,0.0,0.0,10000.0,99999,,(-1003.2638921486499+0j),0.0,1116000000100302010301204000051000600007000080000
4346,LFPO,48.7253,2.35944,2024-04-25 00:30:00,,,,,6.0,1012.0,(3131.3211603947175+0j),1.0,4.0,290.0,10000.0,99999,,(2117.0211603947173+0j),0.0,1116002904100602010301204000051000600007000080000
4351,LFRG,49.3653,0.15431,2024-04-25 00:30:00,,,,,5.0,1012.0,(5581.028115966864+0j),3.0,1.0,,10000.0,99999,,(4567.028115966864+0j),0.0,1116003601100502030301204000051000600007000080000
4353,LFRN,48.0695,-1.73479,2024-04-25 00:30:00,,,,,6.0,1012.0,(1822.6713875478476+0j),5.0,3.0,300.0,10000.0,99999,,(808.0713875478476+0j),0.0,1116003003100602050301204000051000600007000080000
4358,LFSB,47.5896,7.52991,2024-04-25 00:30:00,,,,,4.0,1011.0,(11.568733985413488+0j),2.0,6.0,240.0,10000.0,99999,4.0,(-1001.9312660145865+0j),0.0,1116042406100402020301104000051000600007000084000
4359,LFSN,48.6921,6.23046,2024-04-25 00:30:00,,,,,5.0,1011.0,(8343.04321306531+0j),2.0,5.0,240.0,10000.0,99999,,(7330.54321306531+0j),0.0,1116002405100502020301104000051000600007000080000
4360,LFST,48.5383,7.62823,2024-04-25 00:30:00,,,,,5.0,1010.0,(5841.285619564164+0j),3.0,5.0,220.0,10000.0,99999,5.0,(4829.0856195641645+0j),0.0,1116052205100502030301004000051000600007000085000
4361,LFTW,43.7574,4.41635,2024-04-25 00:30:00,,,,,9.0,1012.0,(2442.317190553987+0j),2.0,8.0,350.0,10000.0,99999,,(1429.117190553987+0j),0.0,1116003508100902020301204000051000600007000080000
4362,LFBA,44.1747,0.59056,2024-04-25 00:30:00,,,,,9.0,1014.0,(1913.665242187691+0j),7.0,3.0,,10000.0,99999,5.0,(897.6652421876911+0j),0.2,1116053603100902070301404000051000600207000085000
4363,LFBC,44.5333,-1.125,2024-04-25 00:30:00,,,,,10.0,1014.0,(1322.1574733516575+0j),7.0,2.0,,10000.0,99999,5.0,(306.1574733516575+0j),0.0,1116053602101002070301404000051000600007000085000
4364,LFBL,45.8628,1.17944,2024-04-25 00:30:00,51.0,36.0,T,green,6.0,1012.0,(11.387214442463128+0j),4.0,4.0,210.0,10000.0,99999,4.0,(-1003.8127855575369+0j),0.0,1116042104100602040301204000051000600007510084000
4365,LFBM,43.9117,-0.5075,2024-04-25 00:30:00,,,,,9.0,1015.0,(1910.658282994995+0j),9.0,4.0,220.0,10000.0,99999,4.0,(893.658282994995+0j),0.3,1116042204100902090301504000051000600307000084000
4366,LFKF,41.5006,9.09778,2024-04-25 00:30:00,,,,,10.0,1007.0,(1324.5564162086932+0j),4.0,8.0,240.0,10000.0,99999,1.0,(316.55641620869324+0j),0.0,1116012408101002040300704000051000600007000081000
4367,LFOE,49.0287,1.21986,2024-04-25 00:30:00,,,,,3.0,1012.0,(8568.832788093603+0j),1.0,4.0,240.0,10000.0,99999,,(7554.832788093603+0j),0.0,1116002404100302010301204000051000600007000080000
4368,LFOP,49.3842,1.1748,2024-04-25 00:30:00,,,,,4.0,1012.0,(7244.701796915889+0j),3.0,4.0,240.0,10000.0,99999,,(6230.201796915889+0j),0.0,1116002404100402030301204000051000600007000080000
4369,LFPB,48.9694,2.44139,2024-04-25 00:30:00,,,,,6.0,1012.0,(2537.1291874188137+0j),1.0,3.0,250.0,10000.0,99999,,(1523.4291874188136+0j),0.0,1116002503100602010301204000051000600007000080000
4370,LFPG,49.0128,2.55,2024-04-25 00:30:00,,,,,6.0,1012.0,(3988.5296187361346+0j),1.0,4.0,280.0,10000.0,99999,,(2975.5296187361346+0j),0.0,1116002804100602010301204000051000600007000080000
4371,LFPV,48.7744,2.20154,2024-04-25 00:30:00,,,,,5.0,1012.0,(6672.315571596666+0j),0.0,2.0,260.0,10000.0,99999,,(5658.415571596666+0j),0.0,1116002602100502000301204000051000600007000080000
4372,LFQB,48.3221,4.0167,2024-04-25 00:30:00,,,,,4.0,1012.0,(5656.897550736828+0j),1.0,2.0,,10000.0,99999,,(4642.997550736828+0j),0.0,1116003602100402010301204000051000600007000080000
4373,LFQQ,50.5619,3.08944,2024-04-25 00:30:00,,,,,3.0,1011.0,(3320.3558197173925+0j),2.0,6.0,240.0,10000.0,99999,,(2307.3558197173925+0j),0.0,1116002406100302020301104000051000600007000080000
4375,LFSD,47.2689,5.09,2024-04-25 00:30:00,,,,,5.0,1012.0,(8105.6617854911465+0j),2.0,4.0,290.0,10000.0,99999,,(7091.461785491147+0j),0.0,1116002904100502020301204000051000600007000080000
4376,LFSI,48.636,4.89942,2024-04-25 00:30:00,,,,,5.0,1011.0,(5355.736555486732+0j),1.0,4.0,270.0,10000.0,99999,,(4343.736555486732+0j),0.0,1116002704100502010301104000051000600007000080000
4377,LFSL,45.03967,1.4855,2024-04-25 00:30:00,,,,,7.0,1013.0,(8110.848618939827+0j),3.0,2.0,120.0,10000.0,99999,8.0,(7096.848618939827+0j),0.0,1116081202100702030301304000051000600007000088000
4378,LFSO,48.5831,5.955,2024-04-25 00:30:00,,,,,3.0,1010.0,(16.720949212128648+0j),1.0,7.0,260.0,10000.0,99999,,(-995.4790507878714+0j),0.0,1116002607100302010301004000051000600007000080000
4379,LFSX,47.7831,6.36406,2024-04-25 00:30:00,,,,,3.0,1011.0,(14.711872086507139+0j),3.0,2.0,90.0,10000.0,99999,4.0,(-998.3881279134929+0j),0.0,1116040902100302030301104000051000600007000084000
4380,LFTH,43.0973,6.14603,2024-04-25 00:30:00,,,,,10.0,1007.0,(1031.210157043933+0j),-2.0,9.0,320.0,10000.0,99999,,(22.91015704393294+0j),0.0,1116003209101002120300704000051000600007000080000
4384,LPFR,37.0144,-7.96591,2024-04-25 00:30:00,,,,,17.0,1013.0,(1062.3703337494558+0j),6.0,8.0,320.0,10000.0,99999,,(48.37033374945577+0j),0.0,1116003208101702060301304000051000600007000080000
4385,LPMA,32.6979,-16.7745,2024-04-25 00:30:00,,,,,18.0,1020.0,(1419.1572378342858+0j),11.0,12.0,10.0,10000.0,99999,1.0,(398.4572378342857+0j),0.0,11160101121018020110302004000051000600007000081000
4387,LPPS,33.0734,-16.35,2024-04-25 00:30:00,,,,,17.0,1020.0,(1810.6281139960543+0j),13.0,11.0,30.0,10000.0,99999,1.0,(790.6281139960543+0j),0.0,11160103111017020130302004000051000600007000081000
4389,ULLI,59.8003,30.2625,2024-04-25 00:30:00,,,,,4.0,1012.0,(1772.4104049748232+0j),-2.0,6.0,90.0,10000.0,99999,,(756.0104049748232+0j),0.0,1116000906100402120301204000051000600007000080000
4390,ULMM,68.7817,32.7508,2024-04-25 00:30:00,,,,,-0.0,1015.0,(38.81427337645702+0j),-1.0,2.0,140.0,10000.0,99999,4.0,(-976.685726623543+0j),0.0,1116041402110002110301504000051000600007000084000
4391,UUDD,55.4088,37.9063,2024-04-25 00:30:00,,,,,11.0,1011.0,(3376.92667903037+0j),3.0,7.0,110.0,10000.0,99999,,(2362.92667903037+0j),0.0,1116001107101102030301104000051000600007000080000
4394,ULAA,64.6003,40.7167,2024-04-25 00:30:00,,,,,1.0,1019.0,(3842.917906991417+0j),1.0,1.0,230.0,10000.0,99999,8.0,(2824.117906991417+0j),0.0,1116082301100102010301904000051000600007000088000
4395,UMMS,53.8825,28.0307,2024-04-25 00:30:00,,,,,8.0,999.0,(4885.848817527161+0j),8.0,5.0,170.0,10000.0,99999,8.0,(3885.6488175271616+0j),0.1,1116081705100802080399904000051000600107000088000
4397,URKK,45.0347,39.1705,2024-04-25 00:30:00,,,,,18.0,1008.0,(1244.267208419663+0j),11.0,3.0,70.0,10000.0,99999,,(235.2672084196629+0j),0.0,11160007031018020110300804000051000600007000080000
4398,URMM,44.2251,43.0819,2024-04-25 00:30:00,,,,,12.0,1014.0,(5173.755993928663+0j),10.0,5.0,80.0,10000.0,99999,,(4159.055993928663+0j),0.0,11160008051012020100301404000051000600007000080000
4399,URMT,45.1092,42.1128,2024-04-25 00:30:00,,,,,13.0,1014.0,(6556.808479678367+0j),9.0,4.0,130.0,10000.0,99999,,(5541.808479678367+0j),0.0,1116001304101302090301404000051000600007000080000
4400,URSS,43.4499,39.9566,2024-04-25 00:30:00,,,,,20.0,1009.0,(1167.3143522885414+0j),7.0,4.0,40.0,10000.0,99999,,(156.71435228854136+0j),0.0,1116000404102002070300904000051000600007000080000
4401,URWA,46.2833,48.0063,2024-04-25 00:30:00,,,,,12.0,1018.0,(837.2821006033702+0j),6.0,2.0,70.0,10000.0,99999,,(-181.71789939662983+0j),0.0,1116000702101202060301804000051000600007000080000
4402,URWI,46.3739,44.3309,2024-04-25 00:30:00,,,,,12.0,1016.0,(2809.310659685671+0j),6.0,5.0,140.0,10000.0,99999,,(1792.310659685671+0j),0.0,1116001405101202060301604000051000600007000080000
4403,URWW,48.7825,44.3455,2024-04-25 00:30:00,,,,,13.0,1018.0,(2587.8629730543616+0j),6.0,5.0,130.0,10000.0,99999,,(1569.1629730543616+0j),0.0,1116001305101302060301804000051000600007000080000
4404,UUEE,55.9726,37.4146,2024-04-25 00:30:00,80.0,36.0,q,green,9.0,1011.0,(4180.290293737506+0j),4.0,7.0,80.0,10000.0,99999,6.0,(3166.2902937375056+0j),0.0,1116060807100902040301104000051000600007800086000
4405,UUOO,51.8142,39.2296,2024-04-25 00:30:00,,,,,12.0,1011.0,(2848.3549435421555+0j),8.0,7.0,130.0,10000.0,99999,,(1835.3549435421555+0j),0.0,1116001307101202080301104000051000600007000080000
4406,UUWW,55.5915,37.2615,2024-04-25 00:30:00,,,,,10.0,1010.0,(4144.46915292514+0j),4.0,8.0,120.0,10000.0,99999,6.0,(3131.4691529251404+0j),0.0,1116061208101002040301004000051000600007000086000
4409,UWKD,55.6062,49.2787,2024-04-25 00:30:00,,,,,7.0,1021.0,(3680.333660396812+0j),1.0,2.0,360.0,10000.0,99999,,(2660.333660396812+0j),0.0,1116003602100702010302104000051000600007000080000
4410,UWKE,55.5647,52.0925,2024-04-25 00:30:00,,,,,6.0,1021.0,(6228.9527014651785+0j),6.0,1.0,170.0,1300.0,99999,,(5208.9527014651785+0j),0.0,1110001701100602060302104000051000600007000080000
4411,UWWW,53.5049,50.1643,2024-04-25 00:30:00,,,,,11.0,1021.0,(2902.74418643457+0j),-2.0,2.0,290.0,10000.0,99999,,(1882.74418643457+0j),0.0,1116002902101102120302104000051000600007000080000
4412,LEAL,38.2822,-0.55816,2024-04-25 00:30:00,,,,,12.0,1013.0,(1455.8458766492922+0j),6.0,3.0,250.0,10000.0,99999,,(439.7458766492922+0j),0.0,1116002503101202060301304000051000600007000080000
4414,LEAS,43.5636,-6.03462,2024-04-25 00:30:00,,,,,10.0,1017.0,(2804.7292940763396+0j),6.0,8.0,230.0,10000.0,99999,8.0,(1785.7292940763396+0j),0.0,1116082308101002060301704000051000600007000088000
4415,LEBB,43.3011,-2.91061,2024-04-25 00:30:00,,,,,10.0,1016.0,(1539.9081505245017+0j),8.0,2.0,,10000.0,99999,8.0,(521.9081505245017+0j),0.0,1116083602101002080301604000051000600007000088000
4416,LEBL,41.2971,2.07846,2024-04-25 00:30:00,,,,,12.0,1012.0,(1046.8330585840463+0j),7.0,6.0,340.0,10000.0,99999,1.0,(32.63305858404624+0j),0.0,1116013406101202070301204000051000600007000081000
4417,LECO,43.3021,-8.37726,2024-04-25 00:30:00,,,,,11.0,1017.0,(2234.45419745407+0j),7.0,1.0,,10000.0,99999,5.0,(1215.4541974540698+0j),0.0,1116053601101102070301704000051000600007000085000
4418,LEDA,41.72819,0.53502,2024-04-25 00:30:00,,,,,8.0,1012.0,(8157.427398002528+0j),3.0,0.0,0.0,10000.0,99999,,(7144.427398002528+0j),0.0,1116000000100802030301204000051000600007000080000
4421,LEIB,38.8729,1.37312,2024-04-25 00:30:00,,,,,14.0,1013.0,(1073.0791209339202+0j),9.0,6.0,230.0,10000.0,99999,,(56.97912093392017+0j),0.0,1116002306101402090301304000051000600007000080000
4422,LEJR,36.7446,-6.06011,2024-04-25 00:30:00,,,,,13.0,1013.0,(1273.1136179063003+0j),9.0,1.0,30.0,8000.0,99999,,(259.1136179063003+0j),0.0,1114000301101302090301304000051000600007000080000
4424,LELL,41.5209,2.10508,2024-04-25 00:30:00,,,,,12.0,1012.0,(2733.421458700804+0j),7.0,6.0,20.0,10000.0,99999,2.0,(1719.4214587008041+0j),0.0,1116020206101202070301204000051000600007000082000
4425,LEMD,40.4936,-3.56676,2024-04-25 00:30:00,,,,,9.0,1013.0,(11.636964464718128+0j),0.0,2.0,,10000.0,99999,,(-1002.7630355352818+0j),0.0,1116003602100902000301304000051000600007000080000
4427,LEMH,39.8626,4.21865,2024-04-25 00:30:00,,,,,10.0,1014.0,(2253.8770624369986+0j),5.0,3.0,190.0,10000.0,99999,,(1238.8770624369986+0j),0.0,1116001903101002050301404000051000600007000080000
4428,LEPA,39.5517,2.73881,2024-04-25 00:30:00,,,,,8.0,1013.0,(1132.6642352939468+0j),6.0,0.0,0.0,10000.0,99999,1.0,(116.96423529394679+0j),0.0,1116010000100802060301304000051000600007000081000
4432,LEST,42.8963,-8.41514,2024-04-25 00:30:00,,,,,9.0,1017.0,(7624.269480351279+0j),8.0,0.0,0.0,10000.0,99999,6.0,(6605.269480351279+0j),0.0,1116060000100902080301704000051000600007000086000
4434,LEVC,39.4893,-0.48162,2024-04-25 00:30:00,,,,,11.0,1013.0,(1874.578899101401+0j),2.0,2.0,,10000.0,99999,,(859.178899101401+0j),0.0,1116003602101102020301304000051000600007000080000
4435,LEVD,41.7061,-4.85194,2024-04-25 00:30:00,,,,,6.0,1013.0,(19.22498076152853+0j),3.0,8.0,90.0,10000.0,99999,,(-995.7750192384715+0j),0.0,1116000908100602030301304000051000600007000080000
4436,LEVT,42.8828,-2.72447,2024-04-25 00:30:00,,,,,3.0,1016.0,(21.348157023156066+0j),2.0,2.0,320.0,10000.0,99999,6.0,(-998.5518429768439+0j),0.0,1116063202100302020301604000051000600007000086000
4437,LEVX,42.2318,-8.62677,2024-04-25 00:30:00,,,,,10.0,1017.0,(5071.366139968848+0j),6.0,6.0,20.0,10000.0,99999,,(4053.366139968848+0j),0.0,1116000206101002060301704000051000600007000080000
4438,LEXJ,43.4271,-3.82001,2024-04-25 00:30:00,,,,,11.0,1016.0,(1067.0326439354233+0j),6.0,6.0,230.0,10000.0,99999,8.0,(48.032643935423266+0j),0.0,1116082306101102060301604000051000600007000088000
4439,LEZG,41.6662,-1.04155,2024-04-25 00:30:00,,,,,9.0,1014.0,(5596.719398368623+0j),2.0,14.0,270.0,10000.0,99999,,(4581.719398368623+0j),0.0,1116002714100902020301404000051000600007000080000
4440,LEZL,37.418,-5.89311,2024-04-25 00:30:00,,,,,14.0,1012.0,(1304.1661808021054+0j),8.0,2.0,,10000.0,99999,,(289.56618080210535+0j),0.0,1116003602101402080301204000051000600007000080000
4447,LESA,40.9521,-5.50199,2024-04-25 00:30:00,,,,,5.0,1014.0,(20.482509697684556+0j),3.0,0.0,0.0,10000.0,99999,,(-994.5174903023154+0j),0.0,1116000000100502030301404000051000600007000080000
4449,LFLX,46.8622,1.73067,2024-04-25 00:30:00,,,,,6.0,1012.0,(5181.031232372381+0j),5.0,2.0,130.0,10000.0,99999,7.0,(4166.231232372381+0j),0.0,1116071302100602050301204000051000600007000087000
4450,LFMI,43.5227,4.92384,2024-04-25 00:30:00,,,,,8.0,1011.0,(1390.223511763161+0j),1.0,13.0,320.0,10000.0,99999,,(377.82351176316104+0j),0.0,1116003213100802010301104000051000600007000080000
4452,LFMV,43.9073,4.90183,2024-04-25 00:30:00,,,,,7.0,1011.0,(1694.718790330792+0j),2.0,10.0,350.0,10000.0,99999,,(681.718790330792+0j),0.0,1116003510100702020301104000051000600007000080000
4456,URML,42.8168,47.6523,2024-04-25 00:30:00,,,,,10.0,1016.0,(1058.0252713787572+0j),9.0,2.0,250.0,10000.0,99999,,(41.32527137875718+0j),0.0,1116002502101002090301604000051000600007000080000
4457,UWLL,54.2683,48.2267,2024-04-25 00:30:00,,,,,4.0,1021.0,(6677.105687152258+0j),3.0,2.0,280.0,10000.0,99999,,(5656.105687152258+0j),0.0,1116002802100402030302104000051000600007000080000
4460,EGDY,51.0094,-2.63882,2024-04-25 00:20:00,,,,,6.0,1011.0,(1479.6992746126496+0j),3.0,4.0,210.0,10000.0,99999,3.0,(465.69927461264956+0j),0.0,1116032104100602030301104000051000600007000083000
4461,EGKK,51.1481,-0.19028,2024-04-25 00:20:00,,,,,1.0,1011.0,(10.744810429867822+0j),-1.0,1.0,,10000.0,99999,,(-1003.7551895701322+0j),0.0,1116003601100102110301104000051000600007000080000
4462,EGOM,55.05,-2.55,2024-04-25 00:20:00,,,,,1.0,1006.0,(27.31568284675901+0j),1.0,12.0,270.0,10000.0,99999,,(-984.384317153241+0j),0.0,1116002712100102010300604000051000600007000080000
4463,EGOS,52.7982,-2.66804,2024-04-25 00:20:00,,,,,1.0,1011.0,(12.691195889895837+0j),-1.0,2.0,280.0,10000.0,99999,,(-1001.5088041101042+0j),0.0,1116002802100102110301104000051000600007000080000
4464,EGOV,53.2481,-4.53534,2024-04-25 00:20:00,,,,,8.0,1011.0,(1176.0612151197583+0j),2.0,6.0,230.0,10000.0,99999,8.0,(161.8612151197583+0j),0.0,1116082306100802020301104000051000600007000088000
4465,EGQK,57.6494,-3.56064,2024-04-25 00:20:00,,,,,5.0,1008.0,(1164.3275188625246+0j),1.0,13.0,350.0,10000.0,99999,8.0,(153.52751886252463+0j),0.0,1116083513100502010300804000051000600007000088000
4466,EGUB,51.6164,-1.09583,2024-04-25 00:20:00,,,,,0.0,1011.0,(38.661310722756696+0j),-1.0,1.0,150.0,10000.0,99999,6.0,(-975.0386892772433+0j),0.0,1116061501100002110301104000051000600007000086000
4468,EGVP,51.1394,-1.56861,2024-04-25 00:20:00,,,,,4.0,1011.0,(4447.759289532946+0j),0.0,1.0,70.0,10000.0,99999,,(3433.859289532946+0j),0.0,1116000701100402000301104000051000600007000080000
4470,EGWU,51.553,-0.41817,2024-04-25 00:20:00,,,,,3.0,1011.0,(2775.209509176964+0j),1.0,3.0,310.0,10000.0,99999,8.0,(1761.4095091769639+0j),0.0,1116083103100302010301104000051000600007000088000
4471,EGXE,54.2924,-1.5354,2024-04-25 00:20:00,,,,,3.0,1008.0,(2896.909185540498+0j),0.0,3.0,180.0,10000.0,99999,1.0,(1884.4091855404981+0j),0.0,1116011803100302000300804000051000600007000081000
4472,EGXW,53.1662,-0.52381,2024-04-25 00:20:00,,,,,4.0,1010.0,(3591.488898273095+0j),-1.0,7.0,220.0,10000.0,99999,,(2577.588898273095+0j),0.0,1116002207100402110301004000051000600007000080000
4473,EGXZ,54.2055,-1.38209,2024-04-25 00:20:00,,,,,0.0,1009.0,(38.58482939590653+0j),-1.0,2.0,140.0,10000.0,99999,6.0,(-974.3151706040934+0j),0.0,1116061402100002110300904000051000600007000086000
4481,EBFS,50.2433,4.64583,2024-04-25 00:34:00,,,,,3.0,1009.0,(14.929768206860853+0j),2.0,6.0,270.0,7000.0,99999,3.0,(-995.0702317931391+0j),0.0,1114032706100302020300904000051000600007000083000
4482,EHEH,51.4501,5.37453,2024-04-25 00:29:00,58.0,36.0,[,green,4.0,1009.0,(1724.5756570411972+0j),3.0,5.0,260.0,10000.0,99999,3.0,(714.2756570411973+0j),0.0,1116032605100402030300904000051000600007580083000
4485,EGDM,51.1522,-1.74741,2024-04-25 00:20:00,,,,,4.0,1011.0,(5886.169651612176+0j),-0.0,3.0,140.0,10000.0,99999,8.0,(4872.269651612176+0j),0.0,1116081403100402100301104000051000600007000088000
4486,EGDR,50.0861,-5.25571,2024-04-25 00:20:00,,,,,6.0,1012.0,(2933.0069398348733+0j),5.0,5.0,320.0,10000.0,99999,,(1919.0069398348733+0j),0.0,1116003205100602050301204000051000600007000080000
4487,EGUW,52.1273,0.95626,2024-04-25 00:20:00,,,,,2.0,1010.0,(7931.607095971932+0j),1.0,4.0,230.0,10000.0,99999,8.0,(6918.207095971932+0j),0.0,1116082304100202010301004000051000600007000088000
4488,EGWC,52.64,-2.30558,2024-04-25 00:20:00,,,,,99999.0,99999.0,(99999+0j),99999.0,2.0,290.0,10000.0,99999,,(98985.4+0j),0.0,11160029021099999020999990399904000051000600007000080000
4489,EGYD,53.0303,-0.48324,2024-04-25 00:20:00,,,,,2.0,1010.0,(6256.841152260645+0j),-0.0,6.0,220.0,10000.0,99999,,(5243.541152260645+0j),0.0,1116002206100202100301004000051000600007000080000
4490,EGYE,52.9622,-0.56163,2024-04-25 00:20:00,,,,,3.0,1010.0,(6942.388608144758+0j),-1.0,6.0,220.0,10000.0,99999,,(5929.288608144758+0j),0.0,1116002206100302110301004000051000600007000080000
4491,EGYM,52.6484,0.55069,2024-04-25 00:20:00,,,,,2.0,1010.0,(2587.7277613120345+0j),1.0,3.0,230.0,10000.0,99999,3.0,(1574.4277613120346+0j),0.0,1116032303100202010301004000051000600007000083000
4493,EIDW,53.4213,-6.27007,2024-04-25 00:30:00,,,,,2.0,1011.0,(6881.116022820581+0j),0.0,4.0,280.0,10000.0,99999,2.0,(5867.216022820581+0j),0.0,1116022804100202000301104000051000600007000082000
4494,EINN,52.702,-8.92482,2024-04-25 00:30:00,,,,,8.0,1013.0,(1220.165932250488+0j),5.0,8.0,300.0,10000.0,99999,6.0,(204.46593225048787+0j),0.0,1116063008100802050301304000051000600007000086000
4495,LTBS,36.7131,28.7925,2024-04-25 00:20:00,,,,,19.0,1006.0,(1042.462801231343+0j),17.0,4.0,50.0,10000.0,99999,4.0,(35.56280123134309+0j),0.0,11160405041019020170300604000051000600007000084000
4497,LFRB,48.4479,-4.41854,2024-04-25 00:30:00,,,,,6.0,1013.0,(3419.690284582622+0j),5.0,2.0,280.0,10000.0,99999,1.0,(2404.3902845826224+0j),0.0,1116012802100602050301304000051000600007000081000
4498,LPPT,38.7813,-9.13592,2024-04-25 00:30:00,,,,,13.0,1016.0,(2192.324297763084+0j),10.0,10.0,340.0,10000.0,99999,1.0,(1175.024297763084+0j),0.0,11160134101013020100301604000051000600007000081000
4499,LXGB,36.1512,-5.34966,2024-04-25 00:20:00,,,,,16.0,1013.0,(1045.6735409059715+0j),13.0,2.0,330.0,10000.0,99999,4.0,(29.873540905971595+0j),0.0,11160433021016020130301304000051000600007000084000
4500,LFBT,43.1787,-0.00644,2024-04-25 00:30:00,,,,,7.0,1015.0,(9.795781145921056+0j),3.0,3.0,240.0,10000.0,99999,8.0,(-1008.404218854079+0j),0.0,1116082403100702030301504000051000600007000088000
4501,LFGJ,47.039,5.42725,2024-04-25 00:30:00,,,,,4.0,1012.0,(8886.09520523828+0j),4.0,4.0,210.0,10000.0,99999,,(7873.09520523828+0j),0.0,1116002104100402040301204000051000600007000080000
4502,LFKS,41.9244,9.406,2024-04-25 00:30:00,,,,,8.0,1007.0,(1130.467484112702+0j),1.0,5.0,250.0,10000.0,99999,,(123.4674841127021+0j),0.0,1116002505100802010300704000051000600007000080000
4503,LFLW,44.8914,2.42194,2024-04-25 00:30:00,,,,,4.0,1012.0,(20.54464055166719+0j),2.0,0.0,0.0,10000.0,99999,6.0,(-995.2553594483328+0j),0.0,1116060000100402020301204000051000600007000086000
4504,LFMC,43.3847,6.38714,2024-04-25 00:30:00,,,,,9.0,1006.0,(2201.517391583746+0j),-1.0,16.0,300.0,10000.0,99999,,(1194.5173915837458+0j),0.0,1116003016100902110300604000051000600007000080000
4505,LFMK,43.216,2.30632,2024-04-25 00:30:00,,,,,9.0,1014.0,(3118.0792402833877+0j),7.0,8.0,280.0,10000.0,99999,8.0,(2103.0792402833877+0j),0.0,1116082808100902070301404000051000600007000088000
4506,LFMY,43.6064,5.10925,2024-04-25 00:30:00,,,,,8.0,1011.0,(1983.4467998278863+0j),1.0,16.0,340.0,10000.0,99999,,(971.5467998278863+0j),0.0,1116003416100802010301104000051000600007000080000
4507,LFOA,47.0533,2.6325,2024-04-25 00:30:00,,,,,6.0,1012.0,(5626.381308056212+0j),3.0,0.0,0.0,10000.0,99999,6.0,(4611.881308056212+0j),0.2,1116060000100602030301204000051000600207000086000
4508,LFOJ,47.9878,1.76056,2024-04-25 00:30:00,,,,,5.0,1012.0,(4878.658348200859+0j),3.0,0.0,0.0,10000.0,99999,,(3865.658348200859+0j),0.0,1116000000100502030301204000051000600007000080000
4509,LFRC,49.6501,-1.47028,2024-04-25 00:30:00,,,,,3.0,1012.0,(8487.87468717732+0j),2.0,7.0,200.0,10000.0,99999,,(7473.87468717732+0j),0.0,1116002007100302020301204000051000600007000080000
4510,LFRD,48.5877,-2.07996,2024-04-25 00:30:00,,,,,7.0,1012.0,(2299.6790950173213+0j),5.0,3.0,90.0,10000.0,99999,4.0,(1285.6790950173213+0j),0.0,1116040903100702050301204000051000600007000084000
4511,LFRH,47.7606,-3.44,2024-04-25 00:30:00,,,,,8.0,1012.0,(1793.8939972502317+0j),6.0,3.0,350.0,10000.0,99999,7.0,(779.8939972502317+0j),0.0,1116073503100802060301204000051000600007000087000
4513,LFRJ,48.5303,-4.15164,2024-04-25 00:30:00,,,,,8.0,1012.0,(2883.846757429112+0j),6.0,2.0,290.0,10000.0,99999,3.0,(1868.8467574291121+0j),0.0,1116032902100802060301204000051000600007000083000
4514,LFRK,49.1733,-0.45,2024-04-25 00:30:00,,,,,4.0,1012.0,(3919.6218454831364+0j),2.0,1.0,190.0,10000.0,99999,,(2904.7218454831363+0j),0.0,1116001901100402020301204000051000600007000080000
4516,LFRQ,47.975,-4.16779,2024-04-25 00:30:00,,,,,7.0,1013.0,(2834.1715722792446+0j),6.0,4.0,300.0,10000.0,99999,,(1820.1715722792446+0j),0.0,1116003004100702060301304000051000600007000080000
4517,LFRS,47.1532,-1.61073,2024-04-25 00:30:00,,,,,8.0,1012.0,(1431.147433944888+0j),7.0,2.0,,10000.0,99999,,(416.84743394488805+0j),0.0,1116003602100802070301204000051000600007000080000
4518,LFRT,48.5378,-2.85444,2024-04-25 00:30:00,,,,,6.0,1012.0,(4517.453083672878+0j),4.0,3.0,250.0,10000.0,99999,,(3502.553083672878+0j),0.0,1116002503100602040301204000051000600007000080000
4519,LFRZ,47.3122,-2.14918,2024-04-25 00:30:00,,,,,9.0,1012.0,(1062.4750875431544+0j),5.0,3.0,350.0,10000.0,99999,,(49.47508754315436+0j),0.0,1116003503100902050301204000051000600007000080000
4521,UMKK,54.89,20.5926,2024-04-25 00:30:00,,,,,5.0,1003.0,(1307.814542181176+0j),5.0,5.0,330.0,10000.0,99999,8.0,(303.81454218117597+0j),0.0,1116083305100502050300304000051000600007000088000
4522,UWGG,56.2301,43.784,2024-04-25 00:30:00,,,,,9.0,1019.0,(2183.8499999386527+0j),-2.0,1.0,130.0,10000.0,99999,,(1163.5499999386527+0j),0.0,1116001301100902120301904000051000600007000080000
4524,LEAB,38.9485,-1.86352,2024-04-25 00:30:00,,,,,7.0,1014.0,(15.568208973894356+0j),-5.0,5.0,210.0,10000.0,99999,,(-999.4317910261057+0j),0.0,1116002105100702150301404000051000600007000080000
4525,LEAM,36.8439,-2.3701,2024-04-25 00:30:00,,,,,15.0,1013.0,(1179.924575030211+0j),11.0,0.0,0.0,10000.0,99999,,(164.12457503021096+0j),0.0,11160000001015020110301304000051000600007000080000
4526,LEBA,37.842,-4.84888,2024-04-25 00:30:00,,,,,11.0,1012.0,(2103.184887486177+0j),8.0,1.0,200.0,10000.0,99999,,(1088.5848874861772+0j),0.0,1116002001101102080301204000051000600007000080000
4527,LEGE,41.901,2.76055,2024-04-25 00:30:00,,,,,8.0,1013.0,(3640.5239859343415+0j),4.0,1.0,,10000.0,99999,2.0,(2626.5239859343415+0j),0.0,1116023601100802040301304000051000600007000082000
4528,LEGR,37.1887,-3.77736,2024-04-25 00:30:00,,,,,8.0,1014.0,(12.068673331538808+0j),3.0,1.0,,10000.0,99999,,(-1002.9313266684612+0j),0.0,1116003601100802030301404000051000600007000080000
4529,LEGT,40.2941,-3.72383,2024-04-25 00:30:00,,,,,10.0,1013.0,(10.814255002560134+0j),-0.0,5.0,270.0,10000.0,99999,,(-1003.1857449974399+0j),0.0,1116002705101002100301304000051000600007000080000
4530,LELC,37.775,-0.81239,2024-04-25 00:30:00,10.0,36.0,+,yellow,12.0,1013.0,(1044.9426622852086+0j),9.0,4.0,300.0,5000.0,99999,,(29.9426622852086+0j),0.0,1113003004101202090301304000051000600007100080000
4531,LELN,42.589,-5.65556,2024-04-25 00:30:00,,,,,6.0,1014.0,(20.1033308423939+0j),1.0,3.0,360.0,10000.0,99999,,(-996.5966691576061+0j),0.0,1116003603100602010301404000051000600007000080000
4532,LELO,42.46095,-2.32224,2024-04-25 00:30:00,,,,,9.0,1016.0,(7324.225168727372+0j),2.0,3.0,280.0,10000.0,99999,8.0,(6305.325168727372+0j),0.0,1116082803100902020301604000051000600007000088000
4533,LEMG,36.6749,-4.49911,2024-04-25 00:30:00,,,,,14.0,1013.0,(1147.605826342385+0j),12.0,2.0,140.0,10000.0,99999,1.0,(131.9058263423849+0j),0.0,11160114021014020120301304000051000600007000081000
4535,LEPP,42.77,-1.64633,2024-04-25 00:30:00,,,,,7.0,1015.0,(11.343976746173404+0j),4.0,1.0,,10000.0,99999,8.0,(-1007.5560232538265+0j),0.0,1116083601100702040301504000051000600007000088000
4536,LERS,41.1474,1.16717,2024-04-25 00:30:00,,,,,13.0,1012.0,(1705.2246921820497+0j),2.0,8.0,280.0,10000.0,99999,,(692.2246921820497+0j),0.0,1116002808101302020301204000051000600007000080000
4538,LESO,43.3565,-1.79061,2024-04-25 00:30:00,,,,,11.0,1016.0,(1067.0326439354233+0j),6.0,6.0,210.0,10000.0,99999,3.0,(48.032643935423266+0j),0.0,1116032106101102060301604000051000600007000083000
4539,LETO,40.4967,-3.44587,2024-04-25 00:30:00,,,,,8.0,1013.0,(12.881884079680969+0j),2.0,5.0,30.0,10000.0,99999,,(-1001.118115920319+0j),0.0,1116000305100802020301304000051000600007000080000
4540,LFRI,46.7019,-1.37863,2024-04-25 00:30:00,,,,,9.0,1012.0,(2390.049195371562+0j),9.0,4.0,310.0,10000.0,99999,8.0,(1377.0491953715618+0j),0.2,1116083104100902090301204000051000600207000088000
4541,LFRM,47.9486,0.20167,2024-04-25 00:30:00,,,,,7.0,1012.0,(2135.5819635713237+0j),5.0,3.0,80.0,10000.0,99999,4.0,(1121.5819635713237+0j),0.0,1116040803100702050301204000051000600007000084000
4542,LPPR,41.2481,-8.68139,2024-04-25 00:30:00,,,,,12.0,1015.0,(1756.2039041004748+0j),9.0,7.0,340.0,10000.0,99999,,(738.8039041004748+0j),0.0,1116003407101202090301504000051000600007000080000
4543,LROD,47.0253,21.9025,2024-04-25 00:30:00,,,,,6.0,1008.0,(4603.762498822829+0j),4.0,9.0,210.0,10000.0,99999,4.0,(3596.762498822829+0j),0.0,1116042109100602040300804000051000600007000084000
4545,UUYY,61.647,50.8451,2024-04-25 00:30:00,10.0,36.0,+,yellow,-0.0,1021.0,(39.0437173570075+0j),-0.0,1.0,130.0,1300.0,99999,8.0,(-982.0562826429925+0j),0.5,1110081301110002100302104000051000600507100088000
4546,LEMO,37.1749,-5.61594,2024-04-25 00:30:00,,,,,13.0,1013.0,(1879.1650123422578+0j),7.0,5.0,190.0,10000.0,99999,,(864.3650123422578+0j),0.0,1116001905101302070301304000051000600007000080000
4547,LERT,36.6452,-6.34946,2024-04-25 00:30:00,,,,,16.0,1013.0,(1206.174659704956+0j),11.0,2.0,,10000.0,99999,,(192.17465970495596+0j),0.0,11160036021016020110301304000051000600007000080000
4548,EICK,51.8413,-8.49111,2024-04-25 00:30:00,,,,,7.0,1013.0,(4324.1626291412185+0j),4.0,8.0,320.0,10000.0,99999,1.0,(3308.9626291412187+0j),0.0,1116013208100702040301304000051000600007000081000
4549,EKYT,57.09276,9.84924,2024-04-25 00:37:00,10.0,36.0,+,yellow,3.0,1005.0,(1122.21983832206+0j),2.0,3.0,60.0,2900.0,99999,3.0,(116.21983832206001+0j),0.0,1111030603100302020300504000051000600007100083000
4550,LHPA,47.3636,17.5008,2024-04-25 00:27:00,45.0,36.0,N,yellow,3.0,1008.0,(8567.147887784991+0j),2.0,2.0,180.0,800.0,99999,,(7559.147887784991+0j),0.0,1110001802100302020300804000051000600007450080000
4551,LTCT,39.97663,43.87665,2024-04-24 23:50:00,,,,,13.0,1019.0,(12.37410239094902+0j),5.0,8.0,220.0,10000.0,99999,,0j,0.0,1116002208101302050301904000051000600007000080000
4553,EHGR,51.5674,4.93183,2024-04-25 00:37:00,53.0,36.0,V,green,5.0,1009.0,(1369.8655777448487+0j),3.0,5.0,270.0,10000.0,99999,3.0,(359.3655777448487+0j),0.0,1116032705100502030300904000051000600007530083000
4558,LIPC,44.2242,12.3072,2024-04-24 23:55:00,,,,,5.0,1007.0,(1134.082452329478+0j),4.0,4.0,300.0,10000.0,99999,,(127.08245232947797+0j),0.0,1116003004100502040300704000051000600007000080000
